{"type":"FeatureCollection","features":[{"type":"Feature","properties":{"id":10001},"geometry":{"type":"Polygon","coordinates":[[[138.6474,36.4062],[138.6539,36.3937],[138.6553,36.383],[138.6542,36.3727],[138.6592,36.3638],[138.657,36.3539],[138.6532,36.3431],[138.6552,36.3237],[138.651,36.3125],[138.6561,36.303],[138.6541,36.3003],[138.6579,36.2896],[138.6603,36.2871],[138.6688,36.2852],[138.6807,36.285],[138.6974,36.2869],[138.7146,36.2835],[138.7276,36.285],[138.7327,36.2873],[138.7505,36.2983],[138.7591,36.3012],[138.7722,36.3039],[138.7775,36.3041],[138.7919,36.3008],[138.8111,36.2952],[138.8415,36.283],[138.8584,36.279],[138.8654,36.2796],[138.89,36.2848],[138.8957,36.2867],[138.9153,36.3008],[138.9221,36.3026],[138.928,36.3025],[138.9438,36.3006],[138.9552,36.3031],[138.9691,36.3057],[138.9603,36.3149],[138.9499,36.3274],[138.9468,36.3344],[138.9427,36.3404],[138.9431,36.3459],[138.9412,36.3524],[138.9378,36.3539],[138.9302,36.3529],[138.9118,36.3533],[138.8967,36.3602],[138.8921,36.3637],[138.8803,36.3691],[138.8665,36.3714],[138.8536,36.3716],[138.8344,36.3703],[138.8152,36.3789],[138.8087,36.3805],[138.7982,36.3851],[138.7947,36.3855],[138.7801,36.3906],[138.7669,36.3994],[138.7491,36.4034],[138.7352,36.4093],[138.7112,36.4101],[138.7032,36.4089],[138.6816,36.4099],[138.6724,36.4091],[138.651,36.4048],[138.6474,36.4062]]]}},{"type":"Feature","properties":{"id":10002},"geometry":{"type":"Polygon","coordinates":[[[139.4955,36.2065],[139.4796,36.2111],[139.4655,36.2124],[139.4626,36.2142],[139.4641,36.2229],[139.4591,36.2258],[139.4388,36.2446],[139.4289,36.2401],[139.424,36.2347],[139.422,36.2294],[139.4155,36.217],[139.42,36.2148],[139.4456,36.1949],[139.4569,36.1885],[139.4669,36.1861],[139.4803,36.1867],[139.4963,36.1887],[139.4955,36.2065]]]}},{"type":"Feature","properties":{"id":10003},"geometry":{"type":"Polygon","coordinates":[[[139.1964,36.5264],[139.203,36.5367],[139.1967,36.5545],[139.1767,36.5645],[139.1628,36.555],[139.1557,36.5521],[139.1442,36.5432],[139.1403,36.5308],[139.132,36.5244],[139.1248,36.5216],[139.1148,36.5192],[139.1052,36.5139],[139.0991,36.5057],[139.0917,36.4983],[139.0791,36.4886],[139.0727,36.4801],[139.0619,36.4751],[139.048,36.4651],[139.0423,36.4622],[139.0569,36.4559],[139.059,36.4535],[139.0649,36.4378],[139.0678,36.4339],[139.0779,36.4291],[139.0826,36.4241],[139.0862,36.4163],[139.0938,36.4165],[139.0974,36.4214],[139.1078,36.4291],[139.1122,36.4375],[139.1174,36.4549],[139.1217,36.4611],[139.1564,36.5089],[139.1759,36.521],[139.1964,36.5264]]]}},{"type":"Feature","properties":{"id":10004},"geometry":{"type":"Polygon","coordinates":[[[138.9757,36.1226],[138.983,36.1226],[139,36.1225],[139.014,36.129],[139.0266,36.1307],[139.0349,36.1245],[139.0455,36.1256],[139.0522,36.1496],[139.0668,36.1568],[139.0605,36.1728],[139.0651,36.1821],[139.0679,36.1949],[139.0763,36.2018],[139.0868,36.2163],[139.093,36.2265],[139.1017,36.2385],[139.1108,36.2581],[139.1211,36.2657],[139.1303,36.2759],[139.1405,36.2757],[139.1409,36.2783],[139.1269,36.2818],[139.1115,36.2833],[139.1084,36.2852],[139.1044,36.2823],[139.1005,36.2842],[139.0844,36.2856],[139.0727,36.2881],[139.0665,36.288],[139.0638,36.2852],[139.0646,36.2779],[139.0612,36.2698],[139.0484,36.2687],[139.035,36.2602],[139.0275,36.2528],[139.0281,36.2446],[139.026,36.2375],[139.0226,36.2328],[139.016,36.2286],[139.0057,36.2292],[139.0045,36.2238],[138.9999,36.2179],[138.9892,36.2105],[138.9836,36.2049],[138.9725,36.2004],[138.9509,36.2007],[138.9359,36.1951],[138.9279,36.1933],[138.9138,36.1869],[138.9054,36.181],[138.9026,36.1777],[138.8913,36.171],[138.8845,36.1685],[138.8684,36.166],[138.8587,36.1652],[138.8528,36.1607],[138.8431,36.1588],[138.8314,36.1598],[138.8073,36.1421],[138.8184,36.1397],[138.8289,36.1406],[138.8502,36.1451],[138.8577,36.1456],[138.8711,36.1443],[138.8798,36.1408],[138.8917,36.1393],[138.8997,36.1403],[138.9151,36.1458],[138.9245,36.1447],[138.9326,36.1457],[138.9445,36.1485],[138.9527,36.1427],[138.9561,36.1415],[138.9645,36.1437],[138.9686,36.1434],[138.9726,36.1405],[138.9759,36.1345],[138.9773,36.1291],[138.9757,36.1226]]]}},{"type":"Feature","properties":{"id":10005},"geometry":{"type":"Polygon","coordinates":[[[138.6847,36.5701],[138.6963,36.5678],[138.7056,36.5669],[138.7108,36.5652],[138.7217,36.5547],[138.7241,36.5488],[138.7236,36.5423],[138.722,36.5396],[138.7135,36.5336],[138.6986,36.5265],[138.6878,36.5229],[138.6562,36.5162],[138.6506,36.5146],[138.6458,36.51],[138.6451,36.5009],[138.6483,36.4867],[138.6485,36.4703],[138.6476,36.4613],[138.6502,36.4537],[138.657,36.4475],[138.67,36.4576],[138.6768,36.4642],[138.6822,36.4665],[138.6953,36.4692],[138.7044,36.4725],[138.7144,36.478],[138.7221,36.4793],[138.7285,36.4779],[138.7662,36.476],[138.7824,36.4763],[138.7889,36.475],[138.8073,36.474],[138.8144,36.4725],[138.8289,36.4714],[138.8393,36.4722],[138.8507,36.472],[138.8605,36.4733],[138.8675,36.4755],[138.873,36.4787],[138.8772,36.4858],[138.8826,36.4881],[138.8912,36.4828],[138.8982,36.4818],[138.9,36.487],[138.9036,36.5023],[138.9087,36.5068],[138.926,36.512],[138.9332,36.5166],[138.9398,36.5192],[138.9465,36.524],[138.9507,36.5285],[138.9516,36.5343],[138.9495,36.5431],[138.944,36.5469],[138.9357,36.5488],[138.9238,36.5489],[138.918,36.5497],[138.9117,36.5525],[138.911,36.5615],[138.9124,36.5688],[138.9073,36.5765],[138.9003,36.5833],[138.8937,36.5835],[138.8817,36.5817],[138.8712,36.5783],[138.8642,36.5777],[138.8509,36.5801],[138.8384,36.5801],[138.827,36.5809],[138.8111,36.5805],[138.7942,36.5772],[138.7828,36.576],[138.7772,36.577],[138.7602,36.585],[138.7554,36.5928],[138.7396,36.5959],[138.7266,36.5934],[138.7177,36.5898],[138.7118,36.5885],[138.6918,36.5902],[138.6818,36.5928],[138.6823,36.5828],[138.6847,36.5701]]]}},{"type":"Feature","properties":{"id":10006},"geometry":{"type":"Polygon","coordinates":[[[139.2549,36.4013],[139.2511,36.4015],[139.2423,36.3959],[139.23,36.3919],[139.2158,36.3859],[139.2113,36.3817],[139.2024,36.3691],[139.1964,36.3624],[139.188,36.3558],[139.1794,36.3442],[139.1781,36.3371],[139.1749,36.3339],[139.1707,36.3335],[139.1605,36.3382],[139.1555,36.3383],[139.1442,36.3351],[139.1454,36.3245],[139.1447,36.3178],[139.1488,36.3096],[139.1564,36.3029],[139.1677,36.2959],[139.1727,36.2909],[139.1763,36.2782],[139.1806,36.2672],[139.1967,36.261],[139.215,36.256],[139.2516,36.2384],[139.2534,36.2388],[139.2819,36.2445],[139.2845,36.2438],[139.2812,36.2528],[139.2828,36.2578],[139.2912,36.2642],[139.2929,36.27],[139.2889,36.2803],[139.2822,36.2836],[139.2745,36.2855],[139.2642,36.2857],[139.2612,36.2878],[139.2601,36.2942],[139.2621,36.2993],[139.2695,36.3029],[139.2722,36.307],[139.2732,36.3129],[139.2725,36.3225],[139.2706,36.3289],[139.2705,36.3373],[139.28,36.366],[139.2746,36.3831],[139.2688,36.3908],[139.2577,36.3978],[139.2549,36.4013]]]}},{"type":"Feature","properties":{"id":10007},"geometry":{"type":"Polygon","coordinates":[[[139.5943,36.2061],[139.6056,36.2011],[139.6083,36.1983],[139.613,36.1935],[139.622,36.1864],[139.6253,36.1879],[139.6354,36.1925],[139.6469,36.1936],[139.6625,36.2176],[139.6611,36.2283],[139.6534,36.2354],[139.6441,36.2399],[139.6369,36.25],[139.6413,36.2617],[139.6329,36.2684],[139.6217,36.2714],[139.6085,36.2655],[139.6129,36.2569],[139.6192,36.2529],[139.6213,36.2481],[139.6183,36.246],[139.6125,36.2458],[139.6058,36.2481],[139.5987,36.2488],[139.591,36.2468],[139.584,36.2367],[139.5852,36.2218],[139.5917,36.2097],[139.5943,36.2061]]]}},{"type":"Feature","properties":{"id":10008},"geometry":{"type":"Polygon","coordinates":[[[138.8073,36.1421],[138.7931,36.1339],[138.7858,36.1327],[138.7815,36.1341],[138.7745,36.1392],[138.7649,36.145],[138.7714,36.1263],[138.7834,36.1134],[138.7924,36.1014],[138.7977,36.0913],[138.8044,36.0836],[138.8117,36.0802],[138.814,36.0778],[138.8169,36.0694],[138.8171,36.06],[138.8184,36.057],[138.835,36.0428],[138.8378,36.0471],[138.8462,36.0533],[138.8503,36.064],[138.8602,36.066],[138.8672,36.0738],[138.8805,36.0793],[138.8932,36.0833],[138.9044,36.0876],[138.9144,36.0877],[138.9342,36.0849],[138.9365,36.0862],[138.9445,36.0906],[138.9535,36.0974],[138.9609,36.1054],[138.9679,36.1226],[138.9757,36.1226],[138.9773,36.1291],[138.9759,36.1345],[138.9726,36.1405],[138.9686,36.1434],[138.9645,36.1437],[138.9561,36.1415],[138.9527,36.1427],[138.9445,36.1485],[138.9326,36.1457],[138.9245,36.1447],[138.9151,36.1458],[138.8997,36.1403],[138.8917,36.1393],[138.8798,36.1408],[138.8711,36.1443],[138.8577,36.1456],[138.8502,36.1451],[138.8289,36.1406],[138.8184,36.1397],[138.8073,36.1421]]]}},{"type":"Feature","properties":{"id":10009},"geometry":{"type":"Polygon","coordinates":[[[138.9509,36.2007],[138.9518,36.2047],[138.9555,36.2112],[138.965,36.2225],[138.9605,36.2289],[138.9553,36.2439],[138.9555,36.2561],[138.9418,36.2522],[138.936,36.2519],[138.9263,36.2546],[138.9203,36.2539],[138.9142,36.2502],[138.911,36.2454],[138.9102,36.2369],[138.9081,36.2337],[138.8943,36.223],[138.888,36.2195],[138.8811,36.2175],[138.8797,36.2152],[138.8799,36.2083],[138.8766,36.2037],[138.8621,36.1998],[138.8548,36.1964],[138.8456,36.1852],[138.8402,36.1815],[138.836,36.1741],[138.8344,36.167],[138.8314,36.1598],[138.8431,36.1588],[138.8528,36.1607],[138.8587,36.1652],[138.8684,36.166],[138.8845,36.1685],[138.8913,36.171],[138.9026,36.1777],[138.9054,36.181],[138.9138,36.1869],[138.9279,36.1933],[138.9359,36.1951],[138.9509,36.2007]]]}},{"type":"Feature","properties":{"id":10010},"geometry":{"type":"Polygon","coordinates":[[[139.2421,36.9447],[139.2303,36.9586],[139.2195,36.956],[139.2098,36.9528],[139.1991,36.956],[139.1834,36.9615],[139.1821,36.9643],[139.1812,36.9585],[139.1722,36.9542],[139.1706,36.9517],[139.1685,36.9428],[139.1716,36.9331],[139.1777,36.9248],[139.1801,36.9186],[139.1813,36.9102],[139.1809,36.9019],[139.1772,36.8962],[139.1724,36.8844],[139.1624,36.8725],[139.1624,36.8652],[139.166,36.8617],[139.1724,36.8589],[139.1858,36.859],[139.1928,36.8583],[139.1985,36.8519],[139.1963,36.8423],[139.1913,36.8353],[139.182,36.8298],[139.1741,36.8281],[139.1694,36.8235],[139.1675,36.8162],[139.1531,36.8026],[139.1572,36.7977],[139.1579,36.7905],[139.1595,36.7871],[139.164,36.7845],[139.1663,36.7806],[139.1675,36.76],[139.1646,36.7495],[139.1673,36.741],[139.1762,36.7372],[139.1823,36.7358],[139.195,36.7284],[139.1995,36.7241],[139.2015,36.717],[139.2147,36.7197],[139.2192,36.7228],[139.2257,36.7312],[139.2386,36.7396],[139.2479,36.7421],[139.2649,36.7414],[139.2719,36.7382],[139.2793,36.738],[139.2896,36.7417],[139.3009,36.7572],[139.3059,36.7596],[139.313,36.761],[139.3264,36.7611],[139.3395,36.7681],[139.3472,36.773],[139.3501,36.7735],[139.3562,36.77],[139.3652,36.7752],[139.3801,36.7883],[139.3806,36.7988],[139.3902,36.802],[139.3948,36.8118],[139.4038,36.8183],[139.408,36.8281],[139.3863,36.8333],[139.375,36.837],[139.3666,36.8443],[139.3559,36.846],[139.3644,36.8717],[139.375,36.8869],[139.3829,36.8948],[139.3855,36.9088],[139.3766,36.9152],[139.3647,36.9135],[139.3492,36.919],[139.3399,36.9235],[139.3281,36.9227],[139.3052,36.9255],[139.2972,36.9321],[139.2779,36.9312],[139.2687,36.938],[139.2605,36.9307],[139.2424,36.9297],[139.2421,36.9447]]]}},{"type":"Feature","properties":{"id":10011},"geometry":{"type":"Polygon","coordinates":[[[139.1531,36.8026],[139.1366,36.8006],[139.126,36.8003],[139.1299,36.7908],[139.1115,36.7709],[139.1069,36.7671],[139.088,36.7408],[139.0869,36.7362],[139.088,36.7222],[139.091,36.7075],[139.088,36.689],[139.0889,36.6831],[139.0951,36.6766],[139.1104,36.6697],[139.1132,36.6711],[139.1137,36.679],[139.116,36.6822],[139.1345,36.686],[139.145,36.6849],[139.1572,36.6878],[139.168,36.6942],[139.1909,36.7099],[139.1947,36.7114],[139.2015,36.717],[139.1995,36.7241],[139.195,36.7284],[139.1823,36.7358],[139.1762,36.7372],[139.1673,36.741],[139.1646,36.7495],[139.1675,36.76],[139.1663,36.7806],[139.164,36.7845],[139.1595,36.7871],[139.1579,36.7905],[139.1572,36.7977],[139.1531,36.8026]]]}},{"type":"Feature","properties":{"id":10012},"geometry":{"type":"MultiPolygon","coordinates":[[[[139.3165,36.379],[139.327,36.3734],[139.3346,36.3674],[139.3597,36.3601],[139.3681,36.3591],[139.3764,36.3615],[139.3706,36.3656],[139.3686,36.387],[139.375,36.3954],[139.3798,36.4048],[139.3884,36.4165],[139.4025,36.4326],[139.4099,36.4425],[139.4152,36.4513],[139.4174,36.4519],[139.425,36.4539],[139.435,36.4598],[139.4406,36.4683],[139.4292,36.4813],[139.4235,36.4996],[139.4334,36.5101],[139.4432,36.5287],[139.4401,36.5386],[139.4438,36.5483],[139.4341,36.5481],[139.4265,36.5453],[139.4226,36.5399],[139.4209,36.535],[139.4144,36.5259],[139.409,36.5244],[139.4034,36.5248],[139.3924,36.5221],[139.3884,36.5185],[139.3822,36.5163],[139.3689,36.5136],[139.3652,36.5119],[139.3633,36.507],[139.3567,36.4976],[139.3478,36.4928],[139.3413,36.4882],[139.3374,36.4815],[139.3288,36.47],[139.3114,36.4577],[139.3079,36.4516],[139.3003,36.4407],[139.298,36.4325],[139.3002,36.4245],[139.3039,36.4198],[139.3039,36.417],[139.2979,36.411],[139.2995,36.4064],[139.3089,36.4023],[139.3168,36.4014],[139.3242,36.3966],[139.3256,36.3929],[139.3242,36.3881],[139.3165,36.379]]],[[[139.1967,36.5545],[139.203,36.5367],[139.1964,36.5264],[139.2037,36.5094],[139.2087,36.4948],[139.2122,36.4879],[139.2219,36.4591],[139.2253,36.4396],[139.2255,36.4335],[139.2273,36.427],[139.2327,36.4218],[139.2444,36.4137],[139.2511,36.4015],[139.2549,36.4013],[139.2734,36.4124],[139.2755,36.4151],[139.275,36.4192],[139.271,36.4323],[139.2717,36.4355],[139.2702,36.4434],[139.2671,36.4488],[139.259,36.4574],[139.2463,36.4683],[139.2447,36.4725],[139.2452,36.4784],[139.2513,36.48],[139.2688,36.4766],[139.2863,36.4804],[139.2966,36.4848],[139.304,36.4922],[139.309,36.5008],[139.3087,36.5048],[139.2953,36.5066],[139.2883,36.5123],[139.2901,36.5159],[139.2949,36.5198],[139.3002,36.5299],[139.3117,36.5401],[139.3185,36.5447],[139.3237,36.5517],[139.3241,36.5561],[139.3219,36.5623],[139.3184,36.5676],[139.3126,36.5725],[139.3062,36.5911],[139.3035,36.5952],[139.3013,36.5927],[139.3,36.587],[139.295,36.5846],[139.2893,36.5854],[139.2802,36.5907],[139.2768,36.5906],[139.2545,36.5855],[139.2461,36.5814],[139.2358,36.5776],[139.2308,36.5735],[139.2206,36.5708],[139.2108,36.5708],[139.205,36.5689],[139.1994,36.5654],[139.1967,36.5545]]]]}},{"type":"Feature","properties":{"id":10013},"geometry":{"type":"Polygon","coordinates":[[[138.6818,36.5928],[138.6831,36.594],[138.6995,36.6167],[138.7046,36.6215],[138.7072,36.6281],[138.7066,36.6385],[138.7096,36.6487],[138.7113,36.6622],[138.7188,36.6732],[138.7189,36.6826],[138.7265,36.6914],[138.7374,36.6989],[138.7441,36.7082],[138.7475,36.7216],[138.7452,36.7338],[138.7454,36.7392],[138.7491,36.7448],[138.7521,36.7533],[138.7408,36.7589],[138.7289,36.76],[138.7254,36.7496],[138.7184,36.7413],[138.7105,36.7343],[138.6979,36.741],[138.6855,36.732],[138.6756,36.7276],[138.6653,36.7263],[138.6451,36.7207],[138.625,36.7168],[138.6192,36.7075],[138.6082,36.7052],[138.6005,36.7116],[138.5919,36.7037],[138.5811,36.7017],[138.5703,36.7028],[138.5587,36.7025],[138.5478,36.7007],[138.5398,36.694],[138.5287,36.6925],[138.5227,36.6842],[138.5211,36.6738],[138.5278,36.6671],[138.5345,36.6568],[138.532,36.6534],[138.5377,36.6526],[138.5487,36.6548],[138.5595,36.6537],[138.5666,36.649],[138.5718,36.6438],[138.5773,36.6408],[138.5877,36.6392],[138.6021,36.6406],[138.6063,36.6402],[138.6254,36.6279],[138.6325,36.6175],[138.6319,36.6093],[138.6281,36.6045],[138.6123,36.5935],[138.6046,36.5904],[138.5979,36.5821],[138.6077,36.5773],[138.615,36.5716],[138.6216,36.5612],[138.6263,36.5583],[138.6373,36.5585],[138.6576,36.5628],[138.6747,36.5691],[138.6847,36.5701],[138.6823,36.5828],[138.6818,36.5928]]]}},{"type":"Feature","properties":{"id":10014},"geometry":{"type":"Polygon","coordinates":[[[138.532,36.6534],[138.5282,36.6481],[138.525,36.6475],[138.5261,36.6435],[138.5343,36.6349],[138.5331,36.626],[138.5337,36.6196],[138.5371,36.6091],[138.5401,36.6043],[138.5463,36.5987],[138.55,36.5902],[138.5692,36.5809],[138.5726,36.5737],[138.5801,36.5701],[138.5866,36.571],[138.5979,36.5821],[138.6046,36.5904],[138.6123,36.5935],[138.6281,36.6045],[138.6319,36.6093],[138.6325,36.6175],[138.6254,36.6279],[138.6063,36.6402],[138.6021,36.6406],[138.5877,36.6392],[138.5773,36.6408],[138.5718,36.6438],[138.5666,36.649],[138.5595,36.6537],[138.5487,36.6548],[138.5377,36.6526],[138.532,36.6534]]]}},{"type":"Feature","properties":{"id":10015},"geometry":{"type":"Polygon","coordinates":[[[139.0423,36.4622],[139.0411,36.4565],[139.0442,36.4453],[139.0452,36.4308],[139.0417,36.4263],[139.0351,36.4241],[139.0263,36.4251],[139.0123,36.429],[139.0094,36.4267],[139.007,36.4214],[139.016,36.4132],[139.0183,36.4066],[139.0218,36.4052],[139.0272,36.4073],[139.0339,36.4062],[139.0355,36.4018],[139.0335,36.3955],[139.0323,36.3837],[139.035,36.376],[139.0439,36.3696],[139.0498,36.3577],[139.0527,36.3553],[139.0678,36.3542],[139.0739,36.3507],[139.0769,36.3437],[139.0814,36.3379],[139.0863,36.3274],[139.1118,36.318],[139.114,36.3226],[139.1202,36.3295],[139.1279,36.3325],[139.1442,36.3351],[139.1555,36.3383],[139.1605,36.3382],[139.1707,36.3335],[139.1749,36.3339],[139.1781,36.3371],[139.1794,36.3442],[139.188,36.3558],[139.1964,36.3624],[139.2024,36.3691],[139.2113,36.3817],[139.2158,36.3859],[139.23,36.3919],[139.2423,36.3959],[139.2511,36.4015],[139.2444,36.4137],[139.2327,36.4218],[139.2273,36.427],[139.2255,36.4335],[139.2253,36.4396],[139.2219,36.4591],[139.2122,36.4879],[139.2087,36.4948],[139.2037,36.5094],[139.1964,36.5264],[139.1759,36.521],[139.1564,36.5089],[139.1217,36.4611],[139.1174,36.4549],[139.1122,36.4375],[139.1078,36.4291],[139.0974,36.4214],[139.0938,36.4165],[139.0862,36.4163],[139.0826,36.4241],[139.0779,36.4291],[139.0678,36.4339],[139.0649,36.4378],[139.059,36.4535],[139.0569,36.4559],[139.0423,36.4622]]]}},{"type":"Feature","properties":{"id":10016},"geometry":{"type":"Polygon","coordinates":[[[139.4963,36.1887],[139.5024,36.189],[139.5136,36.1896],[139.5256,36.1889],[139.5373,36.1899],[139.5598,36.1978],[139.576,36.2007],[139.5857,36.2061],[139.5943,36.2061],[139.5917,36.2097],[139.5852,36.2218],[139.5677,36.2175],[139.5605,36.2173],[139.5506,36.2206],[139.5439,36.2212],[139.5321,36.2195],[139.5208,36.2155],[139.5097,36.2127],[139.4955,36.2065],[139.4963,36.1887]]]}},{"type":"Feature","properties":{"id":10017},"geometry":{"type":"Polygon","coordinates":[[[139.28,36.366],[139.2878,36.3669],[139.2968,36.3691],[139.3115,36.3755],[139.3165,36.379],[139.3242,36.3881],[139.3256,36.3929],[139.3242,36.3966],[139.3168,36.4014],[139.3089,36.4023],[139.2995,36.4064],[139.2979,36.411],[139.3039,36.417],[139.3039,36.4198],[139.3002,36.4245],[139.298,36.4325],[139.3003,36.4407],[139.3079,36.4516],[139.3114,36.4577],[139.3288,36.47],[139.3374,36.4815],[139.3413,36.4882],[139.3478,36.4928],[139.3567,36.4976],[139.3633,36.507],[139.3652,36.5119],[139.3689,36.5136],[139.3822,36.5163],[139.3884,36.5185],[139.3924,36.5221],[139.4034,36.5248],[139.409,36.5244],[139.4144,36.5259],[139.4209,36.535],[139.4226,36.5399],[139.4265,36.5453],[139.4341,36.5481],[139.4438,36.5483],[139.4605,36.5501],[139.468,36.5575],[139.4772,36.5686],[139.4857,36.5753],[139.4835,36.5785],[139.4781,36.5864],[139.4756,36.5965],[139.468,36.6031],[139.4613,36.6016],[139.4578,36.6009],[139.4462,36.6028],[139.4368,36.5986],[139.4249,36.6004],[139.4151,36.6047],[139.406,36.6004],[139.3958,36.6028],[139.3861,36.6089],[139.375,36.6088],[139.3643,36.6108],[139.3542,36.6134],[139.3491,36.6225],[139.3318,36.6304],[139.3301,36.6255],[139.3194,36.6188],[139.3132,36.6092],[139.3038,36.5989],[139.3035,36.5952],[139.3062,36.5911],[139.3126,36.5725],[139.3184,36.5676],[139.3219,36.5623],[139.3241,36.5561],[139.3237,36.5517],[139.3185,36.5447],[139.3117,36.5401],[139.3002,36.5299],[139.2949,36.5198],[139.2901,36.5159],[139.2883,36.5123],[139.2953,36.5066],[139.3087,36.5048],[139.309,36.5008],[139.304,36.4922],[139.2966,36.4848],[139.2863,36.4804],[139.2688,36.4766],[139.2513,36.48],[139.2452,36.4784],[139.2447,36.4725],[139.2463,36.4683],[139.259,36.4574],[139.2671,36.4488],[139.2702,36.4434],[139.2717,36.4355],[139.271,36.4323],[139.275,36.4192],[139.2755,36.4151],[139.2734,36.4124],[139.2549,36.4013],[139.2577,36.3978],[139.2688,36.3908],[139.2746,36.3831],[139.28,36.366]]]}},{"type":"Feature","properties":{"id":10018},"geometry":{"type":"Polygon","coordinates":[[[139.1821,36.9643],[139.1788,36.9715],[139.1804,36.9815],[139.178,36.9923],[139.1686,37],[139.1573,37.0048],[139.1422,37.0202],[139.1341,37.0263],[139.1297,37.0357],[139.1155,37.0474],[139.1103,37.0527],[139.1,37.0555],[139.0938,37.0389],[139.0925,37.0276],[139.0938,37.0167],[139.0854,37.0091],[139.0582,36.9955],[139.052,36.9871],[139.0426,36.983],[139.0317,36.9813],[139.0216,36.984],[139.0111,36.9807],[139.0004,36.9763],[138.98,36.9773],[138.969,36.9756],[138.9689,36.9537],[138.9682,36.9434],[138.9697,36.9326],[138.9748,36.9229],[138.9803,36.9067],[138.9827,36.8969],[138.9779,36.8866],[138.9675,36.8886],[138.9579,36.8923],[138.9352,36.8909],[138.9336,36.8889],[138.9224,36.8729],[138.924,36.8628],[138.9203,36.8523],[138.9274,36.844],[138.933,36.8343],[138.9154,36.8259],[138.8848,36.8227],[138.875,36.8151],[138.8575,36.8089],[138.8477,36.8121],[138.8358,36.8132],[138.8247,36.81],[138.8299,36.7998],[138.8334,36.7898],[138.8321,36.779],[138.83,36.7692],[138.8242,36.7608],[138.8128,36.7619],[138.8031,36.7571],[138.7959,36.75],[138.7913,36.7441],[138.7928,36.7455],[138.8059,36.738],[138.8111,36.7322],[138.8153,36.7203],[138.8218,36.7121],[138.8275,36.7094],[138.8299,36.7057],[138.8325,36.6975],[138.8333,36.6867],[138.8327,36.6836],[138.8336,36.6664],[138.8404,36.6616],[138.8519,36.6598],[138.8597,36.6598],[138.8748,36.6623],[138.8882,36.6611],[138.9004,36.6556],[138.9035,36.6528],[138.9133,36.6566],[138.9215,36.6585],[138.9311,36.6584],[138.9442,36.6561],[138.9501,36.6567],[138.97,36.6546],[138.9905,36.6453],[138.9955,36.6417],[139.0038,36.654],[139.0122,36.6599],[139.0184,36.6628],[139.0227,36.6671],[139.0259,36.6764],[139.034,36.6861],[139.036,36.6981],[139.0323,36.7104],[139.0275,36.7188],[139.0263,36.7263],[139.0277,36.7301],[139.0362,36.7371],[139.0409,36.7424],[139.0426,36.7496],[139.0404,36.7558],[139.0338,36.7665],[139.036,36.7714],[139.0435,36.7759],[139.0509,36.7817],[139.0567,36.7875],[139.0658,36.7918],[139.0738,36.7936],[139.0953,36.7947],[139.1104,36.7967],[139.126,36.8003],[139.1366,36.8006],[139.1531,36.8026],[139.1675,36.8162],[139.1694,36.8235],[139.1741,36.8281],[139.182,36.8298],[139.1913,36.8353],[139.1963,36.8423],[139.1985,36.8519],[139.1928,36.8583],[139.1858,36.859],[139.1724,36.8589],[139.166,36.8617],[139.1624,36.8652],[139.1624,36.8725],[139.1724,36.8844],[139.1772,36.8962],[139.1809,36.9019],[139.1813,36.9102],[139.1801,36.9186],[139.1777,36.9248],[139.1716,36.9331],[139.1685,36.9428],[139.1706,36.9517],[139.1722,36.9542],[139.1812,36.9585],[139.1821,36.9643]]]}},{"type":"Feature","properties":{"id":10019},"geometry":{"type":"Polygon","coordinates":[[[138.651,36.4048],[138.649,36.4291],[138.6508,36.4384],[138.657,36.4475],[138.6502,36.4537],[138.6476,36.4613],[138.6485,36.4703],[138.6483,36.4867],[138.6451,36.5009],[138.6458,36.51],[138.6506,36.5146],[138.6562,36.5162],[138.6878,36.5229],[138.6986,36.5265],[138.7135,36.5336],[138.722,36.5396],[138.7236,36.5423],[138.7241,36.5488],[138.7217,36.5547],[138.7108,36.5652],[138.7056,36.5669],[138.6963,36.5678],[138.6847,36.5701],[138.6747,36.5691],[138.6576,36.5628],[138.6373,36.5585],[138.6263,36.5583],[138.6216,36.5612],[138.615,36.5716],[138.6077,36.5773],[138.5979,36.5821],[138.5866,36.571],[138.5935,36.5617],[138.5974,36.5536],[138.5984,36.5469],[138.5973,36.5349],[138.5954,36.5267],[138.5913,36.523],[138.5877,36.5228],[138.5738,36.5306],[138.5702,36.5304],[138.5661,36.5267],[138.5649,36.5164],[138.5702,36.4988],[138.5721,36.4854],[138.5714,36.4723],[138.5695,36.4646],[138.5735,36.4546],[138.5784,36.4507],[138.5809,36.4468],[138.5812,36.4425],[138.5761,36.4241],[138.5764,36.4174],[138.5736,36.4167],[138.5777,36.4165],[138.5876,36.4193],[138.6028,36.421],[138.6137,36.4197],[138.625,36.4132],[138.6357,36.4148],[138.6449,36.411],[138.6474,36.4062],[138.651,36.4048]]]}},{"type":"Feature","properties":{"id":10020},"geometry":{"type":"Polygon","coordinates":[[[138.9003,36.5833],[138.9189,36.5847],[138.9315,36.5842],[138.9234,36.595],[138.9094,36.6034],[138.9024,36.6097],[138.9017,36.6254],[138.9024,36.629],[138.8992,36.639],[138.899,36.6428],[138.9035,36.6528],[138.9004,36.6556],[138.8882,36.6611],[138.8748,36.6623],[138.8597,36.6598],[138.8519,36.6598],[138.8404,36.6616],[138.8336,36.6664],[138.8327,36.6836],[138.8333,36.6867],[138.8325,36.6975],[138.8299,36.7057],[138.8275,36.7094],[138.8218,36.7121],[138.8153,36.7203],[138.8111,36.7322],[138.8059,36.738],[138.7928,36.7455],[138.7913,36.7441],[138.7897,36.7421],[138.7679,36.746],[138.7521,36.7533],[138.7491,36.7448],[138.7454,36.7392],[138.7452,36.7338],[138.7475,36.7216],[138.7441,36.7082],[138.7374,36.6989],[138.7265,36.6914],[138.7189,36.6826],[138.7188,36.6732],[138.7113,36.6622],[138.7096,36.6487],[138.7066,36.6385],[138.7072,36.6281],[138.7046,36.6215],[138.6995,36.6167],[138.6831,36.594],[138.6818,36.5928],[138.6918,36.5902],[138.7118,36.5885],[138.7177,36.5898],[138.7266,36.5934],[138.7396,36.5959],[138.7554,36.5928],[138.7602,36.585],[138.7772,36.577],[138.7828,36.576],[138.7942,36.5772],[138.8111,36.5805],[138.827,36.5809],[138.8384,36.5801],[138.8509,36.5801],[138.8642,36.5777],[138.8712,36.5783],[138.8817,36.5817],[138.8937,36.5835],[138.9003,36.5833]]]}},{"type":"Feature","properties":{"id":10021},"geometry":{"type":"Polygon","coordinates":[[[138.7649,36.145],[138.7641,36.1617],[138.7665,36.1773],[138.7647,36.1936],[138.7598,36.199],[138.7471,36.2047],[138.7412,36.2055],[138.7268,36.2031],[138.715,36.2045],[138.7066,36.2063],[138.6929,36.203],[138.6833,36.1957],[138.6762,36.1934],[138.6665,36.1941],[138.6499,36.1969],[138.6392,36.2003],[138.6327,36.204],[138.6287,36.1968],[138.635,36.178],[138.625,36.1682],[138.6125,36.1583],[138.6026,36.1625],[138.5891,36.1718],[138.5814,36.1651],[138.5937,36.1523],[138.6033,36.1334],[138.625,36.129],[138.6361,36.1304],[138.6441,36.1144],[138.6591,36.1172],[138.6654,36.1203],[138.6746,36.1233],[138.6838,36.1252],[138.6896,36.1253],[138.6999,36.1225],[138.7198,36.1208],[138.7407,36.1204],[138.7481,36.119],[138.7559,36.1203],[138.7714,36.1263],[138.7649,36.145]]]}},{"type":"Feature","properties":{"id":10022},"geometry":{"type":"Polygon","coordinates":[[[139.1967,36.5545],[139.1994,36.5654],[139.205,36.5689],[139.2108,36.5708],[139.2206,36.5708],[139.2308,36.5735],[139.2358,36.5776],[139.2461,36.5814],[139.2545,36.5855],[139.2768,36.5906],[139.2802,36.5907],[139.2893,36.5854],[139.295,36.5846],[139.3,36.587],[139.3013,36.5927],[139.3035,36.5952],[139.3038,36.5989],[139.3132,36.6092],[139.3194,36.6188],[139.3301,36.6255],[139.3318,36.6304],[139.3332,36.6407],[139.3309,36.6513],[139.3385,36.6666],[139.342,36.6766],[139.3404,36.6867],[139.3475,36.6946],[139.3563,36.7016],[139.3627,36.7103],[139.3704,36.7228],[139.3702,36.7333],[139.3673,36.7446],[139.3581,36.7498],[139.355,36.7594],[139.3562,36.77],[139.3501,36.7735],[139.3472,36.773],[139.3395,36.7681],[139.3264,36.7611],[139.313,36.761],[139.3059,36.7596],[139.3009,36.7572],[139.2896,36.7417],[139.2793,36.738],[139.2719,36.7382],[139.2649,36.7414],[139.2479,36.7421],[139.2386,36.7396],[139.2257,36.7312],[139.2192,36.7228],[139.2147,36.7197],[139.2015,36.717],[139.1947,36.7114],[139.1909,36.7099],[139.168,36.6942],[139.1572,36.6878],[139.145,36.6849],[139.1345,36.686],[139.116,36.6822],[139.1137,36.679],[139.1132,36.6711],[139.1104,36.6697],[139.0951,36.6766],[139.0889,36.6831],[139.088,36.689],[139.091,36.7075],[139.088,36.7222],[139.0869,36.7362],[139.088,36.7408],[139.1069,36.7671],[139.1115,36.7709],[139.1299,36.7908],[139.126,36.8003],[139.1104,36.7967],[139.0953,36.7947],[139.0738,36.7936],[139.0658,36.7918],[139.0567,36.7875],[139.0509,36.7817],[139.0435,36.7759],[139.036,36.7714],[139.0338,36.7665],[139.0404,36.7558],[139.0426,36.7496],[139.0409,36.7424],[139.0362,36.7371],[139.0277,36.7301],[139.0263,36.7263],[139.0275,36.7188],[139.0323,36.7104],[139.036,36.6981],[139.034,36.6861],[139.0259,36.6764],[139.0227,36.6671],[139.0184,36.6628],[139.0122,36.6599],[139.0038,36.654],[138.9955,36.6417],[138.9973,36.6336],[138.997,36.6265],[138.9951,36.6201],[138.995,36.6137],[138.9967,36.6031],[139.0032,36.5836],[139.0151,36.5857],[139.0352,36.5857],[139.0461,36.5837],[139.0556,36.5811],[139.0592,36.5819],[139.0702,36.5884],[139.0612,36.6049],[139.056,36.613],[139.0572,36.62],[139.0655,36.6264],[139.0679,36.6298],[139.0707,36.6386],[139.0729,36.6414],[139.0844,36.648],[139.0906,36.6502],[139.1018,36.6527],[139.1075,36.6505],[139.1264,36.6312],[139.1324,36.6238],[139.1423,36.616],[139.1466,36.6138],[139.1489,36.6102],[139.1551,36.5921],[139.1637,36.5802],[139.1675,36.5723],[139.1767,36.5645],[139.1967,36.5545]]]}},{"type":"Feature","properties":{"id":10023},"geometry":{"type":"Polygon","coordinates":[[[139.4388,36.2446],[139.4411,36.2584],[139.4369,36.2717],[139.4312,36.2666],[139.4218,36.2624],[139.4065,36.2638],[139.3956,36.2613],[139.3918,36.2573],[139.3912,36.2467],[139.3869,36.2433],[139.3767,36.2402],[139.3916,36.2297],[139.4015,36.2238],[139.4155,36.217],[139.422,36.2294],[139.424,36.2347],[139.4289,36.2401],[139.4388,36.2446]]]}},{"type":"Feature","properties":{"id":10024},"geometry":{"type":"Polygon","coordinates":[[[139.4641,36.2229],[139.4785,36.2246],[139.4937,36.2207],[139.5053,36.2219],[139.5097,36.2259],[139.5078,36.2294],[139.5022,36.2307],[139.4933,36.2345],[139.4895,36.2373],[139.4865,36.2479],[139.4915,36.255],[139.4981,36.259],[139.5005,36.2623],[139.5004,36.2673],[139.4972,36.2746],[139.4786,36.2698],[139.4698,36.2758],[139.4637,36.2842],[139.4529,36.2853],[139.449,36.2879],[139.4403,36.2836],[139.4386,36.28],[139.4369,36.2717],[139.4411,36.2584],[139.4388,36.2446],[139.4591,36.2258],[139.4641,36.2229]]]}},{"type":"Feature","properties":{"id":10025},"geometry":{"type":"Polygon","coordinates":[[[139.2845,36.2438],[139.2938,36.2412],[139.3095,36.2345],[139.3313,36.2329],[139.3365,36.2359],[139.3405,36.2382],[139.3524,36.2414],[139.3639,36.2434],[139.375,36.2414],[139.3767,36.2402],[139.3869,36.2433],[139.3912,36.2467],[139.3918,36.2573],[139.3956,36.2613],[139.4065,36.2638],[139.4218,36.2624],[139.4312,36.2666],[139.4369,36.2717],[139.4386,36.28],[139.4403,36.2836],[139.449,36.2879],[139.4318,36.2995],[139.4221,36.3098],[139.4269,36.3214],[139.4242,36.3333],[139.4118,36.3375],[139.3976,36.344],[139.3852,36.3551],[139.3764,36.3615],[139.3681,36.3591],[139.3597,36.3601],[139.3346,36.3674],[139.327,36.3734],[139.3165,36.379],[139.3115,36.3755],[139.2968,36.3691],[139.2878,36.3669],[139.28,36.366],[139.2705,36.3373],[139.2706,36.3289],[139.2725,36.3225],[139.2732,36.3129],[139.2722,36.307],[139.2695,36.3029],[139.2621,36.2993],[139.2601,36.2942],[139.2612,36.2878],[139.2642,36.2857],[139.2745,36.2855],[139.2822,36.2836],[139.2889,36.2803],[139.2929,36.27],[139.2912,36.2642],[139.2828,36.2578],[139.2812,36.2528],[139.2845,36.2438]]]}},{"type":"Feature","properties":{"id":10026},"geometry":{"type":"Polygon","coordinates":[[[139.1767,36.5645],[139.1675,36.5723],[139.1506,36.5749],[139.1369,36.5751],[139.1245,36.5744],[139.1077,36.5776],[139.0992,36.5766],[139.0919,36.577],[139.0854,36.5798],[139.0776,36.5849],[139.0702,36.5884],[139.0592,36.5819],[139.0556,36.5811],[139.0461,36.5837],[139.0352,36.5857],[139.0151,36.5857],[139.0032,36.5836],[138.995,36.5809],[138.9892,36.5769],[138.9858,36.5761],[138.9772,36.5783],[138.9586,36.5851],[138.9463,36.5867],[138.9315,36.5842],[138.9189,36.5847],[138.9003,36.5833],[138.9073,36.5765],[138.9124,36.5688],[138.911,36.5615],[138.9117,36.5525],[138.918,36.5497],[138.9238,36.5489],[138.9357,36.5488],[138.944,36.5469],[138.9495,36.5431],[138.9516,36.5343],[138.9507,36.5285],[138.9465,36.524],[138.9398,36.5192],[138.9332,36.5166],[138.926,36.512],[138.9087,36.5068],[138.9036,36.5023],[138.9,36.487],[138.8982,36.4818],[138.9018,36.4805],[138.9077,36.4751],[138.9288,36.4649],[138.9482,36.468],[138.9656,36.4718],[138.9715,36.4718],[138.9809,36.4675],[138.9918,36.4596],[138.9997,36.4582],[139.017,36.462],[139.0257,36.4594],[139.0274,36.4572],[139.0296,36.4488],[139.036,36.4507],[139.0411,36.4565],[139.0423,36.4622],[139.048,36.4651],[139.0619,36.4751],[139.0727,36.4801],[139.0791,36.4886],[139.0917,36.4983],[139.0991,36.5057],[139.1052,36.5139],[139.1148,36.5192],[139.1248,36.5216],[139.132,36.5244],[139.1403,36.5308],[139.1442,36.5432],[139.1557,36.5521],[139.1628,36.555],[139.1767,36.5645]]]}},{"type":"Feature","properties":{"id":10027},"geometry":{"type":"Polygon","coordinates":[[[138.6541,36.3003],[138.6466,36.2906],[138.625,36.2838],[138.6092,36.2775],[138.6034,36.2753],[138.6075,36.2614],[138.6071,36.25],[138.614,36.2401],[138.6152,36.2295],[138.625,36.2118],[138.6368,36.2113],[138.6327,36.204],[138.6392,36.2003],[138.6499,36.1969],[138.6665,36.1941],[138.6762,36.1934],[138.6833,36.1957],[138.6929,36.203],[138.7066,36.2063],[138.715,36.2045],[138.7268,36.2031],[138.7412,36.2055],[138.7471,36.2047],[138.7598,36.199],[138.7647,36.1936],[138.7665,36.1773],[138.7641,36.1617],[138.7649,36.145],[138.7745,36.1392],[138.7815,36.1341],[138.7858,36.1327],[138.7931,36.1339],[138.8073,36.1421],[138.8314,36.1598],[138.8344,36.167],[138.836,36.1741],[138.8402,36.1815],[138.8358,36.1835],[138.8344,36.189],[138.8341,36.2005],[138.8384,36.2176],[138.8421,36.2231],[138.8567,36.2285],[138.8649,36.2346],[138.8653,36.2386],[138.8611,36.2394],[138.8125,36.2289],[138.8,36.2239],[138.7904,36.2234],[138.7844,36.2246],[138.7808,36.2277],[138.7787,36.2328],[138.7783,36.2419],[138.7761,36.2458],[138.7695,36.252],[138.7623,36.2554],[138.7481,36.259],[138.7387,36.265],[138.7276,36.285],[138.7146,36.2835],[138.6974,36.2869],[138.6807,36.285],[138.6688,36.2852],[138.6603,36.2871],[138.6579,36.2896],[138.6541,36.3003]]]}},{"type":"Feature","properties":{"id":10028},"geometry":{"type":"Polygon","coordinates":[[[139.0123,36.429],[139.0044,36.4429],[139.0005,36.4461],[138.9799,36.4555],[138.9699,36.4574],[138.9502,36.4572],[138.9352,36.4537],[138.9424,36.4489],[138.9552,36.4428],[138.9654,36.4361],[138.9832,36.4276],[138.9944,36.4242],[139.007,36.4214],[139.0094,36.4267],[139.0123,36.429]]]}},{"type":"Feature","properties":{"id":10029},"geometry":{"type":"Polygon","coordinates":[[[139.0702,36.5884],[139.0776,36.5849],[139.0854,36.5798],[139.0919,36.577],[139.0992,36.5766],[139.1077,36.5776],[139.1245,36.5744],[139.1369,36.5751],[139.1506,36.5749],[139.1675,36.5723],[139.1637,36.5802],[139.1551,36.5921],[139.1489,36.6102],[139.1466,36.6138],[139.1423,36.616],[139.1324,36.6238],[139.1264,36.6312],[139.1075,36.6505],[139.1018,36.6527],[139.0906,36.6502],[139.0844,36.648],[139.0729,36.6414],[139.0707,36.6386],[139.0679,36.6298],[139.0655,36.6264],[139.0572,36.62],[139.056,36.613],[139.0612,36.6049],[139.0702,36.5884]]]}},{"type":"Feature","properties":{"id":10030},"geometry":{"type":"Polygon","coordinates":[[[138.9691,36.3057],[138.9736,36.3045],[138.9856,36.2988],[138.9956,36.2911],[138.9983,36.2849],[139.0016,36.2831],[139.0098,36.2865],[139.0204,36.2841],[139.0293,36.2757],[139.0352,36.273],[139.0484,36.2687],[139.0612,36.2698],[139.0646,36.2779],[139.0638,36.2852],[139.0665,36.288],[139.0727,36.2881],[139.0844,36.2856],[139.1005,36.2842],[139.1044,36.2823],[139.1084,36.2852],[139.1095,36.2909],[139.108,36.2954],[139.1021,36.3004],[139.0991,36.3057],[139.0994,36.3086],[139.1055,36.3145],[139.1118,36.318],[139.0863,36.3274],[139.0814,36.3379],[139.0769,36.3437],[139.0739,36.3507],[139.0678,36.3542],[139.0527,36.3553],[139.0498,36.3577],[139.0439,36.3696],[139.035,36.376],[139.0323,36.3837],[139.0335,36.3955],[139.0355,36.4018],[139.0339,36.4062],[139.0272,36.4073],[139.0218,36.4052],[139.0183,36.4066],[139.016,36.4132],[139.007,36.4214],[138.9944,36.4242],[138.9832,36.4276],[138.9654,36.4361],[138.9552,36.4428],[138.9424,36.4489],[138.9352,36.4537],[138.9288,36.4649],[138.9077,36.4751],[138.9018,36.4805],[138.8982,36.4818],[138.8912,36.4828],[138.8826,36.4881],[138.8772,36.4858],[138.873,36.4787],[138.8675,36.4755],[138.8605,36.4733],[138.8507,36.472],[138.8393,36.4722],[138.8289,36.4714],[138.8144,36.4725],[138.8073,36.474],[138.7889,36.475],[138.7824,36.4763],[138.7662,36.476],[138.7285,36.4779],[138.7221,36.4793],[138.7144,36.478],[138.7044,36.4725],[138.6953,36.4692],[138.6822,36.4665],[138.6768,36.4642],[138.67,36.4576],[138.657,36.4475],[138.6508,36.4384],[138.649,36.4291],[138.651,36.4048],[138.6724,36.4091],[138.6816,36.4099],[138.7032,36.4089],[138.7112,36.4101],[138.7352,36.4093],[138.7491,36.4034],[138.7669,36.3994],[138.7801,36.3906],[138.7947,36.3855],[138.7982,36.3851],[138.8087,36.3805],[138.8152,36.3789],[138.8344,36.3703],[138.8536,36.3716],[138.8665,36.3714],[138.8803,36.3691],[138.8921,36.3637],[138.8967,36.3602],[138.9118,36.3533],[138.9302,36.3529],[138.9378,36.3539],[138.9412,36.3524],[138.9431,36.3459],[138.9427,36.3404],[138.9468,36.3344],[138.9499,36.3274],[138.9603,36.3149],[138.9691,36.3057]]]}},{"type":"Feature","properties":{"id":10031},"geometry":{"type":"Polygon","coordinates":[[[138.9035,36.6528],[138.899,36.6428],[138.8992,36.639],[138.9024,36.629],[138.9017,36.6254],[138.9024,36.6097],[138.9094,36.6034],[138.9234,36.595],[138.9315,36.5842],[138.9463,36.5867],[138.9586,36.5851],[138.9772,36.5783],[138.9858,36.5761],[138.9892,36.5769],[138.995,36.5809],[139.0032,36.5836],[138.9967,36.6031],[138.995,36.6137],[138.9951,36.6201],[138.997,36.6265],[138.9973,36.6336],[138.9955,36.6417],[138.9905,36.6453],[138.97,36.6546],[138.9501,36.6567],[138.9442,36.6561],[138.9311,36.6584],[138.9215,36.6585],[138.9133,36.6566],[138.9035,36.6528]]]}},{"type":"Feature","properties":{"id":10032},"geometry":{"type":"Polygon","coordinates":[[[139.1405,36.2757],[139.1517,36.2754],[139.1656,36.2737],[139.1761,36.2691],[139.1806,36.2672],[139.1763,36.2782],[139.1727,36.2909],[139.1677,36.2959],[139.1564,36.3029],[139.1488,36.3096],[139.1447,36.3178],[139.1454,36.3245],[139.1442,36.3351],[139.1279,36.3325],[139.1202,36.3295],[139.114,36.3226],[139.1118,36.318],[139.1055,36.3145],[139.0994,36.3086],[139.0991,36.3057],[139.1021,36.3004],[139.108,36.2954],[139.1095,36.2909],[139.1084,36.2852],[139.1115,36.2833],[139.1269,36.2818],[139.1409,36.2783],[139.1405,36.2757]]]}},{"type":"Feature","properties":{"id":10033},"geometry":{"type":"Polygon","coordinates":[[[139.4955,36.2065],[139.5097,36.2127],[139.5208,36.2155],[139.5321,36.2195],[139.5439,36.2212],[139.5506,36.2206],[139.5605,36.2173],[139.5677,36.2175],[139.5852,36.2218],[139.584,36.2367],[139.591,36.2468],[139.5987,36.2488],[139.6058,36.2481],[139.6125,36.2458],[139.6183,36.246],[139.6213,36.2481],[139.6192,36.2529],[139.6129,36.2569],[139.6085,36.2655],[139.5939,36.2654],[139.5656,36.2639],[139.5572,36.2715],[139.5398,36.2788],[139.531,36.2811],[139.5191,36.2781],[139.5078,36.2777],[139.4972,36.2746],[139.5004,36.2673],[139.5005,36.2623],[139.4981,36.259],[139.4915,36.255],[139.4865,36.2479],[139.4895,36.2373],[139.4933,36.2345],[139.5022,36.2307],[139.5078,36.2294],[139.5097,36.2259],[139.5053,36.2219],[139.4937,36.2207],[139.4785,36.2246],[139.4641,36.2229],[139.4626,36.2142],[139.4655,36.2124],[139.4796,36.2111],[139.4955,36.2065]]]}},{"type":"Feature","properties":{"id":10034},"geometry":{"type":"Polygon","coordinates":[[[138.7276,36.285],[138.7387,36.265],[138.7481,36.259],[138.7623,36.2554],[138.7695,36.252],[138.7761,36.2458],[138.7783,36.2419],[138.7787,36.2328],[138.7808,36.2277],[138.7844,36.2246],[138.7904,36.2234],[138.8,36.2239],[138.8125,36.2289],[138.8611,36.2394],[138.8653,36.2386],[138.8649,36.2346],[138.8567,36.2285],[138.8421,36.2231],[138.8384,36.2176],[138.8341,36.2005],[138.8344,36.189],[138.8358,36.1835],[138.8402,36.1815],[138.8456,36.1852],[138.8548,36.1964],[138.8621,36.1998],[138.8766,36.2037],[138.8799,36.2083],[138.8797,36.2152],[138.8811,36.2175],[138.888,36.2195],[138.8943,36.223],[138.9081,36.2337],[138.9102,36.2369],[138.911,36.2454],[138.9142,36.2502],[138.9203,36.2539],[138.9263,36.2546],[138.936,36.2519],[138.9418,36.2522],[138.9555,36.2561],[138.9473,36.2674],[138.9458,36.2719],[138.9465,36.2795],[138.9527,36.2869],[138.9554,36.2943],[138.9552,36.3031],[138.9438,36.3006],[138.928,36.3025],[138.9221,36.3026],[138.9153,36.3008],[138.8957,36.2867],[138.89,36.2848],[138.8654,36.2796],[138.8584,36.279],[138.8415,36.283],[138.8111,36.2952],[138.7919,36.3008],[138.7775,36.3041],[138.7722,36.3039],[138.7591,36.3012],[138.7505,36.2983],[138.7327,36.2873],[138.7276,36.285]]]}},{"type":"Feature","properties":{"id":10035},"geometry":{"type":"Polygon","coordinates":[[[138.525,36.6475],[138.5106,36.6448],[138.5,36.6402],[138.4901,36.6389],[138.4794,36.6417],[138.4707,36.6346],[138.4613,36.6286],[138.4607,36.6183],[138.455,36.609],[138.4447,36.6075],[138.4426,36.6004],[138.4415,36.5966],[138.4308,36.5933],[138.4296,36.5834],[138.424,36.5704],[138.4319,36.5639],[138.4316,36.5526],[138.4251,36.5449],[138.4157,36.5382],[138.4072,36.5113],[138.4061,36.5],[138.401,36.4847],[138.4041,36.4741],[138.4063,36.4633],[138.4035,36.4524],[138.4042,36.4316],[138.4094,36.4304],[138.4148,36.4291],[138.4248,36.4251],[138.4409,36.42],[138.451,36.4167],[138.4609,36.4086],[138.4676,36.4012],[138.4779,36.4009],[138.4895,36.3984],[138.5,36.411],[138.5141,36.4066],[138.5337,36.3995],[138.5447,36.4007],[138.5521,36.409],[138.5669,36.4171],[138.5736,36.4167],[138.5764,36.4174],[138.5761,36.4241],[138.5812,36.4425],[138.5809,36.4468],[138.5784,36.4507],[138.5735,36.4546],[138.5695,36.4646],[138.5714,36.4723],[138.5721,36.4854],[138.5702,36.4988],[138.5649,36.5164],[138.5661,36.5267],[138.5702,36.5304],[138.5738,36.5306],[138.5877,36.5228],[138.5913,36.523],[138.5954,36.5267],[138.5973,36.5349],[138.5984,36.5469],[138.5974,36.5536],[138.5935,36.5617],[138.5866,36.571],[138.5801,36.5701],[138.5726,36.5737],[138.5692,36.5809],[138.55,36.5902],[138.5463,36.5987],[138.5401,36.6043],[138.5371,36.6091],[138.5337,36.6196],[138.5331,36.626],[138.5343,36.6349],[138.5261,36.6435],[138.525,36.6475]]]}},{"type":"Feature","properties":{"id":10036},"geometry":{"type":"Polygon","coordinates":[[[138.7714,36.1263],[138.7559,36.1203],[138.7481,36.119],[138.7407,36.1204],[138.7198,36.1208],[138.6999,36.1225],[138.6896,36.1253],[138.6838,36.1252],[138.6746,36.1233],[138.6654,36.1203],[138.6591,36.1172],[138.6441,36.1144],[138.6505,36.1026],[138.6437,36.0941],[138.6335,36.0883],[138.6355,36.0841],[138.6403,36.074],[138.6461,36.0642],[138.6461,36.0537],[138.6404,36.035],[138.6422,36.0322],[138.653,36.0156],[138.6641,36.0133],[138.6733,36.0091],[138.6839,36.0075],[138.6902,35.9907],[138.702,35.9862],[138.7042,35.9866],[138.7203,35.99],[138.7309,35.9926],[138.7421,36.0043],[138.75,36.0114],[138.7582,36.0313],[138.7686,36.0344],[138.7793,36.034],[138.7887,36.03],[138.7988,36.0278],[138.809,36.0309],[138.821,36.0324],[138.8295,36.0371],[138.835,36.0428],[138.8184,36.057],[138.8171,36.06],[138.8169,36.0694],[138.814,36.0778],[138.8117,36.0802],[138.8044,36.0836],[138.7977,36.0913],[138.7924,36.1014],[138.7834,36.1134],[138.7714,36.1263]]]}},{"type":"Feature","properties":{"id":10037},"geometry":{"type":"Polygon","coordinates":[[[138.9552,36.3031],[138.9554,36.2943],[138.9527,36.2869],[138.9465,36.2795],[138.9458,36.2719],[138.9473,36.2674],[138.9555,36.2561],[138.9553,36.2439],[138.9605,36.2289],[138.965,36.2225],[138.9555,36.2112],[138.9518,36.2047],[138.9509,36.2007],[138.9725,36.2004],[138.9836,36.2049],[138.9892,36.2105],[138.9999,36.2179],[139.0045,36.2238],[139.0057,36.2292],[139.016,36.2286],[139.0226,36.2328],[139.026,36.2375],[139.0281,36.2446],[139.0275,36.2528],[139.035,36.2602],[139.0484,36.2687],[139.0352,36.273],[139.0293,36.2757],[139.0204,36.2841],[139.0098,36.2865],[139.0016,36.2831],[138.9983,36.2849],[138.9956,36.2911],[138.9856,36.2988],[138.9736,36.3045],[138.9691,36.3057],[138.9552,36.3031]]]}},{"type":"Feature","properties":{"id":10038},"geometry":{"type":"Polygon","coordinates":[[[139.0411,36.4565],[139.036,36.4507],[139.0296,36.4488],[139.0274,36.4572],[139.0257,36.4594],[139.017,36.462],[138.9997,36.4582],[138.9918,36.4596],[138.9809,36.4675],[138.9715,36.4718],[138.9656,36.4718],[138.9482,36.468],[138.9288,36.4649],[138.9352,36.4537],[138.9502,36.4572],[138.9699,36.4574],[138.9799,36.4555],[139.0005,36.4461],[139.0044,36.4429],[139.0123,36.429],[139.0263,36.4251],[139.0351,36.4241],[139.0417,36.4263],[139.0452,36.4308],[139.0442,36.4453],[139.0411,36.4565]]]}}]}