{"type":"FeatureCollection","features":[{"type":"Feature","properties":{"id":11001},"geometry":{"type":"Polygon","coordinates":[[[139.6394,35.9708],[139.6294,35.9712],[139.6144,35.9844],[139.6083,35.9951],[139.6073,35.9996],[139.6025,36.0061],[139.5971,36.008],[139.5898,36.0086],[139.5859,36.0079],[139.5787,36.0023],[139.5785,35.9972],[139.5801,35.9903],[139.5775,35.9867],[139.5728,35.9858],[139.5656,35.9884],[139.5604,35.9927],[139.5567,35.9931],[139.552,35.9906],[139.5424,35.9893],[139.5411,35.986],[139.5409,35.9769],[139.5334,35.961],[139.5399,35.9554],[139.5412,35.9453],[139.5424,35.9375],[139.5506,35.9321],[139.5645,35.9382],[139.5703,35.943],[139.5812,35.9459],[139.5875,35.9448],[139.5932,35.9396],[139.5971,35.9406],[139.5971,35.9457],[139.5895,35.9526],[139.5895,35.958],[139.594,35.9611],[139.6043,35.9622],[139.614,35.9648],[139.6171,35.9644],[139.6281,35.9551],[139.6338,35.953],[139.6449,35.9529],[139.6472,35.9558],[139.6469,35.961],[139.6394,35.9708]]]}},{"type":"Feature","properties":{"id":11002},"geometry":{"type":"Polygon","coordinates":[[[139.5964,35.7827],[139.5982,35.7855],[139.6077,35.7947],[139.6136,35.8056],[139.6223,35.8126],[139.626,35.8186],[139.6265,35.822],[139.622,35.8263],[139.6132,35.8306],[139.5855,35.824],[139.5749,35.8227],[139.5695,35.8193],[139.5697,35.8005],[139.5748,35.789],[139.5837,35.7849],[139.5911,35.7827],[139.5964,35.7827]]]}},{"type":"Feature","properties":{"id":11003},"geometry":{"type":"Polygon","coordinates":[[[138.9757,36.1226],[138.9679,36.1226],[138.9609,36.1054],[138.9535,36.0974],[138.9445,36.0906],[138.9365,36.0862],[138.9399,36.0863],[138.9398,36.0772],[138.9454,36.0696],[138.958,36.0589],[138.9669,36.0547],[138.9718,36.0508],[138.9783,36.0402],[138.9827,36.0364],[138.9899,36.0337],[138.9998,36.0276],[139.015,36.0231],[139.0234,36.018],[139.0285,36.0103],[139.0351,36.0049],[139.0415,36.0048],[139.0503,36.0135],[139.0537,36.0113],[139.0529,36.0052],[139.0451,35.9989],[139.0429,35.991],[139.05,35.985],[139.0496,35.9793],[139.036,35.969],[139.0192,35.9626],[139.0169,35.9624],[139.0101,35.9702],[139.005,35.9738],[138.9978,35.9747],[138.9897,35.9793],[138.9854,35.9802],[138.9765,35.9794],[138.9615,35.9763],[138.957,35.9743],[138.9543,35.9678],[138.9427,35.9674],[138.9347,35.9685],[138.9285,35.9667],[138.9209,35.967],[138.9147,35.9699],[138.902,35.9734],[138.8944,35.9708],[138.8849,35.9709],[138.8657,35.9815],[138.8565,35.9893],[138.8488,35.9949],[138.8508,36.0023],[138.8496,36.0109],[138.8511,36.0237],[138.8411,36.0322],[138.8295,36.0371],[138.821,36.0324],[138.809,36.0309],[138.7988,36.0278],[138.7887,36.03],[138.7793,36.034],[138.7686,36.0344],[138.7582,36.0313],[138.75,36.0114],[138.7421,36.0043],[138.7309,35.9926],[138.7203,35.99],[138.7153,35.9707],[138.7191,35.9613],[138.7273,35.955],[138.7393,35.9381],[138.7419,35.9277],[138.7355,35.9167],[138.7317,35.9061],[138.7423,35.9027],[138.7609,35.8994],[138.7704,35.8962],[138.7831,35.8965],[138.7912,35.8907],[138.798,35.8702],[138.8144,35.865],[138.8237,35.8621],[138.8347,35.8598],[138.8446,35.8618],[138.8568,35.8621],[138.8712,35.8518],[138.882,35.8442],[138.8919,35.84],[138.9022,35.8434],[138.9126,35.848],[138.9231,35.8481],[138.9335,35.8466],[138.947,35.8518],[138.9491,35.8621],[138.9565,35.8702],[138.9679,35.8744],[138.9773,35.8795],[138.9874,35.8786],[139,35.8812],[139.0135,35.8939],[139.0266,35.8941],[139.0452,35.8828],[139.0531,35.8756],[139.0723,35.8687],[139.0825,35.8722],[139.0927,35.8676],[139.1013,35.8651],[139.1072,35.8714],[139.1103,35.8778],[139.1163,35.8849],[139.1176,35.8885],[139.1168,35.8948],[139.1133,35.9001],[139.1108,35.9106],[139.1049,35.9228],[139.0978,35.9326],[139.0994,35.9434],[139.0973,35.9471],[139.09,35.9532],[139.0886,35.9593],[139.0893,35.9764],[139.091,35.9845],[139.0957,35.9945],[139.1004,36],[139.1064,36.002],[139.1103,36.0016],[139.1211,35.9954],[139.1265,35.995],[139.1383,35.996],[139.1548,35.9914],[139.1668,35.9889],[139.1737,35.985],[139.178,35.991],[139.1618,36.0193],[139.1587,36.0217],[139.1504,36.0269],[139.1315,36.0297],[139.1231,36.0418],[139.119,36.0491],[139.1055,36.0581],[139.0943,36.0601],[139.0819,36.0601],[139.0689,36.0548],[139.0645,36.0555],[139.0618,36.0663],[139.0552,36.0705],[139.0433,36.0687],[139.0307,36.0695],[139.0265,36.0718],[139.0189,36.0796],[139.0099,36.0843],[139.0097,36.0899],[139.0001,36.0949],[138.9937,36.1012],[138.9873,36.1127],[138.983,36.1226],[138.9757,36.1226]]]}},{"type":"Feature","properties":{"id":11004},"geometry":{"type":"Polygon","coordinates":[[[139.5296,35.8528],[139.5298,35.8459],[139.5332,35.8382],[139.5437,35.8377],[139.5469,35.8316],[139.5534,35.825],[139.5639,35.8331],[139.5758,35.8396],[139.5785,35.8428],[139.5793,35.8493],[139.5814,35.8539],[139.5864,35.8598],[139.58,35.8643],[139.5747,35.8695],[139.5652,35.8701],[139.5611,35.8724],[139.5562,35.8797],[139.547,35.8867],[139.5441,35.8799],[139.5473,35.875],[139.5477,35.8698],[139.5453,35.8672],[139.5397,35.8655],[139.5329,35.865],[139.5303,35.8621],[139.5296,35.8528]]]}},{"type":"Feature","properties":{"id":11005},"geometry":{"type":"Polygon","coordinates":[[[139.5441,35.8799],[139.5365,35.8838],[139.5288,35.8849],[139.5227,35.8842],[139.5106,35.8787],[139.5082,35.8712],[139.5034,35.8683],[139.4949,35.8666],[139.4915,35.863],[139.4845,35.8606],[139.4731,35.8538],[139.472,35.8509],[139.4745,35.8474],[139.4804,35.8471],[139.483,35.845],[139.4837,35.8393],[139.4921,35.8467],[139.5051,35.8502],[139.5128,35.8437],[139.5202,35.8431],[139.5296,35.8528],[139.5303,35.8621],[139.5329,35.865],[139.5397,35.8655],[139.5453,35.8672],[139.5477,35.8698],[139.5473,35.875],[139.5441,35.8799]]]}},{"type":"Feature","properties":{"id":11006},"geometry":{"type":"Polygon","coordinates":[[[139.2534,36.2388],[139.2532,36.224],[139.2485,36.2192],[139.2417,36.2189],[139.2334,36.2207],[139.2241,36.2206],[139.2088,36.2131],[139.2003,36.2054],[139.2036,36.1977],[139.2079,36.1943],[139.2133,36.193],[139.2175,36.1878],[139.2124,36.1802],[139.203,36.1779],[139.197,36.1748],[139.1953,36.1703],[139.203,36.1679],[139.2117,36.1634],[139.2209,36.1565],[139.2291,36.1543],[139.2306,36.1511],[139.221,36.1456],[139.2109,36.1378],[139.2002,36.1374],[139.1962,36.1335],[139.2004,36.1322],[139.2113,36.1323],[139.2179,36.1299],[139.2202,36.126],[139.2216,36.1197],[139.2281,36.115],[139.2383,36.114],[139.2528,36.1138],[139.2643,36.1126],[139.2764,36.113],[139.2784,36.11],[139.2763,36.1041],[139.2797,36.102],[139.2916,36.1028],[139.3067,36.1074],[139.314,36.1127],[139.3165,36.1174],[139.3183,36.1255],[139.3185,36.1346],[139.3152,36.1424],[139.3103,36.1479],[139.2994,36.1503],[139.2969,36.1549],[139.2981,36.1583],[139.3035,36.1614],[139.3135,36.1701],[139.3197,36.1719],[139.327,36.1723],[139.3358,36.1773],[139.3387,36.1834],[139.3391,36.1959],[139.3441,36.2171],[139.3441,36.2254],[139.3418,36.2301],[139.3365,36.2359],[139.3313,36.2329],[139.3095,36.2345],[139.2938,36.2412],[139.2845,36.2438],[139.2819,36.2445],[139.2534,36.2388]]]}},{"type":"Feature","properties":{"id":11007},"geometry":{"type":"Polygon","coordinates":[[[139.4456,36.1949],[139.4309,36.1946],[139.4253,36.1918],[139.4249,36.1868],[139.4265,36.1719],[139.4298,36.1678],[139.4373,36.1665],[139.4417,36.1634],[139.4415,36.1586],[139.4393,36.1529],[139.4346,36.1467],[139.426,36.1408],[139.425,36.1371],[139.4268,36.1315],[139.4315,36.1274],[139.432,36.1189],[139.431,36.1147],[139.4274,36.1108],[139.4277,36.1062],[139.4384,36.0892],[139.4453,36.0975],[139.4531,36.1115],[139.4572,36.1141],[139.4629,36.1134],[139.4763,36.1021],[139.4815,36.0994],[139.4873,36.0934],[139.4965,36.0918],[139.499,36.0951],[139.5032,36.1153],[139.509,36.1214],[139.513,36.1226],[139.5186,36.1213],[139.5242,36.1166],[139.5328,36.1187],[139.5393,36.123],[139.5329,36.1306],[139.5286,36.1401],[139.5227,36.1425],[139.5164,36.1502],[139.5116,36.1524],[139.5043,36.1528],[139.5007,36.1554],[139.4991,36.1712],[139.5019,36.1779],[139.5024,36.189],[139.4963,36.1887],[139.4803,36.1867],[139.4669,36.1861],[139.4569,36.1885],[139.4456,36.1949]]]}},{"type":"Feature","properties":{"id":11008},"geometry":{"type":"Polygon","coordinates":[[[139.1013,35.8651],[139.1147,35.8616],[139.1361,35.8613],[139.1465,35.8601],[139.156,35.8563],[139.1646,35.8503],[139.1774,35.8451],[139.1868,35.8403],[139.1987,35.8369],[139.2079,35.8414],[139.2187,35.8419],[139.2295,35.8364],[139.2396,35.8361],[139.25,35.8337],[139.2642,35.8333],[139.2746,35.8364],[139.2851,35.8361],[139.3053,35.8309],[139.3073,35.8208],[139.3185,35.8213],[139.3239,35.825],[139.3322,35.8239],[139.3421,35.8256],[139.3482,35.8292],[139.3497,35.8343],[139.3501,35.8446],[139.352,35.85],[139.3566,35.8542],[139.3727,35.864],[139.3634,35.8714],[139.3603,35.8789],[139.3527,35.8809],[139.3448,35.8791],[139.3278,35.8768],[139.3232,35.8785],[139.3186,35.8776],[139.3115,35.8705],[139.3061,35.8713],[139.3015,35.8695],[139.2964,35.864],[139.2924,35.8636],[139.2803,35.8722],[139.2771,35.8785],[139.2763,35.893],[139.2753,35.8968],[139.2746,35.9045],[139.2725,35.9105],[139.269,35.9142],[139.2674,35.9217],[139.2521,35.9217],[139.2484,35.9223],[139.2362,35.9307],[139.2329,35.9352],[139.2277,35.9395],[139.2246,35.9438],[139.216,35.9524],[139.2043,35.9609],[139.1902,35.9641],[139.1779,35.9644],[139.1739,35.9539],[139.1683,35.9493],[139.1629,35.9421],[139.1602,35.9402],[139.1496,35.938],[139.138,35.9339],[139.1259,35.9332],[139.1155,35.9273],[139.1049,35.9228],[139.1108,35.9106],[139.1133,35.9001],[139.1168,35.8948],[139.1176,35.8885],[139.1163,35.8849],[139.1103,35.8778],[139.1072,35.8714],[139.1013,35.8651]]]}},{"type":"Feature","properties":{"id":11009},"geometry":{"type":"Polygon","coordinates":[[[139.5943,36.2061],[139.5857,36.2061],[139.576,36.2007],[139.5598,36.1978],[139.5373,36.1899],[139.5256,36.1889],[139.5136,36.1896],[139.5024,36.189],[139.5019,36.1779],[139.4991,36.1712],[139.5007,36.1554],[139.5043,36.1528],[139.5116,36.1524],[139.5164,36.1502],[139.5227,36.1425],[139.5286,36.1401],[139.5374,36.14],[139.5475,36.1354],[139.5548,36.1344],[139.5708,36.1358],[139.5728,36.1372],[139.5759,36.1443],[139.584,36.1472],[139.5892,36.1544],[139.5958,36.1617],[139.6075,36.1609],[139.6136,36.162],[139.6154,36.1708],[139.6089,36.1779],[139.607,36.1822],[139.607,36.1934],[139.6083,36.1983],[139.6056,36.2011],[139.5943,36.2061]]]}},{"type":"Feature","properties":{"id":11010},"geometry":{"type":"Polygon","coordinates":[[[139.6469,35.961],[139.6656,35.962],[139.6692,35.963],[139.6758,35.9722],[139.6844,35.9739],[139.6897,35.9771],[139.6921,35.9809],[139.6955,35.9907],[139.6961,35.996],[139.6873,35.9969],[139.6746,36.0008],[139.6588,36.0102],[139.6521,36.0128],[139.6489,36.0258],[139.6447,36.0292],[139.6343,36.0285],[139.6247,36.0305],[139.6168,36.0348],[139.607,36.0372],[139.6014,36.033],[139.5998,36.0294],[139.6073,36.022],[139.6229,36.0125],[139.6326,36.0045],[139.6439,36],[139.6462,35.9954],[139.6454,35.9801],[139.6422,35.9736],[139.6394,35.9708],[139.6469,35.961]]]}},{"type":"Feature","properties":{"id":11011},"geometry":{"type":"Polygon","coordinates":[[[139.7587,35.8081],[139.7683,35.8135],[139.7651,35.8146],[139.7553,35.821],[139.7496,35.8298],[139.7436,35.8367],[139.7273,35.8406],[139.7242,35.8405],[139.7219,35.836],[139.7214,35.8269],[139.7226,35.8228],[139.7313,35.8174],[139.7377,35.8152],[139.747,35.8145],[139.7571,35.81],[139.7587,35.8081]]]}},{"type":"Feature","properties":{"id":11012},"geometry":{"type":"Polygon","coordinates":[[[139.3422,36.007],[139.3295,36.0079],[139.3205,36.0102],[139.3126,36.0046],[139.3083,35.9926],[139.2985,35.9949],[139.2917,35.9915],[139.3027,35.9821],[139.3118,35.9709],[139.3197,35.9645],[139.3285,35.9588],[139.3358,35.9588],[139.3481,35.9662],[139.3686,35.9761],[139.3841,35.981],[139.373,35.9876],[139.3566,36.0019],[139.3422,36.007]]]}},{"type":"Feature","properties":{"id":11013},"geometry":{"type":"Polygon","coordinates":[[[139.3727,35.864],[139.377,35.866],[139.386,35.8735],[139.387,35.8769],[139.3952,35.8873],[139.3954,35.8935],[139.3929,35.899],[139.3859,35.9035],[139.3839,35.9105],[139.3846,35.9141],[139.3727,35.9232],[139.3674,35.9238],[139.3606,35.9221],[139.3559,35.9239],[139.3576,35.9285],[139.3482,35.9332],[139.3428,35.9211],[139.3353,35.9168],[139.3277,35.9062],[139.3208,35.9008],[139.3113,35.901],[139.3055,35.9043],[139.3004,35.9037],[139.288,35.9003],[139.2818,35.8978],[139.2753,35.8968],[139.2763,35.893],[139.2771,35.8785],[139.2803,35.8722],[139.2924,35.8636],[139.2964,35.864],[139.3015,35.8695],[139.3061,35.8713],[139.3115,35.8705],[139.3186,35.8776],[139.3232,35.8785],[139.3278,35.8768],[139.3448,35.8791],[139.3527,35.8809],[139.3603,35.8789],[139.3634,35.8714],[139.3727,35.864]]]}},{"type":"Feature","properties":{"id":11014},"geometry":{"type":"Polygon","coordinates":[[[139.178,35.991],[139.1853,35.9955],[139.1927,35.9981],[139.1955,36.0005],[139.1957,36.0073],[139.1919,36.0151],[139.1925,36.0241],[139.2058,36.0311],[139.2218,36.037],[139.2278,36.0412],[139.234,36.0427],[139.2365,36.0451],[139.2357,36.0507],[139.2331,36.053],[139.2243,36.0566],[139.2117,36.0599],[139.2071,36.0618],[139.2011,36.0672],[139.1929,36.067],[139.1861,36.0716],[139.1832,36.0771],[139.1711,36.0877],[139.1675,36.0879],[139.1591,36.0822],[139.1638,36.076],[139.1636,36.0664],[139.1606,36.0564],[139.1594,36.0284],[139.1587,36.0217],[139.1618,36.0193],[139.178,35.991]]]}},{"type":"Feature","properties":{"id":11015},"geometry":{"type":"Polygon","coordinates":[[[139.3841,35.981],[139.3984,35.9815],[139.4108,35.9878],[139.4284,35.9902],[139.4319,35.9922],[139.4275,35.9988],[139.4295,36.0016],[139.4353,36.0021],[139.4455,36.0008],[139.4526,36.0019],[139.4567,36.0048],[139.4572,36.012],[139.4454,36.0138],[139.44,36.0179],[139.4293,36.0239],[139.4228,36.032],[139.4213,36.0387],[139.4223,36.064],[139.4231,36.0699],[139.4116,36.0756],[139.4091,36.0786],[139.4123,36.0875],[139.4109,36.0921],[139.4027,36.097],[139.3944,36.1008],[139.3891,36.0989],[139.3853,36.0915],[139.3822,36.0856],[139.3787,36.0747],[139.3809,36.0673],[139.381,36.0615],[139.3846,36.055],[139.3844,36.0429],[139.3831,36.0399],[139.371,36.0387],[139.3621,36.0353],[139.336,36.0378],[139.3353,36.034],[139.3371,36.0261],[139.3426,36.0151],[139.3422,36.007],[139.3566,36.0019],[139.373,35.9876],[139.3841,35.981]]]}},{"type":"Feature","properties":{"id":11016},"geometry":{"type":"Polygon","coordinates":[[[139.1806,36.2672],[139.1761,36.2691],[139.1756,36.259],[139.1694,36.2513],[139.1678,36.2442],[139.1694,36.2388],[139.1745,36.2343],[139.1745,36.2296],[139.152,36.2231],[139.1476,36.2209],[139.1487,36.215],[139.1385,36.2081],[139.1402,36.201],[139.1355,36.1948],[139.1313,36.1951],[139.1201,36.2039],[139.1179,36.2027],[139.1151,36.192],[139.1103,36.1884],[139.1065,36.1879],[139.0982,36.1894],[139.0949,36.1869],[139.0882,36.1767],[139.0862,36.1706],[139.0856,36.1609],[139.0836,36.1579],[139.0766,36.1539],[139.0782,36.1467],[139.0849,36.1421],[139.0831,36.1391],[139.0723,36.1357],[139.0688,36.1324],[139.0661,36.123],[139.0718,36.117],[139.076,36.1165],[139.0871,36.1176],[139.1081,36.1332],[139.1172,36.1373],[139.1282,36.1433],[139.1354,36.1449],[139.1453,36.1414],[139.1497,36.1458],[139.1541,36.1536],[139.1567,36.1621],[139.1575,36.1735],[139.1609,36.1821],[139.1651,36.1867],[139.1671,36.1947],[139.1737,36.2054],[139.1757,36.2066],[139.1864,36.2044],[139.2003,36.2054],[139.2088,36.2131],[139.2241,36.2206],[139.2334,36.2207],[139.2417,36.2189],[139.2485,36.2192],[139.2532,36.224],[139.2534,36.2388],[139.2516,36.2384],[139.215,36.256],[139.1967,36.261],[139.1806,36.2672]]]}},{"type":"Feature","properties":{"id":11017},"geometry":{"type":"Polygon","coordinates":[[[139.6394,35.9708],[139.6422,35.9736],[139.6454,35.9801],[139.6462,35.9954],[139.6439,36],[139.6326,36.0045],[139.6229,36.0125],[139.6073,36.022],[139.5998,36.0294],[139.5944,36.0208],[139.5898,36.0086],[139.5971,36.008],[139.6025,36.0061],[139.6073,35.9996],[139.6083,35.9951],[139.6144,35.9844],[139.6294,35.9712],[139.6394,35.9708]]]}},{"type":"Feature","properties":{"id":11018},"geometry":{"type":"Polygon","coordinates":[[[139.3185,35.8213],[139.3219,35.8057],[139.3262,35.7951],[139.3378,35.7926],[139.3438,35.7913],[139.3558,35.7903],[139.3658,35.7887],[139.3723,35.7802],[139.3842,35.7715],[139.3886,35.7752],[139.3832,35.788],[139.3825,35.7992],[139.3842,35.8021],[139.3911,35.8053],[139.4092,35.8089],[139.4134,35.8128],[139.4144,35.8197],[139.4071,35.8318],[139.392,35.8379],[139.3898,35.8446],[139.3866,35.8465],[139.3794,35.8463],[139.3699,35.8407],[139.3654,35.84],[139.3618,35.8425],[139.3613,35.8499],[139.3566,35.8542],[139.352,35.85],[139.3501,35.8446],[139.3497,35.8343],[139.3482,35.8292],[139.3421,35.8256],[139.3322,35.8239],[139.3239,35.825],[139.3185,35.8213]]]}},{"type":"Feature","properties":{"id":11019},"geometry":{"type":"Polygon","coordinates":[[[138.983,36.1226],[138.9873,36.1127],[138.9937,36.1012],[139.0001,36.0949],[139.0097,36.0899],[139.0147,36.0932],[139.0243,36.0967],[139.0424,36.0969],[139.0461,36.0991],[139.0506,36.1051],[139.0522,36.1106],[139.0556,36.1164],[139.0661,36.123],[139.0688,36.1324],[139.0723,36.1357],[139.0831,36.1391],[139.0849,36.1421],[139.0782,36.1467],[139.0766,36.1539],[139.0836,36.1579],[139.0856,36.1609],[139.0862,36.1706],[139.0882,36.1767],[139.0949,36.1869],[139.0982,36.1894],[139.1065,36.1879],[139.1103,36.1884],[139.1151,36.192],[139.1179,36.2027],[139.1201,36.2039],[139.1313,36.1951],[139.1355,36.1948],[139.1402,36.201],[139.1385,36.2081],[139.1487,36.215],[139.1476,36.2209],[139.1413,36.2198],[139.1335,36.2156],[139.1267,36.2171],[139.1207,36.225],[139.1153,36.228],[139.1086,36.2282],[139.093,36.2265],[139.0868,36.2163],[139.0763,36.2018],[139.0679,36.1949],[139.0651,36.1821],[139.0605,36.1728],[139.0668,36.1568],[139.0522,36.1496],[139.0455,36.1256],[139.0349,36.1245],[139.0266,36.1307],[139.014,36.129],[139,36.1225],[138.983,36.1226]]]}},{"type":"Feature","properties":{"id":11020},"geometry":{"type":"Polygon","coordinates":[[[139.093,36.2265],[139.1086,36.2282],[139.1153,36.228],[139.1207,36.225],[139.1267,36.2171],[139.1335,36.2156],[139.1413,36.2198],[139.1476,36.2209],[139.152,36.2231],[139.1745,36.2296],[139.1745,36.2343],[139.1694,36.2388],[139.1678,36.2442],[139.1694,36.2513],[139.1756,36.259],[139.1761,36.2691],[139.1656,36.2737],[139.1517,36.2754],[139.1405,36.2757],[139.1303,36.2759],[139.1211,36.2657],[139.1108,36.2581],[139.1017,36.2385],[139.093,36.2265]]]}},{"type":"Feature","properties":{"id":11021},"geometry":{"type":"Polygon","coordinates":[[[139.8177,36.0317],[139.8031,36.0255],[139.7975,36.0215],[139.7901,36.0189],[139.7775,36.0096],[139.7554,36.0012],[139.7428,36.002],[139.73,35.9952],[139.7272,35.992],[139.7242,35.9851],[139.7236,35.9713],[139.7213,35.9638],[139.7139,35.9514],[139.7149,35.9473],[139.7212,35.9472],[139.7262,35.9498],[139.735,35.9518],[139.7411,35.9513],[139.7472,35.9467],[139.7536,35.9438],[139.7591,35.9439],[139.7631,35.9381],[139.7721,35.9351],[139.7775,35.9367],[139.7795,35.9397],[139.7775,35.9532],[139.7813,35.9563],[139.7881,35.9542],[139.798,35.9481],[139.8047,35.9449],[139.8096,35.9496],[139.8219,35.9639],[139.8329,35.9703],[139.8254,35.9844],[139.8186,35.9931],[139.8199,36.0257],[139.8177,36.0317]]]}},{"type":"Feature","properties":{"id":11022},"geometry":{"type":"Polygon","coordinates":[[[139.5412,35.9453],[139.5352,35.9486],[139.5306,35.9494],[139.5226,35.9487],[139.516,35.9494],[139.5052,35.9542],[139.495,35.9561],[139.4623,35.9567],[139.4566,35.9488],[139.4539,35.947],[139.445,35.9462],[139.4399,35.9436],[139.4347,35.9456],[139.4402,35.9531],[139.4388,35.9569],[139.4348,35.957],[139.4255,35.9544],[139.4245,35.9368],[139.4223,35.9311],[139.4192,35.9276],[139.4087,35.9203],[139.3958,35.9164],[139.3909,35.9119],[139.3846,35.9141],[139.3839,35.9105],[139.3859,35.9035],[139.3929,35.899],[139.3954,35.8935],[139.4092,35.8974],[139.4137,35.8972],[139.416,35.8946],[139.4288,35.8884],[139.4375,35.8743],[139.4434,35.8752],[139.4454,35.8825],[139.4496,35.8856],[139.4542,35.8848],[139.4573,35.8818],[139.4564,35.8745],[139.4617,35.8712],[139.4624,35.8676],[139.459,35.8586],[139.4589,35.8485],[139.4614,35.8459],[139.4691,35.8421],[139.4739,35.8344],[139.4837,35.8393],[139.483,35.845],[139.4804,35.8471],[139.4745,35.8474],[139.472,35.8509],[139.4731,35.8538],[139.4845,35.8606],[139.4915,35.863],[139.4949,35.8666],[139.5034,35.8683],[139.5082,35.8712],[139.5106,35.8787],[139.5227,35.8842],[139.5288,35.8849],[139.5365,35.8838],[139.5441,35.8799],[139.547,35.8867],[139.5526,35.8916],[139.554,35.8956],[139.5531,35.906],[139.5515,35.9102],[139.5498,35.921],[139.5506,35.9321],[139.5424,35.9375],[139.5412,35.9453]]]}},{"type":"Feature","properties":{"id":11023},"geometry":{"type":"Polygon","coordinates":[[[139.7651,35.8146],[139.775,35.8207],[139.7784,35.826],[139.7843,35.8327],[139.7847,35.8376],[139.7821,35.8431],[139.7717,35.85],[139.7657,35.8511],[139.7618,35.8545],[139.7625,35.8587],[139.7679,35.8642],[139.7619,35.8707],[139.7554,35.8761],[139.7453,35.8825],[139.7357,35.8911],[139.7349,35.8795],[139.7275,35.8671],[139.7183,35.8651],[139.7129,35.8593],[139.706,35.8553],[139.6946,35.8542],[139.693,35.8503],[139.6888,35.8469],[139.6798,35.8496],[139.6777,35.8456],[139.6778,35.835],[139.6888,35.8326],[139.6986,35.8288],[139.7059,35.8238],[139.7068,35.8193],[139.6986,35.8136],[139.6981,35.8066],[139.693,35.7977],[139.698,35.7966],[139.7205,35.7899],[139.7374,35.7867],[139.7486,35.7838],[139.7602,35.7881],[139.7587,35.8081],[139.7571,35.81],[139.747,35.8145],[139.7377,35.8152],[139.7313,35.8174],[139.7226,35.8228],[139.7214,35.8269],[139.7219,35.836],[139.7242,35.8405],[139.7273,35.8406],[139.7436,35.8367],[139.7496,35.8298],[139.7553,35.821],[139.7651,35.8146]]]}},{"type":"Feature","properties":{"id":11024},"geometry":{"type":"Polygon","coordinates":[[[139.5334,35.961],[139.5263,35.9633],[139.5213,35.9726],[139.5107,35.9875],[139.5029,35.9905],[139.5013,35.9942],[139.5039,36.0091],[139.4996,36.0169],[139.4851,36.0197],[139.4727,36.0197],[139.4655,36.0153],[139.4572,36.012],[139.4567,36.0048],[139.4526,36.0019],[139.4455,36.0008],[139.4353,36.0021],[139.4295,36.0016],[139.4275,35.9988],[139.4319,35.9922],[139.4338,35.9883],[139.4445,35.9795],[139.4536,35.9764],[139.4575,35.9703],[139.4623,35.9567],[139.495,35.9561],[139.5052,35.9542],[139.516,35.9494],[139.5226,35.9487],[139.5306,35.9494],[139.5352,35.9486],[139.5412,35.9453],[139.5399,35.9554],[139.5334,35.961]]]}},{"type":"Feature","properties":{"id":11025},"geometry":{"type":"Polygon","coordinates":[[[139.6083,36.1983],[139.607,36.1934],[139.607,36.1822],[139.6089,36.1779],[139.6154,36.1708],[139.6136,36.162],[139.6075,36.1609],[139.5958,36.1617],[139.5892,36.1544],[139.584,36.1472],[139.5759,36.1443],[139.5728,36.1372],[139.5708,36.1358],[139.5548,36.1344],[139.5475,36.1354],[139.5374,36.14],[139.5286,36.1401],[139.5329,36.1306],[139.5393,36.123],[139.55,36.1191],[139.5664,36.122],[139.5768,36.1219],[139.586,36.1205],[139.5949,36.1168],[139.6029,36.1102],[139.6015,36.0976],[139.6035,36.0941],[139.6135,36.086],[139.6223,36.0783],[139.6274,36.0755],[139.6316,36.0791],[139.6349,36.0849],[139.6434,36.0894],[139.6507,36.0974],[139.66,36.1028],[139.6716,36.1076],[139.668,36.1106],[139.6665,36.115],[139.6532,36.1187],[139.6452,36.1223],[139.6441,36.1277],[139.6473,36.1356],[139.6473,36.149],[139.6453,36.1533],[139.6413,36.1571],[139.6409,36.1637],[139.6453,36.1728],[139.6418,36.1761],[139.6322,36.1816],[139.6253,36.1879],[139.622,36.1864],[139.613,36.1935],[139.6083,36.1983]]]}},{"type":"Feature","properties":{"id":11026},"geometry":{"type":"Polygon","coordinates":[[[139.5328,36.1187],[139.5361,36.1103],[139.5431,36.1033],[139.5487,36.0996],[139.5572,36.0974],[139.558,36.0955],[139.5481,36.0868],[139.5501,36.0825],[139.5561,36.0797],[139.5642,36.0729],[139.5799,36.0735],[139.5856,36.0726],[139.5928,36.0733],[139.5965,36.0752],[139.6061,36.083],[139.6135,36.086],[139.6035,36.0941],[139.6015,36.0976],[139.6029,36.1102],[139.5949,36.1168],[139.586,36.1205],[139.5768,36.1219],[139.5664,36.122],[139.55,36.1191],[139.5393,36.123],[139.5328,36.1187]]]}},{"type":"Feature","properties":{"id":11027},"geometry":{"type":"Polygon","coordinates":[[[139.6253,36.1879],[139.6322,36.1816],[139.6418,36.1761],[139.6453,36.1728],[139.6528,36.1726],[139.6666,36.1681],[139.6771,36.1655],[139.6988,36.1568],[139.6965,36.1641],[139.6946,36.177],[139.6974,36.189],[139.7053,36.2007],[139.693,36.205],[139.6725,36.2121],[139.6625,36.2176],[139.6469,36.1936],[139.6354,36.1925],[139.6253,36.1879]]]}},{"type":"Feature","properties":{"id":11028},"geometry":{"type":"Polygon","coordinates":[[[139.5107,35.9875],[139.5182,35.9928],[139.5222,35.9984],[139.5236,36.008],[139.5277,36.0129],[139.543,36.014],[139.5559,36.0172],[139.5594,36.0209],[139.5628,36.0355],[139.5548,36.0421],[139.5446,36.0468],[139.534,36.0532],[139.5281,36.0521],[139.5264,36.0369],[139.5246,36.0331],[139.5241,36.0267],[139.5223,36.0239],[139.5059,36.0233],[139.4996,36.0169],[139.5039,36.0091],[139.5013,35.9942],[139.5029,35.9905],[139.5107,35.9875]]]}},{"type":"Feature","properties":{"id":11029},"geometry":{"type":"Polygon","coordinates":[[[139.4384,36.0892],[139.4423,36.0854],[139.4493,36.0813],[139.4632,36.076],[139.4677,36.0723],[139.4746,36.0632],[139.4864,36.0547],[139.4925,36.0418],[139.4945,36.0331],[139.4969,36.0301],[139.5059,36.0233],[139.5223,36.0239],[139.5241,36.0267],[139.5246,36.0331],[139.5264,36.0369],[139.5281,36.0521],[139.534,36.0532],[139.5446,36.0468],[139.5548,36.0421],[139.5628,36.0355],[139.5681,36.04],[139.5668,36.0451],[139.5617,36.0532],[139.5632,36.0569],[139.5683,36.0588],[139.5697,36.0619],[139.5642,36.0729],[139.5561,36.0797],[139.5501,36.0825],[139.5481,36.0868],[139.558,36.0955],[139.5572,36.0974],[139.5487,36.0996],[139.5431,36.1033],[139.5361,36.1103],[139.5328,36.1187],[139.5242,36.1166],[139.5186,36.1213],[139.513,36.1226],[139.509,36.1214],[139.5032,36.1153],[139.499,36.0951],[139.4965,36.0918],[139.4873,36.0934],[139.4815,36.0994],[139.4763,36.1021],[139.4629,36.1134],[139.4572,36.1141],[139.4531,36.1115],[139.4453,36.0975],[139.4384,36.0892]]]}},{"type":"Feature","properties":{"id":11030},"geometry":{"type":"Polygon","coordinates":[[[139.7536,35.9438],[139.7523,35.9349],[139.7555,35.9297],[139.7534,35.9263],[139.7464,35.924],[139.7427,35.9201],[139.7437,35.918],[139.7526,35.912],[139.7552,35.9049],[139.7556,35.8994],[139.7539,35.8954],[139.7405,35.8936],[139.7357,35.8911],[139.7453,35.8825],[139.7554,35.8761],[139.7619,35.8707],[139.7679,35.8642],[139.7788,35.8641],[139.7902,35.8576],[139.7985,35.8541],[139.8021,35.8544],[139.8085,35.8576],[139.8211,35.8575],[139.8255,35.8594],[139.8269,35.8646],[139.83,35.8664],[139.841,35.8691],[139.8414,35.881],[139.8393,35.8881],[139.8351,35.8968],[139.8355,35.9049],[139.8251,35.9108],[139.8183,35.9135],[139.8096,35.9188],[139.8155,35.9291],[139.8153,35.9373],[139.8047,35.9449],[139.798,35.9481],[139.7881,35.9542],[139.7813,35.9563],[139.7775,35.9532],[139.7795,35.9397],[139.7775,35.9367],[139.7721,35.9351],[139.7631,35.9381],[139.7591,35.9439],[139.7536,35.9438]]]}},{"type":"Feature","properties":{"id":11031},"geometry":{"type":"Polygon","coordinates":[[[139.6274,36.0755],[139.6305,36.0729],[139.644,36.0651],[139.6482,36.0596],[139.6479,36.0574],[139.6426,36.0531],[139.6395,36.0483],[139.6503,36.0435],[139.6662,36.0485],[139.6718,36.0476],[139.6801,36.0435],[139.6863,36.0481],[139.6895,36.0568],[139.6952,36.0605],[139.7026,36.0606],[139.7103,36.0661],[139.7126,36.0701],[139.7074,36.077],[139.6994,36.0753],[139.6939,36.0753],[139.6804,36.0786],[139.6727,36.0787],[139.6657,36.076],[139.6505,36.0828],[139.6434,36.0894],[139.6349,36.0849],[139.6316,36.0791],[139.6274,36.0755]]]}},{"type":"Feature","properties":{"id":11032},"geometry":{"type":"Polygon","coordinates":[[[139.4155,36.217],[139.4015,36.2238],[139.3916,36.2297],[139.3767,36.2402],[139.375,36.2414],[139.3639,36.2434],[139.3524,36.2414],[139.3405,36.2382],[139.3365,36.2359],[139.3418,36.2301],[139.3441,36.2254],[139.3441,36.2171],[139.3391,36.1959],[139.3387,36.1834],[139.3358,36.1773],[139.327,36.1723],[139.3197,36.1719],[139.3135,36.1701],[139.3035,36.1614],[139.2981,36.1583],[139.2969,36.1549],[139.2994,36.1503],[139.3103,36.1479],[139.3152,36.1424],[139.3185,36.1346],[139.3183,36.1255],[139.3165,36.1174],[139.314,36.1127],[139.3067,36.1074],[139.3085,36.1042],[139.3255,36.089],[139.3311,36.0941],[139.335,36.094],[139.3377,36.0885],[139.3423,36.0858],[139.3459,36.0871],[139.347,36.0945],[139.3488,36.098],[139.3537,36.0999],[139.3635,36.0967],[139.3683,36.0965],[139.3756,36.0988],[139.3853,36.0915],[139.3891,36.0989],[139.3944,36.1008],[139.4027,36.097],[139.4109,36.0921],[139.4123,36.0875],[139.4091,36.0786],[139.4116,36.0756],[139.4231,36.0699],[139.44,36.0719],[139.4446,36.0752],[139.4493,36.0813],[139.4423,36.0854],[139.4384,36.0892],[139.4277,36.1062],[139.4274,36.1108],[139.431,36.1147],[139.432,36.1189],[139.4315,36.1274],[139.4268,36.1315],[139.425,36.1371],[139.426,36.1408],[139.4346,36.1467],[139.4393,36.1529],[139.4415,36.1586],[139.4417,36.1634],[139.4373,36.1665],[139.4298,36.1678],[139.4265,36.1719],[139.4249,36.1868],[139.4253,36.1918],[139.4309,36.1946],[139.4456,36.1949],[139.42,36.2148],[139.4155,36.217]]]}},{"type":"Feature","properties":{"id":11033},"geometry":{"type":"Polygon","coordinates":[[[139.7149,36.1285],[139.7129,36.1334],[139.7062,36.1419],[139.7007,36.1512],[139.6981,36.1453],[139.6846,36.127],[139.6802,36.1237],[139.6747,36.1225],[139.6665,36.115],[139.668,36.1106],[139.6716,36.1076],[139.6808,36.1045],[139.6944,36.1037],[139.7039,36.0972],[139.7277,36.096],[139.734,36.0948],[139.7306,36.1009],[139.7255,36.1146],[139.7176,36.122],[139.7149,36.1285]]]}},{"type":"Feature","properties":{"id":11034},"geometry":{"type":"Polygon","coordinates":[[[139.8329,35.9703],[139.8219,35.9639],[139.8096,35.9496],[139.8047,35.9449],[139.8153,35.9373],[139.8155,35.9291],[139.8096,35.9188],[139.8183,35.9135],[139.8251,35.9108],[139.8355,35.9049],[139.8432,35.9079],[139.8465,35.9141],[139.8397,35.9199],[139.8391,35.9266],[139.8491,35.9385],[139.8436,35.9467],[139.8387,35.9594],[139.8329,35.9703]]]}},{"type":"Feature","properties":{"id":11035},"geometry":{"type":"Polygon","coordinates":[[[139.1587,36.0217],[139.1594,36.0284],[139.1606,36.0564],[139.1636,36.0664],[139.1638,36.076],[139.1591,36.0822],[139.1498,36.088],[139.1408,36.0841],[139.1293,36.0837],[139.1165,36.0823],[139.1058,36.0845],[139.0963,36.0916],[139.0934,36.0963],[139.0913,36.1036],[139.091,36.1141],[139.0871,36.1176],[139.076,36.1165],[139.0718,36.117],[139.0661,36.123],[139.0556,36.1164],[139.0522,36.1106],[139.0506,36.1051],[139.0461,36.0991],[139.0424,36.0969],[139.0243,36.0967],[139.0147,36.0932],[139.0097,36.0899],[139.0099,36.0843],[139.0189,36.0796],[139.0265,36.0718],[139.0307,36.0695],[139.0433,36.0687],[139.0552,36.0705],[139.0618,36.0663],[139.0645,36.0555],[139.0689,36.0548],[139.0819,36.0601],[139.0943,36.0601],[139.1055,36.0581],[139.119,36.0491],[139.1231,36.0418],[139.1315,36.0297],[139.1504,36.0269],[139.1587,36.0217]]]}},{"type":"Feature","properties":{"id":11036},"geometry":{"type":"Polygon","coordinates":[[[139.2003,36.2054],[139.1864,36.2044],[139.1757,36.2066],[139.1737,36.2054],[139.1671,36.1947],[139.1651,36.1867],[139.1609,36.1821],[139.1575,36.1735],[139.1567,36.1621],[139.1541,36.1536],[139.1497,36.1458],[139.1453,36.1414],[139.1573,36.1367],[139.1661,36.134],[139.1681,36.1299],[139.1794,36.1293],[139.1873,36.133],[139.1908,36.1388],[139.2007,36.1499],[139.2016,36.1547],[139.1992,36.163],[139.1953,36.1703],[139.197,36.1748],[139.203,36.1779],[139.2124,36.1802],[139.2175,36.1878],[139.2133,36.193],[139.2079,36.1943],[139.2036,36.1977],[139.2003,36.2054]]]}},{"type":"Feature","properties":{"id":11037},"geometry":{"type":"Polygon","coordinates":[[[139.8942,35.8255],[139.8925,35.8373],[139.8981,35.8476],[139.9038,35.8602],[139.9022,35.8647],[139.8913,35.8643],[139.8826,35.863],[139.8735,35.8632],[139.8651,35.8647],[139.8547,35.8629],[139.846,35.8585],[139.8407,35.8577],[139.8404,35.8457],[139.8427,35.8355],[139.8508,35.8279],[139.8537,35.8268],[139.8602,35.8214],[139.8624,35.817],[139.8629,35.8111],[139.8617,35.8059],[139.8571,35.8004],[139.8491,35.7949],[139.8628,35.792],[139.875,35.7943],[139.8924,35.8052],[139.8956,35.8157],[139.8942,35.8255]]]}},{"type":"Feature","properties":{"id":11038},"geometry":{"type":"Polygon","coordinates":[[[139.7428,36.002],[139.7524,36.0083],[139.7522,36.0145],[139.7391,36.0204],[139.7253,36.0318],[139.7142,36.0339],[139.7097,36.0382],[139.7015,36.0489],[139.7011,36.0524],[139.7026,36.0606],[139.6952,36.0605],[139.6895,36.0568],[139.6863,36.0481],[139.6801,36.0435],[139.6821,36.0385],[139.6917,36.0321],[139.701,36.0244],[139.7099,36.0218],[139.7127,36.0164],[139.709,36.0114],[139.7091,36.0086],[139.7136,36.0047],[139.7147,36.0003],[139.7133,35.9921],[139.7176,35.9907],[139.7242,35.9851],[139.7272,35.992],[139.73,35.9952],[139.7428,36.002]]]}},{"type":"Feature","properties":{"id":11039},"geometry":{"type":"Polygon","coordinates":[[[139.5296,35.8528],[139.5202,35.8431],[139.5128,35.8437],[139.5051,35.8502],[139.4921,35.8467],[139.4837,35.8393],[139.485,35.8343],[139.4904,35.8275],[139.4978,35.8149],[139.5057,35.8129],[139.511,35.8149],[139.5214,35.8226],[139.528,35.8225],[139.5352,35.8178],[139.5465,35.8159],[139.5552,35.8165],[139.5585,35.819],[139.5534,35.825],[139.5469,35.8316],[139.5437,35.8377],[139.5332,35.8382],[139.5298,35.8459],[139.5296,35.8528]]]}},{"type":"Feature","properties":{"id":11040},"geometry":{"type":"Polygon","coordinates":[[[139.2753,35.8968],[139.2818,35.8978],[139.288,35.9003],[139.3004,35.9037],[139.3055,35.9043],[139.3113,35.901],[139.3208,35.9008],[139.3277,35.9062],[139.3353,35.9168],[139.3428,35.9211],[139.3482,35.9332],[139.3541,35.9398],[139.3587,35.9465],[139.3592,35.9528],[139.3549,35.9592],[139.3481,35.9662],[139.3358,35.9588],[139.3285,35.9588],[139.3197,35.9645],[139.3162,35.9553],[139.3094,35.9486],[139.2986,35.9451],[139.2898,35.9454],[139.2769,35.9483],[139.2724,35.9446],[139.267,35.9361],[139.2636,35.9331],[139.2632,35.9285],[139.2674,35.9217],[139.269,35.9142],[139.2725,35.9105],[139.2746,35.9045],[139.2753,35.8968]]]}},{"type":"Feature","properties":{"id":11041},"geometry":{"type":"Polygon","coordinates":[[[139.0871,36.1176],[139.091,36.1141],[139.0913,36.1036],[139.0934,36.0963],[139.0963,36.0916],[139.1058,36.0845],[139.1165,36.0823],[139.1293,36.0837],[139.1408,36.0841],[139.1498,36.088],[139.1479,36.096],[139.1434,36.1055],[139.1449,36.1148],[139.1493,36.1203],[139.1541,36.1239],[139.1635,36.1248],[139.1681,36.1299],[139.1661,36.134],[139.1573,36.1367],[139.1453,36.1414],[139.1354,36.1449],[139.1282,36.1433],[139.1172,36.1373],[139.1081,36.1332],[139.0871,36.1176]]]}},{"type":"Feature","properties":{"id":11042},"geometry":{"type":"Polygon","coordinates":[[[139.3853,36.0915],[139.3756,36.0988],[139.3683,36.0965],[139.3635,36.0967],[139.3537,36.0999],[139.3488,36.098],[139.347,36.0945],[139.3459,36.0871],[139.3423,36.0858],[139.3377,36.0885],[139.335,36.094],[139.3311,36.0941],[139.3255,36.089],[139.3288,36.0817],[139.3324,36.0796],[139.3421,36.0776],[139.3414,36.0743],[139.3346,36.0713],[139.3342,36.0659],[139.3401,36.0571],[139.3412,36.0514],[139.3444,36.0467],[139.3432,36.0423],[139.336,36.0378],[139.3621,36.0353],[139.371,36.0387],[139.3831,36.0399],[139.3844,36.0429],[139.3846,36.055],[139.381,36.0615],[139.3809,36.0673],[139.3787,36.0747],[139.3822,36.0856],[139.3853,36.0915]]]}},{"type":"Feature","properties":{"id":11043},"geometry":{"type":"Polygon","coordinates":[[[139.5695,35.8193],[139.5585,35.819],[139.5552,35.8165],[139.5465,35.8159],[139.5352,35.8178],[139.5405,35.8041],[139.5466,35.8023],[139.5466,35.799],[139.5407,35.7917],[139.5424,35.7866],[139.5469,35.7787],[139.5392,35.772],[139.5453,35.7657],[139.5508,35.7601],[139.5565,35.7595],[139.566,35.7585],[139.5788,35.765],[139.5871,35.7717],[139.596,35.775],[139.5964,35.7827],[139.5911,35.7827],[139.5837,35.7849],[139.5748,35.789],[139.5697,35.8005],[139.5695,35.8193]]]}},{"type":"Feature","properties":{"id":11044},"geometry":{"type":"Polygon","coordinates":[[[138.835,36.0428],[138.8295,36.0371],[138.8411,36.0322],[138.8511,36.0237],[138.8496,36.0109],[138.8508,36.0023],[138.8488,35.9949],[138.8565,35.9893],[138.8657,35.9815],[138.8849,35.9709],[138.8944,35.9708],[138.902,35.9734],[138.9147,35.9699],[138.9209,35.967],[138.9285,35.9667],[138.9347,35.9685],[138.9427,35.9674],[138.9543,35.9678],[138.957,35.9743],[138.9615,35.9763],[138.9765,35.9794],[138.9854,35.9802],[138.9897,35.9793],[138.9978,35.9747],[139.005,35.9738],[139.0101,35.9702],[139.0169,35.9624],[139.0192,35.9626],[139.036,35.969],[139.0496,35.9793],[139.05,35.985],[139.0429,35.991],[139.0451,35.9989],[139.0529,36.0052],[139.0537,36.0113],[139.0503,36.0135],[139.0415,36.0048],[139.0351,36.0049],[139.0285,36.0103],[139.0234,36.018],[139.015,36.0231],[138.9998,36.0276],[138.9899,36.0337],[138.9827,36.0364],[138.9783,36.0402],[138.9718,36.0508],[138.9669,36.0547],[138.958,36.0589],[138.9454,36.0696],[138.9398,36.0772],[138.9399,36.0863],[138.9365,36.0862],[138.9342,36.0849],[138.9144,36.0877],[138.9044,36.0876],[138.8932,36.0833],[138.8805,36.0793],[138.8672,36.0738],[138.8602,36.066],[138.8503,36.064],[138.8462,36.0533],[138.8378,36.0471],[138.835,36.0428]]]}},{"type":"Feature","properties":{"id":11045},"geometry":{"type":"Polygon","coordinates":[[[139.1955,36.0005],[139.2054,36.0011],[139.2184,36.0042],[139.2361,36.0152],[139.2423,36.018],[139.2471,36.0216],[139.2516,36.0274],[139.2573,36.0296],[139.2729,36.0257],[139.2877,36.0246],[139.2934,36.0256],[139.3011,36.0329],[139.3003,36.0415],[139.3038,36.0525],[139.312,36.058],[139.3122,36.0639],[139.2989,36.0736],[139.2966,36.0778],[139.2935,36.0876],[139.2855,36.0889],[139.2746,36.0937],[139.269,36.0934],[139.262,36.0859],[139.2489,36.0808],[139.2423,36.0801],[139.228,36.0842],[139.2244,36.0839],[139.2145,36.0807],[139.2097,36.0771],[139.2011,36.0672],[139.2071,36.0618],[139.2117,36.0599],[139.2243,36.0566],[139.2331,36.053],[139.2357,36.0507],[139.2365,36.0451],[139.234,36.0427],[139.2278,36.0412],[139.2218,36.037],[139.2058,36.0311],[139.1925,36.0241],[139.1919,36.0151],[139.1957,36.0073],[139.1955,36.0005]]]}},{"type":"Feature","properties":{"id":11046},"geometry":{"type":"Polygon","coordinates":[[[139.2674,35.9217],[139.2632,35.9285],[139.2636,35.9331],[139.267,35.9361],[139.2724,35.9446],[139.2769,35.9483],[139.2898,35.9454],[139.2986,35.9451],[139.3094,35.9486],[139.3162,35.9553],[139.3197,35.9645],[139.3118,35.9709],[139.3027,35.9821],[139.2917,35.9915],[139.2854,35.9882],[139.2734,35.9851],[139.2674,35.9843],[139.2574,35.9811],[139.2509,35.9778],[139.2422,35.9717],[139.2311,35.971],[139.2268,35.9677],[139.2231,35.9611],[139.216,35.9524],[139.2246,35.9438],[139.2277,35.9395],[139.2329,35.9352],[139.2362,35.9307],[139.2484,35.9223],[139.2521,35.9217],[139.2674,35.9217]]]}},{"type":"Feature","properties":{"id":11047},"geometry":{"type":"Polygon","coordinates":[[[139.5898,36.0086],[139.5944,36.0208],[139.5998,36.0294],[139.5867,36.0287],[139.5775,36.0308],[139.5712,36.0346],[139.5681,36.04],[139.5628,36.0355],[139.5594,36.0209],[139.5559,36.0172],[139.543,36.014],[139.5277,36.0129],[139.5236,36.008],[139.5222,35.9984],[139.5182,35.9928],[139.5107,35.9875],[139.5213,35.9726],[139.5263,35.9633],[139.5334,35.961],[139.5409,35.9769],[139.5411,35.986],[139.5424,35.9893],[139.552,35.9906],[139.5567,35.9931],[139.5604,35.9927],[139.5656,35.9884],[139.5728,35.9858],[139.5775,35.9867],[139.5801,35.9903],[139.5785,35.9972],[139.5787,36.0023],[139.5859,36.0079],[139.5898,36.0086]]]}},{"type":"Feature","properties":{"id":11048},"geometry":{"type":"Polygon","coordinates":[[[139.6988,36.1568],[139.6771,36.1655],[139.6666,36.1681],[139.6528,36.1726],[139.6453,36.1728],[139.6409,36.1637],[139.6413,36.1571],[139.6453,36.1533],[139.6473,36.149],[139.6473,36.1356],[139.6441,36.1277],[139.6452,36.1223],[139.6532,36.1187],[139.6665,36.115],[139.6747,36.1225],[139.6802,36.1237],[139.6846,36.127],[139.6981,36.1453],[139.7007,36.1512],[139.6988,36.1568]]]}},{"type":"Feature","properties":{"id":11049},"geometry":{"type":"Polygon","coordinates":[[[139.2916,36.1028],[139.2972,36.0944],[139.3042,36.0917],[139.3031,36.0877],[139.2935,36.0876],[139.2966,36.0778],[139.2989,36.0736],[139.3122,36.0639],[139.312,36.058],[139.3038,36.0525],[139.3003,36.0415],[139.3011,36.0329],[139.3052,36.026],[139.3082,36.0232],[139.3116,36.0171],[139.3205,36.0102],[139.3295,36.0079],[139.3422,36.007],[139.3426,36.0151],[139.3371,36.0261],[139.3353,36.034],[139.336,36.0378],[139.3432,36.0423],[139.3444,36.0467],[139.3412,36.0514],[139.3401,36.0571],[139.3342,36.0659],[139.3346,36.0713],[139.3414,36.0743],[139.3421,36.0776],[139.3324,36.0796],[139.3288,36.0817],[139.3255,36.089],[139.3085,36.1042],[139.3067,36.1074],[139.2916,36.1028]]]}},{"type":"Feature","properties":{"id":11050},"geometry":{"type":"Polygon","coordinates":[[[139.5506,35.9321],[139.5498,35.921],[139.5515,35.9102],[139.5531,35.906],[139.554,35.8956],[139.5526,35.8916],[139.547,35.8867],[139.5562,35.8797],[139.5611,35.8724],[139.5652,35.8701],[139.5747,35.8695],[139.58,35.8643],[139.5864,35.8598],[139.5941,35.8447],[139.6064,35.8342],[139.6132,35.8306],[139.6214,35.8366],[139.6325,35.8377],[139.6436,35.8362],[139.6532,35.8329],[139.6645,35.8342],[139.6778,35.835],[139.6777,35.8456],[139.6798,35.8496],[139.6888,35.8469],[139.693,35.8503],[139.6946,35.8542],[139.706,35.8553],[139.7129,35.8593],[139.7183,35.8651],[139.7275,35.8671],[139.7349,35.8795],[139.7357,35.8911],[139.7405,35.8936],[139.7539,35.8954],[139.7556,35.8994],[139.7552,35.9049],[139.7526,35.912],[139.7437,35.918],[139.7427,35.9201],[139.7464,35.924],[139.7534,35.9263],[139.7555,35.9297],[139.7523,35.9349],[139.7536,35.9438],[139.7472,35.9467],[139.7411,35.9513],[139.735,35.9518],[139.7262,35.9498],[139.7212,35.9472],[139.7149,35.9473],[139.7139,35.9514],[139.7213,35.9638],[139.7236,35.9713],[139.7242,35.9851],[139.7176,35.9907],[139.7133,35.9921],[139.7028,35.9998],[139.6987,36.0017],[139.6952,36.0001],[139.6961,35.996],[139.6955,35.9907],[139.6921,35.9809],[139.6897,35.9771],[139.6844,35.9739],[139.6758,35.9722],[139.6692,35.963],[139.6656,35.962],[139.6469,35.961],[139.6472,35.9558],[139.6449,35.9529],[139.6338,35.953],[139.6281,35.9551],[139.6171,35.9644],[139.614,35.9648],[139.6043,35.9622],[139.594,35.9611],[139.5895,35.958],[139.5895,35.9526],[139.5971,35.9457],[139.5971,35.9406],[139.5932,35.9396],[139.5875,35.9448],[139.5812,35.9459],[139.5703,35.943],[139.5645,35.9382],[139.5506,35.9321]]]}},{"type":"Feature","properties":{"id":11051},"geometry":{"type":"Polygon","coordinates":[[[139.3481,35.9662],[139.3549,35.9592],[139.3592,35.9528],[139.3587,35.9465],[139.3541,35.9398],[139.3482,35.9332],[139.3576,35.9285],[139.3719,35.9404],[139.3829,35.9471],[139.3922,35.948],[139.4028,35.945],[139.4098,35.9493],[139.4138,35.957],[139.4176,35.958],[139.4255,35.9544],[139.4348,35.957],[139.4388,35.9569],[139.4402,35.9531],[139.4347,35.9456],[139.4399,35.9436],[139.445,35.9462],[139.4539,35.947],[139.4566,35.9488],[139.4623,35.9567],[139.4575,35.9703],[139.4536,35.9764],[139.4445,35.9795],[139.4338,35.9883],[139.4319,35.9922],[139.4284,35.9902],[139.4108,35.9878],[139.3984,35.9815],[139.3841,35.981],[139.3686,35.9761],[139.3481,35.9662]]]}},{"type":"Feature","properties":{"id":11052},"geometry":{"type":"Polygon","coordinates":[[[139.78,36.0938],[139.7602,36.0793],[139.7404,36.0833],[139.734,36.0948],[139.7277,36.096],[139.7039,36.0972],[139.6999,36.0913],[139.7012,36.0875],[139.7086,36.0865],[139.7107,36.0819],[139.7074,36.077],[139.7126,36.0701],[139.7103,36.0661],[139.7026,36.0606],[139.7095,36.0594],[139.7141,36.057],[139.7192,36.0511],[139.7238,36.0512],[139.726,36.0608],[139.7302,36.06],[139.7302,36.0527],[139.7315,36.0475],[139.7356,36.0427],[139.7422,36.0373],[139.7478,36.037],[139.7535,36.039],[139.7565,36.0434],[139.7544,36.0497],[139.7582,36.0531],[139.7645,36.0515],[139.7677,36.0457],[139.775,36.0411],[139.7813,36.042],[139.7837,36.046],[139.7822,36.049],[139.7832,36.0551],[139.7912,36.06],[139.7882,36.0645],[139.7827,36.0777],[139.78,36.0938]]]}},{"type":"Feature","properties":{"id":11053},"geometry":{"type":"Polygon","coordinates":[[[139.3566,35.8542],[139.3613,35.8499],[139.3618,35.8425],[139.3654,35.84],[139.3699,35.8407],[139.3794,35.8463],[139.3866,35.8465],[139.3898,35.8446],[139.392,35.8379],[139.4071,35.8318],[139.4144,35.8197],[139.4286,35.8188],[139.4325,35.8193],[139.4457,35.8293],[139.4491,35.8335],[139.4559,35.837],[139.4632,35.8339],[139.4739,35.8344],[139.4691,35.8421],[139.4614,35.8459],[139.4589,35.8485],[139.459,35.8586],[139.4624,35.8676],[139.4617,35.8712],[139.4564,35.8745],[139.4573,35.8818],[139.4542,35.8848],[139.4496,35.8856],[139.4454,35.8825],[139.4434,35.8752],[139.4375,35.8743],[139.4288,35.8884],[139.416,35.8946],[139.4137,35.8972],[139.4092,35.8974],[139.3954,35.8935],[139.3952,35.8873],[139.387,35.8769],[139.386,35.8735],[139.377,35.866],[139.3727,35.864],[139.3566,35.8542]]]}},{"type":"Feature","properties":{"id":11054},"geometry":{"type":"Polygon","coordinates":[[[139.6132,35.8306],[139.6064,35.8342],[139.5941,35.8447],[139.5864,35.8598],[139.5814,35.8539],[139.5793,35.8493],[139.5785,35.8428],[139.5758,35.8396],[139.5639,35.8331],[139.5534,35.825],[139.5585,35.819],[139.5695,35.8193],[139.5749,35.8227],[139.5855,35.824],[139.6132,35.8306]]]}},{"type":"Feature","properties":{"id":11055},"geometry":{"type":"Polygon","coordinates":[[[139.6961,35.996],[139.6952,36.0001],[139.6987,36.0017],[139.7028,35.9998],[139.7133,35.9921],[139.7147,36.0003],[139.7136,36.0047],[139.7091,36.0086],[139.709,36.0114],[139.7127,36.0164],[139.7099,36.0218],[139.701,36.0244],[139.6917,36.0321],[139.6821,36.0385],[139.6801,36.0435],[139.6718,36.0476],[139.6662,36.0485],[139.6503,36.0435],[139.6395,36.0483],[139.6313,36.0462],[139.6173,36.046],[139.6105,36.0436],[139.607,36.0372],[139.6168,36.0348],[139.6247,36.0305],[139.6343,36.0285],[139.6447,36.0292],[139.6489,36.0258],[139.6521,36.0128],[139.6588,36.0102],[139.6746,36.0008],[139.6873,35.9969],[139.6961,35.996]]]}},{"type":"Feature","properties":{"id":11056},"geometry":{"type":"Polygon","coordinates":[[[139.607,36.0372],[139.6105,36.0436],[139.6173,36.046],[139.6313,36.0462],[139.6395,36.0483],[139.6426,36.0531],[139.6479,36.0574],[139.6482,36.0596],[139.644,36.0651],[139.6305,36.0729],[139.6274,36.0755],[139.6223,36.0783],[139.6135,36.086],[139.6061,36.083],[139.5965,36.0752],[139.5928,36.0733],[139.5856,36.0726],[139.5799,36.0735],[139.5642,36.0729],[139.5697,36.0619],[139.5683,36.0588],[139.5632,36.0569],[139.5617,36.0532],[139.5668,36.0451],[139.5681,36.04],[139.5712,36.0346],[139.5775,36.0308],[139.5867,36.0287],[139.5998,36.0294],[139.6014,36.033],[139.607,36.0372]]]}},{"type":"Feature","properties":{"id":11057},"geometry":{"type":"Polygon","coordinates":[[[139.7683,35.8135],[139.7703,35.8144],[139.7807,35.8074],[139.7929,35.8027],[139.8036,35.8038],[139.8194,35.8085],[139.8192,35.8223],[139.8212,35.8272],[139.8279,35.8308],[139.8427,35.8355],[139.8404,35.8457],[139.8407,35.8577],[139.841,35.8691],[139.83,35.8664],[139.8269,35.8646],[139.8255,35.8594],[139.8211,35.8575],[139.8085,35.8576],[139.8021,35.8544],[139.7985,35.8541],[139.7902,35.8576],[139.7788,35.8641],[139.7679,35.8642],[139.7625,35.8587],[139.7618,35.8545],[139.7657,35.8511],[139.7717,35.85],[139.7821,35.8431],[139.7847,35.8376],[139.7843,35.8327],[139.7784,35.826],[139.775,35.8207],[139.7651,35.8146],[139.7683,35.8135]]]}},{"type":"Feature","properties":{"id":11058},"geometry":{"type":"Polygon","coordinates":[[[139.7912,36.06],[139.7832,36.0551],[139.7822,36.049],[139.7837,36.046],[139.7813,36.042],[139.775,36.0411],[139.7677,36.0457],[139.7645,36.0515],[139.7582,36.0531],[139.7544,36.0497],[139.7565,36.0434],[139.7535,36.039],[139.7478,36.037],[139.7422,36.0373],[139.7356,36.0427],[139.7315,36.0475],[139.7302,36.0527],[139.7302,36.06],[139.726,36.0608],[139.7238,36.0512],[139.7192,36.0511],[139.7141,36.057],[139.7095,36.0594],[139.7026,36.0606],[139.7011,36.0524],[139.7015,36.0489],[139.7097,36.0382],[139.7142,36.0339],[139.7253,36.0318],[139.7391,36.0204],[139.7522,36.0145],[139.7524,36.0083],[139.7428,36.002],[139.7554,36.0012],[139.7775,36.0096],[139.7901,36.0189],[139.7975,36.0215],[139.8031,36.0255],[139.8177,36.0317],[139.8161,36.0359],[139.8033,36.0467],[139.7937,36.0561],[139.7912,36.06]]]}},{"type":"Feature","properties":{"id":11059},"geometry":{"type":"Polygon","coordinates":[[[139.6223,35.8126],[139.6267,35.8083],[139.6365,35.8077],[139.6418,35.8025],[139.642,35.7903],[139.6434,35.7917],[139.6592,35.7966],[139.6698,35.7972],[139.6802,35.796],[139.693,35.7977],[139.6981,35.8066],[139.6986,35.8136],[139.6784,35.8144],[139.6738,35.8163],[139.6675,35.8236],[139.6645,35.8342],[139.6532,35.8329],[139.6436,35.8362],[139.6325,35.8377],[139.6214,35.8366],[139.6132,35.8306],[139.622,35.8263],[139.6265,35.822],[139.626,35.8186],[139.6223,35.8126]]]}},{"type":"Feature","properties":{"id":11060},"geometry":{"type":"Polygon","coordinates":[[[139.1737,35.985],[139.1736,35.9797],[139.1779,35.9644],[139.1902,35.9641],[139.2043,35.9609],[139.216,35.9524],[139.2231,35.9611],[139.2268,35.9677],[139.2311,35.971],[139.2422,35.9717],[139.2509,35.9778],[139.2574,35.9811],[139.2674,35.9843],[139.2734,35.9851],[139.2854,35.9882],[139.2917,35.9915],[139.2985,35.9949],[139.3083,35.9926],[139.3126,36.0046],[139.3205,36.0102],[139.3116,36.0171],[139.3082,36.0232],[139.3052,36.026],[139.3011,36.0329],[139.2934,36.0256],[139.2877,36.0246],[139.2729,36.0257],[139.2573,36.0296],[139.2516,36.0274],[139.2471,36.0216],[139.2423,36.018],[139.2361,36.0152],[139.2184,36.0042],[139.2054,36.0011],[139.1955,36.0005],[139.1927,35.9981],[139.1853,35.9955],[139.178,35.991],[139.1737,35.985]]]}},{"type":"Feature","properties":{"id":11061},"geometry":{"type":"Polygon","coordinates":[[[139.3842,35.7715],[139.3925,35.7638],[139.3987,35.7646],[139.4044,35.7653],[139.4149,35.7649],[139.4421,35.7663],[139.4485,35.7659],[139.4562,35.7653],[139.4654,35.7703],[139.4769,35.7716],[139.4856,35.7778],[139.4995,35.7763],[139.5017,35.7771],[139.5097,35.7797],[139.5189,35.7855],[139.5293,35.7887],[139.5368,35.7961],[139.5424,35.7866],[139.5407,35.7917],[139.5466,35.799],[139.5466,35.8023],[139.5405,35.8041],[139.5352,35.8178],[139.528,35.8225],[139.5214,35.8226],[139.511,35.8149],[139.5057,35.8129],[139.4978,35.8149],[139.4904,35.8275],[139.485,35.8343],[139.4837,35.8393],[139.4739,35.8344],[139.4632,35.8339],[139.4559,35.837],[139.4491,35.8335],[139.4457,35.8293],[139.4325,35.8193],[139.4286,35.8188],[139.4144,35.8197],[139.4134,35.8128],[139.4092,35.8089],[139.3911,35.8053],[139.3842,35.8021],[139.3825,35.7992],[139.3832,35.788],[139.3886,35.7752],[139.3842,35.7715]]]}},{"type":"Feature","properties":{"id":11062},"geometry":{"type":"Polygon","coordinates":[[[139.3846,35.9141],[139.3909,35.9119],[139.3958,35.9164],[139.4087,35.9203],[139.4192,35.9276],[139.4223,35.9311],[139.4245,35.9368],[139.4255,35.9544],[139.4176,35.958],[139.4138,35.957],[139.4098,35.9493],[139.4028,35.945],[139.3922,35.948],[139.3829,35.9471],[139.3719,35.9404],[139.3576,35.9285],[139.3559,35.9239],[139.3606,35.9221],[139.3674,35.9238],[139.3727,35.9232],[139.3846,35.9141]]]}},{"type":"Feature","properties":{"id":11063},"geometry":{"type":"Polygon","coordinates":[[[139.5964,35.7827],[139.596,35.775],[139.5974,35.7754],[139.6149,35.7671],[139.625,35.7638],[139.6284,35.7749],[139.6352,35.7837],[139.642,35.7903],[139.6418,35.8025],[139.6365,35.8077],[139.6267,35.8083],[139.6223,35.8126],[139.6136,35.8056],[139.6077,35.7947],[139.5982,35.7855],[139.5964,35.7827]]]}},{"type":"Feature","properties":{"id":11064},"geometry":{"type":"Polygon","coordinates":[[[139.6778,35.835],[139.6645,35.8342],[139.6675,35.8236],[139.6738,35.8163],[139.6784,35.8144],[139.6986,35.8136],[139.7068,35.8193],[139.7059,35.8238],[139.6986,35.8288],[139.6888,35.8326],[139.6778,35.835]]]}},{"type":"Feature","properties":{"id":11065},"geometry":{"type":"Polygon","coordinates":[[[139.6434,36.0894],[139.6505,36.0828],[139.6657,36.076],[139.6727,36.0787],[139.6804,36.0786],[139.6939,36.0753],[139.6994,36.0753],[139.7074,36.077],[139.7107,36.0819],[139.7086,36.0865],[139.7012,36.0875],[139.6999,36.0913],[139.7039,36.0972],[139.6944,36.1037],[139.6808,36.1045],[139.6716,36.1076],[139.66,36.1028],[139.6507,36.0974],[139.6434,36.0894]]]}},{"type":"Feature","properties":{"id":11066},"geometry":{"type":"Polygon","coordinates":[[[139.8427,35.8355],[139.8279,35.8308],[139.8212,35.8272],[139.8192,35.8223],[139.8194,35.8085],[139.8279,35.7913],[139.8359,35.7939],[139.8491,35.7949],[139.8571,35.8004],[139.8617,35.8059],[139.8629,35.8111],[139.8624,35.817],[139.8602,35.8214],[139.8537,35.8268],[139.8508,35.8279],[139.8427,35.8355]]]}},{"type":"Feature","properties":{"id":11067},"geometry":{"type":"Polygon","coordinates":[[[139.1049,35.9228],[139.1155,35.9273],[139.1259,35.9332],[139.138,35.9339],[139.1496,35.938],[139.1602,35.9402],[139.1629,35.9421],[139.1683,35.9493],[139.1739,35.9539],[139.1779,35.9644],[139.1736,35.9797],[139.1737,35.985],[139.1668,35.9889],[139.1548,35.9914],[139.1383,35.996],[139.1265,35.995],[139.1211,35.9954],[139.1103,36.0016],[139.1064,36.002],[139.1004,36],[139.0957,35.9945],[139.091,35.9845],[139.0893,35.9764],[139.0886,35.9593],[139.09,35.9532],[139.0973,35.9471],[139.0994,35.9434],[139.0978,35.9326],[139.1049,35.9228]]]}},{"type":"Feature","properties":{"id":11068},"geometry":{"type":"Polygon","coordinates":[[[139.1953,36.1703],[139.1992,36.163],[139.2016,36.1547],[139.2007,36.1499],[139.1908,36.1388],[139.1873,36.133],[139.1794,36.1293],[139.1681,36.1299],[139.1635,36.1248],[139.1541,36.1239],[139.1493,36.1203],[139.1449,36.1148],[139.1434,36.1055],[139.1479,36.096],[139.1498,36.088],[139.1591,36.0822],[139.1675,36.0879],[139.1711,36.0877],[139.1832,36.0771],[139.1861,36.0716],[139.1929,36.067],[139.2011,36.0672],[139.2097,36.0771],[139.2145,36.0807],[139.2244,36.0839],[139.228,36.0842],[139.2423,36.0801],[139.2489,36.0808],[139.262,36.0859],[139.269,36.0934],[139.2746,36.0937],[139.2855,36.0889],[139.2935,36.0876],[139.3031,36.0877],[139.3042,36.0917],[139.2972,36.0944],[139.2916,36.1028],[139.2797,36.102],[139.2763,36.1041],[139.2784,36.11],[139.2764,36.113],[139.2643,36.1126],[139.2528,36.1138],[139.2383,36.114],[139.2281,36.115],[139.2216,36.1197],[139.2202,36.126],[139.2179,36.1299],[139.2113,36.1323],[139.2004,36.1322],[139.1962,36.1335],[139.2002,36.1374],[139.2109,36.1378],[139.221,36.1456],[139.2306,36.1511],[139.2291,36.1543],[139.2209,36.1565],[139.2117,36.1634],[139.203,36.1679],[139.1953,36.1703]]]}},{"type":"Feature","properties":{"id":11069},"geometry":{"type":"Polygon","coordinates":[[[139.8836,35.9015],[139.8782,35.9098],[139.8585,35.9319],[139.8491,35.9385],[139.8391,35.9266],[139.8397,35.9199],[139.8465,35.9141],[139.8432,35.9079],[139.8355,35.9049],[139.8351,35.8968],[139.8393,35.8881],[139.8414,35.881],[139.841,35.8691],[139.8407,35.8577],[139.846,35.8585],[139.8547,35.8629],[139.8651,35.8647],[139.8735,35.8632],[139.8826,35.863],[139.8913,35.8643],[139.9022,35.8647],[139.8968,35.882],[139.8917,35.8918],[139.8836,35.9015]]]}},{"type":"Feature","properties":{"id":11070},"geometry":{"type":"Polygon","coordinates":[[[139.4572,36.012],[139.4655,36.0153],[139.4727,36.0197],[139.4851,36.0197],[139.4996,36.0169],[139.5059,36.0233],[139.4969,36.0301],[139.4945,36.0331],[139.4925,36.0418],[139.4864,36.0547],[139.4746,36.0632],[139.4677,36.0723],[139.4632,36.076],[139.4493,36.0813],[139.4446,36.0752],[139.44,36.0719],[139.4231,36.0699],[139.4223,36.064],[139.4213,36.0387],[139.4228,36.032],[139.4293,36.0239],[139.44,36.0179],[139.4454,36.0138],[139.4572,36.012]]]}}]}