{"type":"FeatureCollection","features":[{"type":"Feature","properties":{"id":12001},"geometry":{"type":"Polygon","coordinates":[[[140.1528,35.8432],[140.1387,35.8558],[140.1277,35.8683],[140.1251,35.8713],[140.1148,35.8742],[140.1051,35.8796],[140.0938,35.8821],[140.0808,35.8818],[140.0704,35.883],[140.0603,35.8877],[140.0488,35.8904],[140.0304,35.9016],[140.0224,35.9057],[140.0009,35.887],[139.9992,35.8825],[139.9995,35.8751],[140.0033,35.8634],[140.0053,35.8612],[140.0146,35.8586],[140.0318,35.8551],[140.0647,35.855],[140.0792,35.8533],[140.09,35.8493],[140.0966,35.846],[140.1028,35.8449],[140.1181,35.8399],[140.1347,35.8364],[140.1403,35.8372],[140.1528,35.8432]]]}},{"type":"Feature","properties":{"id":12002},"geometry":{"type":"Polygon","coordinates":[[[140.7531,35.6938],[140.7463,35.6982],[140.7373,35.7015],[140.7299,35.7057],[140.7327,35.7177],[140.7326,35.7217],[140.729,35.725],[140.7252,35.7258],[140.7244,35.7303],[140.7309,35.7357],[140.7329,35.7398],[140.7329,35.7449],[140.7307,35.7478],[140.7196,35.7528],[140.7167,35.7553],[140.7105,35.7687],[140.6991,35.7784],[140.6944,35.7834],[140.6843,35.7761],[140.671,35.7693],[140.6661,35.7686],[140.6637,35.771],[140.6621,35.7768],[140.6541,35.7814],[140.6428,35.7827],[140.6376,35.7848],[140.6318,35.7898],[140.6231,35.7832],[140.6121,35.7722],[140.6043,35.7711],[140.585,35.7664],[140.5803,35.7635],[140.577,35.759],[140.5663,35.751],[140.5668,35.7463],[140.5643,35.7356],[140.566,35.733],[140.5727,35.7293],[140.5788,35.7276],[140.5876,35.7288],[140.5955,35.7327],[140.5979,35.7268],[140.5952,35.7205],[140.5845,35.7149],[140.5883,35.7097],[140.5966,35.7067],[140.5997,35.7043],[140.6088,35.6855],[140.6138,35.6778],[140.6224,35.6707],[140.6273,35.6739],[140.6485,35.6852],[140.6728,35.6944],[140.675,35.6943],[140.6924,35.6999],[140.6984,35.7012],[140.7156,35.7017],[140.7206,35.7],[140.7252,35.6941],[140.7383,35.6919],[140.7531,35.6938]]]}},{"type":"Feature","properties":{"id":12003},"geometry":{"type":"Polygon","coordinates":[[[140.1151,35.5517],[140.1197,35.5464],[140.1273,35.54],[140.1358,35.5368],[140.1457,35.5371],[140.1545,35.5273],[140.1656,35.5235],[140.1754,35.5225],[140.1921,35.527],[140.2039,35.5328],[140.2126,35.5351],[140.2207,35.5352],[140.2281,35.5341],[140.2344,35.5319],[140.236,35.5285],[140.2355,35.5237],[140.2294,35.5124],[140.2296,35.5085],[140.2322,35.5044],[140.2404,35.4988],[140.2501,35.4998],[140.2717,35.4968],[140.2739,35.498],[140.2865,35.5071],[140.2928,35.5103],[140.298,35.5147],[140.3007,35.5205],[140.2987,35.5249],[140.2922,35.5303],[140.291,35.5346],[140.2948,35.5437],[140.2977,35.5467],[140.2955,35.5567],[140.2937,35.57],[140.2793,35.5788],[140.268,35.5875],[140.2708,35.596],[140.2705,35.6106],[140.2673,35.6182],[140.252,35.6203],[140.2308,35.6258],[140.2253,35.6304],[140.2251,35.6408],[140.224,35.6438],[140.2179,35.6472],[140.2052,35.631],[140.2015,35.6241],[140.1981,35.6206],[140.1912,35.6219],[140.1909,35.625],[140.1938,35.6338],[140.1909,35.6396],[140.1854,35.6392],[140.1802,35.6362],[140.1758,35.6367],[140.1748,35.6437],[140.1711,35.6467],[140.1656,35.6456],[140.1599,35.6467],[140.1584,35.6495],[140.1581,35.6585],[140.1558,35.6687],[140.1525,35.6734],[140.1499,35.6801],[140.1383,35.6937],[140.1212,35.6985],[140.1129,35.6988],[140.1066,35.6971],[140.0888,35.6883],[140.0893,35.68],[140.0848,35.6737],[140.0799,35.673],[140.0623,35.6735],[140.0544,35.6758],[140.0467,35.6739],[140.0383,35.6671],[140.0321,35.6602],[140.0255,35.6468],[140.0322,35.6422],[140.0393,35.6353],[140.0464,35.6299],[140.0547,35.6218],[140.0667,35.612],[140.0728,35.608],[140.0823,35.5974],[140.0871,35.6014],[140.0796,35.6103],[140.0819,35.6126],[140.0864,35.61],[140.0908,35.6053],[140.0975,35.6007],[140.0952,35.5981],[140.091,35.5982],[140.0917,35.5939],[140.1052,35.5939],[140.1102,35.5898],[140.1133,35.5735],[140.105,35.5784],[140.104,35.586],[140.1011,35.5878],[140.0869,35.5875],[140.0824,35.589],[140.0826,35.5836],[140.0858,35.5696],[140.1052,35.5698],[140.1113,35.5705],[140.1146,35.5671],[140.0973,35.5667],[140.091,35.565],[140.091,35.5616],[140.1151,35.5517]]]}},{"type":"Feature","properties":{"id":12004},"geometry":{"type":"Polygon","coordinates":[[[140.2319,35.3136],[140.2431,35.3208],[140.2527,35.3236],[140.2546,35.3294],[140.2637,35.3375],[140.2752,35.3508],[140.2804,35.3551],[140.2965,35.3625],[140.3036,35.3726],[140.2852,35.3796],[140.2802,35.3858],[140.2772,35.3953],[140.2748,35.3971],[140.2629,35.3975],[140.2596,35.4008],[140.2625,35.408],[140.2669,35.4124],[140.2666,35.4172],[140.263,35.4206],[140.2579,35.4282],[140.2486,35.4226],[140.2429,35.4203],[140.2309,35.4186],[140.2226,35.4154],[140.2201,35.4119],[140.2099,35.4033],[140.2004,35.4003],[140.1933,35.3971],[140.1994,35.388],[140.2073,35.3725],[140.2055,35.3611],[140.2148,35.3459],[140.216,35.3417],[140.2225,35.331],[140.2234,35.3273],[140.2319,35.3136]]]}},{"type":"Feature","properties":{"id":12005},"geometry":{"type":"Polygon","coordinates":[[[140.3953,35.4189],[140.3916,35.4201],[140.3822,35.4281],[140.3727,35.4327],[140.3612,35.4329],[140.3492,35.4291],[140.3385,35.4268],[140.3291,35.4167],[140.3219,35.4065],[140.3218,35.4004],[140.3177,35.3904],[140.3293,35.3897],[140.3512,35.3845],[140.3657,35.3877],[140.379,35.3877],[140.3914,35.3853],[140.3914,35.3936],[140.3928,35.3969],[140.3928,35.4044],[140.3953,35.4189]]]}},{"type":"Feature","properties":{"id":12006},"geometry":{"type":"Polygon","coordinates":[[[140.7531,35.6938],[140.7822,35.7044],[140.7943,35.7073],[140.7971,35.7088],[140.8145,35.7128],[140.8264,35.7134],[140.8382,35.7111],[140.8398,35.7059],[140.8473,35.6969],[140.8525,35.6976],[140.8544,35.6958],[140.8658,35.6931],[140.8632,35.7013],[140.8645,35.7051],[140.8701,35.7077],[140.8667,35.7104],[140.8666,35.714],[140.8707,35.7189],[140.798,35.7507],[140.7864,35.758],[140.7662,35.7694],[140.744,35.7825],[140.7353,35.7903],[140.728,35.7996],[140.7237,35.8107],[140.705,35.8031],[140.6963,35.7934],[140.6944,35.7834],[140.6991,35.7784],[140.7105,35.7687],[140.7167,35.7553],[140.7196,35.7528],[140.7307,35.7478],[140.7329,35.7449],[140.7329,35.7398],[140.7309,35.7357],[140.7244,35.7303],[140.7252,35.7258],[140.729,35.725],[140.7326,35.7217],[140.7327,35.7177],[140.7299,35.7057],[140.7373,35.7015],[140.7463,35.6982],[140.7531,35.6938]]]}},{"type":"Feature","properties":{"id":12007},"geometry":{"type":"Polygon","coordinates":[[[140.0073,35.6579],[140.0066,35.6694],[140.0071,35.6795],[140.0106,35.6873],[140.0174,35.6909],[140.0222,35.6921],[140.0398,35.6925],[140.0497,35.6937],[140.0571,35.6958],[140.0713,35.7072],[140.0659,35.7279],[140.0667,35.7314],[140.0733,35.7391],[140.0788,35.7481],[140.0799,35.7588],[140.0864,35.7647],[140.0895,35.7704],[140.0909,35.7799],[140.084,35.7871],[140.0785,35.7894],[140.0752,35.789],[140.071,35.7797],[140.067,35.7755],[140.0545,35.7698],[140.0361,35.7604],[140.0263,35.757],[140.0209,35.7467],[140.0164,35.7341],[140.0099,35.7326],[140.0076,35.735],[140.0016,35.7463],[139.9968,35.7488],[139.9835,35.7431],[139.9669,35.7247],[139.9653,35.7218],[139.9565,35.7129],[139.9527,35.7034],[139.9536,35.7007],[139.9681,35.6944],[139.9765,35.6827],[139.9818,35.6814],[139.9842,35.6774],[139.9888,35.6755],[139.9849,35.6724],[139.9863,35.6638],[140.0014,35.6654],[140.0014,35.6602],[139.9914,35.6612],[139.9871,35.6603],[139.9868,35.6552],[140.0012,35.6556],[140.0073,35.6579]]]}},{"type":"Feature","properties":{"id":12008},"geometry":{"type":"Polygon","coordinates":[[[139.8232,35.1526],[139.851,35.1589],[139.8624,35.1603],[139.8709,35.1603],[139.8815,35.159],[139.8924,35.1556],[139.9021,35.1478],[139.9172,35.1415],[139.9237,35.1415],[139.9361,35.1453],[139.9545,35.1481],[139.9751,35.1528],[139.9923,35.1538],[139.9969,35.1668],[139.9977,35.1801],[139.9995,35.1881],[139.997,35.1938],[139.9868,35.1999],[139.9786,35.2115],[139.9779,35.2145],[139.97,35.2284],[139.9632,35.234],[139.9558,35.2366],[139.9541,35.2422],[139.9539,35.257],[139.9518,35.2596],[139.9415,35.2616],[139.9313,35.2645],[139.9252,35.268],[139.8994,35.2899],[139.892,35.2997],[139.8884,35.309],[139.8836,35.3179],[139.8628,35.3353],[139.8568,35.3395],[139.8493,35.347],[139.8428,35.3529],[139.8353,35.3484],[139.83,35.3512],[139.823,35.3446],[139.8254,35.3396],[139.8291,35.3368],[139.8364,35.3372],[139.8384,35.3332],[139.8277,35.3288],[139.8235,35.3254],[139.8163,35.3238],[139.8197,35.3191],[139.8186,35.3163],[139.8133,35.3163],[139.7983,35.3136],[139.7951,35.3106],[139.8123,35.307],[139.8166,35.3043],[139.83,35.3001],[139.8448,35.2922],[139.8532,35.2841],[139.8524,35.2794],[139.8475,35.2714],[139.8527,35.266],[139.8579,35.2623],[139.8646,35.2541],[139.8682,35.2461],[139.8701,35.2358],[139.8706,35.2228],[139.8668,35.2185],[139.848,35.2126],[139.843,35.2079],[139.8378,35.207],[139.8345,35.2041],[139.8245,35.1981],[139.819,35.1894],[139.8176,35.1849],[139.8188,35.1813],[139.8165,35.1762],[139.8184,35.1733],[139.8177,35.1678],[139.8196,35.1633],[139.8185,35.1544],[139.8232,35.1526]]]}},{"type":"Feature","properties":{"id":12009},"geometry":{"type":"Polygon","coordinates":[[[140.1151,35.5517],[140.112,35.5505],[140.0987,35.555],[140.0928,35.5552],[140.0856,35.5492],[140.0897,35.5429],[140.0949,35.5401],[140.0953,35.5364],[140.0853,35.5421],[140.0748,35.5499],[140.0686,35.5482],[140.0684,35.5442],[140.0604,35.5432],[140.054,35.5341],[140.055,35.5289],[140.0492,35.5305],[140.0379,35.516],[140.0452,35.5114],[140.0409,35.5081],[140.033,35.5114],[140.0252,35.5026],[140.0264,35.5003],[140.0342,35.4959],[140.0316,35.4929],[140.0232,35.4969],[140.0195,35.4952],[140.0112,35.4847],[140.0165,35.4808],[140.0183,35.4732],[140.0228,35.4681],[140.0316,35.4547],[140.0355,35.4498],[140.0405,35.4413],[140.0418,35.4339],[140.0412,35.4301],[140.0339,35.4187],[140.0349,35.4155],[140.0405,35.4158],[140.0477,35.4191],[140.056,35.4214],[140.0648,35.4226],[140.0796,35.4229],[140.0868,35.4212],[140.0923,35.4166],[140.096,35.4099],[140.0944,35.3887],[140.0926,35.3853],[140.0922,35.3778],[140.0977,35.3734],[140.1031,35.3733],[140.1106,35.377],[140.1133,35.3763],[140.1187,35.3675],[140.1228,35.3562],[140.125,35.3479],[140.1263,35.3374],[140.1247,35.3326],[140.1182,35.3266],[140.1116,35.3158],[140.1111,35.3054],[140.1131,35.3026],[140.1239,35.3017],[140.1264,35.298],[140.1228,35.2888],[140.1225,35.2787],[140.125,35.2705],[140.1261,35.263],[140.1262,35.249],[140.1279,35.2422],[140.1357,35.232],[140.1416,35.2258],[140.1526,35.2368],[140.1606,35.2461],[140.1725,35.2511],[140.1753,35.2532],[140.181,35.2616],[140.1846,35.2689],[140.1871,35.2714],[140.2012,35.2787],[140.2034,35.2818],[140.205,35.2929],[140.2091,35.2979],[140.2153,35.2963],[140.2225,35.2988],[140.2319,35.3136],[140.2234,35.3273],[140.2225,35.331],[140.216,35.3417],[140.2148,35.3459],[140.2055,35.3611],[140.2073,35.3725],[140.1994,35.388],[140.1933,35.3971],[140.1918,35.4008],[140.1855,35.4102],[140.1813,35.4209],[140.1817,35.4329],[140.1832,35.4375],[140.1822,35.4407],[140.1756,35.4452],[140.1735,35.4501],[140.1741,35.457],[140.1765,35.46],[140.1842,35.4642],[140.1972,35.4647],[140.2027,35.4675],[140.2068,35.4726],[140.2176,35.4771],[140.2314,35.4782],[140.2466,35.4806],[140.2644,35.491],[140.2717,35.4968],[140.2501,35.4998],[140.2404,35.4988],[140.2322,35.5044],[140.2296,35.5085],[140.2294,35.5124],[140.2355,35.5237],[140.236,35.5285],[140.2344,35.5319],[140.2281,35.5341],[140.2207,35.5352],[140.2126,35.5351],[140.2039,35.5328],[140.1921,35.527],[140.1754,35.5225],[140.1656,35.5235],[140.1545,35.5273],[140.1457,35.5371],[140.1358,35.5368],[140.1273,35.54],[140.1197,35.5464],[140.1151,35.5517]]]}},{"type":"Feature","properties":{"id":12010},"geometry":{"type":"Polygon","coordinates":[[[139.9765,35.6827],[139.9681,35.6944],[139.9536,35.7007],[139.9527,35.7034],[139.9565,35.7129],[139.9653,35.7218],[139.9669,35.7247],[139.9835,35.7431],[139.983,35.7563],[139.9811,35.7612],[139.9722,35.7678],[139.9454,35.7451],[139.9411,35.7451],[139.9346,35.7498],[139.9311,35.7538],[139.9275,35.7608],[139.9247,35.7633],[139.9203,35.7631],[139.9132,35.7547],[139.9092,35.7473],[139.9021,35.7413],[139.9029,35.7393],[139.9168,35.7247],[139.9251,35.7114],[139.9296,35.7008],[139.9333,35.6992],[139.9419,35.6889],[139.9456,35.6817],[139.9522,35.6723],[139.9548,35.6725],[139.9625,35.6812],[139.9765,35.6827]]]}},{"type":"Feature","properties":{"id":12011},"geometry":{"type":"Polygon","coordinates":[[[140.3512,35.3845],[140.3482,35.3775],[140.3469,35.3673],[140.3493,35.3599],[140.346,35.3506],[140.341,35.3437],[140.3604,35.3437],[140.3681,35.3418],[140.3739,35.3383],[140.3755,35.333],[140.382,35.3257],[140.3897,35.3263],[140.3984,35.3294],[140.3959,35.3325],[140.3925,35.3458],[140.3914,35.3572],[140.3908,35.3708],[140.3914,35.3853],[140.379,35.3877],[140.3657,35.3877],[140.3512,35.3845]]]}},{"type":"Feature","properties":{"id":12012},"geometry":{"type":"Polygon","coordinates":[[[140.142,35.7639],[140.1604,35.7497],[140.1783,35.7433],[140.188,35.7411],[140.1931,35.7416],[140.2023,35.7466],[140.2059,35.753],[140.2109,35.7574],[140.2148,35.7583],[140.2225,35.7553],[140.2366,35.7436],[140.2486,35.7406],[140.2533,35.7384],[140.26,35.7309],[140.2688,35.7453],[140.2715,35.7518],[140.2744,35.7629],[140.2742,35.7707],[140.269,35.7783],[140.2559,35.785],[140.2475,35.7886],[140.2406,35.7936],[140.2298,35.7989],[140.2255,35.8023],[140.2189,35.8001],[140.2071,35.7799],[140.2039,35.7786],[140.1845,35.7806],[140.1731,35.7832],[140.1659,35.7714],[140.1627,35.7703],[140.1533,35.7709],[140.1494,35.7701],[140.142,35.7639]]]}},{"type":"Feature","properties":{"id":12013},"geometry":{"type":"Polygon","coordinates":[[[140.1181,35.8399],[140.1181,35.8313],[140.1141,35.8229],[140.1127,35.8148],[140.1139,35.8088],[140.1177,35.8037],[140.1179,35.7999],[140.1122,35.7905],[140.1049,35.785],[140.1148,35.7807],[140.1373,35.7681],[140.142,35.7639],[140.1494,35.7701],[140.1533,35.7709],[140.1627,35.7703],[140.1659,35.7714],[140.1731,35.7832],[140.1786,35.7879],[140.1795,35.7907],[140.1766,35.8004],[140.1726,35.8082],[140.1723,35.8159],[140.1783,35.8196],[140.1823,35.8196],[140.195,35.8168],[140.2006,35.817],[140.205,35.8205],[140.2094,35.8289],[140.1985,35.8347],[140.1923,35.8358],[140.179,35.8363],[140.1653,35.842],[140.1548,35.8416],[140.1528,35.8432],[140.1403,35.8372],[140.1347,35.8364],[140.1181,35.8399]]]}},{"type":"Feature","properties":{"id":12014},"geometry":{"type":"Polygon","coordinates":[[[140.341,35.3437],[140.3267,35.344],[140.3176,35.3422],[140.3067,35.3362],[140.3043,35.3331],[140.2994,35.3196],[140.294,35.3157],[140.2805,35.3114],[140.2806,35.2956],[140.279,35.2904],[140.2757,35.2858],[140.2698,35.2824],[140.2591,35.2738],[140.2583,35.2677],[140.2637,35.2667],[140.2775,35.267],[140.2861,35.2653],[140.2915,35.2603],[140.2915,35.2543],[140.283,35.2399],[140.2896,35.2397],[140.2993,35.2362],[140.3012,35.2286],[140.3048,35.2214],[140.3152,35.2151],[140.3249,35.221],[140.3302,35.2217],[140.3352,35.2206],[140.3429,35.2168],[140.3587,35.2154],[140.368,35.212],[140.3795,35.2023],[140.3875,35.1966],[140.394,35.2029],[140.3923,35.2093],[140.3958,35.2138],[140.3955,35.2169],[140.4008,35.2275],[140.3997,35.2302],[140.4054,35.2369],[140.4044,35.2444],[140.4072,35.2497],[140.4024,35.2527],[140.4025,35.2578],[140.3994,35.2578],[140.399,35.2674],[140.4012,35.2778],[140.4051,35.2889],[140.4074,35.2917],[140.4058,35.2969],[140.4069,35.3006],[140.4114,35.3009],[140.4144,35.3036],[140.4149,35.3087],[140.4105,35.3196],[140.4031,35.3291],[140.3984,35.3294],[140.3897,35.3263],[140.382,35.3257],[140.3755,35.333],[140.3739,35.3383],[140.3681,35.3418],[140.3604,35.3437],[140.341,35.3437]]]}},{"type":"Feature","properties":{"id":12015},"geometry":{"type":"Polygon","coordinates":[[[140.0263,35.757],[140.0279,35.7663],[140.0289,35.7866],[140.0247,35.7915],[140.014,35.7984],[140.0073,35.7865],[140.0026,35.7845],[139.9864,35.7844],[139.9781,35.783],[139.9733,35.7776],[139.9722,35.7678],[139.9811,35.7612],[139.983,35.7563],[139.9835,35.7431],[139.9968,35.7488],[140.0016,35.7463],[140.0076,35.735],[140.0099,35.7326],[140.0164,35.7341],[140.0209,35.7467],[140.0263,35.757]]]}},{"type":"Feature","properties":{"id":12016},"geometry":{"type":"Polygon","coordinates":[[[139.9923,35.1538],[139.9751,35.1528],[139.9545,35.1481],[139.9361,35.1453],[139.9338,35.1366],[139.9301,35.1292],[139.9374,35.1247],[139.9461,35.1213],[139.9553,35.1162],[139.9632,35.1138],[139.969,35.1137],[139.9927,35.1185],[139.9981,35.1175],[140.008,35.1131],[140.0099,35.1095],[140.0081,35.1032],[140.0045,35.1009],[139.9962,35.0983],[139.9967,35.0944],[140.0076,35.0915],[140.0226,35.079],[140.0242,35.074],[140.0295,35.065],[140.0401,35.053],[140.055,35.0594],[140.0636,35.0591],[140.0724,35.056],[140.0764,35.0633],[140.0827,35.0643],[140.0831,35.0689],[140.0856,35.0739],[140.0886,35.0728],[140.0983,35.0742],[140.102,35.0772],[140.0977,35.0842],[140.1017,35.0881],[140.1073,35.0905],[140.1072,35.0939],[140.1039,35.0994],[140.1093,35.1078],[140.1262,35.1193],[140.1352,35.1216],[140.1504,35.1164],[140.1534,35.1216],[140.1697,35.1236],[140.1725,35.1203],[140.1764,35.1203],[140.1822,35.1175],[140.1853,35.12],[140.1853,35.1239],[140.1907,35.1274],[140.1976,35.1219],[140.1958,35.1158],[140.203,35.1092],[140.2075,35.1133],[140.2178,35.1153],[140.2179,35.1355],[140.2162,35.1427],[140.2112,35.1512],[140.1924,35.1677],[140.1715,35.162],[140.1665,35.1632],[140.1633,35.1661],[140.1584,35.1747],[140.1548,35.1833],[140.1524,35.1865],[140.1317,35.1862],[140.1243,35.1826],[140.1025,35.1754],[140.0949,35.1718],[140.0896,35.1707],[140.0754,35.1703],[140.0616,35.1667],[140.0504,35.1614],[140.0413,35.1587],[140.037,35.159],[140.0315,35.1644],[140.0269,35.164],[140.0209,35.1591],[140.013,35.1565],[139.9923,35.1538]]]}},{"type":"Feature","properties":{"id":12017},"geometry":{"type":"Polygon","coordinates":[[[140.0224,35.9057],[140.0175,35.9082],[140.0049,35.9072],[140.0004,35.9068],[139.9775,35.9186],[139.9675,35.9231],[139.9634,35.9264],[139.9439,35.9194],[139.9376,35.9161],[139.9329,35.9053],[139.9313,35.8887],[139.9321,35.8854],[139.9373,35.878],[139.9461,35.8727],[139.946,35.869],[139.942,35.8661],[139.9407,35.8625],[139.9469,35.8589],[139.9473,35.8512],[139.95,35.847],[139.9589,35.8426],[139.9636,35.8373],[139.9633,35.833],[139.9494,35.8263],[139.9534,35.8206],[139.9622,35.8052],[139.9673,35.8008],[139.9767,35.7961],[139.9835,35.7963],[140.0006,35.8106],[140.0071,35.8084],[140.014,35.7984],[140.0247,35.7915],[140.0289,35.7866],[140.0445,35.8126],[140.0496,35.8191],[140.0599,35.8277],[140.0633,35.829],[140.0743,35.8292],[140.0849,35.8281],[140.1141,35.8229],[140.1181,35.8313],[140.1181,35.8399],[140.1028,35.8449],[140.0966,35.846],[140.09,35.8493],[140.0792,35.8533],[140.0647,35.855],[140.0318,35.8551],[140.0146,35.8586],[140.0053,35.8612],[140.0033,35.8634],[139.9995,35.8751],[139.9992,35.8825],[140.0009,35.887],[140.0224,35.9057]]]}},{"type":"Feature","properties":{"id":12018},"geometry":{"type":"Polygon","coordinates":[[[140.6318,35.7898],[140.6384,35.7988],[140.6473,35.8051],[140.6487,35.8126],[140.6488,35.8505],[140.6368,35.853],[140.625,35.8565],[140.6153,35.8614],[140.6049,35.8686],[140.5885,35.884],[140.5774,35.8916],[140.5674,35.8966],[140.5576,35.8992],[140.5436,35.8998],[140.5316,35.8993],[140.5213,35.895],[140.5092,35.8982],[140.499,35.9035],[140.4852,35.9078],[140.4761,35.9143],[140.4662,35.9165],[140.454,35.9144],[140.4383,35.9085],[140.4386,35.896],[140.4366,35.8867],[140.4325,35.8811],[140.4315,35.8769],[140.4373,35.8594],[140.4579,35.8588],[140.4671,35.8561],[140.4701,35.8529],[140.4722,35.8476],[140.4698,35.8376],[140.4672,35.8319],[140.4632,35.8271],[140.463,35.8227],[140.4702,35.8176],[140.4695,35.8143],[140.4632,35.8068],[140.4562,35.7963],[140.4636,35.7942],[140.4707,35.7888],[140.4789,35.7885],[140.4895,35.7937],[140.4941,35.7945],[140.5006,35.7922],[140.5086,35.7812],[140.5119,35.78],[140.5191,35.7812],[140.5359,35.7728],[140.5527,35.7589],[140.5611,35.7548],[140.5663,35.751],[140.577,35.759],[140.5803,35.7635],[140.585,35.7664],[140.6043,35.7711],[140.6121,35.7722],[140.6231,35.7832],[140.6318,35.7898]]]}},{"type":"Feature","properties":{"id":12019},"geometry":{"type":"Polygon","coordinates":[[[140.283,35.2399],[140.2705,35.23],[140.2595,35.227],[140.254,35.2224],[140.2456,35.1923],[140.2453,35.1815],[140.2443,35.1778],[140.2398,35.1745],[140.2338,35.1746],[140.2218,35.1796],[140.2104,35.1818],[140.1924,35.1677],[140.2112,35.1512],[140.2162,35.1427],[140.2179,35.1355],[140.2178,35.1153],[140.2229,35.1163],[140.2249,35.1144],[140.2315,35.1149],[140.2371,35.1171],[140.2351,35.1199],[140.2394,35.1244],[140.245,35.1247],[140.2489,35.1283],[140.2477,35.1339],[140.2511,35.1353],[140.2564,35.1339],[140.2574,35.1377],[140.2631,35.1369],[140.2627,35.134],[140.2725,35.1383],[140.2788,35.1338],[140.2858,35.1339],[140.2903,35.1362],[140.2914,35.1416],[140.2985,35.1511],[140.3047,35.1511],[140.3119,35.1475],[140.3127,35.1419],[140.316,35.1382],[140.3266,35.1397],[140.3263,35.1453],[140.3297,35.1539],[140.3331,35.1575],[140.332,35.161],[140.3361,35.1675],[140.3443,35.172],[140.336,35.174],[140.3229,35.1787],[140.318,35.1821],[140.3122,35.1905],[140.3112,35.1956],[140.3152,35.2151],[140.3048,35.2214],[140.3012,35.2286],[140.2993,35.2362],[140.2896,35.2397],[140.283,35.2399]]]}},{"type":"Feature","properties":{"id":12020},"geometry":{"type":"Polygon","coordinates":[[[139.9923,35.1538],[140.013,35.1565],[140.0209,35.1591],[140.0269,35.164],[140.0315,35.1644],[140.037,35.159],[140.0413,35.1587],[140.0504,35.1614],[140.0616,35.1667],[140.0754,35.1703],[140.0896,35.1707],[140.0949,35.1718],[140.1025,35.1754],[140.1243,35.1826],[140.1317,35.1862],[140.1524,35.1865],[140.1529,35.198],[140.1517,35.2012],[140.1457,35.2089],[140.1416,35.2258],[140.1357,35.232],[140.1279,35.2422],[140.1262,35.249],[140.1261,35.263],[140.125,35.2705],[140.1225,35.2787],[140.1228,35.2888],[140.1264,35.298],[140.1239,35.3017],[140.1131,35.3026],[140.1111,35.3054],[140.1116,35.3158],[140.0986,35.3273],[140.0928,35.3303],[140.0787,35.3421],[140.0638,35.3507],[140.059,35.3515],[140.0532,35.3504],[140.0498,35.3477],[140.045,35.3358],[140.0398,35.3282],[140.0262,35.3225],[140.0224,35.3177],[140.0188,35.3165],[140.0101,35.3197],[140.0044,35.3198],[139.9947,35.3181],[139.9846,35.318],[139.972,35.3196],[139.9628,35.3246],[139.9455,35.3317],[139.935,35.3328],[139.9127,35.3326],[139.9053,35.3343],[139.9027,35.3366],[139.8976,35.3468],[139.8951,35.354],[139.895,35.3582],[139.8888,35.3624],[139.8823,35.3617],[139.8709,35.3663],[139.8589,35.3691],[139.8463,35.3754],[139.8392,35.3669],[139.8443,35.3619],[139.8517,35.3575],[139.8586,35.3481],[139.8524,35.3497],[139.8493,35.347],[139.8568,35.3395],[139.8628,35.3353],[139.8836,35.3179],[139.8884,35.309],[139.892,35.2997],[139.8994,35.2899],[139.9252,35.268],[139.9313,35.2645],[139.9415,35.2616],[139.9518,35.2596],[139.9539,35.257],[139.9541,35.2422],[139.9558,35.2366],[139.9632,35.234],[139.97,35.2284],[139.9779,35.2145],[139.9786,35.2115],[139.9868,35.1999],[139.997,35.1938],[139.9995,35.1881],[139.9977,35.1801],[139.9969,35.1668],[139.9923,35.1538]]]}},{"type":"Feature","properties":{"id":12021},"geometry":{"type":"Polygon","coordinates":[[[140.1116,35.3158],[140.1182,35.3266],[140.1247,35.3326],[140.1263,35.3374],[140.125,35.3479],[140.1228,35.3562],[140.1187,35.3675],[140.1133,35.3763],[140.1106,35.377],[140.1031,35.3733],[140.0977,35.3734],[140.0922,35.3778],[140.0819,35.3808],[140.0751,35.3804],[140.0709,35.3775],[140.0447,35.3665],[140.0294,35.3614],[140.0191,35.3551],[140.0167,35.3512],[140.0155,35.3411],[140.0124,35.3386],[140.0074,35.3393],[140.0048,35.3432],[140.0016,35.3529],[139.9964,35.3651],[139.996,35.3777],[139.9976,35.3821],[140.0071,35.3901],[140.0088,35.3954],[140.0072,35.3977],[139.9963,35.4007],[139.9783,35.407],[139.9709,35.4129],[139.9655,35.4146],[139.957,35.4119],[139.9521,35.4136],[139.9495,35.4179],[139.9477,35.4262],[139.9466,35.4429],[139.9386,35.4426],[139.9267,35.4405],[139.92,35.4402],[139.9077,35.4325],[139.9036,35.4316],[139.9002,35.4235],[139.8965,35.4229],[139.8974,35.4142],[139.9008,35.4015],[139.9058,35.3894],[139.9116,35.391],[139.917,35.3895],[139.918,35.3857],[139.9112,35.3806],[139.9034,35.3787],[139.8987,35.3762],[139.8988,35.3727],[139.9045,35.3746],[139.9058,35.3695],[139.9021,35.3684],[139.8996,35.3721],[139.8957,35.3702],[139.8895,35.3719],[139.8882,35.3682],[139.8959,35.3601],[139.895,35.3582],[139.8951,35.354],[139.8976,35.3468],[139.9027,35.3366],[139.9053,35.3343],[139.9127,35.3326],[139.935,35.3328],[139.9455,35.3317],[139.9628,35.3246],[139.972,35.3196],[139.9846,35.318],[139.9947,35.3181],[140.0044,35.3198],[140.0101,35.3197],[140.0188,35.3165],[140.0224,35.3177],[140.0262,35.3225],[140.0398,35.3282],[140.045,35.3358],[140.0498,35.3477],[140.0532,35.3504],[140.059,35.3515],[140.0638,35.3507],[140.0787,35.3421],[140.0928,35.3303],[140.0986,35.3273],[140.1116,35.3158]]]}},{"type":"Feature","properties":{"id":12022},"geometry":{"type":"Polygon","coordinates":[[[140.4383,35.9085],[140.4259,35.9034],[140.4047,35.9062],[140.3931,35.904],[140.3803,35.8994],[140.3777,35.8987],[140.3827,35.8944],[140.3865,35.8893],[140.398,35.8795],[140.4,35.8712],[140.3992,35.8621],[140.3975,35.8576],[140.3986,35.8531],[140.4028,35.8521],[140.4208,35.853],[140.4373,35.8594],[140.4315,35.8769],[140.4325,35.8811],[140.4366,35.8867],[140.4386,35.896],[140.4383,35.9085]]]}},{"type":"Feature","properties":{"id":12023},"geometry":{"type":"Polygon","coordinates":[[[140.4654,35.5454],[140.4465,35.5552],[140.4369,35.5623],[140.4304,35.5537],[140.4254,35.5402],[140.4242,35.5347],[140.4211,35.5279],[140.4124,35.5259],[140.3977,35.5259],[140.3966,35.5206],[140.4031,35.5125],[140.408,35.5037],[140.4197,35.4986],[140.4274,35.4943],[140.4331,35.5044],[140.444,35.5192],[140.4503,35.5264],[140.4542,35.5325],[140.46,35.5358],[140.4604,35.5399],[140.4654,35.5454]]]}},{"type":"Feature","properties":{"id":12024},"geometry":{"type":"Polygon","coordinates":[[[139.9361,35.1453],[139.9237,35.1415],[139.9172,35.1415],[139.9021,35.1478],[139.8924,35.1556],[139.8815,35.159],[139.8709,35.1603],[139.8624,35.1603],[139.851,35.1589],[139.8232,35.1526],[139.828,35.1512],[139.8301,35.1461],[139.8363,35.1397],[139.8384,35.1296],[139.8358,35.1249],[139.8286,35.118],[139.825,35.1129],[139.8275,35.1109],[139.8247,35.1065],[139.8244,35.1015],[139.8277,35.0996],[139.8364,35.0988],[139.8406,35.0924],[139.8456,35.0944],[139.8624,35.1081],[139.867,35.1091],[139.8812,35.1095],[139.8925,35.1121],[139.9119,35.1127],[139.918,35.1161],[139.9301,35.1292],[139.9338,35.1366],[139.9361,35.1453]]]}},{"type":"Feature","properties":{"id":12025},"geometry":{"type":"Polygon","coordinates":[[[139.9722,35.7678],[139.9733,35.7776],[139.9781,35.783],[139.9864,35.7844],[140.0026,35.7845],[140.0073,35.7865],[140.014,35.7984],[140.0071,35.8084],[140.0006,35.8106],[139.9835,35.7963],[139.9767,35.7961],[139.9673,35.8008],[139.9622,35.8052],[139.9534,35.8206],[139.9494,35.8263],[139.9381,35.831],[139.9325,35.8386],[139.9274,35.8384],[139.9241,35.8313],[139.9133,35.8262],[139.8942,35.8255],[139.8956,35.8157],[139.8924,35.8052],[139.875,35.7943],[139.8924,35.7813],[139.8881,35.7701],[139.8887,35.7682],[139.8949,35.7465],[139.9029,35.7393],[139.9021,35.7413],[139.9092,35.7473],[139.9132,35.7547],[139.9203,35.7631],[139.9247,35.7633],[139.9275,35.7608],[139.9311,35.7538],[139.9346,35.7498],[139.9411,35.7451],[139.9454,35.7451],[139.9722,35.7678]]]}},{"type":"Feature","properties":{"id":12026},"geometry":{"type":"Polygon","coordinates":[[[139.9301,35.1292],[139.918,35.1161],[139.9119,35.1127],[139.8925,35.1121],[139.8812,35.1095],[139.867,35.1091],[139.8624,35.1081],[139.8456,35.0944],[139.8406,35.0924],[139.8426,35.0865],[139.8419,35.0834],[139.8381,35.0794],[139.8218,35.0725],[139.8192,35.0655],[139.8233,35.0637],[139.8268,35.0589],[139.8271,35.0529],[139.8318,35.0515],[139.8327,35.0448],[139.8279,35.0393],[139.8234,35.0376],[139.8186,35.0392],[139.8158,35.0433],[139.8123,35.0416],[139.8109,35.0373],[139.8255,35.0311],[139.8275,35.033],[139.8344,35.0318],[139.8391,35.0288],[139.8495,35.0356],[139.8629,35.041],[139.8771,35.0489],[139.8817,35.0498],[139.8837,35.0454],[139.8834,35.028],[139.8846,35.0197],[139.8876,35.0138],[139.8949,35.0109],[139.905,35.0131],[139.9292,35.0241],[139.9353,35.023],[139.9405,35.014],[139.9379,35.0045],[139.9356,35.0007],[139.9299,34.9963],[139.9185,34.9909],[139.9031,34.978],[139.9022,34.9738],[139.9022,34.9607],[139.903,34.9578],[139.9144,34.9482],[139.9175,34.9443],[139.9175,34.9395],[139.9124,34.9369],[139.8996,34.9381],[139.8956,34.9396],[139.8831,34.9401],[139.8797,34.9394],[139.8718,34.9331],[139.8668,34.9274],[139.8426,34.9211],[139.8371,34.9204],[139.8226,34.916],[139.8242,34.91],[139.8436,34.9019],[139.8506,34.9033],[139.8572,34.9064],[139.8672,34.9072],[139.8719,34.9022],[139.8858,34.9022],[139.8889,34.8992],[139.8936,34.9061],[139.9011,34.9036],[139.9067,34.9036],[139.9081,34.9067],[139.9139,34.9067],[139.9183,34.9103],[139.9242,34.9119],[139.9319,34.9125],[139.9414,34.9167],[139.9453,34.9236],[139.9586,34.9364],[139.9619,34.9408],[139.965,34.9503],[139.9622,34.9567],[139.9628,34.9603],[139.9597,34.9658],[139.9631,34.9736],[139.9675,34.9786],[139.9719,34.9872],[139.9714,34.9936],[139.9746,35.0024],[139.9792,35.0099],[139.9968,35.0277],[140.0063,35.0322],[140.0119,35.0364],[140.0178,35.0361],[140.0232,35.0432],[140.0281,35.0468],[140.0401,35.053],[140.0295,35.065],[140.0242,35.074],[140.0226,35.079],[140.0076,35.0915],[139.9967,35.0944],[139.9962,35.0983],[140.0045,35.1009],[140.0081,35.1032],[140.0099,35.1095],[140.008,35.1131],[139.9981,35.1175],[139.9927,35.1185],[139.969,35.1137],[139.9632,35.1138],[139.9553,35.1162],[139.9461,35.1213],[139.9374,35.1247],[139.9301,35.1292]]]}},{"type":"Feature","properties":{"id":12027},"geometry":{"type":"Polygon","coordinates":[[[140.2717,35.4968],[140.2644,35.491],[140.2466,35.4806],[140.2487,35.4668],[140.2505,35.4607],[140.2505,35.4539],[140.2473,35.4433],[140.248,35.4392],[140.2521,35.4338],[140.2579,35.4282],[140.263,35.4206],[140.2666,35.4172],[140.2669,35.4124],[140.2625,35.408],[140.2596,35.4008],[140.2629,35.3975],[140.2748,35.3971],[140.2772,35.3953],[140.2802,35.3858],[140.2852,35.3796],[140.3036,35.3726],[140.3125,35.3821],[140.3177,35.3904],[140.3218,35.4004],[140.3219,35.4065],[140.3291,35.4167],[140.3385,35.4268],[140.3465,35.4404],[140.3487,35.4487],[140.352,35.4544],[140.3594,35.4595],[140.3636,35.4675],[140.3692,35.47],[140.3855,35.4718],[140.3774,35.4879],[140.3724,35.4923],[140.3658,35.4939],[140.3574,35.4937],[140.353,35.4915],[140.3466,35.4846],[140.3427,35.4826],[140.3377,35.4827],[140.3256,35.4925],[140.3163,35.4965],[140.3081,35.4969],[140.2939,35.4939],[140.2739,35.498],[140.2717,35.4968]]]}},{"type":"Feature","properties":{"id":12028},"geometry":{"type":"Polygon","coordinates":[[[140.2475,35.7886],[140.2561,35.795],[140.2623,35.804],[140.2687,35.811],[140.2543,35.8137],[140.2475,35.8206],[140.239,35.8314],[140.2317,35.8329],[140.222,35.8325],[140.2094,35.8289],[140.205,35.8205],[140.2006,35.817],[140.195,35.8168],[140.1823,35.8196],[140.1783,35.8196],[140.1723,35.8159],[140.1726,35.8082],[140.1766,35.8004],[140.1795,35.7907],[140.1786,35.7879],[140.1731,35.7832],[140.1845,35.7806],[140.2039,35.7786],[140.2071,35.7799],[140.2189,35.8001],[140.2255,35.8023],[140.2298,35.7989],[140.2406,35.7936],[140.2475,35.7886]]]}},{"type":"Feature","properties":{"id":12029},"geometry":{"type":"Polygon","coordinates":[[[140.2527,35.3236],[140.2576,35.3197],[140.2678,35.3155],[140.2805,35.3114],[140.294,35.3157],[140.2994,35.3196],[140.3043,35.3331],[140.3067,35.3362],[140.3176,35.3422],[140.3267,35.344],[140.341,35.3437],[140.346,35.3506],[140.3493,35.3599],[140.3469,35.3673],[140.3482,35.3775],[140.3512,35.3845],[140.3293,35.3897],[140.3177,35.3904],[140.3125,35.3821],[140.3036,35.3726],[140.2965,35.3625],[140.2804,35.3551],[140.2752,35.3508],[140.2637,35.3375],[140.2546,35.3294],[140.2527,35.3236]]]}},{"type":"Feature","properties":{"id":12030},"geometry":{"type":"Polygon","coordinates":[[[140.2579,35.4282],[140.2521,35.4338],[140.248,35.4392],[140.2473,35.4433],[140.2505,35.4539],[140.2505,35.4607],[140.2487,35.4668],[140.2466,35.4806],[140.2314,35.4782],[140.2176,35.4771],[140.2068,35.4726],[140.2027,35.4675],[140.1972,35.4647],[140.1842,35.4642],[140.1765,35.46],[140.1741,35.457],[140.1735,35.4501],[140.1756,35.4452],[140.1822,35.4407],[140.1832,35.4375],[140.1817,35.4329],[140.1813,35.4209],[140.1855,35.4102],[140.1918,35.4008],[140.1933,35.3971],[140.2004,35.4003],[140.2099,35.4033],[140.2201,35.4119],[140.2226,35.4154],[140.2309,35.4186],[140.2429,35.4203],[140.2486,35.4226],[140.2579,35.4282]]]}},{"type":"Feature","properties":{"id":12031},"geometry":{"type":"Polygon","coordinates":[[[139.9376,35.9161],[139.9183,35.9144],[139.9033,35.911],[139.893,35.9067],[139.8836,35.9015],[139.8917,35.8918],[139.8968,35.882],[139.9022,35.8647],[139.9038,35.8602],[139.8981,35.8476],[139.8925,35.8373],[139.8942,35.8255],[139.9133,35.8262],[139.9241,35.8313],[139.9274,35.8384],[139.9325,35.8386],[139.9381,35.831],[139.9494,35.8263],[139.9633,35.833],[139.9636,35.8373],[139.9589,35.8426],[139.95,35.847],[139.9473,35.8512],[139.9469,35.8589],[139.9407,35.8625],[139.942,35.8661],[139.946,35.869],[139.9461,35.8727],[139.9373,35.878],[139.9321,35.8854],[139.9313,35.8887],[139.9329,35.9053],[139.9376,35.9161]]]}},{"type":"Feature","properties":{"id":12032},"geometry":{"type":"Polygon","coordinates":[[[140.0888,35.6883],[140.0835,35.6973],[140.0713,35.7072],[140.0571,35.6958],[140.0497,35.6937],[140.0398,35.6925],[140.0222,35.6921],[140.0174,35.6909],[140.0106,35.6873],[140.0071,35.6795],[140.0066,35.6694],[140.0073,35.6579],[140.0138,35.6573],[140.0217,35.6514],[140.0255,35.6468],[140.0321,35.6602],[140.0383,35.6671],[140.0467,35.6739],[140.0544,35.6758],[140.0623,35.6735],[140.0799,35.673],[140.0848,35.6737],[140.0893,35.68],[140.0888,35.6883]]]}},{"type":"Feature","properties":{"id":12033},"geometry":{"type":"Polygon","coordinates":[[[140.2715,35.7518],[140.2914,35.751],[140.3002,35.7515],[140.3052,35.749],[140.3107,35.7414],[140.3155,35.7422],[140.318,35.7494],[140.319,35.7639],[140.3247,35.7684],[140.3331,35.7688],[140.3438,35.7631],[140.3483,35.7574],[140.3518,35.7483],[140.3574,35.7436],[140.3639,35.74],[140.3689,35.7335],[140.3713,35.7274],[140.3778,35.7318],[140.3831,35.7325],[140.386,35.7264],[140.3938,35.7257],[140.3953,35.7302],[140.3952,35.7479],[140.3918,35.7572],[140.3917,35.7669],[140.3961,35.7744],[140.3989,35.7809],[140.406,35.7819],[140.4106,35.7812],[140.4218,35.7733],[140.4289,35.772],[140.4384,35.7737],[140.4486,35.7824],[140.4562,35.7963],[140.4632,35.8068],[140.4695,35.8143],[140.4702,35.8176],[140.463,35.8227],[140.4632,35.8271],[140.4672,35.8319],[140.4698,35.8376],[140.4722,35.8476],[140.4701,35.8529],[140.4671,35.8561],[140.4579,35.8588],[140.4373,35.8594],[140.4208,35.853],[140.4028,35.8521],[140.3986,35.8531],[140.3975,35.8576],[140.3992,35.8621],[140.4,35.8712],[140.398,35.8795],[140.3865,35.8893],[140.3827,35.8944],[140.3777,35.8987],[140.3643,35.895],[140.356,35.8883],[140.3509,35.8794],[140.3326,35.8658],[140.3208,35.8611],[140.3021,35.8638],[140.2958,35.8667],[140.2886,35.8519],[140.288,35.8357],[140.2908,35.8249],[140.2893,35.8201],[140.2849,35.8163],[140.2687,35.811],[140.2623,35.804],[140.2561,35.795],[140.2475,35.7886],[140.2559,35.785],[140.269,35.7783],[140.2742,35.7707],[140.2744,35.7629],[140.2715,35.7518]]]}},{"type":"Feature","properties":{"id":12034},"geometry":{"type":"Polygon","coordinates":[[[139.9634,35.9264],[139.9589,35.93],[139.9474,35.9358],[139.9389,35.9424],[139.9387,35.9541],[139.9373,35.9652],[139.9359,35.9655],[139.917,35.9695],[139.9121,35.9706],[139.9009,35.9752],[139.892,35.9826],[139.8827,36],[139.8733,36.0129],[139.8595,36.0266],[139.8501,36.0309],[139.8399,36.0385],[139.8215,36.0552],[139.8181,36.0583],[139.811,36.0689],[139.8071,36.0833],[139.8012,36.0928],[139.7916,36.0987],[139.7892,36.1002],[139.78,36.0938],[139.7827,36.0777],[139.7882,36.0645],[139.7912,36.06],[139.7937,36.0561],[139.8033,36.0467],[139.8161,36.0359],[139.8177,36.0317],[139.8199,36.0257],[139.8186,35.9931],[139.8254,35.9844],[139.8329,35.9703],[139.8387,35.9594],[139.8436,35.9467],[139.8491,35.9385],[139.8585,35.9319],[139.8782,35.9098],[139.8836,35.9015],[139.893,35.9067],[139.9033,35.911],[139.9183,35.9144],[139.9376,35.9161],[139.9439,35.9194],[139.9634,35.9264]]]}},{"type":"Feature","properties":{"id":12035},"geometry":{"type":"Polygon","coordinates":[[[140.2739,35.498],[140.2939,35.4939],[140.3081,35.4969],[140.3163,35.4965],[140.3256,35.4925],[140.3377,35.4827],[140.3427,35.4826],[140.3466,35.4846],[140.353,35.4915],[140.3574,35.4937],[140.3658,35.4939],[140.3724,35.4923],[140.3774,35.4879],[140.3855,35.4718],[140.3975,35.4686],[140.4093,35.4668],[140.4119,35.4657],[140.4183,35.48],[140.4274,35.4943],[140.4197,35.4986],[140.408,35.5037],[140.3929,35.5034],[140.3866,35.5041],[140.3744,35.5094],[140.3684,35.5107],[140.3637,35.5138],[140.3594,35.5207],[140.3525,35.5245],[140.3383,35.5292],[140.3349,35.5321],[140.3314,35.5412],[140.3263,35.5487],[140.3213,35.5514],[140.3115,35.5514],[140.2977,35.5467],[140.2948,35.5437],[140.291,35.5346],[140.2922,35.5303],[140.2987,35.5249],[140.3007,35.5205],[140.298,35.5147],[140.2928,35.5103],[140.2865,35.5071],[140.2739,35.498]]]}},{"type":"Feature","properties":{"id":12036},"geometry":{"type":"Polygon","coordinates":[[[140.3152,35.2151],[140.3112,35.1956],[140.3122,35.1905],[140.318,35.1821],[140.3229,35.1787],[140.336,35.174],[140.3443,35.172],[140.3483,35.1769],[140.3498,35.1812],[140.3564,35.1839],[140.3628,35.1825],[140.3676,35.1787],[140.3746,35.1792],[140.3849,35.1883],[140.385,35.1922],[140.3875,35.1966],[140.3795,35.2023],[140.368,35.212],[140.3587,35.2154],[140.3429,35.2168],[140.3352,35.2206],[140.3302,35.2217],[140.3249,35.221],[140.3152,35.2151]]]}},{"type":"Feature","properties":{"id":12037},"geometry":{"type":"Polygon","coordinates":[[[140.2319,35.3136],[140.2225,35.2988],[140.2153,35.2963],[140.2091,35.2979],[140.205,35.2929],[140.2034,35.2818],[140.2012,35.2787],[140.1871,35.2714],[140.1846,35.2689],[140.181,35.2616],[140.1753,35.2532],[140.1725,35.2511],[140.1606,35.2461],[140.1526,35.2368],[140.1416,35.2258],[140.1457,35.2089],[140.1517,35.2012],[140.1529,35.198],[140.1524,35.1865],[140.1548,35.1833],[140.1584,35.1747],[140.1633,35.1661],[140.1665,35.1632],[140.1715,35.162],[140.1924,35.1677],[140.2104,35.1818],[140.2218,35.1796],[140.2338,35.1746],[140.2398,35.1745],[140.2443,35.1778],[140.2453,35.1815],[140.2456,35.1923],[140.254,35.2224],[140.2595,35.227],[140.2705,35.23],[140.283,35.2399],[140.2915,35.2543],[140.2915,35.2603],[140.2861,35.2653],[140.2775,35.267],[140.2637,35.2667],[140.2583,35.2677],[140.2591,35.2738],[140.2698,35.2824],[140.2757,35.2858],[140.279,35.2904],[140.2806,35.2956],[140.2805,35.3114],[140.2678,35.3155],[140.2576,35.3197],[140.2527,35.3236],[140.2431,35.3208],[140.2319,35.3136]]]}},{"type":"Feature","properties":{"id":12038},"geometry":{"type":"Polygon","coordinates":[[[140.2094,35.8289],[140.222,35.8325],[140.2317,35.8329],[140.239,35.8314],[140.2475,35.8206],[140.2543,35.8137],[140.2687,35.811],[140.2849,35.8163],[140.2893,35.8201],[140.2908,35.8249],[140.288,35.8357],[140.2886,35.8519],[140.2958,35.8667],[140.2906,35.8691],[140.2801,35.8704],[140.2687,35.8658],[140.25,35.8541],[140.238,35.8526],[140.2283,35.855],[140.2172,35.8594],[140.2138,35.8591],[140.2065,35.8584],[140.1873,35.8484],[140.177,35.8458],[140.1653,35.842],[140.179,35.8363],[140.1923,35.8358],[140.1985,35.8347],[140.2094,35.8289]]]}},{"type":"Feature","properties":{"id":12039},"geometry":{"type":"Polygon","coordinates":[[[140.1558,35.6687],[140.1581,35.6736],[140.1625,35.6874],[140.1662,35.6894],[140.173,35.6901],[140.1757,35.7009],[140.1802,35.7041],[140.1854,35.7034],[140.1908,35.7005],[140.1951,35.7003],[140.1998,35.7034],[140.2042,35.7036],[140.2082,35.6946],[140.2104,35.6842],[140.2171,35.6693],[140.2179,35.6472],[140.224,35.6438],[140.2251,35.6408],[140.2253,35.6304],[140.2308,35.6258],[140.252,35.6203],[140.2673,35.6182],[140.2633,35.6339],[140.2543,35.6426],[140.2542,35.6465],[140.2592,35.6503],[140.265,35.6503],[140.2669,35.6523],[140.267,35.6589],[140.2708,35.6628],[140.2722,35.6721],[140.2762,35.6719],[140.2799,35.6667],[140.2858,35.6662],[140.2912,35.6721],[140.2941,35.679],[140.2936,35.6829],[140.2874,35.6885],[140.2869,35.6915],[140.2881,35.7015],[140.2761,35.7],[140.2721,35.7007],[140.2677,35.7042],[140.2596,35.7072],[140.2532,35.7121],[140.2541,35.7183],[140.2587,35.7266],[140.26,35.7309],[140.2533,35.7384],[140.2486,35.7406],[140.2366,35.7436],[140.2225,35.7553],[140.2148,35.7583],[140.2109,35.7574],[140.2059,35.753],[140.2023,35.7466],[140.1931,35.7416],[140.188,35.7411],[140.1783,35.7433],[140.1604,35.7497],[140.1542,35.749],[140.1458,35.7463],[140.1439,35.744],[140.1411,35.736],[140.1404,35.7223],[140.1374,35.7137],[140.1369,35.7005],[140.1383,35.6937],[140.1499,35.6801],[140.1525,35.6734],[140.1558,35.6687]]]}},{"type":"Feature","properties":{"id":12040},"geometry":{"type":"Polygon","coordinates":[[[140.4654,35.5454],[140.4692,35.5486],[140.4792,35.5608],[140.5,35.5822],[140.51,35.5906],[140.5114,35.5906],[140.5237,35.6018],[140.5153,35.611],[140.511,35.6128],[140.4978,35.6134],[140.4929,35.6172],[140.4931,35.6211],[140.4964,35.624],[140.4965,35.6272],[140.4914,35.6314],[140.48,35.6321],[140.4772,35.6332],[140.4719,35.6418],[140.4726,35.6472],[140.4714,35.6525],[140.4684,35.6569],[140.4651,35.6573],[140.4484,35.6517],[140.444,35.6518],[140.4388,35.6565],[140.4324,35.6655],[140.4263,35.6711],[140.4236,35.6777],[140.4116,35.6758],[140.402,35.6758],[140.3856,35.6796],[140.379,35.68],[140.3598,35.6798],[140.3539,35.6748],[140.3516,35.6659],[140.3478,35.6556],[140.3448,35.6533],[140.3276,35.6482],[140.325,35.6425],[140.3253,35.6376],[140.3295,35.622],[140.3319,35.6183],[140.3353,35.6089],[140.3381,35.6066],[140.3529,35.6052],[140.3637,35.5962],[140.3673,35.5952],[140.3745,35.5979],[140.3833,35.595],[140.3897,35.5896],[140.4004,35.583],[140.4114,35.5786],[140.4161,35.5778],[140.4284,35.5802],[140.4346,35.5758],[140.4364,35.571],[140.4369,35.5623],[140.4465,35.5552],[140.4654,35.5454]]]}},{"type":"Feature","properties":{"id":12041},"geometry":{"type":"Polygon","coordinates":[[[140.3713,35.7274],[140.3777,35.716],[140.3815,35.7126],[140.3834,35.7063],[140.3832,35.6966],[140.3841,35.6933],[140.3893,35.6902],[140.3991,35.6869],[140.4025,35.6824],[140.402,35.6758],[140.4116,35.6758],[140.4236,35.6777],[140.4242,35.6808],[140.4391,35.6935],[140.4491,35.699],[140.4409,35.7123],[140.4341,35.7186],[140.4333,35.7308],[140.4276,35.7472],[140.4253,35.7575],[140.4176,35.7652],[140.4105,35.7683],[140.4039,35.7695],[140.3961,35.7744],[140.3917,35.7669],[140.3918,35.7572],[140.3952,35.7479],[140.3953,35.7302],[140.3938,35.7257],[140.386,35.7264],[140.3831,35.7325],[140.3778,35.7318],[140.3713,35.7274]]]}},{"type":"Feature","properties":{"id":12042},"geometry":{"type":"Polygon","coordinates":[[[140.3953,35.4189],[140.4064,35.4542],[140.4119,35.4657],[140.4093,35.4668],[140.3975,35.4686],[140.3855,35.4718],[140.3692,35.47],[140.3636,35.4675],[140.3594,35.4595],[140.352,35.4544],[140.3487,35.4487],[140.3465,35.4404],[140.3385,35.4268],[140.3492,35.4291],[140.3612,35.4329],[140.3727,35.4327],[140.3822,35.4281],[140.3916,35.4201],[140.3953,35.4189]]]}},{"type":"Feature","properties":{"id":12043},"geometry":{"type":"Polygon","coordinates":[[[140.0909,35.7799],[140.0974,35.7831],[140.1049,35.785],[140.1122,35.7905],[140.1179,35.7999],[140.1177,35.8037],[140.1139,35.8088],[140.1127,35.8148],[140.1141,35.8229],[140.0849,35.8281],[140.0743,35.8292],[140.0633,35.829],[140.0599,35.8277],[140.0496,35.8191],[140.0445,35.8126],[140.0289,35.7866],[140.0279,35.7663],[140.0263,35.757],[140.0361,35.7604],[140.0545,35.7698],[140.067,35.7755],[140.071,35.7797],[140.0752,35.789],[140.0785,35.7894],[140.084,35.7871],[140.0909,35.7799]]]}},{"type":"Feature","properties":{"id":12044},"geometry":{"type":"Polygon","coordinates":[[[140.26,35.7309],[140.2587,35.7266],[140.2541,35.7183],[140.2532,35.7121],[140.2596,35.7072],[140.2677,35.7042],[140.2721,35.7007],[140.2761,35.7],[140.2881,35.7015],[140.2929,35.7061],[140.3035,35.7114],[140.2957,35.718],[140.2918,35.7285],[140.2911,35.7339],[140.2914,35.751],[140.2715,35.7518],[140.2688,35.7453],[140.26,35.7309]]]}},{"type":"Feature","properties":{"id":12045},"geometry":{"type":"Polygon","coordinates":[[[140.0183,35.4732],[140.0132,35.4771],[140.0077,35.4795],[139.9983,35.4752],[140.0031,35.4692],[140,35.4664],[139.9935,35.4724],[139.9895,35.4686],[139.9941,35.4592],[139.9924,35.4581],[139.9828,35.4741],[139.9799,35.4742],[139.9662,35.4689],[139.966,35.465],[139.97,35.4575],[139.9734,35.4489],[139.9686,35.4461],[139.9646,35.4497],[139.9645,35.4538],[139.9618,35.4587],[139.9516,35.4566],[139.9486,35.4421],[139.9466,35.4429],[139.9477,35.4262],[139.9495,35.4179],[139.9521,35.4136],[139.957,35.4119],[139.9655,35.4146],[139.9709,35.4129],[139.9783,35.407],[139.9963,35.4007],[140.0072,35.3977],[140.0088,35.3954],[140.0071,35.3901],[139.9976,35.3821],[139.996,35.3777],[139.9964,35.3651],[140.0016,35.3529],[140.0048,35.3432],[140.0074,35.3393],[140.0124,35.3386],[140.0155,35.3411],[140.0167,35.3512],[140.0191,35.3551],[140.0294,35.3614],[140.0447,35.3665],[140.0709,35.3775],[140.0751,35.3804],[140.0819,35.3808],[140.0922,35.3778],[140.0926,35.3853],[140.0944,35.3887],[140.096,35.4099],[140.0923,35.4166],[140.0868,35.4212],[140.0796,35.4229],[140.0648,35.4226],[140.056,35.4214],[140.0477,35.4191],[140.0405,35.4158],[140.0349,35.4155],[140.0339,35.4187],[140.0412,35.4301],[140.0418,35.4339],[140.0405,35.4413],[140.0355,35.4498],[140.0316,35.4547],[140.0228,35.4681],[140.0183,35.4732]]]}},{"type":"Feature","properties":{"id":12046},"geometry":{"type":"Polygon","coordinates":[[[140.5663,35.751],[140.5552,35.75],[140.5483,35.7518],[140.535,35.753],[140.5208,35.7528],[140.5154,35.7517],[140.5085,35.7485],[140.501,35.7401],[140.4971,35.729],[140.483,35.717],[140.4791,35.7114],[140.4904,35.7121],[140.4944,35.7106],[140.4996,35.7003],[140.5007,35.6942],[140.5034,35.6883],[140.507,35.6849],[140.5134,35.6751],[140.5168,35.6727],[140.5322,35.6681],[140.5406,35.6618],[140.5401,35.6579],[140.534,35.653],[140.534,35.6497],[140.5557,35.6317],[140.559,35.6284],[140.5625,35.6319],[140.567,35.633],[140.5803,35.6432],[140.5889,35.648],[140.5921,35.6512],[140.6037,35.6582],[140.619,35.6689],[140.6224,35.6707],[140.6138,35.6778],[140.6088,35.6855],[140.5997,35.7043],[140.5966,35.7067],[140.5883,35.7097],[140.5845,35.7149],[140.5952,35.7205],[140.5979,35.7268],[140.5955,35.7327],[140.5876,35.7288],[140.5788,35.7276],[140.5727,35.7293],[140.566,35.733],[140.5643,35.7356],[140.5668,35.7463],[140.5663,35.751]]]}},{"type":"Feature","properties":{"id":12047},"geometry":{"type":"Polygon","coordinates":[[[140.4562,35.7963],[140.4486,35.7824],[140.4384,35.7737],[140.4289,35.772],[140.4218,35.7733],[140.4106,35.7812],[140.406,35.7819],[140.3989,35.7809],[140.3961,35.7744],[140.4039,35.7695],[140.4105,35.7683],[140.4176,35.7652],[140.4253,35.7575],[140.4276,35.7472],[140.4333,35.7308],[140.4341,35.7186],[140.4409,35.7123],[140.4491,35.699],[140.4598,35.6903],[140.4652,35.688],[140.4692,35.6893],[140.4791,35.7114],[140.483,35.717],[140.4971,35.729],[140.501,35.7401],[140.5085,35.7485],[140.5154,35.7517],[140.5208,35.7528],[140.535,35.753],[140.5483,35.7518],[140.5552,35.75],[140.5663,35.751],[140.5611,35.7548],[140.5527,35.7589],[140.5359,35.7728],[140.5191,35.7812],[140.5119,35.78],[140.5086,35.7812],[140.5006,35.7922],[140.4941,35.7945],[140.4895,35.7937],[140.4789,35.7885],[140.4707,35.7888],[140.4636,35.7942],[140.4562,35.7963]]]}},{"type":"Feature","properties":{"id":12048},"geometry":{"type":"Polygon","coordinates":[[[139.8226,34.916],[139.8371,34.9204],[139.8426,34.9211],[139.8668,34.9274],[139.8718,34.9331],[139.8797,34.9394],[139.8831,34.9401],[139.8956,34.9396],[139.8996,34.9381],[139.9124,34.9369],[139.9175,34.9395],[139.9175,34.9443],[139.9144,34.9482],[139.903,34.9578],[139.9022,34.9607],[139.9022,34.9738],[139.9031,34.978],[139.9185,34.9909],[139.9299,34.9963],[139.9356,35.0007],[139.9379,35.0045],[139.9405,35.014],[139.9353,35.023],[139.9292,35.0241],[139.905,35.0131],[139.8949,35.0109],[139.8876,35.0138],[139.8846,35.0197],[139.8834,35.028],[139.8837,35.0454],[139.8817,35.0498],[139.8771,35.0489],[139.8629,35.041],[139.8495,35.0356],[139.8391,35.0288],[139.8434,35.0241],[139.8478,35.0257],[139.8528,35.0235],[139.8575,35.0138],[139.8586,35.0095],[139.8586,34.9967],[139.8557,34.9907],[139.8503,34.9861],[139.8422,34.9878],[139.8422,34.9911],[139.8292,34.9908],[139.82,34.9783],[139.8114,34.9783],[139.7947,34.9733],[139.7858,34.9725],[139.7805,34.9764],[139.7758,34.975],[139.7731,34.9778],[139.7653,34.975],[139.7544,34.9781],[139.7528,34.9742],[139.755,34.9711],[139.7531,34.9664],[139.7544,34.9628],[139.7589,34.9617],[139.7592,34.9581],[139.7669,34.9575],[139.7683,34.9547],[139.7742,34.9542],[139.7808,34.9561],[139.7931,34.9525],[139.8103,34.9443],[139.8197,34.9378],[139.8256,34.9325],[139.8272,34.9253],[139.8236,34.9217],[139.8226,34.916]]]}},{"type":"Feature","properties":{"id":12049},"geometry":{"type":"Polygon","coordinates":[[[140.2977,35.5467],[140.3115,35.5514],[140.3213,35.5514],[140.3263,35.5487],[140.3314,35.5412],[140.3349,35.5321],[140.3383,35.5292],[140.3525,35.5245],[140.3594,35.5207],[140.3637,35.5138],[140.3684,35.5107],[140.3744,35.5094],[140.3866,35.5041],[140.3929,35.5034],[140.408,35.5037],[140.4031,35.5125],[140.3966,35.5206],[140.3977,35.5259],[140.4124,35.5259],[140.4211,35.5279],[140.4242,35.5347],[140.4254,35.5402],[140.4304,35.5537],[140.4369,35.5623],[140.4364,35.571],[140.4346,35.5758],[140.4284,35.5802],[140.4161,35.5778],[140.4114,35.5786],[140.4004,35.583],[140.3897,35.5896],[140.3833,35.595],[140.3745,35.5979],[140.3673,35.5952],[140.3637,35.5962],[140.3529,35.6052],[140.3381,35.6066],[140.3353,35.6089],[140.3319,35.6183],[140.3295,35.622],[140.3177,35.6233],[140.3142,35.619],[140.3167,35.6092],[140.3171,35.5955],[140.3187,35.5915],[140.3291,35.5862],[140.3333,35.5796],[140.3315,35.5773],[140.3083,35.5768],[140.2937,35.57],[140.2955,35.5567],[140.2977,35.5467]]]}},{"type":"Feature","properties":{"id":12050},"geometry":{"type":"Polygon","coordinates":[[[140.2914,35.751],[140.2911,35.7339],[140.2918,35.7285],[140.2957,35.718],[140.3035,35.7114],[140.3086,35.7033],[140.317,35.7034],[140.321,35.7019],[140.3215,35.6978],[140.3184,35.6915],[140.3185,35.6849],[140.3232,35.6793],[140.3374,35.676],[140.3516,35.6659],[140.3539,35.6748],[140.3598,35.6798],[140.379,35.68],[140.3856,35.6796],[140.402,35.6758],[140.4025,35.6824],[140.3991,35.6869],[140.3893,35.6902],[140.3841,35.6933],[140.3832,35.6966],[140.3834,35.7063],[140.3815,35.7126],[140.3777,35.716],[140.3713,35.7274],[140.3689,35.7335],[140.3639,35.74],[140.3574,35.7436],[140.3518,35.7483],[140.3483,35.7574],[140.3438,35.7631],[140.3331,35.7688],[140.3247,35.7684],[140.319,35.7639],[140.318,35.7494],[140.3155,35.7422],[140.3107,35.7414],[140.3052,35.749],[140.3002,35.7515],[140.2914,35.751]]]}},{"type":"Feature","properties":{"id":12051},"geometry":{"type":"Polygon","coordinates":[[[140.6944,35.7834],[140.6963,35.7934],[140.705,35.8031],[140.7237,35.8107],[140.7197,35.8208],[140.7095,35.8333],[140.6982,35.8404],[140.6876,35.8456],[140.6779,35.8482],[140.6665,35.8502],[140.6616,35.8503],[140.6488,35.8505],[140.6487,35.8126],[140.6473,35.8051],[140.6384,35.7988],[140.6318,35.7898],[140.6376,35.7848],[140.6428,35.7827],[140.6541,35.7814],[140.6621,35.7768],[140.6637,35.771],[140.6661,35.7686],[140.671,35.7693],[140.6843,35.7761],[140.6944,35.7834]]]}},{"type":"Feature","properties":{"id":12052},"geometry":{"type":"Polygon","coordinates":[[[139.9736,35.6806],[139.9641,35.6797],[139.96,35.6783],[139.9589,35.6742],[139.9628,35.6714],[139.98,35.6703],[139.9764,35.6803],[139.9736,35.6806]]]}},{"type":"Feature","properties":{"id":12053},"geometry":{"type":"Polygon","coordinates":[[[140.2937,35.57],[140.3083,35.5768],[140.3315,35.5773],[140.3333,35.5796],[140.3291,35.5862],[140.3187,35.5915],[140.3171,35.5955],[140.3167,35.6092],[140.3142,35.619],[140.3177,35.6233],[140.3295,35.622],[140.3253,35.6376],[140.325,35.6425],[140.3276,35.6482],[140.3448,35.6533],[140.3478,35.6556],[140.3516,35.6659],[140.3374,35.676],[140.3232,35.6793],[140.3185,35.6849],[140.3184,35.6915],[140.3215,35.6978],[140.321,35.7019],[140.317,35.7034],[140.3086,35.7033],[140.3035,35.7114],[140.2929,35.7061],[140.2881,35.7015],[140.2869,35.6915],[140.2874,35.6885],[140.2936,35.6829],[140.2941,35.679],[140.2912,35.6721],[140.2858,35.6662],[140.2799,35.6667],[140.2762,35.6719],[140.2722,35.6721],[140.2708,35.6628],[140.267,35.6589],[140.2669,35.6523],[140.265,35.6503],[140.2592,35.6503],[140.2542,35.6465],[140.2543,35.6426],[140.2633,35.6339],[140.2673,35.6182],[140.2705,35.6106],[140.2708,35.596],[140.268,35.5875],[140.2793,35.5788],[140.2937,35.57]]]}},{"type":"Feature","properties":{"id":12054},"geometry":{"type":"Polygon","coordinates":[[[140.1383,35.6937],[140.1369,35.7005],[140.1374,35.7137],[140.1404,35.7223],[140.1411,35.736],[140.1439,35.744],[140.1458,35.7463],[140.1542,35.749],[140.1604,35.7497],[140.142,35.7639],[140.1373,35.7681],[140.1148,35.7807],[140.1049,35.785],[140.0974,35.7831],[140.0909,35.7799],[140.0895,35.7704],[140.0864,35.7647],[140.0799,35.7588],[140.0788,35.7481],[140.0733,35.7391],[140.0667,35.7314],[140.0659,35.7279],[140.0713,35.7072],[140.0835,35.6973],[140.0888,35.6883],[140.1066,35.6971],[140.1129,35.6988],[140.1212,35.6985],[140.1383,35.6937]]]}},{"type":"Feature","properties":{"id":12055},"geometry":{"type":"Polygon","coordinates":[[[140.5237,35.6018],[140.5318,35.6072],[140.5381,35.6133],[140.5475,35.6208],[140.559,35.6284],[140.5557,35.6317],[140.534,35.6497],[140.534,35.653],[140.5401,35.6579],[140.5406,35.6618],[140.5322,35.6681],[140.5168,35.6727],[140.5134,35.6751],[140.507,35.6849],[140.5034,35.6883],[140.5007,35.6942],[140.4996,35.7003],[140.4944,35.7106],[140.4904,35.7121],[140.4791,35.7114],[140.4692,35.6893],[140.4652,35.688],[140.4598,35.6903],[140.4491,35.699],[140.4391,35.6935],[140.4242,35.6808],[140.4236,35.6777],[140.4263,35.6711],[140.4324,35.6655],[140.4388,35.6565],[140.444,35.6518],[140.4484,35.6517],[140.4651,35.6573],[140.4684,35.6569],[140.4714,35.6525],[140.4726,35.6472],[140.4719,35.6418],[140.4772,35.6332],[140.48,35.6321],[140.4914,35.6314],[140.4965,35.6272],[140.4964,35.624],[140.4931,35.6211],[140.4929,35.6172],[140.4978,35.6134],[140.511,35.6128],[140.5153,35.611],[140.5237,35.6018]]]}},{"type":"Feature","properties":{"id":12056},"geometry":{"type":"Polygon","coordinates":[[[140.2179,35.6472],[140.2171,35.6693],[140.2104,35.6842],[140.2082,35.6946],[140.2042,35.7036],[140.1998,35.7034],[140.1951,35.7003],[140.1908,35.7005],[140.1854,35.7034],[140.1802,35.7041],[140.1757,35.7009],[140.173,35.6901],[140.1662,35.6894],[140.1625,35.6874],[140.1581,35.6736],[140.1558,35.6687],[140.1581,35.6585],[140.1584,35.6495],[140.1599,35.6467],[140.1656,35.6456],[140.1711,35.6467],[140.1748,35.6437],[140.1758,35.6367],[140.1802,35.6362],[140.1854,35.6392],[140.1909,35.6396],[140.1938,35.6338],[140.1909,35.625],[140.1912,35.6219],[140.1981,35.6206],[140.2015,35.6241],[140.2052,35.631],[140.2179,35.6472]]]}}]}