{"type":"FeatureCollection","features":[{"type":"Feature","properties":{"id":13001},"geometry":{"type":"Polygon","coordinates":[[[139.7587,35.8081],[139.7602,35.7881],[139.7486,35.7838],[139.7474,35.7776],[139.7495,35.7695],[139.753,35.7662],[139.7635,35.766],[139.7651,35.7639],[139.7609,35.7604],[139.7643,35.7556],[139.7744,35.7552],[139.7791,35.7531],[139.7868,35.7523],[139.7948,35.7458],[139.8018,35.7425],[139.8077,35.7426],[139.8145,35.7447],[139.8169,35.7475],[139.8176,35.7526],[139.8257,35.752],[139.8304,35.7564],[139.8352,35.7556],[139.8442,35.7635],[139.8491,35.7652],[139.8544,35.7626],[139.8591,35.7634],[139.8591,35.7669],[139.852,35.776],[139.85,35.7814],[139.8513,35.7908],[139.849,35.7928],[139.8393,35.7923],[139.8359,35.7939],[139.8279,35.7913],[139.8194,35.8085],[139.8036,35.8038],[139.7929,35.8027],[139.7807,35.8074],[139.7703,35.8144],[139.7683,35.8135],[139.7587,35.8081]]]}},{"type":"Feature","properties":{"id":13002},"geometry":{"type":"Polygon","coordinates":[[[139.3362,35.7094],[139.3338,35.7124],[139.3332,35.7192],[139.3284,35.7278],[139.3276,35.7329],[139.3245,35.7375],[139.323,35.7439],[139.316,35.7479],[139.3055,35.7511],[139.2989,35.7536],[139.2859,35.7545],[139.2814,35.7556],[139.2679,35.7552],[139.2648,35.7536],[139.2693,35.7499],[139.2776,35.7481],[139.2869,35.742],[139.2872,35.7356],[139.2844,35.7339],[139.2718,35.7323],[139.2544,35.7325],[139.2354,35.7358],[139.2222,35.7418],[139.2138,35.7484],[139.2093,35.7506],[139.201,35.7571],[139.1923,35.7577],[139.1873,35.7609],[139.1847,35.7657],[139.179,35.7704],[139.1699,35.7732],[139.1646,35.7738],[139.156,35.7714],[139.1426,35.7725],[139.1415,35.7741],[139.1375,35.7717],[139.1337,35.7636],[139.1388,35.7638],[139.1439,35.7621],[139.1454,35.751],[139.1571,35.7435],[139.1642,35.7398],[139.1678,35.7347],[139.1703,35.7283],[139.1698,35.7181],[139.1722,35.7074],[139.1716,35.6997],[139.1728,35.6877],[139.1839,35.6848],[139.1974,35.6852],[139.2065,35.6924],[139.2087,35.6992],[139.2092,35.7064],[139.215,35.7108],[139.2387,35.7108],[139.2528,35.7079],[139.2721,35.7064],[139.2808,35.7101],[139.2856,35.7099],[139.2895,35.7061],[139.2941,35.706],[139.3092,35.7103],[139.3242,35.7103],[139.3307,35.7076],[139.3353,35.7072],[139.3362,35.7094]]]}},{"type":"Feature","properties":{"id":13003},"geometry":{"type":"Polygon","coordinates":[[[139.3353,35.7072],[139.3375,35.6992],[139.3435,35.6929],[139.3554,35.6883],[139.3792,35.688],[139.3953,35.6882],[139.3977,35.6981],[139.4026,35.7051],[139.4038,35.71],[139.3976,35.7155],[139.386,35.7173],[139.3761,35.7214],[139.362,35.7211],[139.3567,35.7177],[139.3455,35.7174],[139.3418,35.7133],[139.3362,35.7094],[139.3353,35.7072]]]}},{"type":"Feature","properties":{"id":13004},"geometry":{"type":"Polygon","coordinates":[[[139.7643,35.7556],[139.7642,35.7505],[139.7761,35.7435],[139.7767,35.7318],[139.7856,35.7268],[139.7911,35.7249],[139.7998,35.7262],[139.8059,35.726],[139.8118,35.724],[139.8136,35.7316],[139.821,35.7372],[139.8145,35.7447],[139.8077,35.7426],[139.8018,35.7425],[139.7948,35.7458],[139.7868,35.7523],[139.7791,35.7531],[139.7744,35.7552],[139.7643,35.7556]]]}},{"type":"Feature","properties":{"id":13005},"geometry":{"type":"Polygon","coordinates":[[[139.7806,35.7024],[139.7774,35.7073],[139.7765,35.7216],[139.7717,35.728],[139.7561,35.7294],[139.7518,35.7244],[139.7447,35.7211],[139.7369,35.7191],[139.7302,35.7138],[139.723,35.7107],[139.7314,35.7052],[139.7361,35.7035],[139.7458,35.7033],[139.7521,35.6972],[139.7728,35.6975],[139.7769,35.7014],[139.7806,35.7024]]]}},{"type":"Feature","properties":{"id":13006},"geometry":{"type":"Polygon","coordinates":[[[139.7521,35.6972],[139.7449,35.689],[139.7385,35.684],[139.738,35.6763],[139.7443,35.671],[139.7503,35.6685],[139.7574,35.6684],[139.7688,35.6793],[139.7785,35.6842],[139.7878,35.6935],[139.7926,35.6967],[139.7806,35.7024],[139.7769,35.7014],[139.7728,35.6975],[139.7521,35.6972]]]}},{"type":"Feature","properties":{"id":13007},"geometry":{"type":"Polygon","coordinates":[[[139.5651,35.6314],[139.5722,35.6406],[139.5791,35.6444],[139.5937,35.6431],[139.5974,35.6482],[139.5953,35.6566],[139.5891,35.6613],[139.5822,35.6581],[139.5761,35.6594],[139.5704,35.667],[139.565,35.6775],[139.5593,35.6783],[139.5556,35.6764],[139.553,35.6717],[139.5471,35.6668],[139.5435,35.6654],[139.5374,35.6657],[139.5314,35.6709],[139.5304,35.6632],[139.5308,35.6394],[139.5415,35.6346],[139.5554,35.6334],[139.5651,35.6314]]]}},{"type":"Feature","properties":{"id":13008},"geometry":{"type":"MultiPolygon","coordinates":[[[[139.7872,35.6625],[139.7866,35.6702],[139.7844,35.6711],[139.7792,35.6642],[139.7673,35.6552],[139.7668,35.6509],[139.773,35.6456],[139.7794,35.6508],[139.7887,35.6558],[139.7872,35.6625]]],[[[139.7926,35.6967],[139.7878,35.6935],[139.7785,35.6842],[139.7688,35.6793],[139.7574,35.6684],[139.7635,35.6679],[139.7675,35.6648],[139.7699,35.6599],[139.7771,35.6648],[139.7814,35.6714],[139.7878,35.6748],[139.791,35.6667],[139.793,35.6675],[139.7933,35.6733],[139.7974,35.6825],[139.8008,35.686],[139.7944,35.6936],[139.7926,35.6967]]]]}},{"type":"Feature","properties":{"id":13009},"geometry":{"type":"MultiPolygon","coordinates":[[[[139.931,35.6974],[139.9309,35.6977],[139.9296,35.7008],[139.9251,35.7114],[139.9168,35.7247],[139.9029,35.7393],[139.8949,35.7465],[139.8887,35.7682],[139.886,35.764],[139.887,35.7559],[139.8917,35.7495],[139.888,35.7434],[139.8797,35.7324],[139.8789,35.7275],[139.8743,35.7214],[139.8727,35.7119],[139.8681,35.7085],[139.8561,35.7071],[139.8589,35.7011],[139.8593,35.6943],[139.8571,35.6876],[139.8499,35.6768],[139.8483,35.6606],[139.8502,35.6589],[139.8492,35.6524],[139.8495,35.6429],[139.8554,35.6393],[139.8601,35.6383],[139.8704,35.6389],[139.8742,35.6425],[139.88,35.6442],[139.8728,35.6337],[139.8732,35.6257],[139.8829,35.6226],[139.8884,35.6218],[139.8933,35.6245],[139.8974,35.6164],[139.9041,35.62],[139.9063,35.6231],[139.9218,35.6302],[139.9285,35.6347],[139.9387,35.6398],[139.9389,35.6413],[139.9296,35.6483],[139.9206,35.6537],[139.919,35.6559],[139.9226,35.6614],[139.9296,35.6659],[139.9426,35.6675],[139.9473,35.6692],[139.9445,35.6733],[139.9394,35.6716],[139.9415,35.6792],[139.9378,35.6872],[139.9303,35.6964],[139.931,35.6974]]],[[[139.8428,35.7164],[139.8357,35.7094],[139.8345,35.6981],[139.842,35.6905],[139.8502,35.6861],[139.8548,35.6953],[139.8537,35.7035],[139.8509,35.7084],[139.8428,35.7164]]]]}},{"type":"Feature","properties":{"id":13010},"geometry":{"type":"Polygon","coordinates":[[[139.5308,35.6394],[139.5304,35.6632],[139.5314,35.6709],[139.5339,35.6815],[139.5311,35.6836],[139.5223,35.6853],[139.5162,35.6818],[139.508,35.6819],[139.4966,35.687],[139.4901,35.6847],[139.4851,35.6847],[139.4745,35.688],[139.4728,35.6958],[139.4677,35.6959],[139.4655,35.6912],[139.4634,35.6808],[139.4608,35.6724],[139.4536,35.6701],[139.4337,35.67],[139.4421,35.6574],[139.4494,35.6533],[139.4584,35.6521],[139.4688,35.6532],[139.474,35.6521],[139.4787,35.6476],[139.4847,35.6455],[139.5099,35.6449],[139.5195,35.6409],[139.5298,35.6383],[139.5308,35.6394]]]}},{"type":"Feature","properties":{"id":13011},"geometry":{"type":"Polygon","coordinates":[[[139.3362,35.7094],[139.3418,35.7133],[139.3455,35.7174],[139.3567,35.7177],[139.362,35.7211],[139.3575,35.7252],[139.3579,35.7274],[139.3657,35.7333],[139.3564,35.7411],[139.3508,35.7462],[139.3425,35.7503],[139.3374,35.7485],[139.3281,35.7489],[139.323,35.7439],[139.3245,35.7375],[139.3276,35.7329],[139.3284,35.7278],[139.3332,35.7192],[139.3338,35.7124],[139.3362,35.7094]]]}},{"type":"Feature","properties":{"id":13012},"geometry":{"type":"MultiPolygon","coordinates":[[[[139.7608,32.4731],[139.7551,32.4725],[139.7555,32.4613],[139.7549,32.4525],[139.7594,32.4454],[139.7655,32.4444],[139.7688,32.4424],[139.7726,32.4431],[139.7808,32.4483],[139.7828,32.4528],[139.7811,32.4583],[139.7744,32.4639],[139.77,32.4697],[139.7608,32.4731]]],[[[139.7611,33.16],[139.7464,33.1567],[139.7392,33.1442],[139.7381,33.1372],[139.7442,33.1214],[139.7503,33.1158],[139.7522,33.1075],[139.7556,33.1033],[139.7672,33.1014],[139.77,33.0986],[139.7762,33.0985],[139.78,33.0903],[139.7793,33.0875],[139.7804,33.0748],[139.7817,33.0711],[139.7961,33.0622],[139.8033,33.0633],[139.81,33.0581],[139.8161,33.0593],[139.8212,33.0566],[139.8322,33.0447],[139.8372,33.0486],[139.8375,33.0514],[139.8341,33.0558],[139.8356,33.0634],[139.8337,33.0671],[139.8393,33.071],[139.8394,33.0749],[139.8458,33.0752],[139.8488,33.0776],[139.8554,33.0769],[139.8597,33.0842],[139.8554,33.0911],[139.858,33.0997],[139.8536,33.1036],[139.8465,33.1179],[139.8258,33.1178],[139.8189,33.1201],[139.8153,33.1272],[139.8089,33.1306],[139.8014,33.1322],[139.7967,33.1389],[139.7967,33.1419],[139.7839,33.1489],[139.7743,33.1586],[139.7655,33.1583],[139.7611,33.16]]],[[[139.6842,33.1369],[139.6794,33.135],[139.6759,33.136],[139.675,33.1303],[139.6806,33.1256],[139.6843,33.1176],[139.6882,33.1158],[139.693,33.1173],[139.6992,33.1153],[139.6999,33.1237],[139.696,33.1295],[139.6897,33.1322],[139.6842,33.1369]]]]}},{"type":"Feature","properties":{"id":13013},"geometry":{"type":"Polygon","coordinates":[[[139.2729,35.6065],[139.2776,35.6112],[139.2887,35.6155],[139.2968,35.6166],[139.3029,35.6113],[139.3135,35.6128],[139.3353,35.6105],[139.3449,35.6106],[139.3579,35.6012],[139.3667,35.5981],[139.3739,35.5991],[139.3892,35.5993],[139.3957,35.6009],[139.4085,35.6103],[139.4144,35.6198],[139.4224,35.6235],[139.4323,35.6257],[139.4341,35.6294],[139.4322,35.6344],[139.4274,35.6375],[139.4246,35.6449],[139.4153,35.6441],[139.4059,35.6376],[139.4004,35.6352],[139.3947,35.6357],[139.382,35.6388],[139.3715,35.6431],[139.3659,35.6496],[139.3666,35.6576],[139.3733,35.6638],[139.3771,35.6699],[139.3789,35.678],[139.3792,35.688],[139.3554,35.6883],[139.3435,35.6929],[139.3375,35.6992],[139.3353,35.7072],[139.3307,35.7076],[139.3242,35.7103],[139.3092,35.7103],[139.2941,35.706],[139.2895,35.7061],[139.2856,35.7099],[139.2808,35.7101],[139.2721,35.7064],[139.2528,35.7079],[139.2387,35.7108],[139.215,35.7108],[139.2092,35.7064],[139.2087,35.6992],[139.2065,35.6924],[139.1974,35.6852],[139.1839,35.6848],[139.1728,35.6877],[139.1699,35.6737],[139.1649,35.6635],[139.1701,35.6562],[139.1751,35.6471],[139.1874,35.6419],[139.1972,35.6485],[139.2085,35.6483],[139.2186,35.6429],[139.2196,35.6328],[139.2251,35.622],[139.2329,35.6157],[139.2392,35.6071],[139.2486,35.602],[139.2601,35.6007],[139.2729,35.6065]]]}},{"type":"Feature","properties":{"id":13014},"geometry":{"type":"Polygon","coordinates":[[[139.323,35.7439],[139.3281,35.7489],[139.3374,35.7485],[139.3425,35.7503],[139.3403,35.7618],[139.3302,35.7721],[139.325,35.7708],[139.3177,35.7717],[139.3069,35.7757],[139.3011,35.7728],[139.299,35.7658],[139.3037,35.7612],[139.3058,35.757],[139.3055,35.7511],[139.316,35.7479],[139.323,35.7439]]]}},{"type":"Feature","properties":{"id":13015},"geometry":{"type":"Polygon","coordinates":[[[139.5453,35.7657],[139.5401,35.7629],[139.5315,35.7621],[139.5191,35.7592],[139.5061,35.7586],[139.5022,35.7532],[139.4997,35.7463],[139.4963,35.7414],[139.5029,35.7412],[139.5071,35.7394],[139.5101,35.7342],[139.5179,35.7365],[139.5267,35.7334],[139.5285,35.7316],[139.5414,35.7398],[139.5445,35.7435],[139.5531,35.7506],[139.5565,35.7595],[139.5508,35.7601],[139.5453,35.7657]]]}},{"type":"Feature","properties":{"id":13016},"geometry":{"type":"Polygon","coordinates":[[[139.4485,35.7659],[139.4493,35.7521],[139.4565,35.7392],[139.4592,35.7366],[139.4654,35.7366],[139.4707,35.7403],[139.4736,35.7398],[139.479,35.7342],[139.4892,35.731],[139.4915,35.7321],[139.4932,35.7382],[139.4963,35.7414],[139.4997,35.7463],[139.5022,35.7532],[139.5061,35.7586],[139.507,35.7652],[139.504,35.77],[139.5017,35.7771],[139.4995,35.7763],[139.4856,35.7778],[139.4769,35.7716],[139.4654,35.7703],[139.4562,35.7653],[139.4485,35.7659]]]}},{"type":"Feature","properties":{"id":13017},"geometry":{"type":"Polygon","coordinates":[[[139.3987,35.7646],[139.4002,35.7622],[139.4019,35.7543],[139.4132,35.7473],[139.4202,35.7286],[139.4415,35.7286],[139.4464,35.7303],[139.4592,35.7366],[139.4565,35.7392],[139.4493,35.7521],[139.4485,35.7659],[139.4421,35.7663],[139.4149,35.7649],[139.4044,35.7653],[139.3987,35.7646]]]}},{"type":"Feature","properties":{"id":13018},"geometry":{"type":"Polygon","coordinates":[[[139.3792,35.688],[139.3789,35.678],[139.3771,35.6699],[139.3733,35.6638],[139.3666,35.6576],[139.3659,35.6496],[139.3715,35.6431],[139.382,35.6388],[139.3947,35.6357],[139.4004,35.6352],[139.4059,35.6376],[139.4153,35.6441],[139.4246,35.6449],[139.431,35.6441],[139.4411,35.6444],[139.4449,35.6462],[139.4494,35.6533],[139.4421,35.6574],[139.4337,35.67],[139.4321,35.6739],[139.425,35.6818],[139.4133,35.6821],[139.4063,35.6837],[139.3953,35.6882],[139.3792,35.688]]]}},{"type":"Feature","properties":{"id":13019},"geometry":{"type":"Polygon","coordinates":[[[139.2648,35.7536],[139.2614,35.7568],[139.2518,35.7613],[139.2357,35.7656],[139.2291,35.7665],[139.2127,35.7712],[139.1957,35.7817],[139.1883,35.7819],[139.1749,35.7763],[139.1699,35.7732],[139.179,35.7704],[139.1847,35.7657],[139.1873,35.7609],[139.1923,35.7577],[139.201,35.7571],[139.2093,35.7506],[139.2138,35.7484],[139.2222,35.7418],[139.2354,35.7358],[139.2544,35.7325],[139.2718,35.7323],[139.2844,35.7339],[139.2872,35.7356],[139.2869,35.742],[139.2776,35.7481],[139.2693,35.7499],[139.2648,35.7536]]]}},{"type":"Feature","properties":{"id":13020},"geometry":{"type":"Polygon","coordinates":[[[139.1649,35.6635],[139.1699,35.6737],[139.1728,35.6877],[139.1716,35.6997],[139.1722,35.7074],[139.1698,35.7181],[139.1703,35.7283],[139.1678,35.7347],[139.1642,35.7398],[139.1571,35.7435],[139.1454,35.751],[139.1439,35.7621],[139.1388,35.7638],[139.1337,35.7636],[139.129,35.7626],[139.125,35.7642],[139.1163,35.7709],[139.1094,35.7737],[139.1027,35.7736],[139.0958,35.7662],[139.0841,35.7655],[139.0764,35.7669],[139.0701,35.7614],[139.0632,35.7586],[139.0462,35.7538],[139.044,35.7479],[139.0435,35.7412],[139.041,35.7396],[139.0284,35.737],[139.0194,35.7367],[139.0147,35.7393],[139.0125,35.7449],[139.0092,35.747],[139.0008,35.7485],[139.0103,35.743],[139.0196,35.7296],[139.0269,35.7179],[139.045,35.7072],[139.0549,35.7029],[139.0746,35.6933],[139.0859,35.6916],[139.0958,35.688],[139.106,35.6883],[139.1335,35.67],[139.1446,35.6672],[139.1641,35.6646],[139.1649,35.6635]]]}},{"type":"Feature","properties":{"id":13021},"geometry":{"type":"Polygon","coordinates":[[[139.5298,35.6383],[139.5195,35.6409],[139.5099,35.6449],[139.4847,35.6455],[139.4787,35.6476],[139.4764,35.6337],[139.4713,35.6271],[139.4689,35.6204],[139.4773,35.6164],[139.4839,35.608],[139.4921,35.6019],[139.5,35.6149],[139.5092,35.6194],[139.5198,35.6235],[139.5298,35.6383]]]}},{"type":"Feature","properties":{"id":13022},"geometry":{"type":"Polygon","coordinates":[[[139.693,35.7977],[139.6802,35.796],[139.6698,35.7972],[139.6592,35.7966],[139.6434,35.7917],[139.642,35.7903],[139.6352,35.7837],[139.6284,35.7749],[139.625,35.7638],[139.6317,35.7645],[139.6343,35.7704],[139.6408,35.7639],[139.649,35.7597],[139.6648,35.7574],[139.6721,35.7545],[139.6772,35.7506],[139.6791,35.7421],[139.6848,35.738],[139.6902,35.7309],[139.6994,35.7328],[139.7039,35.7352],[139.7091,35.7333],[139.7141,35.7343],[139.7176,35.7398],[139.7233,35.7392],[139.7271,35.7433],[139.7273,35.7499],[139.7233,35.7557],[139.7154,35.7562],[139.7091,35.7624],[139.7089,35.7716],[139.707,35.7746],[139.6967,35.7803],[139.6954,35.7863],[139.698,35.7966],[139.693,35.7977]]]}},{"type":"Feature","properties":{"id":13023},"geometry":{"type":"Polygon","coordinates":[[[139.875,35.7943],[139.8628,35.792],[139.8491,35.7949],[139.8359,35.7939],[139.8393,35.7923],[139.849,35.7928],[139.8513,35.7908],[139.85,35.7814],[139.852,35.776],[139.8591,35.7669],[139.8591,35.7634],[139.8544,35.7626],[139.8491,35.7652],[139.8442,35.7635],[139.8352,35.7556],[139.8304,35.7564],[139.8257,35.752],[139.8176,35.7526],[139.8169,35.7475],[139.8145,35.7447],[139.821,35.7372],[139.8317,35.7241],[139.8371,35.7218],[139.8376,35.7252],[139.85,35.7141],[139.8561,35.7071],[139.8681,35.7085],[139.8727,35.7119],[139.8743,35.7214],[139.8789,35.7275],[139.8797,35.7324],[139.888,35.7434],[139.8917,35.7495],[139.887,35.7559],[139.886,35.764],[139.8887,35.7682],[139.8881,35.7701],[139.8924,35.7813],[139.875,35.7943]]]}},{"type":"Feature","properties":{"id":13024},"geometry":{"type":"Polygon","coordinates":[[[139.698,35.7966],[139.6954,35.7863],[139.6967,35.7803],[139.707,35.7746],[139.7089,35.7716],[139.7091,35.7624],[139.7154,35.7562],[139.7233,35.7557],[139.7273,35.7499],[139.7271,35.7433],[139.7233,35.7392],[139.7267,35.7371],[139.7372,35.7359],[139.7447,35.7328],[139.7506,35.732],[139.7561,35.7294],[139.7717,35.728],[139.7767,35.7318],[139.7761,35.7435],[139.7642,35.7505],[139.7643,35.7556],[139.7609,35.7604],[139.7651,35.7639],[139.7635,35.766],[139.753,35.7662],[139.7495,35.7695],[139.7474,35.7776],[139.7486,35.7838],[139.7374,35.7867],[139.7205,35.7899],[139.698,35.7966]]]}},{"type":"Feature","properties":{"id":13025},"geometry":{"type":"Polygon","coordinates":[[[139.5424,35.7866],[139.5368,35.7961],[139.5293,35.7887],[139.5189,35.7855],[139.5097,35.7797],[139.5017,35.7771],[139.504,35.77],[139.507,35.7652],[139.5061,35.7586],[139.5191,35.7592],[139.5315,35.7621],[139.5401,35.7629],[139.5453,35.7657],[139.5392,35.772],[139.5469,35.7787],[139.5424,35.7866]]]}},{"type":"Feature","properties":{"id":13026},"geometry":{"type":"Polygon","coordinates":[[[139.4963,35.7414],[139.4932,35.7382],[139.4915,35.7321],[139.4892,35.731],[139.479,35.7342],[139.4736,35.7398],[139.4707,35.7403],[139.4654,35.7366],[139.4592,35.7366],[139.4464,35.7303],[139.4494,35.7245],[139.4544,35.7191],[139.4589,35.717],[139.4681,35.7149],[139.479,35.7081],[139.4923,35.7058],[139.4954,35.7042],[139.4988,35.7074],[139.5049,35.7096],[139.5131,35.7106],[139.5198,35.7138],[139.5238,35.7172],[139.5222,35.722],[139.5228,35.7278],[139.5285,35.7316],[139.5267,35.7334],[139.5179,35.7365],[139.5101,35.7342],[139.5071,35.7394],[139.5029,35.7412],[139.4963,35.7414]]]}},{"type":"Feature","properties":{"id":13027},"geometry":{"type":"Polygon","coordinates":[[[139.5339,35.6815],[139.5381,35.6846],[139.5394,35.6898],[139.5448,35.6924],[139.5426,35.6954],[139.5387,35.7067],[139.5307,35.7144],[139.5238,35.7172],[139.5198,35.7138],[139.5131,35.7106],[139.5049,35.7096],[139.4988,35.7074],[139.4954,35.7042],[139.4966,35.687],[139.508,35.6819],[139.5162,35.6818],[139.5223,35.6853],[139.5311,35.6836],[139.5339,35.6815]]]}},{"type":"Feature","properties":{"id":13028},"geometry":{"type":"Polygon","coordinates":[[[139.4966,35.687],[139.4954,35.7042],[139.4923,35.7058],[139.479,35.7081],[139.4681,35.7149],[139.4589,35.717],[139.4544,35.7191],[139.4524,35.712],[139.4463,35.7109],[139.4394,35.7119],[139.4326,35.7004],[139.4353,35.6948],[139.4407,35.6953],[139.4495,35.6991],[139.4655,35.6912],[139.4677,35.6959],[139.4728,35.6958],[139.4745,35.688],[139.4851,35.6847],[139.4901,35.6847],[139.4966,35.687]]]}},{"type":"Feature","properties":{"id":13029},"geometry":{"type":"Polygon","coordinates":[[[139.6022,35.6149],[139.6007,35.622],[139.5977,35.6263],[139.594,35.6359],[139.5937,35.6431],[139.5791,35.6444],[139.5722,35.6406],[139.5651,35.6314],[139.5774,35.6196],[139.6022,35.6149]]]}},{"type":"Feature","properties":{"id":13030},"geometry":{"type":"MultiPolygon","coordinates":[[[[139.8189,35.5928],[139.8264,35.5981],[139.8197,35.6072],[139.8053,35.5997],[139.8139,35.59],[139.8189,35.5928]]],[[[139.8388,35.6316],[139.8349,35.6318],[139.8251,35.6298],[139.828,35.6204],[139.8354,35.6121],[139.8389,35.6165],[139.8401,35.6276],[139.8388,35.6316]]],[[[139.795,35.5972],[139.8019,35.5994],[139.8053,35.6028],[139.8169,35.6089],[139.8097,35.6131],[139.7992,35.6075],[139.7936,35.6011],[139.795,35.5972]]],[[[139.7817,35.6306],[139.777,35.6314],[139.7669,35.6254],[139.7701,35.6191],[139.7736,35.6197],[139.7747,35.6156],[139.7867,35.6017],[139.7928,35.61],[139.7886,35.6153],[139.7796,35.6244],[139.7817,35.6306]]],[[[139.8202,35.6486],[139.8173,35.6484],[139.8162,35.6539],[139.8069,35.6531],[139.8082,35.6407],[139.8197,35.6416],[139.8202,35.6486]]],[[[139.8008,35.686],[139.7974,35.6825],[139.7933,35.6733],[139.793,35.6675],[139.791,35.6667],[139.7933,35.6647],[139.7899,35.659],[139.7905,35.6525],[139.7764,35.6422],[139.7795,35.6396],[139.7891,35.6451],[139.7972,35.6486],[139.7972,35.6444],[139.7939,35.6417],[139.7839,35.6367],[139.7791,35.6378],[139.7851,35.6254],[139.7932,35.6141],[139.7978,35.6168],[139.7975,35.619],[139.7895,35.6283],[139.7941,35.6273],[139.7982,35.6218],[139.8024,35.6272],[139.7977,35.6362],[139.8063,35.6368],[139.8062,35.6433],[139.8046,35.6509],[139.8078,35.6548],[139.8308,35.6561],[139.8377,35.6553],[139.8363,35.6511],[139.8301,35.6546],[139.8206,35.6537],[139.8227,35.6418],[139.82,35.6389],[139.8212,35.6316],[139.8382,35.6334],[139.8404,35.6345],[139.8416,35.6406],[139.8411,35.6476],[139.8427,35.6585],[139.8436,35.6717],[139.845,35.6782],[139.8502,35.6861],[139.842,35.6905],[139.8345,35.6981],[139.8283,35.6985],[139.8248,35.6969],[139.8203,35.6901],[139.8133,35.6878],[139.8063,35.6841],[139.8008,35.686]]]]}},{"type":"Feature","properties":{"id":13031},"geometry":{"type":"Polygon","coordinates":[[[139.4655,35.6912],[139.4495,35.6991],[139.4407,35.6953],[139.4353,35.6948],[139.4304,35.6855],[139.425,35.6818],[139.4321,35.6739],[139.4337,35.67],[139.4536,35.6701],[139.4608,35.6724],[139.4634,35.6808],[139.4655,35.6912]]]}},{"type":"Feature","properties":{"id":13032},"geometry":{"type":"Polygon","coordinates":[[[139.4572,35.6126],[139.4539,35.6103],[139.447,35.6132],[139.4365,35.6107],[139.4262,35.6096],[139.4205,35.608],[139.4144,35.6081],[139.4085,35.6103],[139.3957,35.6009],[139.3892,35.5993],[139.3739,35.5991],[139.3667,35.5981],[139.3579,35.6012],[139.3449,35.6106],[139.3353,35.6105],[139.3135,35.6128],[139.3029,35.6113],[139.2968,35.6166],[139.2887,35.6155],[139.2776,35.6112],[139.2729,35.6065],[139.2823,35.6082],[139.2924,35.6087],[139.3016,35.6043],[139.3113,35.6015],[139.3268,35.6014],[139.3381,35.6007],[139.3485,35.5988],[139.3598,35.5954],[139.3703,35.5937],[139.3853,35.5868],[139.4027,35.5793],[139.4119,35.5724],[139.416,35.563],[139.4242,35.5568],[139.431,35.5485],[139.4413,35.5423],[139.4493,35.5362],[139.457,35.5283],[139.4576,35.5177],[139.4592,35.5165],[139.4672,35.5107],[139.4705,35.5027],[139.4713,35.5009],[139.4866,35.5019],[139.4845,35.5128],[139.4898,35.5234],[139.4877,35.5332],[139.4842,35.5428],[139.4919,35.5588],[139.4894,35.5735],[139.4959,35.5854],[139.4823,35.5929],[139.4728,35.6007],[139.4559,35.6115],[139.4572,35.6126]]]}},{"type":"Feature","properties":{"id":13033},"geometry":{"type":"Polygon","coordinates":[[[139.6873,35.6623],[139.6838,35.6607],[139.6839,35.6561],[139.6887,35.646],[139.6886,35.6353],[139.6858,35.631],[139.68,35.6312],[139.6724,35.6351],[139.6689,35.6335],[139.667,35.6282],[139.6691,35.6147],[139.6763,35.6076],[139.6865,35.6004],[139.6879,35.5985],[139.6904,35.5984],[139.6992,35.6066],[139.7102,35.6168],[139.7177,35.6218],[139.7215,35.6284],[139.7242,35.6363],[139.7266,35.6394],[139.7199,35.642],[139.7132,35.6428],[139.7091,35.6448],[139.7028,35.6525],[139.6873,35.6623]]]}},{"type":"Feature","properties":{"id":13034},"geometry":{"type":"MultiPolygon","coordinates":[[[[139.759,35.6189],[139.7592,35.6322],[139.7535,35.6317],[139.7524,35.62],[139.759,35.6189]]],[[[139.7574,35.6684],[139.7503,35.6685],[139.7443,35.671],[139.738,35.6763],[139.7278,35.6713],[139.7183,35.6619],[139.7206,35.6544],[139.7257,35.6524],[139.7291,35.6451],[139.7266,35.6394],[139.7322,35.6366],[139.7399,35.6348],[139.7406,35.6278],[139.7513,35.6235],[139.7533,35.6355],[139.7546,35.6377],[139.7598,35.638],[139.7595,35.6461],[139.7614,35.6517],[139.7675,35.6603],[139.7699,35.6599],[139.7675,35.6648],[139.7635,35.6679],[139.7574,35.6684]]]]}},{"type":"Feature","properties":{"id":13035},"geometry":{"type":"Polygon","coordinates":[[[139.5891,35.6613],[139.5845,35.6665],[139.5935,35.6675],[139.5938,35.677],[139.5982,35.6833],[139.5971,35.6901],[139.5898,35.6938],[139.5767,35.6958],[139.5642,35.6998],[139.5609,35.6992],[139.5583,35.6947],[139.5542,35.6921],[139.5448,35.6924],[139.5394,35.6898],[139.5381,35.6846],[139.5339,35.6815],[139.5314,35.6709],[139.5374,35.6657],[139.5435,35.6654],[139.5471,35.6668],[139.553,35.6717],[139.5556,35.6764],[139.5593,35.6783],[139.565,35.6775],[139.5704,35.667],[139.5761,35.6594],[139.5822,35.6581],[139.5891,35.6613]]]}},{"type":"Feature","properties":{"id":13036},"geometry":{"type":"MultiPolygon","coordinates":[[[[139.6074,33.9003],[139.6022,33.9012],[139.5939,33.8995],[139.5881,33.8953],[139.5784,33.8841],[139.5764,33.8796],[139.5747,33.8708],[139.578,33.8611],[139.58,33.8592],[139.589,33.8549],[139.5931,33.854],[139.6053,33.8542],[139.6138,33.8519],[139.6205,33.8516],[139.6253,33.8556],[139.6328,33.8694],[139.6326,33.8717],[139.6258,33.8836],[139.6192,33.8919],[139.6074,33.9003]]],[[[139.5253,34.1241],[139.5215,34.1254],[139.5127,34.1203],[139.5073,34.1231],[139.5042,34.1218],[139.4982,34.1223],[139.4923,34.1195],[139.4892,34.1133],[139.494,34.1041],[139.4884,34.1009],[139.4877,34.0954],[139.4817,34.0901],[139.4809,34.0829],[139.4725,34.0769],[139.4758,34.0725],[139.4803,34.0694],[139.4769,34.0608],[139.4806,34.0565],[139.4808,34.0525],[139.4883,34.0514],[139.4928,34.0478],[139.4953,34.0483],[139.5019,34.0444],[139.5033,34.0461],[139.5139,34.0483],[139.5208,34.0467],[139.5256,34.0486],[139.532,34.0467],[139.5353,34.0531],[139.5386,34.0528],[139.5422,34.0558],[139.5539,34.0603],[139.563,34.0683],[139.5644,34.0789],[139.5608,34.0842],[139.5632,34.0904],[139.5667,34.0936],[139.5661,34.1011],[139.5633,34.1036],[139.5622,34.1083],[139.5537,34.1155],[139.5486,34.1175],[139.547,34.1205],[139.5312,34.1254],[139.5253,34.1241]]]]}},{"type":"Feature","properties":{"id":13037},"geometry":{"type":"Polygon","coordinates":[[[139.3378,35.7926],[139.3364,35.7848],[139.3291,35.7794],[139.3302,35.7721],[139.3403,35.7618],[139.3425,35.7503],[139.3508,35.7462],[139.3564,35.7411],[139.3573,35.7465],[139.3651,35.759],[139.3723,35.7663],[139.3838,35.7647],[139.3893,35.7615],[139.3948,35.7635],[139.4002,35.7622],[139.3987,35.7646],[139.3925,35.7638],[139.3842,35.7715],[139.3723,35.7802],[139.3658,35.7887],[139.3558,35.7903],[139.3438,35.7913],[139.3378,35.7926]]]}},{"type":"Feature","properties":{"id":13038},"geometry":{"type":"Polygon","coordinates":[[[139.3657,35.7333],[139.3744,35.7305],[139.3855,35.7287],[139.3888,35.731],[139.3875,35.7397],[139.3914,35.7397],[139.4016,35.7305],[139.407,35.7286],[139.4202,35.7286],[139.4132,35.7473],[139.4019,35.7543],[139.4002,35.7622],[139.3948,35.7635],[139.3893,35.7615],[139.3838,35.7647],[139.3723,35.7663],[139.3651,35.759],[139.3573,35.7465],[139.3564,35.7411],[139.3657,35.7333]]]}},{"type":"Feature","properties":{"id":13039},"geometry":{"type":"Polygon","coordinates":[[[139.5448,35.6924],[139.5542,35.6921],[139.5583,35.6947],[139.5609,35.6992],[139.5642,35.6998],[139.5767,35.6958],[139.5898,35.6938],[139.5971,35.6901],[139.6024,35.6962],[139.6024,35.7035],[139.5976,35.7078],[139.5827,35.7125],[139.5749,35.718],[139.5616,35.7158],[139.5544,35.7113],[139.5387,35.7067],[139.5426,35.6954],[139.5448,35.6924]]]}},{"type":"Feature","properties":{"id":13040},"geometry":{"type":"Polygon","coordinates":[[[139.6365,35.7271],[139.6488,35.7145],[139.6535,35.7136],[139.6672,35.7082],[139.6705,35.7055],[139.6705,35.6801],[139.6717,35.6755],[139.6781,35.678],[139.6857,35.6829],[139.6917,35.6853],[139.6992,35.6895],[139.7004,35.6945],[139.7049,35.6996],[139.7049,35.7018],[139.6943,35.708],[139.6891,35.7129],[139.6879,35.7193],[139.6889,35.7234],[139.6835,35.7224],[139.6763,35.7266],[139.671,35.7267],[139.6666,35.7233],[139.6587,35.7213],[139.6516,35.7215],[139.6428,35.7272],[139.6365,35.7271]]]}},{"type":"Feature","properties":{"id":13041},"geometry":{"type":"Polygon","coordinates":[[[139.5974,35.7754],[139.5902,35.7694],[139.5823,35.7604],[139.5759,35.7592],[139.5745,35.7504],[139.5752,35.7439],[139.5749,35.718],[139.5827,35.7125],[139.5976,35.7078],[139.6013,35.714],[139.6139,35.7213],[139.6245,35.7233],[139.6365,35.7271],[139.6428,35.7272],[139.6516,35.7215],[139.6587,35.7213],[139.6666,35.7233],[139.671,35.7267],[139.6763,35.7266],[139.6835,35.7224],[139.6889,35.7234],[139.6902,35.7309],[139.6848,35.738],[139.6791,35.7421],[139.6772,35.7506],[139.6721,35.7545],[139.6648,35.7574],[139.649,35.7597],[139.6408,35.7639],[139.6343,35.7704],[139.6317,35.7645],[139.625,35.7638],[139.6149,35.7671],[139.5974,35.7754]]]}},{"type":"Feature","properties":{"id":13042},"geometry":{"type":"Polygon","coordinates":[[[139.5565,35.7595],[139.5531,35.7506],[139.5445,35.7435],[139.5414,35.7398],[139.5285,35.7316],[139.5228,35.7278],[139.5222,35.722],[139.5238,35.7172],[139.5307,35.7144],[139.5387,35.7067],[139.5544,35.7113],[139.5616,35.7158],[139.5749,35.718],[139.5752,35.7439],[139.5745,35.7504],[139.5759,35.7592],[139.5823,35.7604],[139.5902,35.7694],[139.5974,35.7754],[139.596,35.775],[139.5871,35.7717],[139.5788,35.765],[139.566,35.7585],[139.5565,35.7595]]]}},{"type":"Feature","properties":{"id":13043},"geometry":{"type":"MultiPolygon","coordinates":[[[[153.9867,24.2819],[153.9852,24.29],[153.985,24.2972],[153.9744,24.2878],[153.9713,24.284],[153.9827,24.2808],[153.9867,24.2819]]],[[[142.2173,26.5632],[142.2131,26.5665],[142.2049,26.562],[142.2012,26.5572],[142.2053,26.5539],[142.2132,26.556],[142.2184,26.5614],[142.2173,26.5632]]],[[[142.236,26.5667],[142.2389,26.5699],[142.231,26.5751],[142.2263,26.5714],[142.231,26.5662],[142.236,26.5667]]],[[[142.1288,26.7098],[142.1264,26.7139],[142.1232,26.714],[142.1226,26.7055],[142.1287,26.6993],[142.1308,26.6891],[142.136,26.685],[142.1369,26.6813],[142.1445,26.6767],[142.144,26.6705],[142.1419,26.6661],[142.1484,26.6667],[142.1485,26.6618],[142.1451,26.6578],[142.1483,26.6542],[142.1483,26.6483],[142.1522,26.6469],[142.1533,26.6373],[142.161,26.6387],[142.1609,26.6311],[142.1639,26.6294],[142.1694,26.6319],[142.1732,26.6276],[142.1763,26.6207],[142.1773,26.6157],[142.1741,26.6105],[142.1789,26.6072],[142.1836,26.6114],[142.1811,26.6149],[142.1822,26.6189],[142.1803,26.6317],[142.1732,26.6359],[142.1717,26.6437],[142.1751,26.6481],[142.1742,26.6526],[142.1856,26.6536],[142.1889,26.6564],[142.1865,26.6592],[142.1779,26.6558],[142.1725,26.6566],[142.1669,26.6602],[142.1944,26.6807],[142.192,26.6836],[142.1659,26.6613],[142.1626,26.6668],[142.1618,26.6725],[142.1643,26.6747],[142.168,26.6879],[142.1603,26.6872],[142.152,26.6836],[142.1464,26.6856],[142.1474,26.6943],[142.1499,26.6941],[142.1539,26.6983],[142.165,26.7025],[142.1589,26.7056],[142.1544,26.7094],[142.1507,26.7068],[142.145,26.7061],[142.1406,26.7085],[142.1414,26.7011],[142.1342,26.7003],[142.1344,26.7031],[142.1288,26.7098]]],[[[141.4633,24.2453],[141.4586,24.2455],[141.4554,24.2432],[141.4542,24.2283],[141.459,24.2247],[141.4672,24.2261],[141.472,24.2312],[141.4736,24.2419],[141.4633,24.2453]]],[[[141.326,24.8128],[141.3222,24.8129],[141.3219,24.8089],[141.3122,24.8044],[141.306,24.7993],[141.3037,24.7935],[141.2927,24.7856],[141.2939,24.78],[141.2939,24.7719],[141.2919,24.7675],[141.2911,24.7606],[141.2856,24.755],[141.285,24.7511],[141.2886,24.7459],[141.2933,24.7494],[141.2928,24.7517],[141.3017,24.7572],[141.3192,24.7661],[141.325,24.7703],[141.3318,24.7702],[141.3394,24.7719],[141.343,24.7739],[141.3472,24.7811],[141.3453,24.7861],[141.3453,24.7906],[141.3414,24.7997],[141.3353,24.8072],[141.326,24.8128]]],[[[141.2861,25.4492],[141.2828,25.4497],[141.2778,25.4469],[141.2724,25.4402],[141.2723,25.4344],[141.2703,25.4292],[141.2722,25.4275],[141.2747,25.42],[141.2786,25.4178],[141.2825,25.4178],[141.29,25.4208],[141.2942,25.4261],[141.2924,25.4346],[141.2933,25.4383],[141.2919,25.4431],[141.2861,25.4492]]],[[[142.1317,26.6106],[142.1255,26.6114],[142.1259,26.6079],[142.1225,26.6039],[142.1261,26.6017],[142.1254,26.5959],[142.13,26.5944],[142.1354,26.5995],[142.1344,26.6081],[142.1317,26.6106]]],[[[140.8781,27.2483],[140.8753,27.2506],[140.8722,27.2467],[140.875,27.2436],[140.8781,27.2483]]],[[[142.1612,26.5604],[142.1528,26.564],[142.1525,26.5569],[142.1544,26.5494],[142.1507,26.5474],[142.1562,26.5431],[142.1617,26.5484],[142.1585,26.5551],[142.1612,26.5604]]],[[[142.1625,26.5861],[142.1624,26.5885],[142.1535,26.5874],[142.1586,26.5836],[142.1625,26.5861]]]]}},{"type":"Feature","properties":{"id":13044},"geometry":{"type":"Polygon","coordinates":[[[138.947,35.8518],[138.951,35.8423],[138.9564,35.8333],[138.973,35.8214],[138.9748,35.8115],[138.9739,35.8009],[138.9784,35.7916],[138.9859,35.7832],[138.9914,35.7651],[138.9935,35.7581],[139.0008,35.7485],[139.0092,35.747],[139.0125,35.7449],[139.0147,35.7393],[139.0194,35.7367],[139.0284,35.737],[139.041,35.7396],[139.0435,35.7412],[139.044,35.7479],[139.0462,35.7538],[139.0632,35.7586],[139.0701,35.7614],[139.0764,35.7669],[139.0841,35.7655],[139.0958,35.7662],[139.1027,35.7736],[139.1094,35.7737],[139.1163,35.7709],[139.125,35.7642],[139.129,35.7626],[139.1337,35.7636],[139.1375,35.7717],[139.1415,35.7741],[139.1461,35.7798],[139.1488,35.7851],[139.158,35.7923],[139.1772,35.8006],[139.1803,35.8074],[139.178,35.8196],[139.1794,35.8268],[139.177,35.8315],[139.1706,35.8385],[139.1646,35.8503],[139.156,35.8563],[139.1465,35.8601],[139.1361,35.8613],[139.1147,35.8616],[139.1013,35.8651],[139.0927,35.8676],[139.0825,35.8722],[139.0723,35.8687],[139.0531,35.8756],[139.0452,35.8828],[139.0266,35.8941],[139.0135,35.8939],[139,35.8812],[138.9874,35.8786],[138.9773,35.8795],[138.9679,35.8744],[138.9565,35.8702],[138.9491,35.8621],[138.947,35.8518]]]}},{"type":"Feature","properties":{"id":13045},"geometry":{"type":"Polygon","coordinates":[[[139.1646,35.8503],[139.1706,35.8385],[139.177,35.8315],[139.1794,35.8268],[139.178,35.8196],[139.1803,35.8074],[139.1772,35.8006],[139.158,35.7923],[139.1488,35.7851],[139.1461,35.7798],[139.1415,35.7741],[139.1426,35.7725],[139.156,35.7714],[139.1646,35.7738],[139.1699,35.7732],[139.1749,35.7763],[139.1883,35.7819],[139.1957,35.7817],[139.2127,35.7712],[139.2291,35.7665],[139.2357,35.7656],[139.2518,35.7613],[139.2614,35.7568],[139.2648,35.7536],[139.2679,35.7552],[139.2814,35.7556],[139.2859,35.7545],[139.2989,35.7536],[139.3055,35.7511],[139.3058,35.757],[139.3037,35.7612],[139.299,35.7658],[139.3011,35.7728],[139.3069,35.7757],[139.3177,35.7717],[139.325,35.7708],[139.3302,35.7721],[139.3291,35.7794],[139.3364,35.7848],[139.3378,35.7926],[139.3262,35.7951],[139.3219,35.8057],[139.3185,35.8213],[139.3073,35.8208],[139.3053,35.8309],[139.2851,35.8361],[139.2746,35.8364],[139.2642,35.8333],[139.25,35.8337],[139.2396,35.8361],[139.2295,35.8364],[139.2187,35.8419],[139.2079,35.8414],[139.1987,35.8369],[139.1868,35.8403],[139.1774,35.8451],[139.1646,35.8503]]]}},{"type":"Feature","properties":{"id":13046},"geometry":{"type":"MultiPolygon","coordinates":[[[[139.1453,34.2425],[139.1425,34.2444],[139.1358,34.2414],[139.1364,34.2378],[139.1339,34.2356],[139.1364,34.2294],[139.1336,34.2236],[139.1278,34.2214],[139.1328,34.2183],[139.1304,34.2162],[139.1328,34.2064],[139.1319,34.2025],[139.1233,34.2003],[139.1197,34.1961],[139.1194,34.1911],[139.1219,34.1888],[139.13,34.1853],[139.1421,34.1863],[139.1446,34.1876],[139.1479,34.1968],[139.1531,34.1935],[139.1561,34.1961],[139.1535,34.2018],[139.1565,34.2047],[139.1666,34.2088],[139.1713,34.2048],[139.1763,34.206],[139.172,34.2189],[139.1703,34.2311],[139.1678,34.2343],[139.1578,34.2383],[139.1558,34.24],[139.1497,34.24],[139.1453,34.2425]]],[[[139.2158,34.3353],[139.2114,34.3383],[139.2063,34.3355],[139.2057,34.3294],[139.1949,34.3227],[139.1937,34.3193],[139.1975,34.3156],[139.2008,34.3158],[139.2051,34.321],[139.2083,34.3158],[139.2111,34.3172],[139.2164,34.3161],[139.2207,34.3225],[139.2261,34.3239],[139.2278,34.3286],[139.2158,34.3353]]],[[[139.2884,34.427],[139.2808,34.4309],[139.2814,34.4224],[139.2797,34.4183],[139.2677,34.4153],[139.2665,34.4084],[139.2556,34.4009],[139.2547,34.3965],[139.2571,34.3939],[139.256,34.3871],[139.252,34.3764],[139.2469,34.3717],[139.2413,34.3631],[139.2455,34.3566],[139.2445,34.3484],[139.2491,34.3449],[139.253,34.339],[139.2601,34.3344],[139.2696,34.3318],[139.2716,34.3339],[139.2735,34.3422],[139.2758,34.3436],[139.2757,34.3591],[139.2763,34.3671],[139.2758,34.3826],[139.2784,34.3918],[139.2848,34.3997],[139.2896,34.4021],[139.2911,34.4076],[139.2863,34.4119],[139.2916,34.4187],[139.2907,34.4244],[139.2884,34.427]]],[[[139.29,34.4767],[139.2924,34.47],[139.2982,34.4696],[139.297,34.4733],[139.29,34.4767]]],[[[139.2817,34.5319],[139.2744,34.5325],[139.2681,34.5269],[139.2669,34.52],[139.2692,34.5144],[139.2744,34.5108],[139.2822,34.5122],[139.2933,34.5228],[139.2898,34.5294],[139.2817,34.5319]]],[[[139.3649,34.7978],[139.3616,34.7996],[139.357,34.792],[139.3546,34.7912],[139.3526,34.7851],[139.3494,34.7831],[139.3492,34.7744],[139.352,34.7692],[139.3486,34.7651],[139.3486,34.7586],[139.3517,34.7544],[139.3508,34.7519],[139.3566,34.7426],[139.3566,34.7357],[139.3523,34.7291],[139.3526,34.718],[139.3609,34.7103],[139.3584,34.7034],[139.3605,34.7018],[139.3718,34.6993],[139.3769,34.6957],[139.3808,34.6963],[139.3864,34.69],[139.396,34.6835],[139.4085,34.6801],[139.4252,34.6822],[139.43,34.6785],[139.4338,34.6776],[139.4397,34.6789],[139.4453,34.6847],[139.4444,34.6894],[139.45,34.6958],[139.4494,34.6986],[139.4444,34.702],[139.4436,34.706],[139.445,34.7108],[139.4497,34.7145],[139.4495,34.7186],[139.444,34.7265],[139.4454,34.7283],[139.444,34.7337],[139.4478,34.737],[139.4489,34.7428],[139.4455,34.7477],[139.442,34.7492],[139.4411,34.7571],[139.4373,34.7669],[139.4343,34.7712],[139.4259,34.7778],[139.4139,34.7847],[139.4122,34.787],[139.3973,34.7881],[139.3927,34.7903],[139.3859,34.7895],[139.3804,34.7944],[139.3766,34.7947],[139.3714,34.7986],[139.3649,34.7978]]]]}},{"type":"Feature","properties":{"id":13047},"geometry":{"type":"MultiPolygon","coordinates":[[[[139.66,35.5887],[139.6666,35.5868],[139.6734,35.579],[139.6767,35.5679],[139.6831,35.5592],[139.6927,35.5547],[139.7074,35.5497],[139.7076,35.5355],[139.7097,35.5364],[139.7183,35.5403],[139.7225,35.5442],[139.7267,35.545],[139.7461,35.5442],[139.7547,35.5459],[139.7652,35.5429],[139.7761,35.5379],[139.782,35.5383],[139.79,35.5333],[139.7986,35.5375],[139.7923,35.5465],[139.7918,35.5509],[139.7857,35.56],[139.7794,35.5637],[139.7757,35.5673],[139.7707,35.5688],[139.7646,35.5619],[139.7596,35.5638],[139.7539,35.5619],[139.7492,35.5675],[139.7561,35.5689],[139.7506,35.5826],[139.7445,35.5795],[139.7407,35.5812],[139.7395,35.5844],[139.7346,35.5866],[139.7195,35.5901],[139.7118,35.5953],[139.7077,35.5998],[139.6992,35.6066],[139.6904,35.5984],[139.6879,35.5985],[139.687,35.5906],[139.6838,35.5887],[139.6744,35.5915],[139.6638,35.5913],[139.66,35.5887]]],[[[139.7702,35.5751],[139.7639,35.5752],[139.7567,35.5735],[139.7573,35.5696],[139.7658,35.5646],[139.7735,35.5746],[139.7702,35.5751]]]]}},{"type":"Feature","properties":{"id":13048},"geometry":{"type":"Polygon","coordinates":[[[139.66,35.5887],[139.6638,35.5913],[139.6744,35.5915],[139.6838,35.5887],[139.687,35.5906],[139.6879,35.5985],[139.6865,35.6004],[139.6763,35.6076],[139.6691,35.6147],[139.667,35.6282],[139.6689,35.6335],[139.6724,35.6351],[139.68,35.6312],[139.6858,35.631],[139.6886,35.6353],[139.6887,35.646],[139.6839,35.6561],[139.6838,35.6607],[139.6873,35.6623],[139.6792,35.6684],[139.668,35.6715],[139.656,35.6691],[139.6435,35.669],[139.636,35.673],[139.6216,35.6724],[139.6033,35.6798],[139.5982,35.6833],[139.5938,35.677],[139.5935,35.6675],[139.5845,35.6665],[139.5891,35.6613],[139.5953,35.6566],[139.5974,35.6482],[139.5937,35.6431],[139.594,35.6359],[139.5977,35.6263],[139.6007,35.622],[139.6022,35.6149],[139.624,35.6092],[139.6368,35.6014],[139.6528,35.5907],[139.66,35.5887]]]}},{"type":"Feature","properties":{"id":13049},"geometry":{"type":"Polygon","coordinates":[[[139.7266,35.6394],[139.7291,35.6451],[139.7257,35.6524],[139.7206,35.6544],[139.7183,35.6619],[139.7278,35.6713],[139.725,35.6769],[139.7159,35.6843],[139.7113,35.6843],[139.704,35.6804],[139.6971,35.6806],[139.6917,35.6853],[139.6857,35.6829],[139.6781,35.678],[139.6717,35.6755],[139.668,35.6715],[139.6792,35.6684],[139.6873,35.6623],[139.7028,35.6525],[139.7091,35.6448],[139.7132,35.6428],[139.7199,35.642],[139.7266,35.6394]]]}},{"type":"Feature","properties":{"id":13050},"geometry":{"type":"MultiPolygon","coordinates":[[[[139.7574,35.6175],[139.7525,35.617],[139.7513,35.6046],[139.7489,35.6014],[139.7483,35.5923],[139.7501,35.5857],[139.7553,35.5767],[139.7796,35.5765],[139.7863,35.5803],[139.7803,35.5863],[139.7746,35.5875],[139.7766,35.5908],[139.7724,35.5979],[139.7677,35.6029],[139.7639,35.6089],[139.7637,35.6121],[139.7574,35.6175]]],[[[139.7266,35.6394],[139.7242,35.6363],[139.7215,35.6284],[139.7177,35.6218],[139.7102,35.6168],[139.6992,35.6066],[139.7077,35.5998],[139.7118,35.5953],[139.7195,35.5901],[139.7346,35.5866],[139.7395,35.5844],[139.7407,35.5812],[139.7445,35.5795],[139.7506,35.5826],[139.7471,35.5897],[139.7475,35.5989],[139.746,35.6019],[139.7506,35.605],[139.7519,35.6204],[139.7513,35.6235],[139.7406,35.6278],[139.7399,35.6348],[139.7322,35.6366],[139.7266,35.6394]]]]}},{"type":"Feature","properties":{"id":13051},"geometry":{"type":"Polygon","coordinates":[[[139.723,35.7107],[139.7146,35.7123],[139.7104,35.7175],[139.7022,35.7217],[139.6954,35.7213],[139.6879,35.7193],[139.6891,35.7129],[139.6943,35.708],[139.7049,35.7018],[139.7049,35.6996],[139.7004,35.6945],[139.6992,35.6895],[139.6917,35.6853],[139.6971,35.6806],[139.704,35.6804],[139.7113,35.6843],[139.7159,35.6843],[139.725,35.6769],[139.7278,35.6713],[139.738,35.6763],[139.7385,35.684],[139.7449,35.689],[139.7521,35.6972],[139.7458,35.7033],[139.7361,35.7035],[139.7314,35.7052],[139.723,35.7107]]]}},{"type":"Feature","properties":{"id":13052},"geometry":{"type":"Polygon","coordinates":[[[139.5982,35.6833],[139.6033,35.6798],[139.6216,35.6724],[139.636,35.673],[139.6435,35.669],[139.656,35.6691],[139.668,35.6715],[139.6717,35.6755],[139.6705,35.6801],[139.6705,35.7055],[139.6672,35.7082],[139.6535,35.7136],[139.6488,35.7145],[139.6365,35.7271],[139.6245,35.7233],[139.6139,35.7213],[139.6013,35.714],[139.5976,35.7078],[139.6024,35.7035],[139.6024,35.6962],[139.5971,35.6901],[139.5982,35.6833]]]}},{"type":"Feature","properties":{"id":13053},"geometry":{"type":"Polygon","coordinates":[[[139.8118,35.724],[139.8082,35.717],[139.8053,35.7061],[139.8009,35.7025],[139.7944,35.6936],[139.8008,35.686],[139.8063,35.6841],[139.8133,35.6878],[139.8203,35.6901],[139.8248,35.6969],[139.8283,35.6985],[139.8345,35.6981],[139.8357,35.7094],[139.8428,35.7164],[139.8371,35.7218],[139.8317,35.7241],[139.821,35.7372],[139.8136,35.7316],[139.8118,35.724]]]}},{"type":"Feature","properties":{"id":13054},"geometry":{"type":"Polygon","coordinates":[[[139.3953,35.6882],[139.4063,35.6837],[139.4133,35.6821],[139.425,35.6818],[139.4304,35.6855],[139.4353,35.6948],[139.4326,35.7004],[139.4394,35.7119],[139.4463,35.7109],[139.4524,35.712],[139.4544,35.7191],[139.4494,35.7245],[139.4464,35.7303],[139.4415,35.7286],[139.4202,35.7286],[139.407,35.7286],[139.4016,35.7305],[139.3914,35.7397],[139.3875,35.7397],[139.3888,35.731],[139.3855,35.7287],[139.3744,35.7305],[139.3657,35.7333],[139.3579,35.7274],[139.3575,35.7252],[139.362,35.7211],[139.3761,35.7214],[139.386,35.7173],[139.3976,35.7155],[139.4038,35.71],[139.4026,35.7051],[139.3977,35.6981],[139.3953,35.6882]]]}},{"type":"Feature","properties":{"id":13055},"geometry":{"type":"Polygon","coordinates":[[[139.7767,35.7318],[139.7717,35.728],[139.7765,35.7216],[139.7774,35.7073],[139.7806,35.7024],[139.7926,35.6967],[139.7944,35.6936],[139.8009,35.7025],[139.8053,35.7061],[139.8082,35.717],[139.8118,35.724],[139.8059,35.726],[139.7998,35.7262],[139.7911,35.7249],[139.7856,35.7268],[139.7767,35.7318]]]}},{"type":"Feature","properties":{"id":13056},"geometry":{"type":"Polygon","coordinates":[[[139.4689,35.6204],[139.4713,35.6271],[139.4764,35.6337],[139.4787,35.6476],[139.474,35.6521],[139.4688,35.6532],[139.4584,35.6521],[139.4494,35.6533],[139.4449,35.6462],[139.4411,35.6444],[139.431,35.6441],[139.4246,35.6449],[139.4274,35.6375],[139.4322,35.6344],[139.4341,35.6294],[139.4323,35.6257],[139.4224,35.6235],[139.4144,35.6198],[139.4085,35.6103],[139.4144,35.6081],[139.4205,35.608],[139.4262,35.6096],[139.4365,35.6107],[139.447,35.6132],[139.4539,35.6103],[139.4572,35.6126],[139.4672,35.6212],[139.4689,35.6204]]]}},{"type":"Feature","properties":{"id":13057},"geometry":{"type":"Polygon","coordinates":[[[139.7561,35.7294],[139.7506,35.732],[139.7447,35.7328],[139.7372,35.7359],[139.7267,35.7371],[139.7233,35.7392],[139.7176,35.7398],[139.7141,35.7343],[139.7091,35.7333],[139.7039,35.7352],[139.6994,35.7328],[139.6902,35.7309],[139.6889,35.7234],[139.6879,35.7193],[139.6954,35.7213],[139.7022,35.7217],[139.7104,35.7175],[139.7146,35.7123],[139.723,35.7107],[139.7302,35.7138],[139.7369,35.7191],[139.7447,35.7211],[139.7518,35.7244],[139.7561,35.7294]]]}}]}