{"type":"FeatureCollection","features":[{"type":"Feature","properties":{"id":14001},"geometry":{"type":"Polygon","coordinates":[[[139.3567,35.524],[139.3425,35.5319],[139.3345,35.5371],[139.3305,35.5382],[139.3175,35.538],[139.3111,35.5407],[139.3059,35.5474],[139.2977,35.5524],[139.2876,35.551],[139.2813,35.544],[139.2709,35.544],[139.2672,35.5466],[139.2606,35.5463],[139.2531,35.5417],[139.253,35.5295],[139.2539,35.5244],[139.2598,35.5179],[139.2781,35.5025],[139.2975,35.5159],[139.3014,35.517],[139.3114,35.5172],[139.316,35.5155],[139.3192,35.5081],[139.328,35.5046],[139.3412,35.4979],[139.3482,35.4976],[139.3527,35.499],[139.3568,35.505],[139.3558,35.5153],[139.3567,35.524]]]}},{"type":"Feature","properties":{"id":14002},"geometry":{"type":"Polygon","coordinates":[[[139.2781,35.5025],[139.284,35.4951],[139.2875,35.4887],[139.2932,35.4826],[139.3014,35.477],[139.3022,35.4715],[139.2994,35.462],[139.2948,35.4584],[139.2882,35.4568],[139.2565,35.4571],[139.2452,35.4588],[139.2397,35.4568],[139.2315,35.4509],[139.2343,35.4378],[139.2468,35.4435],[139.2659,35.4436],[139.2761,35.441],[139.3016,35.431],[139.3045,35.4285],[139.3068,35.4233],[139.3129,35.4206],[139.3208,35.4206],[139.3245,35.4245],[139.3286,35.4248],[139.3349,35.4184],[139.3475,35.4162],[139.3503,35.4148],[139.3537,35.3972],[139.3611,35.3913],[139.3749,35.3914],[139.3751,35.4005],[139.3763,35.4455],[139.3775,35.4518],[139.3814,35.4577],[139.3824,35.4675],[139.3783,35.4759],[139.3761,35.4839],[139.3749,35.4922],[139.3781,35.4987],[139.3805,35.5085],[139.3785,35.5116],[139.3661,35.5145],[139.3567,35.524],[139.3558,35.5153],[139.3568,35.505],[139.3527,35.499],[139.3482,35.4976],[139.3412,35.4979],[139.328,35.5046],[139.3192,35.5081],[139.316,35.5155],[139.3114,35.5172],[139.3014,35.517],[139.2975,35.5159],[139.2781,35.5025]]]}},{"type":"Feature","properties":{"id":14003},"geometry":{"type":"Polygon","coordinates":[[[139.4445,35.4669],[139.4393,35.4643],[139.428,35.4629],[139.4239,35.4611],[139.4195,35.4564],[139.4164,35.4504],[139.4133,35.4413],[139.4149,35.4312],[139.4146,35.4176],[139.4225,35.4165],[139.4338,35.4162],[139.4383,35.4149],[139.4444,35.4077],[139.4509,35.405],[139.4548,35.4051],[139.4593,35.4082],[139.4599,35.4147],[139.4556,35.4222],[139.453,35.4283],[139.4525,35.4424],[139.4561,35.4502],[139.4563,35.4531],[139.4535,35.4599],[139.4445,35.4669]]]}},{"type":"Feature","properties":{"id":14004},"geometry":{"type":"Polygon","coordinates":[[[139.373,35.3162],[139.3808,35.3145],[139.3841,35.316],[139.4078,35.318],[139.4175,35.3172],[139.4335,35.3194],[139.4396,35.3191],[139.444,35.3253],[139.4475,35.3368],[139.4476,35.3439],[139.4406,35.3537],[139.4407,35.3579],[139.4442,35.3642],[139.4422,35.3689],[139.436,35.3716],[139.4321,35.3795],[139.4219,35.3823],[139.4073,35.3879],[139.4074,35.3769],[139.4064,35.3704],[139.4005,35.363],[139.398,35.3516],[139.3909,35.3491],[139.378,35.35],[139.3739,35.3523],[139.373,35.3162]]]}},{"type":"Feature","properties":{"id":14005},"geometry":{"type":"Polygon","coordinates":[[[139.3751,35.4005],[139.3928,35.4002],[139.4013,35.3956],[139.4101,35.4057],[139.4146,35.4176],[139.4149,35.4312],[139.4133,35.4413],[139.4164,35.4504],[139.4195,35.4564],[139.4239,35.4611],[139.428,35.4629],[139.4393,35.4643],[139.4445,35.4669],[139.4442,35.4753],[139.4344,35.4706],[139.4269,35.4697],[139.4059,35.4699],[139.3904,35.4694],[139.3824,35.4675],[139.3814,35.4577],[139.3775,35.4518],[139.3763,35.4455],[139.3751,35.4005]]]}},{"type":"Feature","properties":{"id":14006},"geometry":{"type":"MultiPolygon","coordinates":[[[[139.4825,35.3028],[139.4753,35.2975],[139.4836,35.2967],[139.4883,35.2989],[139.4825,35.3028]]],[[[139.4556,35.4222],[139.4599,35.4147],[139.4593,35.4082],[139.4548,35.4051],[139.4509,35.405],[139.4444,35.4077],[139.4383,35.4149],[139.4338,35.4162],[139.4225,35.4165],[139.4146,35.4176],[139.4101,35.4057],[139.4013,35.3956],[139.4073,35.3879],[139.4219,35.3823],[139.4321,35.3795],[139.436,35.3716],[139.4422,35.3689],[139.4442,35.3642],[139.4407,35.3579],[139.4406,35.3537],[139.4476,35.3439],[139.4475,35.3368],[139.444,35.3253],[139.4396,35.3191],[139.4572,35.3179],[139.4612,35.3161],[139.4742,35.3142],[139.4795,35.3085],[139.4828,35.3069],[139.4911,35.3075],[139.4958,35.3115],[139.4977,35.3151],[139.4981,35.3217],[139.5015,35.329],[139.5043,35.3312],[139.5142,35.3332],[139.5162,35.3352],[139.5163,35.3414],[139.5145,35.3458],[139.4998,35.357],[139.4942,35.3588],[139.4918,35.3622],[139.4917,35.3702],[139.4946,35.3746],[139.4937,35.3776],[139.4851,35.3874],[139.479,35.4011],[139.4793,35.4143],[139.4762,35.4226],[139.4676,35.4286],[139.4648,35.4283],[139.4631,35.4223],[139.4556,35.4222]]]]}},{"type":"Feature","properties":{"id":14007},"geometry":{"type":"Polygon","coordinates":[[[139.2315,35.4509],[139.2279,35.4553],[139.2202,35.4574],[139.2122,35.456],[139.2074,35.4536],[139.2034,35.4495],[139.1968,35.4468],[139.1846,35.4445],[139.1752,35.45],[139.1667,35.4522],[139.1647,35.4454],[139.1578,35.4442],[139.148,35.4398],[139.1496,35.4318],[139.1489,35.4046],[139.1541,35.3928],[139.1483,35.3846],[139.1486,35.376],[139.1565,35.3668],[139.1613,35.3566],[139.1687,35.3557],[139.174,35.3533],[139.1819,35.3464],[139.1883,35.3492],[139.1957,35.3512],[139.2009,35.355],[139.2046,35.3599],[139.21,35.3603],[139.2121,35.3552],[139.2152,35.352],[139.223,35.3503],[139.243,35.3533],[139.2496,35.3552],[139.2629,35.3531],[139.2695,35.3588],[139.2749,35.361],[139.284,35.3625],[139.286,35.3648],[139.2867,35.3777],[139.2809,35.3816],[139.2621,35.3803],[139.258,35.381],[139.2554,35.384],[139.2567,35.3966],[139.2564,35.4011],[139.2495,35.4067],[139.2462,35.4163],[139.2393,35.4213],[139.2348,35.4264],[139.2343,35.4378],[139.2315,35.4509]]]}},{"type":"Feature","properties":{"id":14008},"geometry":{"type":"Polygon","coordinates":[[[139.0082,35.2884],[139.0078,35.2866],[138.9963,35.2816],[138.9939,35.279],[138.9853,35.2696],[138.9787,35.2605],[138.978,35.25],[138.9784,35.2421],[138.9789,35.2322],[138.9912,35.2084],[138.991,35.1975],[138.9973,35.193],[139.0073,35.1846],[139.0128,35.1797],[139.0266,35.1741],[139.0393,35.1759],[139.0481,35.1837],[139.053,35.1855],[139.0661,35.1944],[139.0763,35.2006],[139.0834,35.2058],[139.0891,35.216],[139.0967,35.222],[139.1072,35.2267],[139.1166,35.2272],[139.1192,35.2298],[139.1171,35.2327],[139.0949,35.2419],[139.0927,35.2413],[139.0881,35.2354],[139.0823,35.2359],[139.078,35.2392],[139.0646,35.2433],[139.0625,35.246],[139.0631,35.25],[139.0662,35.2535],[139.0663,35.257],[139.0632,35.2634],[139.0612,35.2711],[139.0539,35.278],[139.0473,35.2805],[139.0368,35.2762],[139.0281,35.2751],[139.019,35.2808],[139.0134,35.2825],[139.0082,35.2884]]]}},{"type":"Feature","properties":{"id":14009},"geometry":{"type":"Polygon","coordinates":[[[139.5806,35.2534],[139.5808,35.2537],[139.5992,35.2536],[139.6136,35.2581],[139.623,35.2553],[139.6289,35.2552],[139.6334,35.2587],[139.6411,35.2675],[139.6405,35.2702],[139.636,35.2718],[139.6278,35.2775],[139.6178,35.2752],[139.6029,35.2767],[139.6003,35.2797],[139.6086,35.284],[139.6087,35.2882],[139.606,35.2906],[139.5973,35.2896],[139.583,35.2829],[139.5707,35.2829],[139.5688,35.2852],[139.5669,35.2844],[139.571,35.2771],[139.5688,35.2724],[139.5686,35.2658],[139.5743,35.2652],[139.5768,35.2628],[139.5806,35.2534]]]}},{"type":"Feature","properties":{"id":14010},"geometry":{"type":"Polygon","coordinates":[[[139.3611,35.3913],[139.3611,35.3868],[139.3586,35.3833],[139.3497,35.3758],[139.3426,35.3759],[139.3372,35.3782],[139.3297,35.3769],[139.3258,35.38],[139.3225,35.3784],[139.3211,35.3746],[139.3105,35.3815],[139.3058,35.3815],[139.2995,35.3741],[139.2966,35.3735],[139.2867,35.3777],[139.286,35.3648],[139.284,35.3625],[139.2749,35.361],[139.2695,35.3588],[139.2629,35.3531],[139.2496,35.3552],[139.2484,35.3491],[139.2447,35.3441],[139.2429,35.3384],[139.2477,35.3297],[139.2534,35.3263],[139.2645,35.3298],[139.2746,35.3303],[139.2824,35.3287],[139.2911,35.3283],[139.2976,35.3253],[139.2993,35.3206],[139.3065,35.32],[139.3176,35.3216],[139.3232,35.3246],[139.3268,35.3244],[139.3315,35.3206],[139.3319,35.3157],[139.3356,35.3128],[139.3526,35.315],[139.3668,35.3137],[139.3664,35.3161],[139.373,35.3162],[139.3739,35.3523],[139.3749,35.3914],[139.3611,35.3913]]]}},{"type":"Feature","properties":{"id":14011},"geometry":{"type":"Polygon","coordinates":[[[139.2343,35.4378],[139.2348,35.4264],[139.2393,35.4213],[139.2462,35.4163],[139.2495,35.4067],[139.2564,35.4011],[139.2567,35.3966],[139.2554,35.384],[139.258,35.381],[139.2621,35.3803],[139.2809,35.3816],[139.2867,35.3777],[139.2966,35.3735],[139.2995,35.3741],[139.3058,35.3815],[139.3105,35.3815],[139.3211,35.3746],[139.3225,35.3784],[139.3258,35.38],[139.3297,35.3769],[139.3372,35.3782],[139.3426,35.3759],[139.3497,35.3758],[139.3586,35.3833],[139.3611,35.3868],[139.3611,35.3913],[139.3537,35.3972],[139.3503,35.4148],[139.3475,35.4162],[139.3349,35.4184],[139.3286,35.4248],[139.3245,35.4245],[139.3208,35.4206],[139.3129,35.4206],[139.3068,35.4233],[139.3045,35.4285],[139.3016,35.431],[139.2761,35.441],[139.2659,35.4436],[139.2468,35.4435],[139.2343,35.4378]]]}},{"type":"Feature","properties":{"id":14012},"geometry":{"type":"Polygon","coordinates":[[[139.1152,35.3524],[139.1085,35.3468],[139.1089,35.3448],[139.1217,35.3229],[139.1306,35.3133],[139.1402,35.3179],[139.1448,35.3219],[139.1426,35.324],[139.1363,35.3364],[139.1308,35.3447],[139.1257,35.3477],[139.1195,35.3496],[139.1152,35.3524]]]}},{"type":"Feature","properties":{"id":14013},"geometry":{"type":"Polygon","coordinates":[[[139.4911,35.3075],[139.4938,35.3052],[139.4981,35.3066],[139.5215,35.3032],[139.5262,35.3015],[139.532,35.3043],[139.5341,35.308],[139.5401,35.3096],[139.5459,35.3085],[139.5517,35.3042],[139.5526,35.301],[139.5791,35.312],[139.5949,35.3196],[139.5861,35.3305],[139.5794,35.3334],[139.5773,35.3379],[139.5728,35.343],[139.569,35.3454],[139.5618,35.3472],[139.5574,35.351],[139.5554,35.3551],[139.55,35.3577],[139.5434,35.3535],[139.535,35.3536],[139.5315,35.3564],[139.5229,35.3585],[139.512,35.3628],[139.5036,35.3626],[139.4998,35.357],[139.5145,35.3458],[139.5163,35.3414],[139.5162,35.3352],[139.5142,35.3332],[139.5043,35.3312],[139.5015,35.329],[139.4981,35.3217],[139.4977,35.3151],[139.4958,35.3115],[139.4911,35.3075]]]}},{"type":"Feature","properties":{"id":14014},"geometry":{"type":"MultiPolygon","coordinates":[[[[139.7672,35.5064],[139.7578,35.505],[139.7514,35.5022],[139.7475,35.4986],[139.7436,35.4986],[139.7383,35.4947],[139.7334,35.4947],[139.7286,35.492],[139.7185,35.4891],[139.712,35.4847],[139.7039,35.4817],[139.7003,35.4783],[139.7069,35.4726],[139.7096,35.4677],[139.7134,35.4643],[139.7327,35.4736],[139.7405,35.4757],[139.7417,35.48],[139.7371,35.4849],[139.7377,35.4889],[139.7456,35.4869],[139.7539,35.4881],[139.7744,35.4981],[139.7789,35.4997],[139.7772,35.5047],[139.7672,35.5064]]],[[[139.7886,35.5226],[139.7877,35.5246],[139.7683,35.5368],[139.7606,35.5301],[139.7661,35.5205],[139.769,35.5137],[139.7755,35.5092],[139.7894,35.52],[139.7886,35.5226]]],[[[139.7097,35.5364],[139.7076,35.5355],[139.7074,35.5497],[139.6927,35.5547],[139.6831,35.5592],[139.6767,35.5679],[139.6734,35.579],[139.6666,35.5868],[139.66,35.5887],[139.6528,35.5907],[139.6368,35.6014],[139.624,35.6092],[139.6022,35.6149],[139.5774,35.6196],[139.5651,35.6314],[139.5554,35.6334],[139.5415,35.6346],[139.5308,35.6394],[139.5298,35.6383],[139.5198,35.6235],[139.5092,35.6194],[139.5,35.6149],[139.4921,35.6019],[139.4839,35.608],[139.4773,35.6164],[139.4689,35.6204],[139.4672,35.6212],[139.4572,35.6126],[139.4559,35.6115],[139.4728,35.6007],[139.4823,35.5929],[139.4959,35.5854],[139.4991,35.5766],[139.514,35.567],[139.5212,35.5662],[139.5292,35.5696],[139.5344,35.5806],[139.535,35.5863],[139.5399,35.5892],[139.5504,35.5865],[139.5596,35.5827],[139.5714,35.573],[139.5762,35.5665],[139.5806,35.5638],[139.5998,35.5621],[139.6157,35.5595],[139.6266,35.556],[139.6361,35.557],[139.6469,35.5556],[139.6572,35.5531],[139.6607,35.5478],[139.6595,35.5391],[139.6626,35.5341],[139.67,35.5304],[139.6751,35.5306],[139.6792,35.5342],[139.6834,35.5341],[139.69,35.5303],[139.6905,35.5201],[139.6971,35.5126],[139.6975,35.5073],[139.7033,35.5],[139.7105,35.4926],[139.7134,35.491],[139.7349,35.5009],[139.7456,35.5048],[139.7496,35.5085],[139.745,35.5161],[139.7492,35.5189],[139.7511,35.5093],[139.7547,35.5084],[139.7649,35.5121],[139.7657,35.5159],[139.7595,35.5263],[139.7553,35.5272],[139.7647,35.5347],[139.7663,35.5372],[139.7545,35.5415],[139.7477,35.5409],[139.7422,35.5419],[139.7389,35.5408],[139.7258,35.5408],[139.7175,35.5372],[139.7097,35.5364]]]]}},{"type":"Feature","properties":{"id":14015},"geometry":{"type":"Polygon","coordinates":[[[139.2531,35.5417],[139.2445,35.5326],[139.2391,35.529],[139.231,35.5321],[139.2258,35.5309],[139.2247,35.5225],[139.2211,35.518],[139.2077,35.5106],[139.1999,35.503],[139.1894,35.4986],[139.1845,35.4949],[139.1699,35.4787],[139.1651,35.4749],[139.1687,35.4671],[139.1667,35.4522],[139.1752,35.45],[139.1846,35.4445],[139.1968,35.4468],[139.2034,35.4495],[139.2074,35.4536],[139.2122,35.456],[139.2202,35.4574],[139.2279,35.4553],[139.2315,35.4509],[139.2397,35.4568],[139.2452,35.4588],[139.2565,35.4571],[139.2882,35.4568],[139.2948,35.4584],[139.2994,35.462],[139.3022,35.4715],[139.3014,35.477],[139.2932,35.4826],[139.2875,35.4887],[139.284,35.4951],[139.2781,35.5025],[139.2598,35.5179],[139.2539,35.5244],[139.253,35.5295],[139.2531,35.5417]]]}},{"type":"Feature","properties":{"id":14016},"geometry":{"type":"Polygon","coordinates":[[[139.1386,35.1771],[139.1311,35.1778],[139.1261,35.1818],[139.1128,35.1869],[139.1011,35.1877],[139.1119,35.1777],[139.1212,35.1735],[139.1258,35.1697],[139.1273,35.1663],[139.1262,35.158],[139.1281,35.1535],[139.1335,35.1502],[139.1355,35.1502],[139.1442,35.1445],[139.1474,35.1444],[139.1511,35.1406],[139.1562,35.1418],[139.1589,35.1461],[139.155,35.1479],[139.1507,35.1472],[139.145,35.1531],[139.1444,35.1597],[139.1404,35.1625],[139.1458,35.1681],[139.1418,35.1747],[139.1386,35.1771]]]}},{"type":"Feature","properties":{"id":14017},"geometry":{"type":"Polygon","coordinates":[[[139.148,35.4398],[139.1352,35.4428],[139.1302,35.442],[139.1263,35.4384],[139.1224,35.4321],[139.1173,35.429],[139.1097,35.4222],[139.1052,35.4206],[139.1048,35.4151],[139.1069,35.4129],[139.1066,35.4066],[139.1025,35.3974],[139.1026,35.393],[139.107,35.3867],[139.1187,35.3787],[139.1231,35.3769],[139.1269,35.3685],[139.1266,35.363],[139.1152,35.3524],[139.1195,35.3496],[139.1257,35.3477],[139.1308,35.3447],[139.1363,35.3364],[139.1454,35.342],[139.1514,35.3469],[139.1584,35.3547],[139.1613,35.3566],[139.1565,35.3668],[139.1486,35.376],[139.1483,35.3846],[139.1541,35.3928],[139.1489,35.4046],[139.1496,35.4318],[139.148,35.4398]]]}},{"type":"Feature","properties":{"id":14018},"geometry":{"type":"Polygon","coordinates":[[[139.0612,35.2711],[139.0762,35.27],[139.0818,35.2743],[139.0907,35.2779],[139.098,35.2786],[139.1114,35.2786],[139.1198,35.2806],[139.1258,35.2854],[139.1307,35.2917],[139.1334,35.3001],[139.1327,35.3082],[139.1306,35.3133],[139.1217,35.3229],[139.1089,35.3448],[139.1085,35.3468],[139.1034,35.3522],[139.0973,35.3554],[139.0891,35.3543],[139.0766,35.3544],[139.0712,35.3535],[139.0545,35.3532],[139.0462,35.3507],[139.043,35.348],[139.0361,35.3357],[139.0299,35.3309],[139.0206,35.3282],[139.0216,35.3266],[139.017,35.3169],[139.0104,35.2973],[139.0082,35.2884],[139.0134,35.2825],[139.019,35.2808],[139.0281,35.2751],[139.0368,35.2762],[139.0473,35.2805],[139.0539,35.278],[139.0612,35.2711]]]}},{"type":"Feature","properties":{"id":14019},"geometry":{"type":"MultiPolygon","coordinates":[[[[139.6162,35.137],[139.6104,35.1369],[139.6084,35.1348],[139.6178,35.1309],[139.6259,35.1318],[139.623,35.1365],[139.6162,35.137]]],[[[139.664,35.1926],[139.6561,35.2039],[139.6468,35.207],[139.638,35.2079],[139.6312,35.2059],[139.6288,35.197],[139.6235,35.1949],[139.6176,35.1901],[139.6133,35.1927],[139.6078,35.1929],[139.6087,35.1907],[139.6146,35.1905],[139.6169,35.1883],[139.6147,35.182],[139.6191,35.1778],[139.6195,35.1723],[139.6169,35.1716],[139.617,35.1666],[139.6227,35.165],[139.6176,35.1618],[139.6104,35.1625],[139.6158,35.1553],[139.6074,35.1535],[139.6158,35.1477],[139.6092,35.1414],[139.6178,35.1381],[139.6226,35.1386],[139.6273,35.1366],[139.6311,35.1397],[139.6393,35.1405],[139.6403,35.1378],[139.6462,35.1376],[139.6638,35.1396],[139.6642,35.1448],[139.6684,35.1447],[139.676,35.1395],[139.6801,35.1461],[139.6789,35.1571],[139.663,35.1597],[139.6603,35.1633],[139.6596,35.1698],[139.6559,35.1734],[139.6543,35.1803],[139.657,35.1873],[139.664,35.1926]]]]}},{"type":"Feature","properties":{"id":14020},"geometry":{"type":"Polygon","coordinates":[[[139.1883,35.3492],[139.1944,35.3442],[139.1978,35.3392],[139.1949,35.3341],[139.1928,35.3246],[139.1895,35.3217],[139.1985,35.3145],[139.2019,35.3105],[139.209,35.3103],[139.2146,35.3138],[139.2231,35.3147],[139.2347,35.3173],[139.2398,35.3213],[139.2534,35.3263],[139.2477,35.3297],[139.2429,35.3384],[139.2447,35.3441],[139.2484,35.3491],[139.2496,35.3552],[139.243,35.3533],[139.223,35.3503],[139.2152,35.352],[139.2121,35.3552],[139.21,35.3603],[139.2046,35.3599],[139.2009,35.355],[139.1957,35.3512],[139.1883,35.3492]]]}},{"type":"Feature","properties":{"id":14021},"geometry":{"type":"Polygon","coordinates":[[[139.2347,35.3173],[139.2359,35.2972],[139.237,35.2873],[139.2499,35.2929],[139.2688,35.2971],[139.2679,35.3035],[139.2644,35.3126],[139.2576,35.317],[139.2534,35.3263],[139.2398,35.3213],[139.2347,35.3173]]]}},{"type":"Feature","properties":{"id":14022},"geometry":{"type":"Polygon","coordinates":[[[139.0763,35.2006],[139.0876,35.1954],[139.1011,35.1877],[139.1128,35.1869],[139.1261,35.1818],[139.1311,35.1778],[139.1386,35.1771],[139.1361,35.1833],[139.14,35.1875],[139.1383,35.1933],[139.1387,35.1994],[139.1424,35.2084],[139.1417,35.2156],[139.1428,35.2225],[139.1417,35.2245],[139.1442,35.2328],[139.1525,35.2409],[139.1568,35.2432],[139.1698,35.2531],[139.1754,35.2563],[139.1819,35.2581],[139.1952,35.267],[139.1981,35.2701],[139.2095,35.278],[139.2179,35.2801],[139.237,35.2873],[139.2359,35.2972],[139.2347,35.3173],[139.2231,35.3147],[139.2146,35.3138],[139.209,35.3103],[139.2019,35.3105],[139.1985,35.3145],[139.1895,35.3217],[139.1825,35.3221],[139.1713,35.3195],[139.1582,35.3145],[139.1523,35.3146],[139.147,35.3179],[139.1448,35.3219],[139.1402,35.3179],[139.1306,35.3133],[139.1327,35.3082],[139.1334,35.3001],[139.1307,35.2917],[139.1258,35.2854],[139.1198,35.2806],[139.1114,35.2786],[139.098,35.2786],[139.0907,35.2779],[139.0818,35.2743],[139.0762,35.27],[139.0612,35.2711],[139.0632,35.2634],[139.0663,35.257],[139.0662,35.2535],[139.0631,35.25],[139.0625,35.246],[139.0646,35.2433],[139.078,35.2392],[139.0823,35.2359],[139.0881,35.2354],[139.0927,35.2413],[139.0949,35.2419],[139.1171,35.2327],[139.1192,35.2298],[139.1166,35.2272],[139.1072,35.2267],[139.0967,35.222],[139.0891,35.216],[139.0834,35.2058],[139.0763,35.2006]]]}},{"type":"Feature","properties":{"id":14023},"geometry":{"type":"Polygon","coordinates":[[[139.1613,35.3566],[139.1584,35.3547],[139.1514,35.3469],[139.1454,35.342],[139.1363,35.3364],[139.1426,35.324],[139.1448,35.3219],[139.147,35.3179],[139.1523,35.3146],[139.1582,35.3145],[139.1713,35.3195],[139.1825,35.3221],[139.1895,35.3217],[139.1928,35.3246],[139.1949,35.3341],[139.1978,35.3392],[139.1944,35.3442],[139.1883,35.3492],[139.1819,35.3464],[139.174,35.3533],[139.1687,35.3557],[139.1613,35.3566]]]}},{"type":"Feature","properties":{"id":14024},"geometry":{"type":"Polygon","coordinates":[[[139.2534,35.3263],[139.2576,35.317],[139.2644,35.3126],[139.2679,35.3035],[139.2688,35.2971],[139.289,35.3008],[139.2951,35.3027],[139.3071,35.3046],[139.3171,35.3053],[139.3198,35.3097],[139.3323,35.3131],[139.3319,35.3157],[139.3315,35.3206],[139.3268,35.3244],[139.3232,35.3246],[139.3176,35.3216],[139.3065,35.32],[139.2993,35.3206],[139.2976,35.3253],[139.2911,35.3283],[139.2824,35.3287],[139.2746,35.3303],[139.2645,35.3298],[139.2534,35.3263]]]}},{"type":"Feature","properties":{"id":14025},"geometry":{"type":"Polygon","coordinates":[[[139.3567,35.524],[139.3661,35.5145],[139.3785,35.5116],[139.3805,35.5085],[139.3781,35.4987],[139.3749,35.4922],[139.386,35.4896],[139.3987,35.4939],[139.4099,35.4942],[139.4124,35.4962],[139.4165,35.5052],[139.4223,35.51],[139.4285,35.5101],[139.4355,35.507],[139.4544,35.5139],[139.4592,35.5165],[139.4576,35.5177],[139.457,35.5283],[139.4493,35.5362],[139.4413,35.5423],[139.431,35.5485],[139.4242,35.5568],[139.416,35.563],[139.4119,35.5724],[139.4027,35.5793],[139.3853,35.5868],[139.3703,35.5937],[139.3598,35.5954],[139.3485,35.5988],[139.3381,35.6007],[139.3268,35.6014],[139.3113,35.6015],[139.3016,35.6043],[139.2924,35.6087],[139.2823,35.6082],[139.2729,35.6065],[139.2601,35.6007],[139.2486,35.602],[139.2392,35.6071],[139.2329,35.6157],[139.2251,35.622],[139.2196,35.6328],[139.2186,35.6429],[139.2085,35.6483],[139.1972,35.6485],[139.1874,35.6419],[139.1751,35.6471],[139.1701,35.6562],[139.1649,35.6635],[139.1641,35.6646],[139.1446,35.6672],[139.1335,35.67],[139.125,35.6583],[139.1252,35.6441],[139.1267,35.6298],[139.1294,35.6198],[139.1374,35.6137],[139.1332,35.5931],[139.125,35.5852],[139.1313,35.5726],[139.1324,35.5617],[139.125,35.5533],[139.115,35.5465],[139.1151,35.5395],[139.1152,35.5328],[139.1083,35.5252],[139.0993,35.5195],[139.0905,35.5112],[139.0808,35.5078],[139.0719,35.5065],[139.0841,35.4905],[139.0968,35.4859],[139.1003,35.4807],[139.1075,35.4755],[139.1257,35.474],[139.1324,35.4766],[139.1425,35.4821],[139.149,35.4807],[139.1553,35.4741],[139.1651,35.4749],[139.1699,35.4787],[139.1845,35.4949],[139.1894,35.4986],[139.1999,35.503],[139.2077,35.5106],[139.2211,35.518],[139.2247,35.5225],[139.2258,35.5309],[139.231,35.5321],[139.2391,35.529],[139.2445,35.5326],[139.2531,35.5417],[139.2606,35.5463],[139.2672,35.5466],[139.2709,35.544],[139.2813,35.544],[139.2876,35.551],[139.2977,35.5524],[139.3059,35.5474],[139.3111,35.5407],[139.3175,35.538],[139.3305,35.5382],[139.3345,35.5371],[139.3425,35.5319],[139.3567,35.524]]]}},{"type":"Feature","properties":{"id":14026},"geometry":{"type":"Polygon","coordinates":[[[139.3749,35.3914],[139.3739,35.3523],[139.378,35.35],[139.3909,35.3491],[139.398,35.3516],[139.4005,35.363],[139.4064,35.3704],[139.4074,35.3769],[139.4073,35.3879],[139.4013,35.3956],[139.3928,35.4002],[139.3751,35.4005],[139.3749,35.3914]]]}},{"type":"Feature","properties":{"id":14027},"geometry":{"type":"Polygon","coordinates":[[[139.1667,35.4522],[139.1687,35.4671],[139.1651,35.4749],[139.1553,35.4741],[139.149,35.4807],[139.1425,35.4821],[139.1324,35.4766],[139.1257,35.474],[139.1075,35.4755],[139.1003,35.4807],[139.0968,35.4859],[139.0841,35.4905],[139.0719,35.5065],[139.0542,35.5072],[139.0475,35.4997],[139.0387,35.4878],[139.0308,35.4802],[139.0113,35.4713],[138.9996,35.4709],[138.9893,35.468],[138.9796,35.463],[138.9691,35.4606],[138.9586,35.4571],[138.9501,35.4509],[138.9427,35.4469],[138.9403,35.4457],[138.9342,35.4371],[138.9297,35.4275],[138.9333,35.4175],[138.9224,35.4087],[138.9196,35.3987],[138.9414,35.3959],[138.9527,35.3981],[138.9631,35.3989],[138.975,35.4018],[138.9852,35.4006],[138.9966,35.4002],[139.0042,35.3901],[139.0024,35.3799],[139.0089,35.3722],[139.0131,35.3505],[139.0136,35.3391],[139.0206,35.3282],[139.0299,35.3309],[139.0361,35.3357],[139.043,35.348],[139.0462,35.3507],[139.0545,35.3532],[139.0712,35.3535],[139.0766,35.3544],[139.0891,35.3543],[139.0973,35.3554],[139.1034,35.3522],[139.1085,35.3468],[139.1152,35.3524],[139.1266,35.363],[139.1269,35.3685],[139.1231,35.3769],[139.1187,35.3787],[139.107,35.3867],[139.1026,35.393],[139.1025,35.3974],[139.1066,35.4066],[139.1069,35.4129],[139.1048,35.4151],[139.1052,35.4206],[139.1097,35.4222],[139.1173,35.429],[139.1224,35.4321],[139.1263,35.4384],[139.1302,35.442],[139.1352,35.4428],[139.148,35.4398],[139.1578,35.4442],[139.1647,35.4454],[139.1667,35.4522]]]}},{"type":"Feature","properties":{"id":14028},"geometry":{"type":"Polygon","coordinates":[[[139.4556,35.4222],[139.4631,35.4223],[139.4648,35.4283],[139.4676,35.4286],[139.4762,35.4226],[139.4772,35.433],[139.4813,35.4391],[139.4814,35.445],[139.4791,35.4498],[139.476,35.467],[139.4735,35.4752],[139.4735,35.4844],[139.4702,35.4982],[139.4705,35.5027],[139.4672,35.5107],[139.4592,35.5165],[139.4544,35.5139],[139.4355,35.507],[139.4394,35.494],[139.4398,35.4897],[139.4442,35.4753],[139.4445,35.4669],[139.4535,35.4599],[139.4563,35.4531],[139.4561,35.4502],[139.4525,35.4424],[139.453,35.4283],[139.4556,35.4222]]]}},{"type":"Feature","properties":{"id":14029},"geometry":{"type":"MultiPolygon","coordinates":[[[[139.6333,35.3237],[139.6375,35.3273],[139.6337,35.3307],[139.6299,35.3285],[139.6333,35.3237]]],[[[139.6472,35.3336],[139.647,35.3389],[139.6414,35.3376],[139.6432,35.3338],[139.6472,35.3336]]],[[[139.4762,35.4226],[139.4793,35.4143],[139.479,35.4011],[139.4851,35.3874],[139.4937,35.3776],[139.4946,35.3746],[139.4917,35.3702],[139.4918,35.3622],[139.4942,35.3588],[139.4998,35.357],[139.5036,35.3626],[139.512,35.3628],[139.5229,35.3585],[139.5315,35.3564],[139.535,35.3536],[139.5434,35.3535],[139.55,35.3577],[139.5554,35.3551],[139.5574,35.351],[139.5618,35.3472],[139.569,35.3454],[139.5728,35.343],[139.5773,35.3379],[139.5794,35.3334],[139.5861,35.3305],[139.5949,35.3196],[139.5993,35.3136],[139.6024,35.3128],[139.6152,35.3127],[139.623,35.3162],[139.6315,35.3171],[139.6335,35.3219],[139.6284,35.3264],[139.6289,35.3294],[139.6343,35.3318],[139.6341,35.3374],[139.6389,35.3431],[139.6482,35.3396],[139.6571,35.3432],[139.6572,35.3515],[139.6526,35.3571],[139.6514,35.3652],[139.6558,35.3665],[139.6568,35.3723],[139.6476,35.3828],[139.6528,35.3873],[139.6461,35.3909],[139.6384,35.3851],[139.6327,35.3829],[139.6281,35.3858],[139.6365,35.3907],[139.6339,35.3941],[139.6291,35.3943],[139.6258,35.3923],[139.6228,35.3958],[139.626,35.4008],[139.6317,35.4006],[139.6448,35.4023],[139.6417,35.4072],[139.6358,35.4056],[139.6335,35.4081],[139.6439,35.4119],[139.6537,35.412],[139.6608,35.4073],[139.6681,35.4064],[139.6689,35.4021],[139.6797,35.4113],[139.6807,35.4143],[139.6772,35.4186],[139.6817,35.4258],[139.6864,35.4272],[139.6899,35.44],[139.6857,35.4421],[139.6761,35.4387],[139.6742,35.4494],[139.6698,35.4511],[139.6681,35.4475],[139.6606,35.4425],[139.6587,35.4493],[139.6494,35.4463],[139.645,35.45],[139.6455,35.4557],[139.6377,35.4593],[139.6344,35.4657],[139.6402,35.4682],[139.651,35.4692],[139.6536,35.4717],[139.6497,35.4747],[139.6528,35.4772],[139.6608,35.4761],[139.67,35.4786],[139.6731,35.4758],[139.6683,35.4733],[139.6689,35.4672],[139.6756,35.4694],[139.6825,35.4742],[139.6769,35.4922],[139.6792,35.4928],[139.6819,35.4834],[139.6851,35.4792],[139.6906,35.4797],[139.6921,35.4844],[139.6888,35.4877],[139.6915,35.4914],[139.6957,35.4889],[139.6965,35.4845],[139.7056,35.4869],[139.7134,35.491],[139.7105,35.4926],[139.7033,35.5],[139.6975,35.5073],[139.6971,35.5126],[139.6905,35.5201],[139.69,35.5303],[139.6834,35.5341],[139.6792,35.5342],[139.6751,35.5306],[139.67,35.5304],[139.6626,35.5341],[139.6595,35.5391],[139.6607,35.5478],[139.6572,35.5531],[139.6469,35.5556],[139.6361,35.557],[139.6266,35.556],[139.6157,35.5595],[139.5998,35.5621],[139.5806,35.5638],[139.5762,35.5665],[139.5714,35.573],[139.5596,35.5827],[139.5504,35.5865],[139.5399,35.5892],[139.535,35.5863],[139.5344,35.5806],[139.5292,35.5696],[139.5212,35.5662],[139.514,35.567],[139.4991,35.5766],[139.4959,35.5854],[139.4894,35.5735],[139.4919,35.5588],[139.4842,35.5428],[139.4877,35.5332],[139.4898,35.5234],[139.4845,35.5128],[139.4866,35.5019],[139.4713,35.5009],[139.4705,35.5027],[139.4702,35.4982],[139.4735,35.4844],[139.4735,35.4752],[139.476,35.467],[139.4791,35.4498],[139.4814,35.445],[139.4813,35.4391],[139.4772,35.433],[139.4762,35.4226]]],[[[139.6955,35.4672],[139.6917,35.4719],[139.6809,35.4687],[139.6731,35.4646],[139.673,35.4601],[139.6761,35.4571],[139.6959,35.4494],[139.7016,35.4561],[139.6978,35.4617],[139.6886,35.4575],[139.6877,35.4595],[139.6952,35.4649],[139.6955,35.4672]]]]}},{"type":"Feature","properties":{"id":14030},"geometry":{"type":"MultiPolygon","coordinates":[[[[139.6278,35.2775],[139.636,35.2718],[139.6405,35.2702],[139.6411,35.2675],[139.6334,35.2587],[139.6289,35.2552],[139.623,35.2553],[139.6136,35.2581],[139.5992,35.2536],[139.5808,35.2537],[139.5915,35.2474],[139.5994,35.239],[139.5985,35.2358],[139.6032,35.2308],[139.6032,35.2241],[139.6138,35.2227],[139.6205,35.2206],[139.6266,35.2163],[139.6231,35.2077],[139.6195,35.2073],[139.6152,35.2097],[139.6103,35.2096],[139.6044,35.2022],[139.6055,35.2003],[139.5988,35.1953],[139.6078,35.1929],[139.6133,35.1927],[139.6176,35.1901],[139.6235,35.1949],[139.6288,35.197],[139.6312,35.2059],[139.638,35.2079],[139.6468,35.207],[139.6561,35.2039],[139.664,35.1926],[139.6704,35.1979],[139.6792,35.2033],[139.6895,35.2085],[139.695,35.2099],[139.713,35.2109],[139.7166,35.2101],[139.7243,35.2117],[139.7251,35.2148],[139.7228,35.219],[139.7176,35.218],[139.7143,35.2214],[139.714,35.2252],[139.7207,35.2273],[139.7234,35.224],[139.7282,35.2238],[139.7295,35.2329],[139.7235,35.2352],[139.7228,35.2401],[139.7326,35.2406],[139.734,35.2471],[139.738,35.2477],[139.7413,35.2511],[139.7458,35.2528],[139.7467,35.2564],[139.7377,35.2617],[139.7334,35.2617],[139.7286,35.2657],[139.7238,35.2633],[139.7086,35.2638],[139.704,35.2633],[139.6923,35.2659],[139.6848,35.2736],[139.6851,35.2763],[139.6791,35.2783],[139.6776,35.2881],[139.6801,35.2908],[139.6794,35.2955],[139.6738,35.3005],[139.669,35.3018],[139.6626,35.3014],[139.6632,35.296],[139.6611,35.292],[139.6572,35.2903],[139.6606,35.2832],[139.6528,35.2876],[139.6495,35.2884],[139.6478,35.2939],[139.6445,35.2978],[139.6386,35.2999],[139.6453,35.3117],[139.6512,35.3152],[139.6498,35.3181],[139.6543,35.3215],[139.661,35.3221],[139.659,35.3284],[139.6482,35.3274],[139.6414,35.3302],[139.6335,35.3219],[139.6315,35.3171],[139.623,35.3162],[139.6152,35.3127],[139.6187,35.3],[139.6238,35.2919],[139.6257,35.2828],[139.6278,35.2775]]],[[[139.6483,35.2945],[139.6528,35.2969],[139.6559,35.3032],[139.6501,35.3072],[139.6441,35.2995],[139.6483,35.2945]]]]}},{"type":"Feature","properties":{"id":14031},"geometry":{"type":"Polygon","coordinates":[[[139.0266,35.1741],[139.0302,35.1566],[139.0329,35.1467],[139.0439,35.1473],[139.0541,35.1443],[139.065,35.1424],[139.0756,35.1418],[139.0859,35.1381],[139.0962,35.1374],[139.1099,35.1379],[139.1217,35.1499],[139.1335,35.1502],[139.1281,35.1535],[139.1262,35.158],[139.1273,35.1663],[139.1258,35.1697],[139.1212,35.1735],[139.1119,35.1777],[139.1011,35.1877],[139.0876,35.1954],[139.0763,35.2006],[139.0661,35.1944],[139.053,35.1855],[139.0481,35.1837],[139.0393,35.1759],[139.0266,35.1741]]]}},{"type":"Feature","properties":{"id":14032},"geometry":{"type":"Polygon","coordinates":[[[139.3824,35.4675],[139.3904,35.4694],[139.4059,35.4699],[139.4269,35.4697],[139.4344,35.4706],[139.4442,35.4753],[139.4398,35.4897],[139.4394,35.494],[139.4355,35.507],[139.4285,35.5101],[139.4223,35.51],[139.4165,35.5052],[139.4124,35.4962],[139.4099,35.4942],[139.3987,35.4939],[139.386,35.4896],[139.3749,35.4922],[139.3761,35.4839],[139.3783,35.4759],[139.3824,35.4675]]]}},{"type":"Feature","properties":{"id":14033},"geometry":{"type":"Polygon","coordinates":[[[139.6278,35.2775],[139.6257,35.2828],[139.6238,35.2919],[139.6187,35.3],[139.6152,35.3127],[139.6024,35.3128],[139.5993,35.3136],[139.5949,35.3196],[139.5791,35.312],[139.5526,35.301],[139.5506,35.2961],[139.5576,35.2921],[139.5635,35.2919],[139.5683,35.2941],[139.5733,35.2908],[139.5735,35.2884],[139.5688,35.2852],[139.5707,35.2829],[139.583,35.2829],[139.5973,35.2896],[139.606,35.2906],[139.6087,35.2882],[139.6086,35.284],[139.6003,35.2797],[139.6029,35.2767],[139.6178,35.2752],[139.6278,35.2775]]]}}]}