{"type":"FeatureCollection","features":[{"type":"Feature","properties":{"id":15001},"geometry":{"type":"Polygon","coordinates":[[[139.5882,37.51],[139.5914,37.5201],[139.5828,37.5267],[139.5755,37.5345],[139.5693,37.5431],[139.5739,37.564],[139.5738,37.576],[139.5682,37.5845],[139.5671,37.5948],[139.558,37.5995],[139.55,37.6274],[139.5573,37.6369],[139.5543,37.6469],[139.5747,37.6529],[139.6087,37.6727],[139.6137,37.6817],[139.6316,37.6889],[139.6251,37.6987],[139.6298,37.7082],[139.637,37.7165],[139.6458,37.7228],[139.6544,37.731],[139.6612,37.74],[139.6612,37.7513],[139.6709,37.7552],[139.6769,37.765],[139.6852,37.7732],[139.6939,37.7789],[139.7211,37.8012],[139.7316,37.8092],[139.7352,37.8134],[139.7413,37.8202],[139.7327,37.8297],[139.7226,37.8398],[139.7187,37.8513],[139.7065,37.8505],[139.6962,37.8459],[139.6823,37.8487],[139.6779,37.851],[139.673,37.8458],[139.6698,37.8337],[139.6664,37.829],[139.6572,37.8254],[139.6157,37.8176],[139.6055,37.8155],[139.5859,37.8074],[139.5798,37.8035],[139.5663,37.7988],[139.5549,37.7962],[139.5284,37.791],[139.5183,37.7897],[139.5083,37.7898],[139.4832,37.795],[139.4469,37.8014],[139.4382,37.8049],[139.4323,37.8057],[139.4255,37.8087],[139.4169,37.8156],[139.405,37.8218],[139.3945,37.824],[139.3776,37.8241],[139.37,37.8232],[139.3619,37.8135],[139.3585,37.808],[139.3575,37.8032],[139.3491,37.7917],[139.3405,37.7764],[139.3329,37.7709],[139.3082,37.7617],[139.3049,37.7597],[139.2953,37.7473],[139.2987,37.7373],[139.2994,37.7317],[139.2983,37.7249],[139.2937,37.7142],[139.2936,37.7072],[139.2972,37.6991],[139.3004,37.6958],[139.3076,37.6916],[139.3177,37.6814],[139.3264,37.6762],[139.3329,37.6699],[139.336,37.6641],[139.3404,37.6477],[139.3444,37.6398],[139.3515,37.6357],[139.3546,37.6294],[139.3539,37.614],[139.3506,37.6024],[139.3342,37.5939],[139.3294,37.588],[139.3271,37.5789],[139.3284,37.5576],[139.3302,37.5479],[139.3263,37.5405],[139.3207,37.5371],[139.3167,37.5329],[139.2994,37.5096],[139.3016,37.4973],[139.3014,37.491],[139.2997,37.4861],[139.2952,37.4809],[139.2859,37.4772],[139.2762,37.4698],[139.2648,37.4451],[139.2748,37.4475],[139.2866,37.447],[139.3058,37.4548],[139.3157,37.4535],[139.3253,37.4579],[139.3385,37.4549],[139.3493,37.4576],[139.3567,37.4644],[139.3665,37.4667],[139.3788,37.4605],[139.3902,37.4599],[139.4008,37.4568],[139.4056,37.4601],[139.4093,37.4626],[139.4087,37.4734],[139.4103,37.4835],[139.4157,37.4929],[139.4171,37.5049],[139.4377,37.5113],[139.4509,37.5133],[139.4614,37.5129],[139.4694,37.5054],[139.4811,37.5],[139.4891,37.5073],[139.5,37.5096],[139.5114,37.5077],[139.5224,37.5103],[139.5436,37.5083],[139.5638,37.5009],[139.5789,37.5043],[139.5882,37.51]]]}},{"type":"Feature","properties":{"id":15002},"geometry":{"type":"Polygon","coordinates":[[[139.37,37.8232],[139.3625,37.8359],[139.354,37.8546],[139.3474,37.8597],[139.3424,37.8603],[139.3295,37.8589],[139.3123,37.8592],[139.299,37.86],[139.2907,37.8629],[139.283,37.8721],[139.2722,37.8908],[139.2585,37.8794],[139.2511,37.8765],[139.2462,37.8731],[139.2343,37.8689],[139.2095,37.8664],[139.198,37.8626],[139.1914,37.8584],[139.1797,37.8548],[139.1662,37.8541],[139.1623,37.8515],[139.1628,37.8448],[139.1697,37.8217],[139.1721,37.8155],[139.1837,37.8011],[139.2006,37.7849],[139.2031,37.7798],[139.2067,37.7671],[139.2108,37.766],[139.2192,37.761],[139.2331,37.7539],[139.2422,37.7463],[139.248,37.7436],[139.253,37.7435],[139.2698,37.7464],[139.283,37.7455],[139.2953,37.7473],[139.3049,37.7597],[139.3082,37.7617],[139.3329,37.7709],[139.3405,37.7764],[139.3491,37.7917],[139.3575,37.8032],[139.3585,37.808],[139.3619,37.8135],[139.37,37.8232]]]}},{"type":"Feature","properties":{"id":15003},"geometry":{"type":"Polygon","coordinates":[[[139.2563,38.4907],[139.2518,38.4903],[139.2481,38.4838],[139.2443,38.483],[139.2393,38.4757],[139.2366,38.4688],[139.2313,38.4635],[139.2267,38.463],[139.2215,38.459],[139.2249,38.4493],[139.218,38.4475],[139.2187,38.442],[139.2148,38.4377],[139.2218,38.4376],[139.2234,38.436],[139.2303,38.4398],[139.2355,38.4451],[139.2447,38.4502],[139.2492,38.4574],[139.2541,38.4611],[139.2553,38.4696],[139.2586,38.4731],[139.2572,38.4764],[139.259,38.4826],[139.2638,38.4863],[139.2632,38.4892],[139.2563,38.4907]]]}},{"type":"Feature","properties":{"id":15004},"geometry":{"type":"Polygon","coordinates":[[[139.2953,37.7473],[139.283,37.7455],[139.2698,37.7464],[139.253,37.7435],[139.248,37.7436],[139.2422,37.7463],[139.2331,37.7539],[139.2192,37.761],[139.2108,37.766],[139.2067,37.7671],[139.1913,37.769],[139.1761,37.767],[139.1704,37.7647],[139.1588,37.755],[139.1464,37.7391],[139.1392,37.7338],[139.1265,37.7277],[139.1187,37.7254],[139.1204,37.7152],[139.1209,37.6973],[139.1181,37.6904],[139.1081,37.6763],[139.1116,37.6637],[139.1145,37.6586],[139.1202,37.6537],[139.1398,37.6442],[139.1458,37.6406],[139.1529,37.6332],[139.1562,37.6267],[139.1608,37.6208],[139.164,37.6139],[139.1671,37.6106],[139.1744,37.6081],[139.1939,37.6111],[139.2004,37.6107],[139.2067,37.6087],[139.2184,37.6016],[139.2226,37.5972],[139.2304,37.5925],[139.2337,37.5869],[139.2363,37.5758],[139.2358,37.5728],[139.2308,37.5639],[139.2409,37.5582],[139.2459,37.5472],[139.2528,37.5386],[139.2576,37.534],[139.2601,37.5285],[139.2623,37.5195],[139.2663,37.5166],[139.2764,37.5149],[139.2856,37.5151],[139.2994,37.5096],[139.3167,37.5329],[139.3207,37.5371],[139.3263,37.5405],[139.3302,37.5479],[139.3284,37.5576],[139.3271,37.5789],[139.3294,37.588],[139.3342,37.5939],[139.3506,37.6024],[139.3539,37.614],[139.3546,37.6294],[139.3515,37.6357],[139.3444,37.6398],[139.3404,37.6477],[139.336,37.6641],[139.3329,37.6699],[139.3264,37.6762],[139.3177,37.6814],[139.3076,37.6916],[139.3004,37.6958],[139.2972,37.6991],[139.2936,37.7072],[139.2937,37.7142],[139.2983,37.7249],[139.2994,37.7317],[139.2987,37.7373],[139.2953,37.7473]]]}},{"type":"Feature","properties":{"id":15005},"geometry":{"type":"Polygon","coordinates":[[[137.7864,36.7707],[137.7945,36.7757],[137.8002,36.7845],[137.8197,36.7935],[137.8259,36.8017],[137.8354,36.8071],[137.8382,36.8192],[137.851,36.8333],[137.8593,36.8404],[137.8632,36.8511],[137.875,36.8604],[137.875,36.8727],[137.8696,36.8826],[137.8677,36.893],[137.8676,36.903],[137.8708,36.9129],[137.8954,36.907],[137.9125,36.9139],[137.9223,36.9166],[137.94,36.9103],[137.951,36.91],[137.9572,36.9018],[137.9676,36.9014],[137.9778,36.9057],[137.9891,36.9067],[138.0139,36.9012],[138.0253,36.9075],[138.0336,36.9104],[138.0445,36.9172],[138.0514,36.925],[138.0594,36.9301],[138.08,36.9379],[138.0894,36.94],[138.1022,36.9395],[138.1132,36.9415],[138.121,36.9511],[138.1269,36.9681],[138.1203,36.9692],[138.112,36.9724],[138.106,36.9768],[138.1036,36.9831],[138.0933,37.0203],[138.0919,37.0272],[138.0903,37.05],[138.091,37.0653],[138.0923,37.0721],[138.0928,37.0876],[138.0916,37.0952],[138.0927,37.1066],[138.0912,37.1133],[138.0832,37.1411],[138.0784,37.1546],[138.0612,37.1439],[138.0573,37.1371],[138.0479,37.1274],[138.0381,37.1221],[138.0334,37.121],[138.0265,37.116],[138.0195,37.1142],[138.0122,37.1155],[138.0051,37.1155],[138.0004,37.1125],[137.9996,37.1089],[137.995,37.1097],[137.9858,37.1031],[137.9746,37.0982],[137.9732,37.0953],[137.9606,37.0885],[137.9517,37.0873],[137.9477,37.0852],[137.9424,37.0802],[137.9401,37.0756],[137.9249,37.0689],[137.9149,37.0621],[137.9055,37.0596],[137.8954,37.0551],[137.8825,37.0515],[137.8796,37.0518],[137.8423,37.0437],[137.8372,37.0422],[137.822,37.0359],[137.8112,37.0285],[137.801,37.0277],[137.7951,37.0246],[137.7816,37.0219],[137.7758,37.0196],[137.7624,37.0163],[137.7521,37.0121],[137.7368,37.0075],[137.7284,37.0043],[137.7236,37.0013],[137.7142,36.9997],[137.7007,36.9946],[137.6803,36.9906],[137.6683,36.9857],[137.6603,36.9856],[137.6532,36.9813],[137.6378,36.9804],[137.648,36.9699],[137.6644,36.9541],[137.6733,36.9475],[137.6831,36.945],[137.6926,36.9401],[137.7033,36.9396],[137.7149,36.9372],[137.7202,36.9272],[137.7206,36.9042],[137.7162,36.8887],[137.7231,36.8801],[137.7309,36.8735],[137.736,36.8641],[137.7377,36.8537],[137.7359,36.8327],[137.7371,36.8292],[137.7417,36.816],[137.75,36.8083],[137.7573,36.7924],[137.7534,36.7827],[137.7578,36.7727],[137.7658,36.7642],[137.7751,36.7686],[137.7864,36.7707]]]}},{"type":"Feature","properties":{"id":15006},"geometry":{"type":"Polygon","coordinates":[[[138.6633,37.5271],[138.6774,37.5199],[138.6841,37.5135],[138.6861,37.5075],[138.6867,37.5008],[138.6889,37.497],[138.6962,37.4964],[138.7022,37.4984],[138.7071,37.4983],[138.7203,37.4868],[138.7372,37.4911],[138.7419,37.4972],[138.7401,37.5098],[138.7423,37.5158],[138.7462,37.5189],[138.7606,37.5249],[138.7694,37.5276],[138.7786,37.5328],[138.7801,37.5355],[138.7771,37.5394],[138.7605,37.5424],[138.7519,37.5526],[138.7409,37.5674],[138.7279,37.5804],[138.7251,37.5751],[138.713,37.5575],[138.7076,37.5539],[138.7016,37.5517],[138.6949,37.5467],[138.6871,37.5444],[138.6832,37.5412],[138.6765,37.5387],[138.6651,37.5299],[138.6633,37.5271]]]}},{"type":"Feature","properties":{"id":15007},"geometry":{"type":"Polygon","coordinates":[[[138.5218,37.0268],[138.529,37.0262],[138.5335,37.0402],[138.5366,37.0449],[138.5439,37.0522],[138.5476,37.0578],[138.5485,37.0659],[138.5463,37.0769],[138.5447,37.0959],[138.5416,37.1083],[138.5411,37.1136],[138.5425,37.1189],[138.5417,37.1298],[138.5456,37.1352],[138.5573,37.1421],[138.563,37.1475],[138.5727,37.1605],[138.5724,37.1673],[138.5692,37.1803],[138.5672,37.1838],[138.5612,37.1876],[138.5419,37.1972],[138.5346,37.2042],[138.5312,37.209],[138.5197,37.222],[138.5196,37.2253],[138.5424,37.2544],[138.5425,37.2591],[138.5351,37.2627],[138.528,37.2635],[138.5169,37.269],[138.5127,37.2735],[138.5049,37.2783],[138.5008,37.2828],[138.4941,37.2856],[138.4788,37.2835],[138.4736,37.284],[138.4635,37.2893],[138.4599,37.2931],[138.4527,37.2949],[138.4438,37.2941],[138.4383,37.2949],[138.4326,37.3004],[138.4255,37.3125],[138.4114,37.3001],[138.3928,37.2848],[138.383,37.2776],[138.3805,37.2743],[138.3668,37.2643],[138.3394,37.2419],[138.3322,37.2377],[138.3216,37.2293],[138.2997,37.2142],[138.2892,37.2066],[138.2783,37.2005],[138.2762,37.1982],[138.2682,37.194],[138.265,37.198],[138.252,37.1905],[138.2501,37.1866],[138.2531,37.1837],[138.2398,37.1794],[138.2352,37.1761],[138.2158,37.1692],[138.207,37.1684],[138.2043,37.1701],[138.1949,37.17],[138.1829,37.1655],[138.1718,37.1629],[138.1506,37.1612],[138.1476,37.1638],[138.139,37.1647],[138.1317,37.1639],[138.1272,37.1688],[138.1222,37.1705],[138.1039,37.1731],[138.1012,37.174],[138.0947,37.1724],[138.0911,37.17],[138.0859,37.1613],[138.0784,37.1546],[138.0832,37.1411],[138.0912,37.1133],[138.0927,37.1066],[138.0916,37.0952],[138.0928,37.0876],[138.0923,37.0721],[138.091,37.0653],[138.0903,37.05],[138.0919,37.0272],[138.0933,37.0203],[138.1036,36.9831],[138.106,36.9768],[138.112,36.9724],[138.1203,36.9692],[138.1269,36.9681],[138.1416,36.9551],[138.1496,36.9504],[138.1538,36.946],[138.1593,36.9431],[138.1659,36.9421],[138.1849,36.9435],[138.204,36.9458],[138.2256,36.9516],[138.234,36.9575],[138.2478,36.9756],[138.252,36.9891],[138.2516,36.9945],[138.2494,37.0003],[138.2466,37.002],[138.2374,36.9995],[138.2335,36.9955],[138.2281,36.9804],[138.224,36.9779],[138.2195,36.9786],[138.215,36.9816],[138.2091,36.9882],[138.2036,36.9893],[138.1991,36.9878],[138.1879,36.9814],[138.1751,36.9723],[138.1662,36.9685],[138.1589,36.9673],[138.1542,36.968],[138.1497,36.9719],[138.1458,36.9807],[138.1445,36.9928],[138.1461,36.9999],[138.1449,37.0138],[138.1429,37.0216],[138.1434,37.0296],[138.1495,37.0344],[138.1611,37.0383],[138.183,37.0423],[138.1908,37.0455],[138.1938,37.0495],[138.1976,37.0629],[138.2048,37.0652],[138.2162,37.0648],[138.2343,37.0654],[138.2427,37.0634],[138.2515,37.0565],[138.2629,37.0515],[138.271,37.049],[138.2771,37.0435],[138.2838,37.0309],[138.2874,37.0182],[138.29,37.0116],[138.2952,37.004],[138.3061,36.9981],[138.3129,36.9956],[138.3189,36.9948],[138.3284,36.9914],[138.3355,36.9866],[138.3396,36.982],[138.3459,36.9774],[138.3528,36.9739],[138.3655,36.9713],[138.3789,36.971],[138.3821,36.9773],[138.3915,36.9829],[138.3978,36.9942],[138.4085,36.9953],[138.4264,37.0022],[138.4363,37.0039],[138.4455,37.0096],[138.4552,37.0128],[138.4673,37.0155],[138.4794,37.017],[138.4908,37.017],[138.517,37.0264],[138.5218,37.0268]]]}},{"type":"Feature","properties":{"id":15008},"geometry":{"type":"Polygon","coordinates":[[[139.1081,37.6763],[139.1006,37.6726],[139.0851,37.6681],[139.0772,37.6693],[139.0621,37.6847],[139.0539,37.687],[139.0396,37.6936],[139.0334,37.6953],[139.024,37.6919],[139.0054,37.6873],[139.0062,37.6818],[139.0117,37.6636],[139.0194,37.654],[139.0331,37.6469],[139.0374,37.6389],[139.0423,37.6201],[139.0452,37.6129],[139.0524,37.6094],[139.0609,37.61],[139.0697,37.6077],[139.0889,37.5973],[139.0941,37.5953],[139.1038,37.5939],[139.1073,37.5913],[139.1169,37.5762],[139.1195,37.5735],[139.1363,37.5705],[139.1453,37.5675],[139.1598,37.5616],[139.1767,37.5594],[139.1899,37.5559],[139.1971,37.5555],[139.2308,37.5639],[139.2358,37.5728],[139.2363,37.5758],[139.2337,37.5869],[139.2304,37.5925],[139.2226,37.5972],[139.2184,37.6016],[139.2067,37.6087],[139.2004,37.6107],[139.1939,37.6111],[139.1744,37.6081],[139.1671,37.6106],[139.164,37.6139],[139.1608,37.6208],[139.1562,37.6267],[139.1529,37.6332],[139.1458,37.6406],[139.1398,37.6442],[139.1202,37.6537],[139.1145,37.6586],[139.1116,37.6637],[139.1081,37.6763]]]}},{"type":"Feature","properties":{"id":15009},"geometry":{"type":"MultiPolygon","coordinates":[[[[138.6981,37.4358],[138.6924,37.4296],[138.6916,37.4238],[138.6938,37.4182],[138.7034,37.407],[138.7076,37.4112],[138.711,37.4169],[138.7115,37.4214],[138.7088,37.4272],[138.6981,37.4358]]],[[[138.6088,37.3967],[138.6354,37.4018],[138.6542,37.4048],[138.6589,37.4081],[138.6577,37.4155],[138.6473,37.4248],[138.6449,37.4312],[138.6436,37.4433],[138.6406,37.4475],[138.6363,37.4477],[138.6231,37.4373],[138.6122,37.423],[138.6111,37.4182],[138.6023,37.406],[138.6024,37.4004],[138.6088,37.3967]]]]}},{"type":"Feature","properties":{"id":15010},"geometry":{"type":"Polygon","coordinates":[[[138.6633,37.5271],[138.6547,37.5208],[138.6549,37.5159],[138.6483,37.5088],[138.6481,37.5062],[138.6399,37.498],[138.6345,37.4949],[138.6306,37.4873],[138.6263,37.4854],[138.6171,37.4849],[138.6181,37.4777],[138.6172,37.4722],[138.61,37.4593],[138.6061,37.4505],[138.599,37.4412],[138.5915,37.4296],[138.5858,37.418],[138.5829,37.4153],[138.5787,37.408],[138.5654,37.3918],[138.5637,37.3888],[138.5502,37.3748],[138.5437,37.3727],[138.5437,37.368],[138.5376,37.3657],[138.5275,37.3664],[138.5246,37.3621],[138.5185,37.3612],[138.516,37.3567],[138.5093,37.3562],[138.5062,37.3535],[138.5008,37.3521],[138.4961,37.3531],[138.4882,37.3521],[138.4882,37.3479],[138.4788,37.3435],[138.4713,37.3385],[138.4647,37.3359],[138.461,37.3364],[138.4567,37.3323],[138.4533,37.3313],[138.4466,37.3245],[138.4391,37.3243],[138.4255,37.3125],[138.4326,37.3004],[138.4383,37.2949],[138.4438,37.2941],[138.4527,37.2949],[138.4599,37.2931],[138.4635,37.2893],[138.4736,37.284],[138.4788,37.2835],[138.4941,37.2856],[138.5008,37.2828],[138.5049,37.2783],[138.5127,37.2735],[138.5169,37.269],[138.528,37.2635],[138.5351,37.2627],[138.5425,37.2591],[138.5424,37.2544],[138.5196,37.2253],[138.5197,37.222],[138.5312,37.209],[138.5346,37.2042],[138.5419,37.1972],[138.5612,37.1876],[138.5672,37.1838],[138.5692,37.1803],[138.5724,37.1673],[138.5727,37.1605],[138.6043,37.1655],[138.6207,37.1705],[138.6322,37.1709],[138.6394,37.1699],[138.6502,37.1711],[138.6549,37.1727],[138.6674,37.183],[138.6742,37.1923],[138.6743,37.1997],[138.6769,37.2097],[138.6832,37.2297],[138.6834,37.2368],[138.6848,37.2409],[138.6831,37.2455],[138.6735,37.2541],[138.6618,37.2686],[138.6577,37.2809],[138.6563,37.2889],[138.6565,37.296],[138.6615,37.3048],[138.6627,37.3095],[138.666,37.315],[138.6735,37.3238],[138.6985,37.3405],[138.707,37.3437],[138.7167,37.3495],[138.72,37.3536],[138.7213,37.3593],[138.7218,37.3713],[138.723,37.3792],[138.7216,37.3842],[138.7099,37.3958],[138.7034,37.407],[138.6938,37.4182],[138.6916,37.4238],[138.6924,37.4296],[138.6981,37.4358],[138.7042,37.4439],[138.7099,37.4642],[138.7155,37.4726],[138.7186,37.4798],[138.7203,37.4868],[138.7071,37.4983],[138.7022,37.4984],[138.6962,37.4964],[138.6889,37.497],[138.6867,37.5008],[138.6861,37.5075],[138.6841,37.5135],[138.6774,37.5199],[138.6633,37.5271]],[[138.6088,37.3967],[138.6024,37.4004],[138.6023,37.406],[138.6111,37.4182],[138.6122,37.423],[138.6231,37.4373],[138.6363,37.4477],[138.6406,37.4475],[138.6436,37.4433],[138.6449,37.4312],[138.6473,37.4248],[138.6577,37.4155],[138.6589,37.4081],[138.6542,37.4048],[138.6354,37.4018],[138.6088,37.3967]]]}},{"type":"Feature","properties":{"id":15011},"geometry":{"type":"Polygon","coordinates":[[[138.839,37.2017],[138.843,37.1787],[138.8465,37.1793],[138.8502,37.1831],[138.8604,37.1896],[138.867,37.1966],[138.8719,37.1995],[138.8809,37.2089],[138.8938,37.2271],[138.8972,37.2401],[138.9013,37.2514],[138.9009,37.258],[138.8969,37.2716],[138.8954,37.2825],[138.8862,37.2885],[138.8719,37.2964],[138.8685,37.3004],[138.8629,37.3033],[138.8515,37.3028],[138.847,37.3003],[138.8434,37.2948],[138.8403,37.2826],[138.8385,37.2785],[138.8383,37.2695],[138.8402,37.2636],[138.8443,37.2574],[138.8485,37.2537],[138.849,37.2483],[138.8414,37.2383],[138.8391,37.2266],[138.8412,37.2199],[138.8458,37.2136],[138.8455,37.2094],[138.839,37.2017]]]}},{"type":"Feature","properties":{"id":15012},"geometry":{"type":"Polygon","coordinates":[[[139.1155,37.0474],[139.1219,37.0533],[139.1111,37.0585],[139.0946,37.0754],[139.0849,37.084],[139.0817,37.0913],[139.0803,37.1114],[139.077,37.1238],[139.0677,37.1382],[139.0637,37.1405],[139.0383,37.1475],[139.0314,37.1521],[139.0295,37.1579],[139.0286,37.1768],[139.0261,37.1844],[139.022,37.1862],[139.0047,37.1822],[138.9957,37.1794],[138.9862,37.1798],[138.9785,37.1835],[138.9732,37.1846],[138.9672,37.1839],[138.9604,37.1812],[138.9519,37.1764],[138.9473,37.177],[138.9415,37.1815],[138.9329,37.1951],[138.9299,37.1975],[138.9247,37.1969],[138.9136,37.1871],[138.9127,37.1835],[138.9135,37.1736],[138.9076,37.1703],[138.8981,37.1703],[138.8892,37.1735],[138.8788,37.1783],[138.8712,37.1777],[138.8662,37.1721],[138.8557,37.1671],[138.8443,37.1631],[138.8535,37.1517],[138.8614,37.1399],[138.8631,37.1355],[138.8608,37.1256],[138.8555,37.1179],[138.8514,37.1084],[138.8462,37.1007],[138.8452,37.0959],[138.8418,37.0904],[138.8187,37.0612],[138.8156,37.0565],[138.8143,37.0509],[138.8116,37.0468],[138.7952,37.0261],[138.7883,37.0148],[138.7811,37.0052],[138.7754,36.9952],[138.7743,36.9805],[138.7746,36.9734],[138.7726,36.9564],[138.7922,36.9566],[138.8164,36.9517],[138.8277,36.9524],[138.8345,36.9546],[138.8414,36.954],[138.8509,36.9467],[138.8576,36.9439],[138.8679,36.9422],[138.8869,36.9452],[138.8931,36.9448],[138.8976,36.9391],[138.9016,36.9272],[138.9063,36.9225],[138.9185,36.9162],[138.9215,36.9125],[138.9336,36.8889],[138.9352,36.8909],[138.9579,36.8923],[138.9675,36.8886],[138.9779,36.8866],[138.9827,36.8969],[138.9803,36.9067],[138.9748,36.9229],[138.9697,36.9326],[138.9682,36.9434],[138.9689,36.9537],[138.969,36.9756],[138.98,36.9773],[139.0004,36.9763],[139.0111,36.9807],[139.0216,36.984],[139.0317,36.9813],[139.0426,36.983],[139.052,36.9871],[139.0582,36.9955],[139.0854,37.0091],[139.0938,37.0167],[139.0925,37.0276],[139.0938,37.0389],[139.1,37.0555],[139.1103,37.0527],[139.1155,37.0474]]]}},{"type":"Feature","properties":{"id":15013},"geometry":{"type":"Polygon","coordinates":[[[139.009,37.5272],[139.0031,37.5362],[138.9995,37.5395],[138.9958,37.5468],[138.9924,37.5498],[138.9869,37.5507],[138.9791,37.5457],[138.9751,37.545],[138.9691,37.5472],[138.9545,37.5544],[138.9384,37.5569],[138.9263,37.5627],[138.9097,37.5781],[138.9038,37.583],[138.8979,37.5856],[138.892,37.5863],[138.8729,37.5953],[138.8709,37.5866],[138.8712,37.5806],[138.8697,37.5736],[138.8717,37.5677],[138.8765,37.562],[138.8806,37.551],[138.8919,37.5097],[138.896,37.5026],[138.9019,37.5],[138.9078,37.4993],[138.9221,37.4928],[138.9346,37.4896],[138.9407,37.4859],[138.9438,37.4728],[138.946,37.4709],[138.9538,37.4694],[138.9651,37.4718],[138.9677,37.4747],[138.9655,37.4903],[138.9684,37.4931],[138.9884,37.502],[138.9924,37.5063],[139.0045,37.5222],[139.009,37.5272]]]}},{"type":"Feature","properties":{"id":15014},"geometry":{"type":"Polygon","coordinates":[[[139.4059,38.1481],[139.4081,38.1429],[139.4079,38.1392],[139.412,38.1235],[139.4147,38.117],[139.4223,38.1074],[139.4317,38.1002],[139.4466,38.0976],[139.4554,38.0941],[139.4613,38.0933],[139.4736,38.0876],[139.4818,38.0803],[139.4862,38.0787],[139.4953,38.0819],[139.5092,38.0923],[139.5095,38.0984],[139.5078,38.108],[139.5077,38.1208],[139.5059,38.1317],[139.5093,38.137],[139.5154,38.1392],[139.5415,38.1439],[139.5493,38.1458],[139.5633,38.1551],[139.5717,38.1594],[139.5909,38.1607],[139.6043,38.1606],[139.615,38.1618],[139.6251,38.1608],[139.6338,38.1612],[139.6424,38.1604],[139.653,38.161],[139.6602,38.1602],[139.6684,38.1609],[139.6864,38.1645],[139.6856,38.1686],[139.6912,38.1793],[139.6993,38.1852],[139.7042,38.1939],[139.7118,38.2015],[139.7236,38.2016],[139.7338,38.1981],[139.7443,38.1974],[139.7566,38.1908],[139.7674,38.196],[139.7794,38.1952],[139.792,38.1928],[139.8107,38.205],[139.8211,38.2096],[139.8298,38.2147],[139.8405,38.2191],[139.8509,38.2222],[139.8616,38.2271],[139.8678,38.2373],[139.879,38.2526],[139.8846,38.2613],[139.8938,38.267],[139.9005,38.2775],[139.9021,38.28],[139.9014,38.2907],[139.8917,38.2981],[139.8824,38.304],[139.8787,38.3128],[139.8684,38.3227],[139.8605,38.3291],[139.843,38.3399],[139.8324,38.3414],[139.8238,38.3488],[139.8131,38.3526],[139.8029,38.3494],[139.7925,38.3472],[139.7829,38.3503],[139.7725,38.3517],[139.7636,38.3582],[139.7495,38.359],[139.741,38.3652],[139.7335,38.3721],[139.731,38.3826],[139.7224,38.3893],[139.7134,38.3836],[139.7079,38.3937],[139.7089,38.4042],[139.7186,38.4173],[139.7216,38.4269],[139.7215,38.4385],[139.7232,38.4484],[139.7185,38.4576],[139.7165,38.4677],[139.721,38.4773],[139.729,38.4838],[139.7166,38.4955],[139.704,38.5],[139.6874,38.5028],[139.6656,38.5055],[139.6534,38.5051],[139.6416,38.5083],[139.6354,38.5168],[139.625,38.5223],[139.605,38.5198],[139.5945,38.526],[139.5661,38.54],[139.5496,38.5464],[139.5492,38.5419],[139.5431,38.5336],[139.5397,38.5272],[139.5356,38.5228],[139.5276,38.5111],[139.5212,38.5053],[139.5206,38.5011],[139.5172,38.4947],[139.5114,38.4881],[139.5113,38.4848],[139.5069,38.4832],[139.5042,38.4761],[139.5044,38.4723],[139.5013,38.469],[139.4969,38.4572],[139.4858,38.4459],[139.4818,38.4407],[139.4822,38.4332],[139.4783,38.4283],[139.4747,38.4272],[139.4662,38.4131],[139.4666,38.4094],[139.4634,38.4071],[139.4623,38.401],[139.4567,38.3973],[139.4546,38.3894],[139.4594,38.3795],[139.4541,38.3671],[139.4509,38.3616],[139.4506,38.3509],[139.4523,38.3486],[139.4511,38.3409],[139.4519,38.3375],[139.4512,38.3262],[139.4486,38.3192],[139.4487,38.3148],[139.4511,38.3094],[139.4504,38.304],[139.4473,38.2962],[139.4489,38.2903],[139.4486,38.2733],[139.4456,38.2683],[139.4464,38.2631],[139.4439,38.2531],[139.4411,38.2458],[139.4464,38.2432],[139.4508,38.2433],[139.4495,38.2361],[139.4409,38.2206],[139.4391,38.2193],[139.4287,38.2018],[139.427,38.1915],[139.4318,38.1887],[139.4287,38.1847],[139.4289,38.1796],[139.4235,38.1714],[139.4184,38.1655],[139.4116,38.1543],[139.4059,38.1481]]]}},{"type":"Feature","properties":{"id":15015},"geometry":{"type":"Polygon","coordinates":[[[138.3789,36.971],[138.3655,36.9713],[138.3528,36.9739],[138.3459,36.9774],[138.3396,36.982],[138.3355,36.9866],[138.3284,36.9914],[138.3189,36.9948],[138.3129,36.9956],[138.3061,36.9981],[138.2952,37.004],[138.29,37.0116],[138.2874,37.0182],[138.2838,37.0309],[138.2771,37.0435],[138.271,37.049],[138.2629,37.0515],[138.2515,37.0565],[138.2427,37.0634],[138.2343,37.0654],[138.2162,37.0648],[138.2048,37.0652],[138.1976,37.0629],[138.1938,37.0495],[138.1908,37.0455],[138.183,37.0423],[138.1611,37.0383],[138.1495,37.0344],[138.1434,37.0296],[138.1429,37.0216],[138.1449,37.0138],[138.1461,36.9999],[138.1445,36.9928],[138.1458,36.9807],[138.1497,36.9719],[138.1542,36.968],[138.1589,36.9673],[138.1662,36.9685],[138.1751,36.9723],[138.1879,36.9814],[138.1991,36.9878],[138.2036,36.9893],[138.2091,36.9882],[138.215,36.9816],[138.2195,36.9786],[138.224,36.9779],[138.2281,36.9804],[138.2335,36.9955],[138.2374,36.9995],[138.2466,37.002],[138.2494,37.0003],[138.2516,36.9945],[138.252,36.9891],[138.2478,36.9756],[138.234,36.9575],[138.2256,36.9516],[138.204,36.9458],[138.1849,36.9435],[138.1659,36.9421],[138.1593,36.9431],[138.1538,36.946],[138.1496,36.9504],[138.1416,36.9551],[138.1269,36.9681],[138.121,36.9511],[138.1132,36.9415],[138.1022,36.9395],[138.0894,36.94],[138.08,36.9379],[138.0594,36.9301],[138.0514,36.925],[138.0445,36.9172],[138.0336,36.9104],[138.0253,36.9075],[138.0139,36.9012],[138.0167,36.9006],[138.0238,36.8879],[138.0346,36.8878],[138.0354,36.8777],[138.0292,36.8693],[138.019,36.8504],[138.0233,36.8402],[138.015,36.8334],[138.0073,36.8249],[138.0161,36.8185],[138.026,36.8152],[138.0352,36.8091],[138.0487,36.8069],[138.0555,36.7969],[138.0662,36.8004],[138.0759,36.8049],[138.0786,36.8164],[138.0849,36.8262],[138.0883,36.8285],[138.0952,36.8332],[138.1027,36.8401],[138.1235,36.8454],[138.1351,36.8469],[138.1456,36.8445],[138.1657,36.8411],[138.1764,36.8439],[138.1861,36.8487],[138.1966,36.8506],[138.207,36.8551],[138.2169,36.8679],[138.2258,36.8621],[138.2378,36.8613],[138.25,36.8618],[138.2602,36.8655],[138.268,36.8588],[138.2747,36.8509],[138.2756,36.84],[138.2806,36.8407],[138.2876,36.842],[138.2944,36.8488],[138.2956,36.8589],[138.296,36.8699],[138.2997,36.8794],[138.2961,36.898],[138.3004,36.9089],[138.3115,36.9167],[138.3214,36.9221],[138.3319,36.9237],[138.3423,36.9196],[138.3607,36.9306],[138.3658,36.9393],[138.3668,36.9499],[138.375,36.9629],[138.3789,36.971]]]}},{"type":"Feature","properties":{"id":15016},"geometry":{"type":"Polygon","coordinates":[[[138.7203,37.4868],[138.7186,37.4798],[138.7155,37.4726],[138.7099,37.4642],[138.7042,37.4439],[138.6981,37.4358],[138.7088,37.4272],[138.7115,37.4214],[138.711,37.4169],[138.7076,37.4112],[138.7034,37.407],[138.7099,37.3958],[138.7216,37.3842],[138.723,37.3792],[138.7218,37.3713],[138.7213,37.3593],[138.72,37.3536],[138.7167,37.3495],[138.707,37.3437],[138.6985,37.3405],[138.6735,37.3238],[138.666,37.315],[138.6627,37.3095],[138.6615,37.3048],[138.6565,37.296],[138.6563,37.2889],[138.6577,37.2809],[138.6618,37.2686],[138.6735,37.2541],[138.6831,37.2455],[138.6848,37.2409],[138.6834,37.2368],[138.6832,37.2297],[138.6969,37.2268],[138.7219,37.2227],[138.7301,37.2292],[138.7345,37.2343],[138.7483,37.2524],[138.7535,37.2681],[138.754,37.2736],[138.7584,37.2867],[138.7592,37.2997],[138.7555,37.3159],[138.7552,37.3223],[138.7575,37.3294],[138.7621,37.3388],[138.7598,37.3551],[138.7626,37.3601],[138.7732,37.3734],[138.7814,37.3758],[138.7941,37.3745],[138.8009,37.3718],[138.8179,37.3626],[138.831,37.3498],[138.8343,37.3457],[138.8425,37.3405],[138.8474,37.3399],[138.8637,37.3423],[138.8677,37.3404],[138.8697,37.3356],[138.8741,37.3207],[138.8807,37.3161],[138.9061,37.3039],[138.9093,37.3018],[138.9145,37.2963],[138.9199,37.2936],[138.927,37.2929],[138.9347,37.2954],[138.9427,37.3038],[138.9514,37.3108],[138.9692,37.3334],[138.9704,37.3387],[138.9658,37.3482],[138.9613,37.352],[138.954,37.3604],[138.9514,37.3661],[138.9522,37.37],[138.9562,37.3723],[138.9716,37.3766],[138.9791,37.3777],[138.9922,37.376],[139.0004,37.3756],[139.013,37.3798],[139.0211,37.3842],[139.0397,37.3904],[139.0473,37.3946],[139.0539,37.4018],[139.0644,37.4076],[139.073,37.4084],[139.0858,37.4018],[139.094,37.3991],[139.1032,37.4004],[139.1082,37.4022],[139.1148,37.4071],[139.1221,37.418],[139.1212,37.4256],[139.1175,37.4393],[139.1136,37.4475],[139.1045,37.4554],[139.1025,37.4584],[139.1014,37.465],[139.1044,37.4725],[139.1094,37.4794],[139.1123,37.4892],[139.1133,37.5023],[139.1114,37.5107],[139.1042,37.5178],[139.0941,37.5207],[139.0638,37.526],[139.057,37.5264],[139.0407,37.5332],[139.0315,37.5323],[139.009,37.5272],[139.0045,37.5222],[138.9924,37.5063],[138.9884,37.502],[138.9684,37.4931],[138.9655,37.4903],[138.9677,37.4747],[138.9651,37.4718],[138.9538,37.4694],[138.946,37.4709],[138.9438,37.4728],[138.9407,37.4859],[138.9346,37.4896],[138.9221,37.4928],[138.9078,37.4993],[138.9019,37.5],[138.896,37.5026],[138.8919,37.5097],[138.8806,37.551],[138.8765,37.562],[138.8717,37.5677],[138.8697,37.5736],[138.8712,37.5806],[138.8709,37.5866],[138.8729,37.5953],[138.8817,37.6042],[138.8894,37.6145],[138.8748,37.6128],[138.8584,37.6097],[138.8434,37.6027],[138.8364,37.6028],[138.8331,37.6094],[138.8326,37.6202],[138.8339,37.6305],[138.8304,37.6405],[138.8228,37.6424],[138.8106,37.6476],[138.8053,37.651],[138.8034,37.6593],[138.8111,37.6727],[138.8144,37.6803],[138.816,37.7019],[138.7939,37.7051],[138.7856,37.7071],[138.7859,37.7042],[138.7769,37.6793],[138.7755,37.6695],[138.7731,37.6661],[138.7703,37.6531],[138.766,37.6472],[138.7599,37.6349],[138.7597,37.6298],[138.7571,37.6263],[138.7524,37.6138],[138.7454,37.6022],[138.7318,37.591],[138.7321,37.5884],[138.7279,37.5804],[138.7409,37.5674],[138.7519,37.5526],[138.7605,37.5424],[138.7771,37.5394],[138.7801,37.5355],[138.7786,37.5328],[138.7694,37.5276],[138.7606,37.5249],[138.7462,37.5189],[138.7423,37.5158],[138.7401,37.5098],[138.7419,37.4972],[138.7372,37.4911],[138.7203,37.4868]]]}},{"type":"Feature","properties":{"id":15017},"geometry":{"type":"Polygon","coordinates":[[[139.2722,37.8908],[139.2742,37.9169],[139.2721,37.9214],[139.264,37.928],[139.2598,37.9347],[139.2556,37.952],[139.2449,37.9712],[139.2436,37.9715],[139.238,37.972],[139.2281,37.9712],[139.2283,37.9747],[139.2224,37.988],[139.2166,37.99],[139.2155,37.9923],[139.2096,37.991],[139.2044,37.9882],[139.2036,37.9843],[139.1967,37.9809],[139.182,37.9756],[139.1683,37.9731],[139.1638,37.9702],[139.1573,37.9695],[139.1417,37.9642],[139.1353,37.9592],[139.1357,37.956],[139.1294,37.9502],[139.126,37.9543],[139.129,37.9581],[139.1227,37.9622],[139.1093,37.9588],[139.0928,37.9582],[139.0911,37.9546],[139.0818,37.9533],[139.069,37.9468],[139.0669,37.9419],[139.0592,37.9436],[139.0564,37.9428],[139.0513,37.9377],[139.0367,37.9307],[139.0218,37.921],[139.0119,37.9158],[139.007,37.9119],[138.9914,37.9043],[138.979,37.8975],[138.9741,37.8939],[138.9594,37.8876],[138.9545,37.8836],[138.9483,37.8812],[138.9331,37.874],[138.9223,37.8698],[138.9188,37.8661],[138.9083,37.8607],[138.8957,37.8553],[138.8936,37.8535],[138.8833,37.8486],[138.8797,37.8452],[138.8639,37.8354],[138.8424,37.8177],[138.8394,37.8133],[138.8331,37.8079],[138.8319,37.8051],[138.82,37.7943],[138.8158,37.7876],[138.8158,37.7823],[138.8113,37.775],[138.8073,37.7644],[138.8018,37.7574],[138.7964,37.7434],[138.7938,37.7316],[138.7876,37.7254],[138.7839,37.7145],[138.7872,37.7106],[138.7856,37.7071],[138.7939,37.7051],[138.816,37.7019],[138.8224,37.7056],[138.8336,37.709],[138.8406,37.709],[138.8489,37.7069],[138.8584,37.7028],[138.8643,37.702],[138.8711,37.6992],[138.878,37.6949],[138.888,37.7028],[138.9064,37.7146],[138.9155,37.7182],[138.932,37.7217],[138.9393,37.7225],[138.9459,37.7215],[138.9514,37.7184],[138.9568,37.7069],[138.9644,37.6926],[138.9698,37.679],[138.9918,37.6835],[139.0054,37.6873],[139.024,37.6919],[139.0334,37.6953],[139.0374,37.7013],[139.0414,37.7038],[139.0472,37.7104],[139.0566,37.718],[139.0622,37.7247],[139.0699,37.7271],[139.0734,37.7269],[139.0928,37.7175],[139.1015,37.7188],[139.1108,37.7231],[139.1187,37.7254],[139.1265,37.7277],[139.1392,37.7338],[139.1464,37.7391],[139.1588,37.755],[139.1704,37.7647],[139.1761,37.767],[139.1913,37.769],[139.2067,37.7671],[139.2031,37.7798],[139.2006,37.7849],[139.1837,37.8011],[139.1721,37.8155],[139.1697,37.8217],[139.1628,37.8448],[139.1623,37.8515],[139.1662,37.8541],[139.1797,37.8548],[139.1914,37.8584],[139.198,37.8626],[139.2095,37.8664],[139.2343,37.8689],[139.2462,37.8731],[139.2511,37.8765],[139.2585,37.8794],[139.2722,37.8908]]]}},{"type":"Feature","properties":{"id":15018},"geometry":{"type":"Polygon","coordinates":[[[138.8954,37.2825],[138.9016,37.2889],[138.9069,37.2963],[138.9093,37.3018],[138.9061,37.3039],[138.8807,37.3161],[138.8741,37.3207],[138.8697,37.3356],[138.8677,37.3404],[138.8637,37.3423],[138.8474,37.3399],[138.8425,37.3405],[138.8343,37.3457],[138.831,37.3498],[138.8179,37.3626],[138.8009,37.3718],[138.7941,37.3745],[138.7814,37.3758],[138.7732,37.3734],[138.7626,37.3601],[138.7598,37.3551],[138.7621,37.3388],[138.7575,37.3294],[138.7552,37.3223],[138.7555,37.3159],[138.7592,37.2997],[138.7584,37.2867],[138.754,37.2736],[138.7535,37.2681],[138.7483,37.2524],[138.7345,37.2343],[138.7301,37.2292],[138.7219,37.2227],[138.7269,37.2171],[138.7321,37.2148],[138.7477,37.216],[138.7679,37.2123],[138.7812,37.209],[138.7963,37.2105],[138.8104,37.2087],[138.8215,37.2055],[138.8275,37.2047],[138.839,37.2017],[138.8455,37.2094],[138.8458,37.2136],[138.8412,37.2199],[138.8391,37.2266],[138.8414,37.2383],[138.849,37.2483],[138.8485,37.2537],[138.8443,37.2574],[138.8402,37.2636],[138.8383,37.2695],[138.8385,37.2785],[138.8403,37.2826],[138.8434,37.2948],[138.847,37.3003],[138.8515,37.3028],[138.8629,37.3033],[138.8685,37.3004],[138.8719,37.2964],[138.8862,37.2885],[138.8954,37.2825]]]}},{"type":"Feature","properties":{"id":15019},"geometry":{"type":"Polygon","coordinates":[[[138.5044,38.3323],[138.494,38.3327],[138.4799,38.3283],[138.4764,38.3239],[138.4718,38.3226],[138.4622,38.3239],[138.4642,38.3152],[138.4548,38.3088],[138.4459,38.2932],[138.4426,38.2921],[138.4404,38.2879],[138.4411,38.2818],[138.4442,38.2788],[138.4408,38.2736],[138.4365,38.27],[138.4399,38.2667],[138.4363,38.2607],[138.4289,38.2551],[138.4232,38.2539],[138.4196,38.2549],[138.4146,38.251],[138.4062,38.2488],[138.4004,38.2535],[138.3973,38.2499],[138.3989,38.2449],[138.3919,38.2406],[138.3883,38.2331],[138.3754,38.2271],[138.3723,38.2201],[138.3627,38.2119],[138.3585,38.211],[138.3523,38.2069],[138.348,38.2023],[138.3391,38.1981],[138.3308,38.1994],[138.3261,38.1979],[138.3271,38.1942],[138.3214,38.1887],[138.3205,38.1849],[138.3138,38.176],[138.3112,38.1693],[138.3056,38.1677],[138.3033,38.1644],[138.3033,38.1589],[138.2984,38.158],[138.301,38.1531],[138.297,38.1457],[138.2916,38.1431],[138.2914,38.1366],[138.2886,38.1333],[138.2809,38.1317],[138.2788,38.1271],[138.2728,38.1236],[138.2721,38.115],[138.2667,38.1083],[138.2629,38.1064],[138.2606,38.1024],[138.2602,38.0969],[138.2486,38.0913],[138.2426,38.0868],[138.2403,38.0813],[138.2478,38.0785],[138.2404,38.068],[138.233,38.0612],[138.2358,38.0558],[138.2377,38.0471],[138.2357,38.0434],[138.2354,38.0368],[138.2397,38.0295],[138.2353,38.0254],[138.2235,38.0228],[138.2227,38.014],[138.228,38.01],[138.2334,38.0097],[138.2348,37.9984],[138.2345,37.9928],[138.2325,37.9905],[138.2338,37.9843],[138.23,37.9837],[138.2271,37.9802],[138.2307,37.9766],[138.2533,37.964],[138.2579,37.9698],[138.2572,37.9729],[138.2627,37.985],[138.2708,37.9904],[138.2733,37.9933],[138.2729,37.9989],[138.2758,38.0036],[138.2831,38.0064],[138.2981,38.0075],[138.3047,38.0064],[138.314,38.0024],[138.3211,37.9977],[138.3318,37.9881],[138.3402,37.9792],[138.3432,37.97],[138.343,37.9633],[138.3412,37.96],[138.3324,37.9564],[138.3308,37.9512],[138.3273,37.9488],[138.3133,37.9431],[138.3093,37.9423],[138.3042,37.9381],[138.3004,37.9315],[138.2921,37.924],[138.2846,37.9193],[138.2856,37.9175],[138.281,37.9098],[138.2784,37.9074],[138.2815,37.9029],[138.2887,37.8979],[138.2905,37.8923],[138.2895,37.8846],[138.2844,37.8775],[138.2857,37.874],[138.2794,37.8614],[138.2725,37.8518],[138.2645,37.844],[138.2589,37.8419],[138.2546,37.8436],[138.2497,37.8424],[138.2455,37.8381],[138.237,37.84],[138.2249,37.8356],[138.2168,37.8365],[138.2132,37.8311],[138.2062,37.8284],[138.205,37.8231],[138.2096,37.816],[138.2147,37.8168],[138.2169,37.8101],[138.2263,37.8089],[138.2299,37.8065],[138.2357,37.8081],[138.2482,37.8031],[138.2651,37.8063],[138.2721,37.8112],[138.2809,37.8114],[138.2829,37.8151],[138.2927,37.8223],[138.2982,37.8209],[138.3036,37.8262],[138.31,37.828],[138.3195,37.8274],[138.3232,37.825],[138.3318,37.8246],[138.3399,37.8266],[138.3464,37.8266],[138.3612,37.8307],[138.3654,37.8352],[138.3709,37.8364],[138.3779,37.8418],[138.3818,37.8433],[138.389,37.8515],[138.3942,37.8537],[138.3995,37.8599],[138.411,37.8632],[138.4106,37.8678],[138.4248,37.876],[138.427,37.8787],[138.4341,37.8813],[138.4412,37.8823],[138.4463,37.886],[138.447,37.8885],[138.4557,37.8935],[138.4629,37.8926],[138.4713,37.8975],[138.4723,37.9016],[138.4787,37.9064],[138.4795,37.9091],[138.4854,37.9167],[138.4908,37.9194],[138.4996,37.9195],[138.4987,37.924],[138.5014,37.9287],[138.5037,37.9376],[138.5023,37.9399],[138.5039,37.9447],[138.5105,37.9531],[138.5115,37.9586],[138.5164,37.9645],[138.5231,37.9797],[138.5266,37.9822],[138.532,37.9919],[138.5364,37.9952],[138.5394,38.003],[138.5461,38.0071],[138.5495,38.0128],[138.5518,38.0214],[138.5509,38.0229],[138.5535,38.0306],[138.5609,38.0378],[138.5629,38.0413],[138.5668,38.0547],[138.5737,38.0621],[138.5732,38.0669],[138.5707,38.0737],[138.5726,38.0789],[138.5693,38.0832],[138.5604,38.0863],[138.5524,38.082],[138.5458,38.0823],[138.5351,38.079],[138.5325,38.075],[138.5207,38.0718],[138.5084,38.0703],[138.5059,38.0721],[138.4962,38.0696],[138.4926,38.0702],[138.4818,38.0627],[138.4747,38.0633],[138.4572,38.0697],[138.4458,38.0744],[138.4436,38.0781],[138.4367,38.0831],[138.4346,38.0955],[138.4384,38.1035],[138.4379,38.109],[138.4357,38.1119],[138.4359,38.1172],[138.4432,38.1298],[138.4471,38.1327],[138.45,38.1381],[138.4495,38.1445],[138.4536,38.151],[138.4587,38.1562],[138.4598,38.1612],[138.467,38.1686],[138.4706,38.1697],[138.4717,38.1747],[138.4769,38.1797],[138.4773,38.1832],[138.4819,38.189],[138.4823,38.1933],[138.4886,38.2016],[138.493,38.2047],[138.4934,38.218],[138.4923,38.2201],[138.4958,38.2262],[138.5013,38.2393],[138.5033,38.2402],[138.5044,38.2472],[138.5063,38.2502],[138.5058,38.2551],[138.5101,38.2675],[138.5077,38.2719],[138.5092,38.2759],[138.508,38.2793],[138.5096,38.2856],[138.5079,38.2947],[138.5101,38.2996],[138.5119,38.3134],[138.5181,38.3205],[138.5171,38.3302],[138.5044,38.3323]]]}},{"type":"Feature","properties":{"id":15020},"geometry":{"type":"Polygon","coordinates":[[[139.2648,37.4451],[139.2762,37.4698],[139.2859,37.4772],[139.2952,37.4809],[139.2997,37.4861],[139.3014,37.491],[139.3016,37.4973],[139.2994,37.5096],[139.2856,37.5151],[139.2764,37.5149],[139.2663,37.5166],[139.2623,37.5195],[139.2601,37.5285],[139.2576,37.534],[139.2528,37.5386],[139.2459,37.5472],[139.2409,37.5582],[139.2308,37.5639],[139.1971,37.5555],[139.1899,37.5559],[139.1767,37.5594],[139.1598,37.5616],[139.1453,37.5675],[139.1363,37.5705],[139.1195,37.5735],[139.1169,37.5762],[139.1073,37.5913],[139.1038,37.5939],[139.0941,37.5953],[139.0889,37.5973],[139.0697,37.6077],[139.0609,37.61],[139.0524,37.6094],[139.0452,37.6129],[139.0423,37.6201],[139.0374,37.6389],[139.0331,37.6469],[139.0194,37.654],[139.0117,37.6636],[139.0062,37.6818],[139.0054,37.6873],[138.9918,37.6835],[138.9698,37.679],[138.9703,37.6699],[138.9691,37.6604],[138.9669,37.6568],[138.9623,37.6557],[138.9531,37.6579],[138.9446,37.6568],[138.94,37.6535],[138.9371,37.6421],[138.937,37.6338],[138.9343,37.6295],[138.9276,37.6242],[138.9227,37.6222],[138.8982,37.6173],[138.8894,37.6145],[138.8817,37.6042],[138.8729,37.5953],[138.892,37.5863],[138.8979,37.5856],[138.9038,37.583],[138.9097,37.5781],[138.9263,37.5627],[138.9384,37.5569],[138.9545,37.5544],[138.9691,37.5472],[138.9751,37.545],[138.9791,37.5457],[138.9869,37.5507],[138.9924,37.5498],[138.9958,37.5468],[138.9995,37.5395],[139.0031,37.5362],[139.009,37.5272],[139.0315,37.5323],[139.0407,37.5332],[139.057,37.5264],[139.0638,37.526],[139.0941,37.5207],[139.1042,37.5178],[139.1114,37.5107],[139.1133,37.5023],[139.1123,37.4892],[139.1094,37.4794],[139.1044,37.4725],[139.1014,37.465],[139.1025,37.4584],[139.1045,37.4554],[139.1136,37.4475],[139.1175,37.4393],[139.1212,37.4256],[139.1221,37.418],[139.1311,37.4108],[139.1362,37.4085],[139.142,37.408],[139.1542,37.4106],[139.1618,37.413],[139.1711,37.4133],[139.1794,37.4122],[139.1893,37.4125],[139.2028,37.4111],[139.2099,37.4205],[139.2144,37.4307],[139.2198,37.4403],[139.2292,37.4451],[139.2399,37.4419],[139.2545,37.4496],[139.2648,37.4451]]]}},{"type":"Feature","properties":{"id":15021},"geometry":{"type":"Polygon","coordinates":[[[139.2556,37.952],[139.2708,37.9534],[139.2954,37.9548],[139.3027,37.9565],[139.3085,37.9629],[139.3092,37.9669],[139.3125,37.9724],[139.3213,37.9835],[139.3191,37.9896],[139.3105,37.9918],[139.299,37.9903],[139.2929,37.9952],[139.2946,38.0039],[139.3025,38.0139],[139.302,38.0193],[139.2905,38.0323],[139.2771,38.0229],[139.246,38.0047],[139.24,38.0064],[139.2283,38],[139.2294,37.994],[139.2259,37.9896],[139.2297,37.9807],[139.2325,37.9797],[139.2354,37.9749],[139.2436,37.9715],[139.2449,37.9712],[139.2556,37.952]]]}},{"type":"Feature","properties":{"id":15022},"geometry":{"type":"Polygon","coordinates":[[[139.5092,38.0923],[139.5162,38.0795],[139.5216,38.0723],[139.5276,38.06],[139.5342,38.0377],[139.5468,38.0055],[139.5509,38.0009],[139.5555,37.9914],[139.5605,37.9842],[139.5616,37.9796],[139.5621,37.9653],[139.5669,37.95],[139.5758,37.9372],[139.5814,37.9343],[139.5931,37.9314],[139.6081,37.9245],[139.6151,37.9235],[139.6265,37.9182],[139.6316,37.9146],[139.6335,37.9231],[139.6409,37.9306],[139.644,37.9409],[139.644,37.951],[139.6478,37.9619],[139.6438,37.9714],[139.6426,37.9825],[139.6481,37.9925],[139.6559,38],[139.6576,38.0113],[139.6571,38.0225],[139.6593,38.0324],[139.669,38.0368],[139.6791,38.0382],[139.6856,38.0466],[139.6944,38.0529],[139.6926,38.0678],[139.6766,38.0834],[139.6811,38.0976],[139.6889,38.1072],[139.6937,38.1162],[139.6923,38.1264],[139.6938,38.138],[139.6939,38.1483],[139.6881,38.1565],[139.6864,38.1645],[139.6684,38.1609],[139.6602,38.1602],[139.653,38.161],[139.6424,38.1604],[139.6338,38.1612],[139.6251,38.1608],[139.615,38.1618],[139.6043,38.1606],[139.5909,38.1607],[139.5717,38.1594],[139.5633,38.1551],[139.5493,38.1458],[139.5415,38.1439],[139.5154,38.1392],[139.5093,38.137],[139.5059,38.1317],[139.5077,38.1208],[139.5078,38.108],[139.5095,38.0984],[139.5092,38.0923]]]}},{"type":"Feature","properties":{"id":15023},"geometry":{"type":"Polygon","coordinates":[[[139.6779,37.851],[139.6629,37.8587],[139.6584,37.8695],[139.6481,37.8752],[139.6389,37.8827],[139.6359,37.8936],[139.6183,37.8908],[139.6132,37.8888],[139.6053,37.8834],[139.5964,37.8721],[139.5871,37.8659],[139.5806,37.8659],[139.5397,37.8861],[139.528,37.8892],[139.5102,37.8974],[139.5041,37.9012],[139.5022,37.9094],[139.5082,37.9311],[139.5077,37.9371],[139.4986,37.959],[139.4948,37.9662],[139.4911,37.9791],[139.4918,37.9926],[139.4879,38.0024],[139.4753,38.0144],[139.4655,38.0175],[139.4535,38.019],[139.433,38.0207],[139.4228,38.0241],[139.4064,38.0316],[139.3919,38.0339],[139.3766,38.0329],[139.3621,38.0286],[139.3537,38.0281],[139.3321,38.0395],[139.3286,38.0434],[139.3158,38.0502],[139.3141,38.0497],[139.3062,38.0442],[139.2996,38.0382],[139.2905,38.0323],[139.302,38.0193],[139.3025,38.0139],[139.2946,38.0039],[139.2929,37.9952],[139.299,37.9903],[139.3105,37.9918],[139.3191,37.9896],[139.3213,37.9835],[139.3125,37.9724],[139.3092,37.9669],[139.3085,37.9629],[139.3027,37.9565],[139.2954,37.9548],[139.2708,37.9534],[139.2556,37.952],[139.2598,37.9347],[139.264,37.928],[139.2721,37.9214],[139.2742,37.9169],[139.2722,37.8908],[139.283,37.8721],[139.2907,37.8629],[139.299,37.86],[139.3123,37.8592],[139.3295,37.8589],[139.3424,37.8603],[139.3474,37.8597],[139.354,37.8546],[139.3625,37.8359],[139.37,37.8232],[139.3776,37.8241],[139.3945,37.824],[139.405,37.8218],[139.4169,37.8156],[139.4255,37.8087],[139.4323,37.8057],[139.4382,37.8049],[139.4469,37.8014],[139.4832,37.795],[139.5083,37.7898],[139.5183,37.7897],[139.5284,37.791],[139.5549,37.7962],[139.5663,37.7988],[139.5798,37.8035],[139.5859,37.8074],[139.6055,37.8155],[139.6157,37.8176],[139.6572,37.8254],[139.6664,37.829],[139.6698,37.8337],[139.673,37.8458],[139.6779,37.851]]]}},{"type":"Feature","properties":{"id":15024},"geometry":{"type":"Polygon","coordinates":[[[139.1187,37.7254],[139.1108,37.7231],[139.1015,37.7188],[139.0928,37.7175],[139.0734,37.7269],[139.0699,37.7271],[139.0622,37.7247],[139.0566,37.718],[139.0472,37.7104],[139.0414,37.7038],[139.0374,37.7013],[139.0334,37.6953],[139.0396,37.6936],[139.0539,37.687],[139.0621,37.6847],[139.0772,37.6693],[139.0851,37.6681],[139.1006,37.6726],[139.1081,37.6763],[139.1181,37.6904],[139.1209,37.6973],[139.1204,37.7152],[139.1187,37.7254]]]}},{"type":"Feature","properties":{"id":15025},"geometry":{"type":"Polygon","coordinates":[[[139.4059,38.1481],[139.401,38.1423],[139.3916,38.1289],[139.3814,38.1179],[139.3662,38.0987],[139.3556,38.0888],[139.349,38.081],[139.3417,38.0748],[139.3302,38.0637],[139.3141,38.0497],[139.3158,38.0502],[139.3286,38.0434],[139.3321,38.0395],[139.3537,38.0281],[139.3621,38.0286],[139.3766,38.0329],[139.3919,38.0339],[139.4064,38.0316],[139.4228,38.0241],[139.433,38.0207],[139.4535,38.019],[139.4655,38.0175],[139.4753,38.0144],[139.4879,38.0024],[139.4918,37.9926],[139.4911,37.9791],[139.4948,37.9662],[139.4986,37.959],[139.5077,37.9371],[139.5082,37.9311],[139.5022,37.9094],[139.5041,37.9012],[139.5102,37.8974],[139.528,37.8892],[139.5397,37.8861],[139.5806,37.8659],[139.5871,37.8659],[139.5964,37.8721],[139.6053,37.8834],[139.6132,37.8888],[139.6183,37.8908],[139.6359,37.8936],[139.6296,37.9052],[139.6316,37.9146],[139.6265,37.9182],[139.6151,37.9235],[139.6081,37.9245],[139.5931,37.9314],[139.5814,37.9343],[139.5758,37.9372],[139.5669,37.95],[139.5621,37.9653],[139.5616,37.9796],[139.5605,37.9842],[139.5555,37.9914],[139.5509,38.0009],[139.5468,38.0055],[139.5342,38.0377],[139.5276,38.06],[139.5216,38.0723],[139.5162,38.0795],[139.5092,38.0923],[139.4953,38.0819],[139.4862,38.0787],[139.4818,38.0803],[139.4736,38.0876],[139.4613,38.0933],[139.4554,38.0941],[139.4466,38.0976],[139.4317,38.1002],[139.4223,38.1074],[139.4147,38.117],[139.412,38.1235],[139.4079,38.1392],[139.4081,38.1429],[139.4059,38.1481]]]}},{"type":"Feature","properties":{"id":15026},"geometry":{"type":"Polygon","coordinates":[[[138.5726,37.0098],[138.5824,37.0191],[138.6036,37.0327],[138.6153,37.0412],[138.6264,37.0431],[138.6336,37.0422],[138.6412,37.0433],[138.6465,37.0467],[138.6547,37.0501],[138.6615,37.0543],[138.6704,37.0531],[138.682,37.046],[138.6893,37.039],[138.6939,37.0285],[138.6937,37.0248],[138.6883,37.0166],[138.6887,37.0093],[138.6956,36.9859],[138.6992,36.9824],[138.7054,36.9808],[138.7102,36.9754],[138.7138,36.9631],[138.7141,36.9535],[138.711,36.9456],[138.7083,36.9425],[138.7027,36.9404],[138.6922,36.9411],[138.6854,36.9389],[138.68,36.9332],[138.6745,36.9297],[138.67,36.9238],[138.6673,36.9123],[138.6631,36.9024],[138.6638,36.8966],[138.6743,36.8854],[138.6768,36.8816],[138.6794,36.8729],[138.6805,36.8618],[138.6829,36.861],[138.6856,36.8603],[138.6944,36.8538],[138.7007,36.8559],[138.7056,36.8611],[138.7263,36.8883],[138.7273,36.8932],[138.7307,36.8987],[138.7449,36.9167],[138.7545,36.9229],[138.7626,36.9256],[138.7699,36.9304],[138.772,36.9332],[138.7743,36.9434],[138.7726,36.9564],[138.7746,36.9734],[138.7743,36.9805],[138.7754,36.9952],[138.7811,37.0052],[138.7883,37.0148],[138.7952,37.0261],[138.8116,37.0468],[138.8143,37.0509],[138.8156,37.0565],[138.8187,37.0612],[138.8418,37.0904],[138.8452,37.0959],[138.8462,37.1007],[138.8514,37.1084],[138.8555,37.1179],[138.8608,37.1256],[138.8631,37.1355],[138.8614,37.1399],[138.8535,37.1517],[138.8443,37.1631],[138.843,37.1787],[138.839,37.2017],[138.8275,37.2047],[138.8215,37.2055],[138.8104,37.2087],[138.7963,37.2105],[138.7812,37.209],[138.7679,37.2123],[138.7477,37.216],[138.7321,37.2148],[138.7269,37.2171],[138.7219,37.2227],[138.6969,37.2268],[138.6832,37.2297],[138.6769,37.2097],[138.6743,37.1997],[138.6742,37.1923],[138.6674,37.183],[138.6549,37.1727],[138.6502,37.1711],[138.6394,37.1699],[138.6322,37.1709],[138.6207,37.1705],[138.6043,37.1655],[138.5727,37.1605],[138.563,37.1475],[138.5573,37.1421],[138.5456,37.1352],[138.5417,37.1298],[138.5425,37.1189],[138.5411,37.1136],[138.5416,37.1083],[138.5447,37.0959],[138.5463,37.0769],[138.5485,37.0659],[138.5476,37.0578],[138.5439,37.0522],[138.5366,37.0449],[138.5335,37.0402],[138.529,37.0262],[138.5358,37.0193],[138.5469,37.0185],[138.5587,37.0196],[138.5691,37.018],[138.5726,37.0098]]]}},{"type":"Feature","properties":{"id":15027},"geometry":{"type":"Polygon","coordinates":[[[138.8894,37.6145],[138.8982,37.6173],[138.9227,37.6222],[138.9276,37.6242],[138.9343,37.6295],[138.937,37.6338],[138.9371,37.6421],[138.94,37.6535],[138.9446,37.6568],[138.9531,37.6579],[138.9623,37.6557],[138.9669,37.6568],[138.9691,37.6604],[138.9703,37.6699],[138.9698,37.679],[138.9644,37.6926],[138.9568,37.7069],[138.9514,37.7184],[138.9459,37.7215],[138.9393,37.7225],[138.932,37.7217],[138.9155,37.7182],[138.9064,37.7146],[138.888,37.7028],[138.878,37.6949],[138.8792,37.6819],[138.8781,37.6724],[138.8715,37.6694],[138.8479,37.6649],[138.8414,37.6647],[138.8314,37.6716],[138.8194,37.6783],[138.8144,37.6803],[138.8111,37.6727],[138.8034,37.6593],[138.8053,37.651],[138.8106,37.6476],[138.8228,37.6424],[138.8304,37.6405],[138.8339,37.6305],[138.8326,37.6202],[138.8331,37.6094],[138.8364,37.6028],[138.8434,37.6027],[138.8584,37.6097],[138.8748,37.6128],[138.8894,37.6145]]]}},{"type":"Feature","properties":{"id":15028},"geometry":{"type":"Polygon","coordinates":[[[138.6829,36.861],[138.6805,36.8618],[138.6794,36.8729],[138.6768,36.8816],[138.6743,36.8854],[138.6638,36.8966],[138.6631,36.9024],[138.6673,36.9123],[138.67,36.9238],[138.6745,36.9297],[138.68,36.9332],[138.6854,36.9389],[138.6922,36.9411],[138.7027,36.9404],[138.7083,36.9425],[138.711,36.9456],[138.7141,36.9535],[138.7138,36.9631],[138.7102,36.9754],[138.7054,36.9808],[138.6992,36.9824],[138.6956,36.9859],[138.6887,37.0093],[138.6883,37.0166],[138.6937,37.0248],[138.6939,37.0285],[138.6893,37.039],[138.682,37.046],[138.6704,37.0531],[138.6615,37.0543],[138.6547,37.0501],[138.6465,37.0467],[138.6412,37.0433],[138.6336,37.0422],[138.6264,37.0431],[138.6153,37.0412],[138.6036,37.0327],[138.5824,37.0191],[138.5726,37.0098],[138.5768,37],[138.5849,36.9893],[138.5906,36.9797],[138.5896,36.9691],[138.59,36.9584],[138.5884,36.9362],[138.5862,36.9257],[138.5924,36.9167],[138.6056,36.9043],[138.6167,36.9049],[138.625,36.8849],[138.6378,36.8794],[138.6446,36.8721],[138.6653,36.8642],[138.6758,36.8628],[138.6829,36.861]]]}},{"type":"Feature","properties":{"id":15029},"geometry":{"type":"Polygon","coordinates":[[[139.2351,37.1911],[139.2324,37.1942],[139.2213,37.1971],[139.1979,37.2007],[139.1901,37.2072],[139.1831,37.2163],[139.1744,37.2248],[139.168,37.2333],[139.1727,37.2438],[139.1803,37.2536],[139.1875,37.2613],[139.1956,37.2686],[139.2116,37.2816],[139.2175,37.29],[139.2205,37.301],[139.2248,37.3115],[139.224,37.3225],[139.2274,37.3368],[139.2366,37.3426],[139.2367,37.3538],[139.2394,37.3636],[139.2383,37.3755],[139.2346,37.3852],[139.2252,37.3904],[139.2148,37.3897],[139.2084,37.4011],[139.2004,37.408],[139.2028,37.4111],[139.1893,37.4125],[139.1794,37.4122],[139.1711,37.4133],[139.1618,37.413],[139.1542,37.4106],[139.142,37.408],[139.1362,37.4085],[139.1311,37.4108],[139.1221,37.418],[139.1148,37.4071],[139.1082,37.4022],[139.1032,37.4004],[139.094,37.3991],[139.0858,37.4018],[139.073,37.4084],[139.0644,37.4076],[139.0539,37.4018],[139.0473,37.3946],[139.0397,37.3904],[139.0211,37.3842],[139.013,37.3798],[139.0004,37.3756],[138.9922,37.376],[138.9791,37.3777],[138.9716,37.3766],[138.9562,37.3723],[138.9522,37.37],[138.9514,37.3661],[138.954,37.3604],[138.9613,37.352],[138.9658,37.3482],[138.9704,37.3387],[138.9692,37.3334],[138.9514,37.3108],[138.9427,37.3038],[138.9347,37.2954],[138.927,37.2929],[138.9199,37.2936],[138.9145,37.2963],[138.9093,37.3018],[138.9069,37.2963],[138.9016,37.2889],[138.8954,37.2825],[138.8969,37.2716],[138.9009,37.258],[138.9013,37.2514],[138.8972,37.2401],[138.8938,37.2271],[138.8809,37.2089],[138.8719,37.1995],[138.867,37.1966],[138.8604,37.1896],[138.8502,37.1831],[138.8465,37.1793],[138.843,37.1787],[138.8443,37.1631],[138.8557,37.1671],[138.8662,37.1721],[138.8712,37.1777],[138.8788,37.1783],[138.8892,37.1735],[138.8981,37.1703],[138.9076,37.1703],[138.9135,37.1736],[138.9127,37.1835],[138.9136,37.1871],[138.9247,37.1969],[138.9299,37.1975],[138.9329,37.1951],[138.9415,37.1815],[138.9473,37.177],[138.9519,37.1764],[138.9604,37.1812],[138.9672,37.1839],[138.9732,37.1846],[138.9785,37.1835],[138.9862,37.1798],[138.9957,37.1794],[139.0047,37.1822],[139.022,37.1862],[139.0261,37.1844],[139.0286,37.1768],[139.0295,37.1579],[139.0314,37.1521],[139.0383,37.1475],[139.0637,37.1405],[139.0677,37.1382],[139.077,37.1238],[139.0803,37.1114],[139.0817,37.0913],[139.0849,37.084],[139.0946,37.0754],[139.1111,37.0585],[139.1219,37.0533],[139.1155,37.0474],[139.1297,37.0357],[139.1341,37.0263],[139.1422,37.0202],[139.1573,37.0048],[139.1686,37],[139.178,36.9923],[139.1804,36.9815],[139.1788,36.9715],[139.1821,36.9643],[139.1834,36.9615],[139.1991,36.956],[139.2098,36.9528],[139.2195,36.956],[139.2303,36.9586],[139.2421,36.9447],[139.2496,36.9526],[139.2544,36.9616],[139.2552,36.9723],[139.2568,36.9822],[139.2564,36.993],[139.25,37.006],[139.2486,37.0164],[139.252,37.0263],[139.258,37.0373],[139.2596,37.0479],[139.2578,37.0586],[139.25,37.0791],[139.2422,37.0932],[139.2384,37.1043],[139.2402,37.1157],[139.2465,37.1241],[139.2476,37.1344],[139.25,37.1446],[139.2562,37.1564],[139.25,37.1645],[139.247,37.1766],[139.2351,37.1911]]]}},{"type":"Feature","properties":{"id":15030},"geometry":{"type":"Polygon","coordinates":[[[138.8144,37.6803],[138.8194,37.6783],[138.8314,37.6716],[138.8414,37.6647],[138.8479,37.6649],[138.8715,37.6694],[138.8781,37.6724],[138.8792,37.6819],[138.878,37.6949],[138.8711,37.6992],[138.8643,37.702],[138.8584,37.7028],[138.8489,37.7069],[138.8406,37.709],[138.8336,37.709],[138.8224,37.7056],[138.816,37.7019],[138.8144,37.6803]]]}},{"type":"Feature","properties":{"id":15031},"geometry":{"type":"Polygon","coordinates":[[[138.7521,36.7533],[138.7679,36.746],[138.7897,36.7421],[138.7913,36.7441],[138.7959,36.75],[138.8031,36.7571],[138.8128,36.7619],[138.8242,36.7608],[138.83,36.7692],[138.8321,36.779],[138.8334,36.7898],[138.8299,36.7998],[138.8247,36.81],[138.8358,36.8132],[138.8477,36.8121],[138.8575,36.8089],[138.875,36.8151],[138.8848,36.8227],[138.9154,36.8259],[138.933,36.8343],[138.9274,36.844],[138.9203,36.8523],[138.924,36.8628],[138.9224,36.8729],[138.9336,36.8889],[138.9215,36.9125],[138.9185,36.9162],[138.9063,36.9225],[138.9016,36.9272],[138.8976,36.9391],[138.8931,36.9448],[138.8869,36.9452],[138.8679,36.9422],[138.8576,36.9439],[138.8509,36.9467],[138.8414,36.954],[138.8345,36.9546],[138.8277,36.9524],[138.8164,36.9517],[138.7922,36.9566],[138.7726,36.9564],[138.7743,36.9434],[138.772,36.9332],[138.7699,36.9304],[138.7626,36.9256],[138.7545,36.9229],[138.7449,36.9167],[138.7307,36.8987],[138.7273,36.8932],[138.7263,36.8883],[138.7056,36.8611],[138.7007,36.8559],[138.6944,36.8538],[138.6935,36.8431],[138.6873,36.8242],[138.6909,36.8134],[138.6991,36.8055],[138.6935,36.7964],[138.6881,36.7858],[138.6764,36.7808],[138.6726,36.7707],[138.6825,36.7638],[138.692,36.7607],[138.6942,36.7505],[138.6976,36.7419],[138.6979,36.741],[138.7105,36.7343],[138.7184,36.7413],[138.7254,36.7496],[138.7289,36.76],[138.7408,36.7589],[138.7521,36.7533]]]}}]}