{"type":"FeatureCollection","features":[{"type":"Feature","properties":{"id":16001},"geometry":{"type":"Polygon","coordinates":[[[137.6378,36.9804],[137.6287,36.98],[137.6141,36.9765],[137.6032,36.9765],[137.5965,36.975],[137.5877,36.9754],[137.5853,36.9719],[137.5764,36.9669],[137.5747,36.9644],[137.5652,36.9631],[137.5482,36.9625],[137.5431,36.9614],[137.5495,36.9535],[137.549,36.9478],[137.5471,36.9448],[137.5385,36.9379],[137.5346,36.9322],[137.5334,36.9229],[137.5363,36.9105],[137.541,36.904],[137.5472,36.9036],[137.553,36.9055],[137.5638,36.8935],[137.5691,36.8865],[137.5821,36.8812],[137.5931,36.8826],[137.5995,36.8797],[137.6114,36.87],[137.614,36.8648],[137.6305,36.8593],[137.6358,36.8539],[137.6467,36.8518],[137.6566,36.8489],[137.6771,36.84],[137.6991,36.8338],[137.7112,36.8315],[137.7337,36.8241],[137.7371,36.8292],[137.7359,36.8327],[137.7377,36.8537],[137.736,36.8641],[137.7309,36.8735],[137.7231,36.8801],[137.7162,36.8887],[137.7206,36.9042],[137.7202,36.9272],[137.7149,36.9372],[137.7033,36.9396],[137.6926,36.9401],[137.6831,36.945],[137.6733,36.9475],[137.6644,36.9541],[137.648,36.9699],[137.6378,36.9804]]]}},{"type":"Feature","properties":{"id":16002},"geometry":{"type":"Polygon","coordinates":[[[137.3186,36.7044],[137.3097,36.7095],[137.304,36.7096],[137.3017,36.7078],[137.2996,36.6971],[137.306,36.6869],[137.3147,36.6858],[137.3196,36.6918],[137.3201,36.7028],[137.3186,36.7044]]]}},{"type":"Feature","properties":{"id":16003},"geometry":{"type":"Polygon","coordinates":[[[136.8672,36.8554],[136.8647,36.8422],[136.8596,36.8333],[136.8605,36.8232],[136.8541,36.8129],[136.8536,36.7856],[136.8738,36.7828],[136.8844,36.7844],[136.8874,36.7839],[136.8933,36.7765],[136.8957,36.7758],[136.9028,36.7798],[136.9076,36.7796],[136.912,36.777],[136.9169,36.7708],[136.9246,36.7693],[136.9345,36.7724],[136.9452,36.7806],[136.9494,36.7827],[136.9524,36.7909],[136.9584,36.7873],[136.9661,36.7841],[136.9754,36.7884],[136.9839,36.7884],[136.9871,36.7924],[136.9956,36.795],[137.0101,36.7922],[137.013,36.7933],[137.0147,36.7983],[137.008,36.8032],[137.0051,36.8088],[137.0061,36.8122],[137.013,36.8183],[137.0131,36.8324],[137.0069,36.8369],[136.9967,36.8463],[136.9924,36.8523],[136.9942,36.8573],[136.9881,36.8635],[136.985,36.865],[136.9839,36.8689],[136.9855,36.8772],[136.9875,36.8792],[136.993,36.879],[137.0003,36.8889],[137.0025,36.8881],[137.0092,36.8952],[137.0188,36.9105],[137.025,36.9133],[137.0289,36.9197],[137.0337,36.924],[137.0273,36.9365],[137.0279,36.9397],[137.0414,36.95],[137.0492,36.9574],[137.0521,36.959],[137.0446,36.9623],[137.0345,36.9617],[137.013,36.9589],[136.9995,36.9637],[136.9889,36.9631],[136.9845,36.9488],[136.9735,36.9446],[136.9522,36.9525],[136.9303,36.9439],[136.9254,36.9345],[136.9177,36.9275],[136.8981,36.9194],[136.8885,36.9106],[136.8831,36.9006],[136.881,36.8967],[136.8857,36.8841],[136.8846,36.8718],[136.8763,36.8644],[136.8672,36.8554]]]}},{"type":"Feature","properties":{"id":16004},"geometry":{"type":"MultiPolygon","coordinates":[[[[137.0501,36.6592],[137.0553,36.6547],[137.0572,36.6502],[137.0655,36.6504],[137.074,36.6483],[137.078,36.6489],[137.0785,36.6544],[137.0768,36.6595],[137.0794,36.6632],[137.0849,36.6599],[137.0894,36.6597],[137.0963,36.6709],[137.1029,36.679],[137.1055,36.6898],[137.107,36.6912],[137.1146,36.6914],[137.1227,36.6928],[137.1259,36.6947],[137.1282,36.7005],[137.1264,36.7071],[137.1269,36.7118],[137.1308,36.7167],[137.1375,36.722],[137.1405,36.7258],[137.1519,36.7365],[137.158,36.7395],[137.178,36.7437],[137.1812,36.7477],[137.1795,36.7583],[137.16,36.7619],[137.1497,36.7662],[137.139,36.7696],[137.14,36.7717],[137.1369,36.7758],[137.1236,36.7793],[137.1206,36.7808],[137.1167,36.7783],[137.1195,36.7705],[137.118,36.7668],[137.125,36.7623],[137.134,36.7589],[137.131,36.7571],[137.125,36.7584],[137.1198,36.7622],[137.1125,36.7654],[137.1073,36.762],[137.0869,36.7603],[137.0739,36.7658],[137.0613,36.7698],[137.0541,36.7755],[137.0507,36.7733],[137.0508,36.7597],[137.0527,36.7485],[137.0368,36.7229],[137.0263,36.7144],[137.0223,36.7092],[137.0181,36.6974],[137.0225,36.6921],[137.0343,36.6886],[137.0385,36.6854],[137.0411,36.6792],[137.0483,36.6705],[137.0501,36.6592]]],[[[137.065,36.7817],[137.0708,36.7773],[137.0822,36.7727],[137.0933,36.7695],[137.1006,36.7708],[137.1009,36.773],[137.1097,36.7725],[137.1133,36.7817],[137.1015,36.785],[137.0989,36.7829],[137.093,36.7853],[137.0925,36.7819],[137.0858,36.7839],[137.0797,36.7894],[137.0717,36.7861],[137.065,36.7817]]]]}},{"type":"Feature","properties":{"id":16005},"geometry":{"type":"Polygon","coordinates":[[[137.3201,36.7028],[137.3229,36.7009],[137.3388,36.686],[137.3425,36.6813],[137.3451,36.6736],[137.3499,36.6681],[137.354,36.6708],[137.3574,36.6772],[137.3616,36.6752],[137.3633,36.6715],[137.3642,36.6594],[137.3679,36.6563],[137.3802,36.6524],[137.3851,36.6472],[137.3932,36.6425],[137.4058,36.6335],[137.4095,36.627],[137.4126,36.6246],[137.424,36.6232],[137.4361,36.6202],[137.4391,36.6181],[137.4427,36.6119],[137.4433,36.6071],[137.4458,36.6037],[137.4549,36.5998],[137.4632,36.6006],[137.473,36.6031],[137.4854,36.6047],[137.5009,36.6046],[137.5036,36.604],[137.5085,36.5987],[137.5139,36.5971],[137.5257,36.5986],[137.5347,36.6024],[137.5432,36.6024],[137.547,36.6008],[137.5575,36.594],[137.5675,36.5914],[137.5792,36.5936],[137.5846,36.5916],[137.5901,36.5875],[137.6011,36.5873],[137.6097,36.5909],[137.6193,36.606],[137.6252,36.621],[137.6277,36.6345],[137.6306,36.6375],[137.6263,36.6431],[137.6215,36.6518],[137.611,36.6607],[137.6043,36.6675],[137.5934,36.673],[137.5838,36.67],[137.5772,36.6691],[137.5631,36.6698],[137.5497,36.6726],[137.543,36.6731],[137.5262,36.6764],[137.5223,36.6779],[137.5143,36.6842],[137.5129,36.6882],[137.5116,36.7005],[137.5062,36.7106],[137.5017,36.7143],[137.4969,36.716],[137.487,36.7159],[137.4764,36.7096],[137.4734,36.7006],[137.4681,36.6967],[137.4608,36.6964],[137.4518,36.7035],[137.4514,36.6969],[137.4477,36.6953],[137.4449,36.6991],[137.4386,36.7024],[137.4361,36.7057],[137.4337,36.7206],[137.4315,36.7239],[137.4239,36.7285],[137.4192,36.7285],[137.4099,36.7266],[137.4008,36.721],[137.3958,36.7214],[137.3863,36.727],[137.3797,36.7259],[137.3727,36.7201],[137.3658,36.7194],[137.3579,36.7303],[137.3516,36.7331],[137.3423,36.7327],[137.3443,36.7236],[137.3412,36.7212],[137.3345,36.723],[137.3275,36.7224],[137.3272,36.717],[137.3186,36.7044],[137.3201,36.7028]]]}},{"type":"Feature","properties":{"id":16006},"geometry":{"type":"Polygon","coordinates":[[[137.7658,36.7642],[137.7578,36.7727],[137.7534,36.7827],[137.7573,36.7924],[137.75,36.8083],[137.7417,36.816],[137.7371,36.8292],[137.7337,36.8241],[137.7112,36.8315],[137.6991,36.8338],[137.6771,36.84],[137.6566,36.8489],[137.6467,36.8518],[137.6358,36.8539],[137.6305,36.8593],[137.614,36.8648],[137.6001,36.8528],[137.5931,36.8545],[137.5884,36.8628],[137.5824,36.8677],[137.5676,36.8752],[137.5571,36.8765],[137.5525,36.8845],[137.5471,36.8837],[137.5469,36.8716],[137.5435,36.8717],[137.5391,36.8754],[137.5292,36.8802],[137.5216,36.8823],[137.5103,36.8879],[137.5017,36.8912],[137.4882,36.895],[137.4789,36.8989],[137.4637,36.9008],[137.4514,36.9071],[137.4433,36.9153],[137.4317,36.9289],[137.4258,36.9249],[137.4302,36.917],[137.422,36.9192],[137.4203,36.913],[137.4095,36.8984],[137.4175,36.8854],[137.4189,36.8808],[137.4186,36.8722],[137.4169,36.8681],[137.4091,36.8609],[137.4102,36.8572],[137.4181,36.8578],[137.4231,36.8564],[137.4397,36.8448],[137.4537,36.8407],[137.4621,36.8357],[137.4709,36.8322],[137.4856,36.83],[137.4931,36.8254],[137.5067,36.8158],[137.5089,36.8092],[137.5089,36.8013],[137.5132,36.7873],[137.5166,36.7821],[137.5222,36.7774],[137.5286,36.7765],[137.5376,36.7772],[137.5457,36.7748],[137.552,36.7679],[137.5598,36.7644],[137.5723,36.761],[137.588,36.7482],[137.5923,36.7374],[137.5984,36.7307],[137.6102,36.7268],[137.6124,36.7215],[137.6128,36.7097],[137.6116,36.7063],[137.606,36.7042],[137.5979,36.6981],[137.5939,36.6908],[137.5934,36.673],[137.6043,36.6675],[137.611,36.6607],[137.6215,36.6518],[137.6263,36.6431],[137.6306,36.6375],[137.6434,36.6343],[137.6638,36.6319],[137.6785,36.6342],[137.6888,36.6401],[137.6953,36.6378],[137.704,36.631],[137.7176,36.6247],[137.7282,36.6216],[137.7372,36.6206],[137.75,36.6211],[137.7559,36.63],[137.7585,36.6411],[137.7582,36.6516],[137.7593,36.6544],[137.7641,36.6666],[137.7632,36.6774],[137.7573,36.6864],[137.7557,36.697],[137.7547,36.7188],[137.7572,36.7293],[137.7585,36.7398],[137.7571,36.7513],[137.7658,36.7642]]]}},{"type":"Feature","properties":{"id":16007},"geometry":{"type":"Polygon","coordinates":[[[137.4518,36.7035],[137.4513,36.7138],[137.4489,36.719],[137.4422,36.7247],[137.4376,36.738],[137.4207,36.7573],[137.4123,36.7643],[137.4075,36.779],[137.4037,36.7848],[137.3942,36.7956],[137.3864,36.802],[137.3789,36.7996],[137.3767,36.7971],[137.3671,36.7934],[137.3595,36.7891],[137.3553,36.7851],[137.3451,36.7784],[137.3431,36.7719],[137.3364,36.7669],[137.3345,36.7633],[137.3225,36.7597],[137.3228,36.7556],[137.3271,36.7481],[137.3354,36.7443],[137.3391,36.7408],[137.3423,36.7327],[137.3516,36.7331],[137.3579,36.7303],[137.3658,36.7194],[137.3727,36.7201],[137.3797,36.7259],[137.3863,36.727],[137.3958,36.7214],[137.4008,36.721],[137.4099,36.7266],[137.4192,36.7285],[137.4239,36.7285],[137.4315,36.7239],[137.4337,36.7206],[137.4361,36.7057],[137.4386,36.7024],[137.4449,36.6991],[137.4477,36.6953],[137.4514,36.6969],[137.4518,36.7035]]]}},{"type":"Feature","properties":{"id":16008},"geometry":{"type":"Polygon","coordinates":[[[137.0611,36.3678],[137.0578,36.3663],[137.0517,36.3709],[137.0514,36.3772],[137.0528,36.3829],[137.0579,36.3911],[137.0594,36.4046],[137.061,36.4114],[137.0609,36.4285],[137.0588,36.4356],[137.0592,36.4389],[137.063,36.446],[137.0633,36.4584],[137.0611,36.4727],[137.0553,36.4821],[137.0538,36.4937],[137.049,36.5018],[137.0444,36.5025],[137.037,36.5006],[137.0331,36.5024],[137.0332,36.5096],[137.0374,36.5185],[137.0381,36.5228],[137.0376,36.5395],[137.022,36.5395],[137.0106,36.5429],[137.0025,36.5476],[136.9932,36.5554],[136.9771,36.5745],[136.9649,36.5861],[136.9621,36.591],[136.9579,36.5947],[136.9498,36.5984],[136.9452,36.6019],[136.9346,36.6046],[136.9308,36.6077],[136.926,36.6145],[136.9163,36.6166],[136.9136,36.6143],[136.9111,36.6085],[136.9028,36.6016],[136.8965,36.6003],[136.8876,36.6058],[136.8781,36.6089],[136.8704,36.6075],[136.8681,36.6058],[136.8615,36.5948],[136.8577,36.5902],[136.8462,36.5839],[136.8428,36.5846],[136.8383,36.5925],[136.8294,36.597],[136.8167,36.5997],[136.8159,36.6016],[136.8174,36.6101],[136.8156,36.6141],[136.8071,36.6137],[136.8036,36.6108],[136.8018,36.6052],[136.7899,36.5997],[136.7915,36.5912],[136.7977,36.5833],[136.7969,36.5729],[136.8143,36.5578],[136.8199,36.5491],[136.8112,36.5286],[136.8057,36.5182],[136.7994,36.5087],[136.8002,36.4894],[136.8021,36.4776],[136.7995,36.4668],[136.7923,36.4514],[136.7984,36.4421],[136.7901,36.4362],[136.7822,36.428],[136.7834,36.4096],[136.7916,36.403],[136.7983,36.3953],[136.8004,36.3853],[136.8051,36.3507],[136.7945,36.3447],[136.789,36.3334],[136.7917,36.3221],[136.7932,36.3113],[136.7961,36.2969],[136.815,36.2997],[136.8258,36.3001],[136.8337,36.3072],[136.8391,36.3176],[136.844,36.3333],[136.8404,36.3437],[136.8496,36.3477],[136.8602,36.3467],[136.8689,36.3544],[136.8793,36.3667],[136.8833,36.3472],[136.8922,36.3424],[136.8998,36.3495],[136.9101,36.3574],[136.9305,36.3488],[136.9407,36.3458],[136.9566,36.3361],[136.9707,36.3146],[136.974,36.3047],[136.9706,36.2951],[136.9636,36.2846],[136.9608,36.2745],[136.9782,36.2714],[136.9788,36.2719],[136.9861,36.2778],[137,36.2847],[137.0108,36.2873],[137.0168,36.2977],[137.0306,36.3141],[137.0408,36.3143],[137.0484,36.3213],[137.0551,36.3333],[137.0521,36.3429],[137.0592,36.3517],[137.0611,36.3678]]]}},{"type":"Feature","properties":{"id":16009},"geometry":{"type":"Polygon","coordinates":[[[137.5431,36.9614],[137.5375,36.9617],[137.5196,36.9595],[137.512,36.9597],[137.4963,36.9562],[137.4893,36.9538],[137.4844,36.9503],[137.4749,36.9458],[137.4669,36.9437],[137.4632,36.94],[137.4508,36.9359],[137.4459,36.9351],[137.4352,36.9313],[137.4317,36.9289],[137.4433,36.9153],[137.4514,36.9071],[137.4637,36.9008],[137.4789,36.8989],[137.4882,36.895],[137.5017,36.8912],[137.5103,36.8879],[137.5216,36.8823],[137.5292,36.8802],[137.5391,36.8754],[137.5435,36.8717],[137.5469,36.8716],[137.5471,36.8837],[137.5525,36.8845],[137.5571,36.8765],[137.5676,36.8752],[137.5824,36.8677],[137.5884,36.8628],[137.5931,36.8545],[137.6001,36.8528],[137.614,36.8648],[137.6114,36.87],[137.5995,36.8797],[137.5931,36.8826],[137.5821,36.8812],[137.5691,36.8865],[137.5638,36.8935],[137.553,36.9055],[137.5472,36.9036],[137.541,36.904],[137.5363,36.9105],[137.5334,36.9229],[137.5346,36.9322],[137.5385,36.9379],[137.5471,36.9448],[137.549,36.9478],[137.5495,36.9535],[137.5431,36.9614]]]}},{"type":"Feature","properties":{"id":16010},"geometry":{"type":"Polygon","coordinates":[[[136.7899,36.5997],[136.8018,36.6052],[136.8036,36.6108],[136.8071,36.6137],[136.8156,36.6141],[136.8174,36.6101],[136.8159,36.6016],[136.8167,36.5997],[136.8294,36.597],[136.8383,36.5925],[136.8428,36.5846],[136.8462,36.5839],[136.8577,36.5902],[136.8615,36.5948],[136.8681,36.6058],[136.8704,36.6075],[136.8781,36.6089],[136.8876,36.6058],[136.8965,36.6003],[136.9028,36.6016],[136.9111,36.6085],[136.9136,36.6143],[136.9163,36.6166],[136.9113,36.6238],[136.9122,36.6271],[136.9168,36.631],[136.9242,36.6428],[136.9249,36.6565],[136.9208,36.6679],[136.9239,36.6727],[136.9308,36.6739],[136.9343,36.6765],[136.9393,36.6833],[136.9305,36.6829],[136.9233,36.6854],[136.9142,36.6901],[136.9018,36.7001],[136.8932,36.7021],[136.8875,36.7074],[136.8717,36.7262],[136.8693,36.728],[136.856,36.7332],[136.8389,36.7413],[136.8259,36.7379],[136.8227,36.7279],[136.8116,36.727],[136.7964,36.7211],[136.7973,36.7109],[136.8161,36.6999],[136.8145,36.6879],[136.8229,36.6811],[136.8262,36.6693],[136.8128,36.6531],[136.8076,36.6441],[136.8032,36.6339],[136.7937,36.6277],[136.7875,36.6178],[136.7899,36.5997]]]}},{"type":"Feature","properties":{"id":16011},"geometry":{"type":"Polygon","coordinates":[[[136.8521,36.771],[136.8505,36.7543],[136.8389,36.7413],[136.856,36.7332],[136.8693,36.728],[136.8717,36.7262],[136.8875,36.7074],[136.8932,36.7021],[136.9018,36.7001],[136.9142,36.6901],[136.9233,36.6854],[136.9305,36.6829],[136.9393,36.6833],[136.9491,36.6769],[136.9568,36.6707],[136.9593,36.662],[136.9647,36.6591],[136.979,36.6661],[136.9893,36.666],[136.9963,36.6569],[137.0017,36.6574],[137.0089,36.6676],[137.0151,36.672],[137.0184,36.6717],[137.0258,36.6658],[137.0366,36.6558],[137.044,36.6541],[137.0501,36.6592],[137.0483,36.6705],[137.0411,36.6792],[137.0385,36.6854],[137.0343,36.6886],[137.0225,36.6921],[137.0181,36.6974],[137.0223,36.7092],[137.0263,36.7144],[137.0368,36.7229],[137.0527,36.7485],[137.0508,36.7597],[137.0507,36.7733],[137.0541,36.7755],[137.0613,36.7698],[137.0739,36.7658],[137.0869,36.7603],[137.1073,36.762],[137.1125,36.7654],[137.112,36.7682],[137.1061,36.7706],[137.1006,36.7708],[137.0933,36.7695],[137.0822,36.7727],[137.0708,36.7773],[137.065,36.7817],[137.0658,36.7842],[137.0739,36.7903],[137.0678,36.7931],[137.0656,36.7978],[137.0694,36.8011],[137.0661,36.8028],[137.0617,36.8003],[137.0567,36.802],[137.0514,36.8069],[137.0514,36.8089],[137.0414,36.8158],[137.0361,36.8172],[137.0305,36.8219],[137.0264,36.8233],[137.0131,36.8324],[137.013,36.8183],[137.0061,36.8122],[137.0051,36.8088],[137.008,36.8032],[137.0147,36.7983],[137.013,36.7933],[137.0101,36.7922],[136.9956,36.795],[136.9871,36.7924],[136.9839,36.7884],[136.9754,36.7884],[136.9661,36.7841],[136.9584,36.7873],[136.9524,36.7909],[136.9494,36.7827],[136.9452,36.7806],[136.9345,36.7724],[136.9246,36.7693],[136.9169,36.7708],[136.912,36.777],[136.9076,36.7796],[136.9028,36.7798],[136.8957,36.7758],[136.8933,36.7765],[136.8874,36.7839],[136.8844,36.7844],[136.8738,36.7828],[136.8536,36.7856],[136.8521,36.771]]]}},{"type":"Feature","properties":{"id":16012},"geometry":{"type":"Polygon","coordinates":[[[137.75,36.6211],[137.7372,36.6206],[137.7282,36.6216],[137.7176,36.6247],[137.704,36.631],[137.6953,36.6378],[137.6888,36.6401],[137.6785,36.6342],[137.6638,36.6319],[137.6434,36.6343],[137.6306,36.6375],[137.6277,36.6345],[137.6252,36.621],[137.6193,36.606],[137.6097,36.5909],[137.6011,36.5873],[137.5901,36.5875],[137.5846,36.5916],[137.5792,36.5936],[137.5675,36.5914],[137.5575,36.594],[137.547,36.6008],[137.5432,36.6024],[137.5347,36.6024],[137.5257,36.5986],[137.5139,36.5971],[137.5085,36.5987],[137.5036,36.604],[137.5009,36.6046],[137.4854,36.6047],[137.473,36.6031],[137.4632,36.6006],[137.4549,36.5998],[137.4458,36.6037],[137.4433,36.6071],[137.4427,36.6119],[137.4391,36.6181],[137.4361,36.6202],[137.424,36.6232],[137.4126,36.6246],[137.4095,36.627],[137.4058,36.6335],[137.3932,36.6425],[137.3851,36.6472],[137.3802,36.6524],[137.3679,36.6563],[137.3642,36.6594],[137.3633,36.6715],[137.3616,36.6752],[137.3574,36.6772],[137.354,36.6708],[137.3499,36.6681],[137.3451,36.6736],[137.3425,36.6813],[137.3388,36.686],[137.3229,36.7009],[137.3201,36.7028],[137.3196,36.6918],[137.3147,36.6858],[137.306,36.6869],[137.2996,36.6971],[137.2884,36.6913],[137.2858,36.6886],[137.2905,36.679],[137.2905,36.6571],[137.29,36.6497],[137.2936,36.6306],[137.2956,36.6264],[137.3059,36.6163],[137.3239,36.5873],[137.3276,36.5833],[137.3374,36.577],[137.3527,36.5694],[137.3625,36.566],[137.3832,36.5675],[137.3963,36.5706],[137.4144,36.5777],[137.4284,36.5805],[137.4491,36.5743],[137.4647,36.567],[137.4733,36.5654],[137.4887,36.5645],[137.503,36.5569],[137.5154,36.5469],[137.5211,36.5439],[137.5321,36.5434],[137.5479,36.5461],[137.5598,36.5464],[137.5654,36.5479],[137.5737,36.5522],[137.577,36.5524],[137.5921,36.5503],[137.5994,36.5486],[137.6074,36.5454],[137.6158,36.5403],[137.6377,36.533],[137.6505,36.5244],[137.663,36.5183],[137.6765,36.5211],[137.6895,36.5193],[137.705,36.5207],[137.7008,36.5345],[137.6902,36.5329],[137.6895,36.543],[137.692,36.5532],[137.6959,36.5645],[137.7072,36.5692],[137.7163,36.5747],[137.7263,36.5828],[137.7361,36.5852],[137.75,36.5841],[137.7555,36.5933],[137.75,36.6022],[137.75,36.6211]]]}},{"type":"Feature","properties":{"id":16013},"geometry":{"type":"Polygon","coordinates":[[[137.0501,36.6592],[137.044,36.6541],[137.0366,36.6558],[137.0258,36.6658],[137.0184,36.6717],[137.0151,36.672],[137.0089,36.6676],[137.0017,36.6574],[136.9963,36.6569],[136.9893,36.666],[136.979,36.6661],[136.9647,36.6591],[136.9593,36.662],[136.9568,36.6707],[136.9491,36.6769],[136.9393,36.6833],[136.9343,36.6765],[136.9308,36.6739],[136.9239,36.6727],[136.9208,36.6679],[136.9249,36.6565],[136.9242,36.6428],[136.9168,36.631],[136.9122,36.6271],[136.9113,36.6238],[136.9163,36.6166],[136.926,36.6145],[136.9308,36.6077],[136.9346,36.6046],[136.9452,36.6019],[136.9498,36.5984],[136.9579,36.5947],[136.9621,36.591],[136.9649,36.5861],[136.9771,36.5745],[136.9932,36.5554],[137.0025,36.5476],[137.0106,36.5429],[137.022,36.5395],[137.0376,36.5395],[137.04,36.5501],[137.0403,36.5673],[137.0464,36.5888],[137.053,36.6016],[137.0573,36.6136],[137.0579,36.6235],[137.063,36.6299],[137.0642,36.635],[137.0625,36.6396],[137.0587,36.6417],[137.0572,36.6502],[137.0553,36.6547],[137.0501,36.6592]]]}},{"type":"Feature","properties":{"id":16014},"geometry":{"type":"Polygon","coordinates":[[[137.5451,36.3888],[137.5563,36.3855],[137.5681,36.3854],[137.5783,36.3897],[137.5902,36.3866],[137.5993,36.3911],[137.6079,36.3989],[137.6079,36.409],[137.625,36.4198],[137.6358,36.4218],[137.6405,36.4314],[137.6429,36.4422],[137.6482,36.4508],[137.6575,36.4552],[137.659,36.4654],[137.655,36.4758],[137.6561,36.486],[137.6698,36.4999],[137.6764,36.5077],[137.6865,36.5097],[137.6974,36.508],[137.7068,36.5146],[137.705,36.5207],[137.6895,36.5193],[137.6765,36.5211],[137.663,36.5183],[137.6505,36.5244],[137.6377,36.533],[137.6158,36.5403],[137.6074,36.5454],[137.5994,36.5486],[137.5921,36.5503],[137.577,36.5524],[137.5737,36.5522],[137.5654,36.5479],[137.5598,36.5464],[137.5479,36.5461],[137.5321,36.5434],[137.5211,36.5439],[137.5154,36.5469],[137.503,36.5569],[137.4887,36.5645],[137.4733,36.5654],[137.4647,36.567],[137.4491,36.5743],[137.4284,36.5805],[137.4144,36.5777],[137.3963,36.5706],[137.3832,36.5675],[137.3625,36.566],[137.3527,36.5694],[137.3374,36.577],[137.3276,36.5833],[137.3239,36.5873],[137.3059,36.6163],[137.2956,36.6264],[137.2936,36.6306],[137.29,36.6497],[137.2905,36.6571],[137.2905,36.679],[137.2858,36.6886],[137.2884,36.6913],[137.2996,36.6971],[137.3017,36.7078],[137.304,36.7096],[137.3097,36.7095],[137.3186,36.7044],[137.3272,36.717],[137.3275,36.7224],[137.3345,36.723],[137.3412,36.7212],[137.3443,36.7236],[137.3423,36.7327],[137.3391,36.7408],[137.3354,36.7443],[137.3271,36.7481],[137.3228,36.7556],[137.3225,36.7597],[137.3189,36.7587],[137.3039,36.7597],[137.3,36.757],[137.2936,36.755],[137.2918,36.758],[137.2867,36.7584],[137.2746,36.761],[137.2581,36.7617],[137.2443,36.7649],[137.2292,36.7646],[137.2256,36.7532],[137.2188,36.7621],[137.2109,36.7596],[137.1996,36.7593],[137.1939,36.7609],[137.1894,36.7569],[137.1795,36.7583],[137.1812,36.7477],[137.178,36.7437],[137.158,36.7395],[137.1519,36.7365],[137.1405,36.7258],[137.1375,36.722],[137.1308,36.7167],[137.1269,36.7118],[137.1264,36.7071],[137.1282,36.7005],[137.1259,36.6947],[137.1227,36.6928],[137.1146,36.6914],[137.107,36.6912],[137.1055,36.6898],[137.1029,36.679],[137.0963,36.6709],[137.0894,36.6597],[137.0849,36.6599],[137.0794,36.6632],[137.0768,36.6595],[137.0785,36.6544],[137.078,36.6489],[137.074,36.6483],[137.0655,36.6504],[137.0572,36.6502],[137.0587,36.6417],[137.0625,36.6396],[137.0642,36.635],[137.063,36.6299],[137.0579,36.6235],[137.0573,36.6136],[137.053,36.6016],[137.0464,36.5888],[137.0403,36.5673],[137.04,36.5501],[137.0376,36.5395],[137.0381,36.5228],[137.0374,36.5185],[137.0332,36.5096],[137.0331,36.5024],[137.037,36.5006],[137.0444,36.5025],[137.049,36.5018],[137.0538,36.4937],[137.0553,36.4821],[137.0611,36.4727],[137.0633,36.4584],[137.063,36.446],[137.0592,36.4389],[137.0588,36.4356],[137.0609,36.4285],[137.061,36.4114],[137.0594,36.4046],[137.0579,36.3911],[137.0528,36.3829],[137.0514,36.3772],[137.0517,36.3709],[137.0578,36.3663],[137.0611,36.3678],[137.0709,36.3739],[137.0791,36.3801],[137.0977,36.3808],[137.0957,36.3914],[137.1048,36.3964],[137.1111,36.4065],[137.1263,36.4166],[137.1395,36.4344],[137.1471,36.4424],[137.158,36.4465],[137.1668,36.4514],[137.1769,36.4488],[137.1945,36.4522],[137.1994,36.4429],[137.207,36.4343],[137.225,36.4398],[137.2421,36.448],[137.2509,36.4585],[137.2581,36.4513],[137.2814,36.4626],[137.2905,36.4582],[137.3011,36.4553],[137.3115,36.4605],[137.3196,36.4533],[137.3165,36.443],[137.3099,36.4343],[137.3132,36.4245],[137.3242,36.4227],[137.3332,36.4272],[137.3446,36.43],[137.3559,36.4316],[137.3609,36.4406],[137.369,36.4477],[137.3827,36.4516],[137.3925,36.4556],[137.398,36.4414],[137.4,36.4314],[137.4068,36.4239],[137.4174,36.4222],[137.4525,36.4135],[137.4639,36.4095],[137.4776,36.4223],[137.4901,36.4207],[137.5,36.4231],[137.5154,36.4161],[137.5237,36.4028],[137.5347,36.3983],[137.5429,36.3894],[137.5451,36.3888]]]}},{"type":"Feature","properties":{"id":16015},"geometry":{"type":"Polygon","coordinates":[[[137.5934,36.673],[137.5939,36.6908],[137.5979,36.6981],[137.606,36.7042],[137.6116,36.7063],[137.6128,36.7097],[137.6124,36.7215],[137.6102,36.7268],[137.5984,36.7307],[137.5923,36.7374],[137.588,36.7482],[137.5723,36.761],[137.5598,36.7644],[137.552,36.7679],[137.5457,36.7748],[137.5376,36.7772],[137.5286,36.7765],[137.5222,36.7774],[137.5166,36.7821],[137.5132,36.7873],[137.5089,36.8013],[137.5089,36.8092],[137.5067,36.8158],[137.4931,36.8254],[137.4856,36.83],[137.4709,36.8322],[137.4621,36.8357],[137.4537,36.8407],[137.4397,36.8448],[137.4231,36.8564],[137.4181,36.8578],[137.4102,36.8572],[137.4123,36.854],[137.4103,36.8474],[137.3996,36.8366],[137.3961,36.8279],[137.392,36.8211],[137.3937,36.8163],[137.3931,36.8078],[137.3864,36.802],[137.3942,36.7956],[137.4037,36.7848],[137.4075,36.779],[137.4123,36.7643],[137.4207,36.7573],[137.4376,36.738],[137.4422,36.7247],[137.4489,36.719],[137.4513,36.7138],[137.4518,36.7035],[137.4608,36.6964],[137.4681,36.6967],[137.4734,36.7006],[137.4764,36.7096],[137.487,36.7159],[137.4969,36.716],[137.5017,36.7143],[137.5062,36.7106],[137.5116,36.7005],[137.5129,36.6882],[137.5143,36.6842],[137.5223,36.6779],[137.5262,36.6764],[137.543,36.6731],[137.5497,36.6726],[137.5631,36.6698],[137.5772,36.6691],[137.5838,36.67],[137.5934,36.673]]]}}]}