{"type":"FeatureCollection","features":[{"type":"Feature","properties":{"id":17001},"geometry":{"type":"Polygon","coordinates":[[[137.086,37.2488],[137.0781,37.2503],[137.067,37.2507],[137.0485,37.248],[137.0347,37.2485],[137.028,37.2506],[137.0196,37.2561],[137.0135,37.2632],[137.0048,37.2855],[137.0023,37.2904],[136.9971,37.2956],[136.9908,37.2989],[136.9681,37.293],[136.9538,37.2875],[136.9341,37.281],[136.9239,37.2796],[136.8992,37.2786],[136.8854,37.2754],[136.8729,37.2683],[136.8617,37.2597],[136.8489,37.2482],[136.8377,37.2417],[136.8271,37.2469],[136.8168,37.2467],[136.809,37.2418],[136.8056,37.2366],[136.8035,37.2306],[136.818,37.2264],[136.834,37.2095],[136.8495,37.1972],[136.8647,37.1798],[136.8838,37.1629],[136.8897,37.1656],[136.8904,37.1699],[136.8971,37.178],[136.9045,37.1853],[136.9058,37.1902],[136.913,37.1945],[136.907,37.2022],[136.9108,37.203],[136.9137,37.2005],[136.9207,37.2049],[136.9267,37.199],[136.93,37.2062],[136.924,37.2095],[136.9208,37.215],[136.916,37.2177],[136.9084,37.2201],[136.9145,37.2248],[136.9186,37.2211],[136.925,37.2193],[136.9312,37.2201],[136.934,37.2228],[136.9274,37.2298],[136.9371,37.2288],[136.9438,37.2243],[136.9492,37.2297],[136.9475,37.2322],[136.955,37.2353],[136.963,37.2361],[136.9662,37.2328],[136.9575,37.23],[136.9547,37.2272],[136.9514,37.2197],[136.9544,37.2187],[136.9588,37.2124],[136.9567,37.2096],[136.965,37.2034],[136.9693,37.2056],[136.9706,37.2011],[136.9812,37.2036],[136.9923,37.1988],[136.9973,37.1945],[136.9985,37.1912],[137.0025,37.1888],[137.0056,37.1835],[137.0119,37.1838],[137.0187,37.1887],[137.0255,37.1875],[137.032,37.2026],[137.037,37.2056],[137.0441,37.2074],[137.0512,37.2108],[137.0571,37.2076],[137.06,37.2122],[137.0638,37.2133],[137.0692,37.2178],[137.067,37.2235],[137.0683,37.2316],[137.0711,37.2334],[137.0763,37.245],[137.086,37.2488]]]}},{"type":"Feature","properties":{"id":17002},"geometry":{"type":"Polygon","coordinates":[[[136.7553,36.8552],[136.7644,36.8542],[136.779,36.8626],[136.7948,36.8736],[136.8034,36.8761],[136.8133,36.8769],[136.8275,36.8744],[136.8487,36.8639],[136.8672,36.8554],[136.8763,36.8644],[136.8846,36.8718],[136.8857,36.8841],[136.881,36.8967],[136.8831,36.9006],[136.8784,36.9125],[136.8721,36.9224],[136.865,36.9292],[136.8524,36.9358],[136.8201,36.9406],[136.8025,36.9451],[136.787,36.9511],[136.7682,36.9605],[136.7653,36.9543],[136.761,36.9508],[136.7623,36.9446],[136.7506,36.9336],[136.7494,36.928],[136.7524,36.9239],[136.7622,36.923],[136.7666,36.9194],[136.7679,36.9136],[136.7675,36.901],[136.7626,36.88],[136.7575,36.8615],[136.7553,36.8552]]]}},{"type":"Feature","properties":{"id":17003},"geometry":{"type":"Polygon","coordinates":[[[136.6608,36.0671],[136.6611,36.066],[136.6803,36.0666],[136.69,36.0692],[136.7001,36.0706],[136.7098,36.0763],[136.7206,36.0786],[136.7317,36.0784],[136.7417,36.0773],[136.7571,36.0858],[136.7591,36.0962],[136.7682,36.1039],[136.7724,36.1128],[136.776,36.1231],[136.7825,36.1307],[136.7753,36.1513],[136.7711,36.161],[136.7812,36.1633],[136.8017,36.1705],[136.8037,36.1817],[136.8226,36.2031],[136.8299,36.212],[136.8352,36.2204],[136.8496,36.2394],[136.8476,36.2554],[136.8383,36.2594],[136.8174,36.2669],[136.8088,36.2729],[136.8021,36.2876],[136.7961,36.2969],[136.7932,36.3113],[136.7917,36.3221],[136.789,36.3334],[136.7786,36.3395],[136.7551,36.3565],[136.7381,36.3668],[136.7177,36.3769],[136.686,36.3895],[136.6757,36.3964],[136.6718,36.4006],[136.6668,36.4095],[136.6616,36.4261],[136.657,36.438],[136.6516,36.4497],[136.6452,36.4612],[136.6319,36.479],[136.6138,36.4971],[136.6035,36.498],[136.5969,36.4998],[136.5913,36.5036],[136.588,36.5086],[136.5859,36.517],[136.5861,36.526],[136.5875,36.5323],[136.5921,36.5446],[136.5754,36.548],[136.5645,36.5518],[136.5547,36.557],[136.5497,36.5609],[136.5429,36.5528],[136.5347,36.5457],[136.5257,36.5351],[136.5257,36.5336],[136.511,36.5193],[136.5011,36.5084],[136.4914,36.5],[136.4878,36.4983],[136.4809,36.4917],[136.4804,36.4879],[136.4727,36.4815],[136.4687,36.477],[136.4682,36.4762],[136.4859,36.476],[136.4961,36.475],[136.5108,36.4715],[136.5197,36.4682],[136.5305,36.4726],[136.5413,36.4739],[136.5519,36.4726],[136.5755,36.4664],[136.5863,36.4618],[136.596,36.4557],[136.6079,36.4465],[136.6152,36.4388],[136.6203,36.4296],[136.6225,36.4216],[136.6225,36.4133],[136.6198,36.4052],[136.6158,36.4001],[136.6078,36.3938],[136.5834,36.3809],[136.5815,36.3511],[136.5788,36.339],[136.5758,36.3335],[136.5629,36.3188],[136.5537,36.3057],[136.5505,36.2975],[136.5499,36.286],[136.5527,36.2781],[136.5573,36.2741],[136.5777,36.2674],[136.5939,36.2634],[136.5998,36.2608],[136.6044,36.2572],[136.6078,36.2522],[136.6101,36.2401],[136.6093,36.2308],[136.6063,36.2219],[136.6026,36.2171],[136.5771,36.1997],[136.5656,36.1882],[136.559,36.1768],[136.5476,36.1509],[136.5548,36.1518],[136.5658,36.1429],[136.5759,36.14],[136.5842,36.1334],[136.5936,36.1282],[136.6058,36.1255],[136.6166,36.1072],[136.638,36.0959],[136.6489,36.0915],[136.6561,36.0833],[136.6608,36.0671]]]}},{"type":"Feature","properties":{"id":17004},"geometry":{"type":"Polygon","coordinates":[[[136.7553,36.8552],[136.7507,36.8422],[136.7379,36.8136],[136.7297,36.798],[136.7241,36.7896],[136.7567,36.7807],[136.7791,36.7732],[136.8029,36.7629],[136.8223,36.751],[136.8278,36.7618],[136.8324,36.7666],[136.8371,36.7684],[136.8521,36.771],[136.8536,36.7856],[136.8541,36.8129],[136.8605,36.8232],[136.8596,36.8333],[136.8647,36.8422],[136.8672,36.8554],[136.8487,36.8639],[136.8275,36.8744],[136.8133,36.8769],[136.8034,36.8761],[136.7948,36.8736],[136.779,36.8626],[136.7644,36.8542],[136.7553,36.8552]]]}},{"type":"Feature","properties":{"id":17005},"geometry":{"type":"Polygon","coordinates":[[[136.3314,36.2042],[136.3393,36.189],[136.3421,36.1779],[136.3491,36.1691],[136.3631,36.1625],[136.3745,36.1667],[136.3983,36.1663],[136.4088,36.1676],[136.4152,36.1566],[136.4263,36.1515],[136.4331,36.1423],[136.442,36.1362],[136.4533,36.1364],[136.4658,36.1344],[136.4745,36.1437],[136.4837,36.1512],[136.4936,36.1555],[136.4953,36.1532],[136.4941,36.1669],[136.4917,36.1762],[136.4818,36.2008],[136.4646,36.236],[136.4597,36.2423],[136.4528,36.2471],[136.4353,36.2525],[136.4262,36.2569],[136.4208,36.262],[136.4135,36.2704],[136.409,36.2782],[136.4026,36.2975],[136.4008,36.3068],[136.401,36.3178],[136.3995,36.3221],[136.3946,36.3282],[136.3841,36.3358],[136.3783,36.342],[136.3755,36.347],[136.3692,36.3631],[136.361,36.3761],[136.3533,36.3704],[136.3336,36.3589],[136.3205,36.3542],[136.3111,36.354],[136.3043,36.3512],[136.3,36.3521],[136.2912,36.3446],[136.291,36.3413],[136.2869,36.3359],[136.2808,36.3319],[136.2776,36.3259],[136.279,36.3226],[136.2731,36.316],[136.2585,36.304],[136.2468,36.2979],[136.2441,36.2946],[136.2592,36.277],[136.2652,36.2691],[136.2734,36.2627],[136.2845,36.2615],[136.3049,36.2544],[136.3147,36.2433],[136.3192,36.2329],[136.3294,36.2291],[136.3344,36.2145],[136.3314,36.2042]]]}},{"type":"Feature","properties":{"id":17006},"geometry":{"type":"Polygon","coordinates":[[[136.7241,36.7896],[136.7184,36.7786],[136.7159,36.7755],[136.7109,36.7655],[136.7086,36.7627],[136.7016,36.7497],[136.6946,36.7394],[136.69,36.7308],[136.6712,36.704],[136.6667,36.6967],[136.6799,36.6924],[136.6566,36.6608],[136.6564,36.6525],[136.6692,36.6479],[136.6777,36.6466],[136.6867,36.6467],[136.7046,36.6494],[136.703,36.6648],[136.7026,36.6827],[136.7221,36.6933],[136.7403,36.7009],[136.7453,36.7038],[136.7607,36.7184],[136.771,36.7376],[136.7748,36.7414],[136.7807,36.7434],[136.8027,36.7455],[136.8223,36.751],[136.8029,36.7629],[136.7791,36.7732],[136.7567,36.7807],[136.7241,36.7896]]]}},{"type":"Feature","properties":{"id":17007},"geometry":{"type":"Polygon","coordinates":[[[136.5921,36.5446],[136.6003,36.5413],[136.6101,36.534],[136.6137,36.5285],[136.6159,36.5227],[136.6171,36.5136],[136.6164,36.5047],[136.6138,36.4971],[136.6319,36.479],[136.6452,36.4612],[136.6516,36.4497],[136.657,36.438],[136.6616,36.4261],[136.6668,36.4095],[136.6718,36.4006],[136.6757,36.3964],[136.686,36.3895],[136.7177,36.3769],[136.7381,36.3668],[136.7551,36.3565],[136.7786,36.3395],[136.789,36.3334],[136.7945,36.3447],[136.8051,36.3507],[136.8004,36.3853],[136.7983,36.3953],[136.7916,36.403],[136.7834,36.4096],[136.7822,36.428],[136.7901,36.4362],[136.7984,36.4421],[136.7923,36.4514],[136.7995,36.4668],[136.8021,36.4776],[136.8002,36.4894],[136.7994,36.5087],[136.8057,36.5182],[136.8112,36.5286],[136.8199,36.5491],[136.8143,36.5578],[136.7969,36.5729],[136.7977,36.5833],[136.7915,36.5912],[136.7899,36.5997],[136.7875,36.6178],[136.7603,36.6291],[136.7424,36.6351],[136.7046,36.6494],[136.6867,36.6467],[136.6777,36.6466],[136.6692,36.6479],[136.6564,36.6525],[136.6451,36.6529],[136.6335,36.6367],[136.6235,36.6283],[136.6157,36.626],[136.6083,36.6252],[136.6066,36.6222],[136.6136,36.6147],[136.6198,36.614],[136.6235,36.6115],[136.6194,36.6089],[136.6128,36.6092],[136.6095,36.615],[136.604,36.6203],[136.5972,36.6113],[136.5869,36.6033],[136.5856,36.5986],[136.5767,36.5891],[136.5672,36.5777],[136.5619,36.5731],[136.5546,36.5643],[136.5497,36.5609],[136.5547,36.557],[136.5645,36.5518],[136.5754,36.548],[136.5921,36.5446]]]}},{"type":"Feature","properties":{"id":17008},"geometry":{"type":"Polygon","coordinates":[[[136.4682,36.4762],[136.478,36.4661],[136.4843,36.4608],[136.4918,36.4571],[136.4987,36.455],[136.5072,36.4546],[136.5154,36.4576],[136.5183,36.4616],[136.5197,36.4682],[136.5108,36.4715],[136.4961,36.475],[136.4859,36.476],[136.4682,36.4762]]]}},{"type":"Feature","properties":{"id":17009},"geometry":{"type":"Polygon","coordinates":[[[136.5476,36.1509],[136.559,36.1768],[136.5656,36.1882],[136.5771,36.1997],[136.6026,36.2171],[136.6063,36.2219],[136.6093,36.2308],[136.6101,36.2401],[136.6078,36.2522],[136.6044,36.2572],[136.5998,36.2608],[136.5939,36.2634],[136.5777,36.2674],[136.5573,36.2741],[136.5527,36.2781],[136.5499,36.286],[136.5505,36.2975],[136.5537,36.3057],[136.5629,36.3188],[136.5758,36.3335],[136.5788,36.339],[136.5815,36.3511],[136.5834,36.3809],[136.537,36.3966],[136.5118,36.4108],[136.4879,36.4195],[136.4587,36.4362],[136.4357,36.4293],[136.4249,36.4283],[136.3933,36.4004],[136.3901,36.3986],[136.3768,36.3873],[136.361,36.3761],[136.3692,36.3631],[136.3755,36.347],[136.3783,36.342],[136.3841,36.3358],[136.3946,36.3282],[136.3995,36.3221],[136.401,36.3178],[136.4008,36.3068],[136.4026,36.2975],[136.409,36.2782],[136.4135,36.2704],[136.4208,36.262],[136.4262,36.2569],[136.4353,36.2525],[136.4528,36.2471],[136.4597,36.2423],[136.4646,36.236],[136.4818,36.2008],[136.4917,36.1762],[136.4941,36.1669],[136.4953,36.1532],[136.5,36.1466],[136.5155,36.1439],[136.5249,36.148],[136.5356,36.1446],[136.5441,36.1505],[136.5476,36.1509]]]}},{"type":"Feature","properties":{"id":17010},"geometry":{"type":"Polygon","coordinates":[[[136.8831,36.9006],[136.8885,36.9106],[136.8981,36.9194],[136.9177,36.9275],[136.9254,36.9345],[136.9303,36.9439],[136.9522,36.9525],[136.9735,36.9446],[136.9845,36.9488],[136.9889,36.9631],[136.9995,36.9637],[136.9664,36.9796],[136.9508,36.9883],[136.9352,36.9954],[136.9135,37.0073],[136.9059,37.0107],[136.8939,37.0135],[136.8734,37.0156],[136.8536,37.0188],[136.8542,37.0019],[136.8511,36.9714],[136.8487,36.9549],[136.8498,36.9457],[136.8524,36.9358],[136.865,36.9292],[136.8721,36.9224],[136.8784,36.9125],[136.8831,36.9006]]]}},{"type":"Feature","properties":{"id":17011},"geometry":{"type":"MultiPolygon","coordinates":[[[[136.8838,37.1629],[136.8647,37.1798],[136.8495,37.1972],[136.834,37.2095],[136.8253,37.2003],[136.8197,37.1932],[136.8002,37.1632],[136.7926,37.1498],[136.7903,37.1445],[136.7884,37.1357],[136.7872,37.1237],[136.787,37.1117],[136.7891,37.1008],[136.7951,37.0903],[136.8015,37.0854],[136.8284,37.0727],[136.8366,37.0666],[136.8462,37.055],[136.8507,37.045],[136.8536,37.0188],[136.8734,37.0156],[136.8939,37.0135],[136.9059,37.0107],[136.9135,37.0073],[136.9352,36.9954],[136.9508,36.9883],[136.9664,36.9796],[136.9995,36.9637],[137.013,36.9589],[137.0345,36.9617],[137.0446,36.9623],[137.0521,36.959],[137.0562,36.9628],[137.0572,36.9674],[137.0508,36.9758],[137.0513,36.9812],[137.0492,36.9863],[137.0528,36.9903],[137.0538,36.9945],[137.0487,37.0015],[137.0468,37.0102],[137.051,37.0186],[137.0504,37.0257],[137.0476,37.03],[137.0475,37.0442],[137.0489,37.0472],[137.0507,37.0606],[137.0541,37.0693],[137.0544,37.0761],[137.0514,37.0811],[137.0511,37.0886],[137.0529,37.0946],[137.0501,37.0975],[137.05,37.1011],[137.0571,37.1035],[137.0505,37.108],[137.042,37.1075],[137.0344,37.104],[137.0313,37.107],[137.0273,37.1032],[137.0212,37.1009],[137.0194,37.0962],[137.0155,37.0941],[137.0103,37.0808],[137.0113,37.0733],[137.004,37.0723],[137.0011,37.0665],[137.0053,37.0633],[137.0058,37.0603],[136.9989,37.0575],[136.9969,37.0606],[136.9915,37.0579],[136.9903,37.0522],[136.9849,37.049],[136.9795,37.0527],[136.9766,37.0527],[136.973,37.0467],[136.9676,37.0516],[136.9568,37.0567],[136.9605,37.0614],[136.9624,37.0673],[136.9537,37.0686],[136.9425,37.0675],[136.9373,37.0708],[136.9369,37.0791],[136.9438,37.0833],[136.9387,37.0864],[136.9262,37.0876],[136.9192,37.0895],[136.9161,37.0917],[136.9076,37.0893],[136.9039,37.0822],[136.9058,37.0794],[136.9013,37.0737],[136.8954,37.072],[136.8906,37.0738],[136.8877,37.0684],[136.8833,37.0681],[136.8744,37.0702],[136.8675,37.074],[136.8612,37.0709],[136.8592,37.0786],[136.8655,37.0852],[136.8713,37.0865],[136.8664,37.0974],[136.8682,37.1008],[136.8662,37.1058],[136.8667,37.1102],[136.8745,37.1135],[136.8803,37.1095],[136.8837,37.1144],[136.8882,37.1113],[136.893,37.1116],[136.8936,37.1187],[136.8969,37.1283],[136.9012,37.1357],[136.895,37.138],[136.8916,37.1436],[136.8869,37.144],[136.8821,37.1401],[136.8756,37.1404],[136.8765,37.1459],[136.8789,37.1497],[136.8838,37.1629]]],[[[137.0404,37.168],[137.0333,37.1672],[137.0257,37.1587],[137.0226,37.1506],[137.0231,37.1446],[137.021,37.1426],[137.0164,37.1444],[137.0139,37.1412],[137.0089,37.1426],[137.0059,37.1357],[137.0023,37.1353],[137.0004,37.1389],[136.9924,37.1398],[136.9897,37.1426],[136.9875,37.1504],[136.9838,37.1513],[136.9788,37.147],[136.9733,37.153],[136.968,37.1549],[136.9671,37.1481],[136.9636,37.1469],[136.9613,37.1428],[136.9518,37.1437],[136.9489,37.1387],[136.9453,37.1409],[136.946,37.1439],[136.9412,37.1463],[136.9384,37.1437],[136.9395,37.1403],[136.9309,37.1375],[136.9286,37.1322],[136.9234,37.1311],[136.9237,37.1406],[136.9269,37.1444],[136.9164,37.1503],[136.9161,37.1533],[136.9078,37.1509],[136.9021,37.1517],[136.9041,37.1441],[136.903,37.1401],[136.9065,37.1386],[136.9065,37.1335],[136.9136,37.1335],[136.9177,37.131],[136.9207,37.1242],[136.9287,37.1229],[136.9341,37.12],[136.9346,37.1172],[136.9398,37.1151],[136.9404,37.1109],[136.9458,37.1014],[136.9465,37.0943],[136.9583,37.102],[136.9658,37.1041],[136.97,37.0975],[136.976,37.097],[136.981,37.1071],[136.9964,37.1189],[137.0047,37.1114],[137.0076,37.1152],[137.0141,37.1117],[137.0232,37.1114],[137.0262,37.1157],[137.0424,37.1176],[137.051,37.123],[137.0503,37.131],[137.0457,37.1314],[137.0412,37.1389],[137.0445,37.1451],[137.054,37.151],[137.0498,37.1538],[137.0508,37.1575],[137.0453,37.1604],[137.0446,37.1637],[137.0404,37.168]]]]}},{"type":"Feature","properties":{"id":17012},"geometry":{"type":"Polygon","coordinates":[[[136.5197,36.4682],[136.5183,36.4616],[136.5154,36.4576],[136.5072,36.4546],[136.4987,36.455],[136.4918,36.4571],[136.4843,36.4608],[136.478,36.4661],[136.4682,36.4762],[136.4687,36.477],[136.4549,36.4593],[136.4417,36.4442],[136.4372,36.4409],[136.4249,36.4283],[136.4357,36.4293],[136.4587,36.4362],[136.4879,36.4195],[136.5118,36.4108],[136.537,36.3966],[136.5834,36.3809],[136.6078,36.3938],[136.6158,36.4001],[136.6198,36.4052],[136.6225,36.4133],[136.6225,36.4216],[136.6203,36.4296],[136.6152,36.4388],[136.6079,36.4465],[136.596,36.4557],[136.5863,36.4618],[136.5755,36.4664],[136.5519,36.4726],[136.5413,36.4739],[136.5305,36.4726],[136.5197,36.4682]]]}},{"type":"Feature","properties":{"id":17013},"geometry":{"type":"Polygon","coordinates":[[[136.6138,36.4971],[136.6164,36.5047],[136.6171,36.5136],[136.6159,36.5227],[136.6137,36.5285],[136.6101,36.534],[136.6003,36.5413],[136.5921,36.5446],[136.5875,36.5323],[136.5861,36.526],[136.5859,36.517],[136.588,36.5086],[136.5913,36.5036],[136.5969,36.4998],[136.6035,36.498],[136.6138,36.4971]]]}},{"type":"Feature","properties":{"id":17014},"geometry":{"type":"Polygon","coordinates":[[[137.086,37.2488],[137.0879,37.2539],[137.094,37.256],[137.0915,37.2588],[137.0941,37.2637],[137.0968,37.2758],[137.1008,37.2793],[137.1072,37.2803],[137.118,37.2885],[137.1203,37.2881],[137.1373,37.294],[137.1439,37.2985],[137.1498,37.2959],[137.1574,37.2999],[137.1682,37.3025],[137.1711,37.2993],[137.1771,37.301],[137.1845,37.2987],[137.19,37.301],[137.1931,37.2984],[137.1976,37.2978],[137.2045,37.301],[137.2089,37.2998],[137.211,37.296],[137.2146,37.297],[137.2216,37.2932],[137.2304,37.2966],[137.2332,37.2959],[137.2345,37.3093],[137.2391,37.3063],[137.2406,37.3032],[137.2467,37.307],[137.2491,37.3101],[137.2504,37.3164],[137.2596,37.3217],[137.2651,37.3265],[137.2618,37.3301],[137.2679,37.3357],[137.2661,37.3404],[137.2548,37.3382],[137.254,37.3429],[137.2619,37.3452],[137.2629,37.3501],[137.268,37.3543],[137.2659,37.358],[137.2564,37.3537],[137.2493,37.354],[137.2435,37.362],[137.2443,37.3696],[137.2403,37.3711],[137.2388,37.3757],[137.2261,37.3705],[137.188,37.3579],[137.1771,37.3558],[137.1686,37.3562],[137.1633,37.3583],[137.1578,37.3636],[137.154,37.3699],[137.1464,37.3861],[137.1438,37.4011],[137.1262,37.4001],[137.1194,37.3971],[137.1106,37.3901],[137.1021,37.388],[137.0958,37.3882],[137.0797,37.3903],[137.0624,37.3881],[137.0487,37.3887],[137.0286,37.3927],[137.0183,37.3934],[137.0059,37.391],[136.9913,37.3842],[136.9857,37.3786],[136.9823,37.3709],[136.9815,37.3205],[136.9831,37.3127],[136.9908,37.2989],[136.9971,37.2956],[137.0023,37.2904],[137.0048,37.2855],[137.0135,37.2632],[137.0196,37.2561],[137.028,37.2506],[137.0347,37.2485],[137.0485,37.248],[137.067,37.2507],[137.0781,37.2503],[137.086,37.2488]]]}},{"type":"Feature","properties":{"id":17015},"geometry":{"type":"Polygon","coordinates":[[[136.834,37.2095],[136.818,37.2264],[136.8035,37.2306],[136.7918,37.2172],[136.7781,37.2059],[136.7635,37.1984],[136.7537,37.1964],[136.7433,37.1973],[136.7267,37.2034],[136.7155,37.2092],[136.6942,37.224],[136.6953,37.2183],[136.69,37.2175],[136.6853,37.2114],[136.6794,37.2067],[136.6817,37.2012],[136.6806,37.1979],[136.6814,37.1917],[136.6768,37.1893],[136.6755,37.1825],[136.677,37.1755],[136.6743,37.1704],[136.6763,37.1659],[136.6739,37.1559],[136.6706,37.1506],[136.6699,37.1467],[136.6741,37.1391],[136.6783,37.1377],[136.6855,37.1404],[136.6879,37.1362],[136.6965,37.1396],[136.7003,37.1478],[136.7035,37.1497],[136.7094,37.1491],[136.7167,37.1464],[136.7269,37.1358],[136.7269,37.1251],[136.7256,37.1167],[136.726,37.1113],[136.7296,37.0977],[136.7225,37.0886],[136.7222,37.0814],[136.719,37.0804],[136.7176,37.0762],[136.7188,37.0712],[136.7222,37.066],[136.7223,37.057],[136.7236,37.0529],[136.7276,37.0496],[136.7346,37.0471],[136.7331,37.0415],[136.7369,37.0408],[136.7401,37.0323],[136.7465,37.0289],[136.743,37.023],[136.7438,37.0117],[136.7513,37.0107],[136.7526,37.0065],[136.7576,37.0066],[136.7689,37.0009],[136.7702,36.9923],[136.7661,36.9868],[136.7709,36.9827],[136.771,36.9767],[136.7682,36.9605],[136.787,36.9511],[136.8025,36.9451],[136.8201,36.9406],[136.8524,36.9358],[136.8498,36.9457],[136.8487,36.9549],[136.8511,36.9714],[136.8542,37.0019],[136.8536,37.0188],[136.8507,37.045],[136.8462,37.055],[136.8366,37.0666],[136.8284,37.0727],[136.8015,37.0854],[136.7951,37.0903],[136.7891,37.1008],[136.787,37.1117],[136.7872,37.1237],[136.7884,37.1357],[136.7903,37.1445],[136.7926,37.1498],[136.8002,37.1632],[136.8197,37.1932],[136.8253,37.2003],[136.834,37.2095]]]}},{"type":"Feature","properties":{"id":17016},"geometry":{"type":"Polygon","coordinates":[[[137.2388,37.3757],[137.2372,37.3877],[137.2384,37.3912],[137.2444,37.3968],[137.244,37.4091],[137.2471,37.4135],[137.2521,37.4261],[137.259,37.432],[137.2626,37.4318],[137.2679,37.4369],[137.2748,37.4396],[137.2857,37.4421],[137.2993,37.4427],[137.3114,37.4367],[137.3189,37.439],[137.3298,37.4389],[137.3376,37.44],[137.3522,37.444],[137.3603,37.4502],[137.3601,37.458],[137.3568,37.4614],[137.358,37.4651],[137.3447,37.4753],[137.3398,37.483],[137.343,37.4896],[137.3432,37.4929],[137.3497,37.4971],[137.3516,37.5024],[137.3436,37.5108],[137.346,37.5146],[137.3422,37.5173],[137.3389,37.5164],[137.3309,37.5184],[137.3271,37.5214],[137.3264,37.5252],[137.3285,37.5288],[137.3252,37.5302],[137.3157,37.5272],[137.3098,37.5266],[137.3077,37.5283],[137.3,37.5264],[137.2881,37.5294],[137.2833,37.5273],[137.2769,37.53],[137.2761,37.5344],[137.2669,37.5284],[137.2648,37.5305],[137.2563,37.5286],[137.2552,37.5266],[137.246,37.5236],[137.2452,37.5195],[137.2368,37.5213],[137.2341,37.5169],[137.2272,37.518],[137.2185,37.5138],[137.2194,37.5109],[137.2091,37.5057],[137.2017,37.508],[137.1812,37.4999],[137.1703,37.5032],[137.1609,37.5023],[137.1519,37.4993],[137.1443,37.4988],[137.1308,37.4933],[137.1253,37.4929],[137.117,37.487],[137.1116,37.4876],[137.1075,37.4846],[137.1058,37.4804],[137.0951,37.4773],[137.0909,37.4752],[137.0922,37.4722],[137.1171,37.4639],[137.1257,37.4606],[137.1346,37.4551],[137.1477,37.4443],[137.1628,37.4366],[137.1679,37.4313],[137.1686,37.4245],[137.1661,37.4196],[137.1598,37.4132],[137.1438,37.4011],[137.1464,37.3861],[137.154,37.3699],[137.1578,37.3636],[137.1633,37.3583],[137.1686,37.3562],[137.1771,37.3558],[137.188,37.3579],[137.2261,37.3705],[137.2388,37.3757]]]}},{"type":"Feature","properties":{"id":17017},"geometry":{"type":"Polygon","coordinates":[[[136.8223,36.751],[136.8027,36.7455],[136.7807,36.7434],[136.7748,36.7414],[136.771,36.7376],[136.7607,36.7184],[136.7453,36.7038],[136.7403,36.7009],[136.7221,36.6933],[136.7026,36.6827],[136.703,36.6648],[136.7046,36.6494],[136.7424,36.6351],[136.7603,36.6291],[136.7875,36.6178],[136.7937,36.6277],[136.8032,36.6339],[136.8076,36.6441],[136.8128,36.6531],[136.8262,36.6693],[136.8229,36.6811],[136.8145,36.6879],[136.8161,36.6999],[136.7973,36.7109],[136.7964,36.7211],[136.8116,36.727],[136.8227,36.7279],[136.8259,36.7379],[136.8389,36.7413],[136.8505,36.7543],[136.8521,36.771],[136.8371,36.7684],[136.8324,36.7666],[136.8278,36.7618],[136.8223,36.751]]]}},{"type":"Feature","properties":{"id":17018},"geometry":{"type":"Polygon","coordinates":[[[136.6667,36.6967],[136.6615,36.6906],[136.6452,36.6676],[136.6421,36.6644],[136.6268,36.6457],[136.6164,36.6376],[136.6128,36.6395],[136.6039,36.6288],[136.6083,36.6252],[136.6157,36.626],[136.6235,36.6283],[136.6335,36.6367],[136.6451,36.6529],[136.6564,36.6525],[136.6566,36.6608],[136.6799,36.6924],[136.6667,36.6967]]]}},{"type":"Feature","properties":{"id":17019},"geometry":{"type":"MultiPolygon","coordinates":[[[[136.8035,37.2306],[136.8056,37.2366],[136.809,37.2418],[136.8168,37.2467],[136.8271,37.2469],[136.8377,37.2417],[136.8489,37.2482],[136.8617,37.2597],[136.8729,37.2683],[136.8854,37.2754],[136.8992,37.2786],[136.9239,37.2796],[136.9341,37.281],[136.9538,37.2875],[136.9681,37.293],[136.9908,37.2989],[136.9831,37.3127],[136.9815,37.3205],[136.9823,37.3709],[136.9857,37.3786],[136.9913,37.3842],[137.0059,37.391],[137.0183,37.3934],[137.0286,37.3927],[137.0487,37.3887],[137.0624,37.3881],[137.0797,37.3903],[137.0958,37.3882],[137.1021,37.388],[137.1106,37.3901],[137.1194,37.3971],[137.1262,37.4001],[137.1438,37.4011],[137.1598,37.4132],[137.1661,37.4196],[137.1686,37.4245],[137.1679,37.4313],[137.1628,37.4366],[137.1477,37.4443],[137.1346,37.4551],[137.1257,37.4606],[137.1171,37.4639],[137.0922,37.4722],[137.0896,37.4719],[137.0855,37.4661],[137.0805,37.4618],[137.0737,37.4585],[137.0734,37.4557],[137.0658,37.4516],[137.0557,37.449],[137.0496,37.449],[137.0441,37.4427],[137.0295,37.4328],[137.0243,37.432],[137.0196,37.4333],[137.0132,37.4315],[137.0019,37.4269],[136.9859,37.4215],[136.9783,37.4181],[136.9733,37.4133],[136.9667,37.4136],[136.9547,37.4092],[136.9478,37.4047],[136.9442,37.4039],[136.9261,37.3958],[136.9114,37.395],[136.9064,37.3958],[136.896,37.403],[136.8921,37.401],[136.882,37.4037],[136.8796,37.4059],[136.8686,37.4068],[136.8589,37.4021],[136.8528,37.4031],[136.8458,37.4002],[136.8424,37.4002],[136.8381,37.3972],[136.8329,37.3915],[136.8259,37.3878],[136.8128,37.3869],[136.8091,37.3824],[136.8058,37.382],[136.8026,37.3772],[136.7957,37.3772],[136.7833,37.3722],[136.7831,37.3689],[136.7778,37.3701],[136.7755,37.367],[136.7561,37.364],[136.7542,37.3583],[136.7513,37.3553],[136.7569,37.3525],[136.7542,37.3466],[136.7456,37.3425],[136.7413,37.3473],[136.7374,37.3441],[136.7393,37.3409],[136.7239,37.3277],[136.7209,37.321],[136.7241,37.318],[136.725,37.3101],[136.7275,37.3058],[136.7253,37.2959],[136.7336,37.2914],[136.7358,37.2858],[136.7334,37.2817],[136.733,37.2774],[136.7282,37.269],[136.7271,37.2651],[136.7215,37.2564],[136.7115,37.2477],[136.7089,37.249],[136.7042,37.246],[136.701,37.2419],[136.7002,37.2372],[136.7046,37.2319],[136.7041,37.2269],[136.7014,37.2233],[136.6942,37.224],[136.7155,37.2092],[136.7267,37.2034],[136.7433,37.1973],[136.7537,37.1964],[136.7635,37.1984],[136.7781,37.2059],[136.7918,37.2172],[136.8035,37.2306]]],[[[136.9019,37.6122],[136.8944,37.6117],[136.895,37.6092],[136.9019,37.6083],[136.9019,37.6122]]],[[[136.9225,37.8556],[136.9156,37.8533],[136.9097,37.8494],[136.9128,37.8464],[136.9247,37.8494],[136.9275,37.8531],[136.9225,37.8556]]]]}}]}