{"type":"FeatureCollection","features":[{"type":"Feature","properties":{"id":18001},"geometry":{"type":"Polygon","coordinates":[[[136.2441,36.2946],[136.2326,36.2852],[136.2113,36.2721],[136.2056,36.2699],[136.1957,36.264],[136.1807,36.2562],[136.171,36.2519],[136.1799,36.253],[136.1851,36.2514],[136.1978,36.2453],[136.2001,36.2423],[136.1969,36.2355],[136.1879,36.2256],[136.176,36.2188],[136.1736,36.2159],[136.1718,36.2059],[136.1787,36.1988],[136.194,36.1875],[136.1975,36.1867],[136.2042,36.1916],[136.2109,36.1948],[136.222,36.1963],[136.2276,36.1953],[136.2342,36.1908],[136.2397,36.1855],[136.2464,36.1811],[136.2632,36.1788],[136.2798,36.1732],[136.2856,36.1739],[136.2919,36.1778],[136.3005,36.1802],[136.3113,36.1875],[136.3244,36.205],[136.3289,36.2071],[136.3314,36.2042],[136.3344,36.2145],[136.3294,36.2291],[136.3192,36.2329],[136.3147,36.2433],[136.3049,36.2544],[136.2845,36.2615],[136.2734,36.2627],[136.2652,36.2691],[136.2592,36.277],[136.2441,36.2946]]]}},{"type":"Feature","properties":{"id":18002},"geometry":{"type":"Polygon","coordinates":[[[136.1351,35.9324],[136.1274,35.9378],[136.1268,35.9436],[136.1335,35.949],[136.1393,35.956],[136.141,35.9622],[136.1446,35.9686],[136.1572,35.9843],[136.1562,35.9897],[136.1423,35.9903],[136.1355,35.994],[136.1239,36.0058],[136.1204,36.007],[136.1089,36.0074],[136.1003,36.0091],[136.0858,36.016],[136.0794,36.0217],[136.0646,36.0235],[136.0591,36.0209],[136.057,36.0062],[136.0531,36.0013],[136.0423,35.998],[136.0326,35.9989],[136.0236,36.0041],[136.0207,36.0109],[136.0165,36.011],[136.0099,35.9993],[136.0038,35.9919],[135.998,35.9883],[135.9847,35.9853],[135.9742,35.9897],[135.9658,35.9918],[135.9614,35.9902],[135.9626,35.9863],[135.9582,35.9828],[135.9608,35.9788],[135.9589,35.977],[135.9624,35.9709],[135.9669,35.9696],[135.9681,35.9654],[135.9748,35.9583],[135.9838,35.952],[135.9864,35.9477],[135.9862,35.9437],[135.9923,35.9405],[135.9956,35.9349],[135.9981,35.9335],[135.998,35.9271],[135.9951,35.9124],[135.9979,35.9039],[135.9948,35.8981],[135.9963,35.8906],[135.9943,35.8878],[135.9976,35.884],[136.0174,35.8673],[136.0222,35.8754],[136.0237,35.8793],[136.025,35.8893],[136.0289,35.8942],[136.0423,35.8981],[136.047,35.9083],[136.0497,35.9113],[136.0618,35.9172],[136.0766,35.9173],[136.0832,35.918],[136.0883,35.9169],[136.0989,35.9118],[136.1108,35.9113],[136.1219,35.913],[136.1324,35.9184],[136.134,35.9211],[136.1351,35.9324]]]}},{"type":"Feature","properties":{"id":18003},"geometry":{"type":"Polygon","coordinates":[[[136.0222,35.8754],[136.0358,35.8702],[136.0426,35.8658],[136.0485,35.8601],[136.0563,35.8545],[136.0638,35.8469],[136.0726,35.8446],[136.1172,35.8408],[136.1238,35.8389],[136.1307,35.8321],[136.1315,35.8236],[136.1347,35.8151],[136.1389,35.8104],[136.145,35.8085],[136.1524,35.8136],[136.1582,35.8206],[136.1603,35.8279],[136.1631,35.8312],[136.1727,35.8377],[136.1767,35.8433],[136.1824,35.8491],[136.1924,35.8539],[136.2013,35.8557],[136.2095,35.856],[136.2244,35.8538],[136.2338,35.8507],[136.2479,35.8433],[136.2607,35.8356],[136.2807,35.8583],[136.2964,35.8639],[136.3025,35.87],[136.3054,35.8749],[136.3092,35.885],[136.3105,35.8908],[136.3164,35.9049],[136.3176,35.9106],[136.3217,35.9158],[136.33,35.9184],[136.3376,35.9274],[136.3184,35.9346],[136.3067,35.9406],[136.3022,35.9414],[136.2699,35.9386],[136.2573,35.9451],[136.2515,35.9449],[136.2431,35.9426],[136.2357,35.9359],[136.2277,35.9308],[136.2157,35.9278],[136.1991,35.9262],[136.1866,35.9272],[136.1691,35.9338],[136.1593,35.9327],[136.1351,35.9324],[136.134,35.9211],[136.1324,35.9184],[136.1219,35.913],[136.1108,35.9113],[136.0989,35.9118],[136.0883,35.9169],[136.0832,35.918],[136.0766,35.9173],[136.0618,35.9172],[136.0497,35.9113],[136.047,35.9083],[136.0423,35.8981],[136.0289,35.8942],[136.025,35.8893],[136.0237,35.8793],[136.0222,35.8754]]]}},{"type":"Feature","properties":{"id":18004},"geometry":{"type":"Polygon","coordinates":[[[136.4333,36.0386],[136.4359,36.0451],[136.44,36.0651],[136.4398,36.0697],[136.4338,36.0751],[136.4205,36.0799],[136.4155,36.0809],[136.3984,36.0827],[136.3847,36.0876],[136.3842,36.0905],[136.391,36.0934],[136.3962,36.0969],[136.3983,36.1003],[136.398,36.1091],[136.3922,36.119],[136.3773,36.1255],[136.3696,36.1263],[136.3629,36.1246],[136.3514,36.1174],[136.342,36.1054],[136.3374,36.1036],[136.3048,36.1067],[136.2903,36.1122],[136.2779,36.1184],[136.274,36.1174],[136.2717,36.1005],[136.2888,36.0918],[136.2934,36.0827],[136.2941,36.0655],[136.2978,36.055],[136.3023,36.0479],[136.3105,36.0433],[136.3171,36.0428],[136.3232,36.0477],[136.3281,36.049],[136.339,36.0499],[136.3514,36.038],[136.3609,36.033],[136.3662,36.0321],[136.3735,36.0341],[136.3783,36.0427],[136.3815,36.0443],[136.3897,36.0456],[136.4074,36.0415],[136.4333,36.0386]]]}},{"type":"Feature","properties":{"id":18005},"geometry":{"type":"Polygon","coordinates":[[[136.1562,35.9897],[136.1603,35.9915],[136.172,35.9908],[136.1765,35.9915],[136.1856,35.9888],[136.2006,35.9833],[136.205,35.978],[136.2069,35.9727],[136.2113,35.9729],[136.2158,35.978],[136.2258,35.9848],[136.2293,35.9849],[136.2374,35.9811],[136.2465,35.978],[136.2647,35.976],[136.2757,35.9735],[136.2927,35.9714],[136.3054,35.9652],[136.317,35.9617],[136.3206,35.9589],[136.3256,35.9498],[136.3283,35.9474],[136.3377,35.9458],[136.3398,35.9414],[136.3376,35.9274],[136.3487,35.9268],[136.3532,35.9296],[136.3606,35.9396],[136.3633,35.9414],[136.3738,35.9445],[136.3926,35.949],[136.4095,35.9402],[136.415,35.9388],[136.4279,35.9338],[136.4423,35.9258],[136.4461,35.9244],[136.4545,35.9162],[136.4597,35.9125],[136.4597,35.9264],[136.4662,35.9326],[136.466,35.9417],[136.4592,35.9548],[136.4556,35.9766],[136.4596,35.9852],[136.46,35.9903],[136.4532,36.0113],[136.4494,36.0223],[136.4333,36.0386],[136.4074,36.0415],[136.3897,36.0456],[136.3815,36.0443],[136.3783,36.0427],[136.3735,36.0341],[136.3662,36.0321],[136.3609,36.033],[136.3514,36.038],[136.339,36.0499],[136.3281,36.049],[136.3232,36.0477],[136.3171,36.0428],[136.3105,36.0433],[136.3023,36.0479],[136.2978,36.055],[136.2941,36.0655],[136.2934,36.0827],[136.2888,36.0918],[136.2717,36.1005],[136.2644,36.1055],[136.2487,36.1148],[136.2405,36.117],[136.2142,36.1195],[136.1976,36.1242],[136.1912,36.1268],[136.1864,36.1305],[136.1738,36.1445],[136.1673,36.1551],[136.1606,36.162],[136.1477,36.1711],[136.1387,36.1741],[136.1317,36.1752],[136.1223,36.1789],[136.114,36.1798],[136.111,36.1735],[136.1089,36.174],[136.1141,36.1825],[136.1181,36.191],[136.1133,36.1921],[136.1031,36.1775],[136.0928,36.1637],[136.0911,36.1595],[136.0957,36.1579],[136.0945,36.1536],[136.0902,36.1492],[136.0818,36.1429],[136.0717,36.1339],[136.0611,36.1304],[136.0541,36.1269],[136.0542,36.1221],[136.05,36.1182],[136.0475,36.1123],[136.0483,36.1097],[136.0426,36.1056],[136.0382,36.1045],[136.0336,36.1006],[136.0291,36.0943],[136.0311,36.0914],[136.0244,36.0748],[136.0257,36.0722],[136.0204,36.0703],[136.0189,36.0645],[136.0207,36.0621],[136.0152,36.0512],[136.0121,36.0475],[136.0111,36.0426],[136.0122,36.035],[136.0033,36.0283],[136,36.0233],[135.9929,36.0159],[135.985,36.0092],[135.9808,36.0086],[135.9783,36.0053],[135.9733,36.0056],[135.9675,35.9985],[135.9643,35.9973],[135.9658,35.9918],[135.9742,35.9897],[135.9847,35.9853],[135.998,35.9883],[136.0038,35.9919],[136.0099,35.9993],[136.0165,36.011],[136.0207,36.0109],[136.0236,36.0041],[136.0326,35.9989],[136.0423,35.998],[136.0531,36.0013],[136.057,36.0062],[136.0591,36.0209],[136.0646,36.0235],[136.0794,36.0217],[136.0858,36.016],[136.1003,36.0091],[136.1089,36.0074],[136.1204,36.007],[136.1239,36.0058],[136.1355,35.994],[136.1423,35.9903],[136.1562,35.9897]]]}},{"type":"Feature","properties":{"id":18006},"geometry":{"type":"Polygon","coordinates":[[[136.2607,35.8356],[136.2637,35.8258],[136.2683,35.8207],[136.2767,35.8189],[136.2894,35.8193],[136.2998,35.823],[136.3067,35.8224],[136.3209,35.8175],[136.3302,35.8186],[136.3467,35.8175],[136.3508,35.8125],[136.3525,35.8022],[136.3587,35.7914],[136.3644,35.7839],[136.375,35.7891],[136.385,35.791],[136.3957,35.785],[136.4073,35.7804],[136.4159,35.7794],[136.4174,35.7816],[136.4294,35.7883],[136.4319,35.7932],[136.4337,35.8082],[136.4334,35.8181],[136.4306,35.8285],[136.4318,35.8339],[136.4358,35.8382],[136.4362,35.8425],[136.4293,35.8531],[136.4299,35.8612],[136.435,35.8697],[136.4343,35.8868],[136.4369,35.8979],[136.4404,35.9045],[136.4439,35.907],[136.4573,35.9109],[136.4597,35.9125],[136.4545,35.9162],[136.4461,35.9244],[136.4423,35.9258],[136.4279,35.9338],[136.415,35.9388],[136.4095,35.9402],[136.3926,35.949],[136.3738,35.9445],[136.3633,35.9414],[136.3606,35.9396],[136.3532,35.9296],[136.3487,35.9268],[136.3376,35.9274],[136.33,35.9184],[136.3217,35.9158],[136.3176,35.9106],[136.3164,35.9049],[136.3105,35.8908],[136.3092,35.885],[136.3054,35.8749],[136.3025,35.87],[136.2964,35.8639],[136.2807,35.8583],[136.2607,35.8356]]]}},{"type":"Feature","properties":{"id":18007},"geometry":{"type":"Polygon","coordinates":[[[136.4333,36.0386],[136.4494,36.0223],[136.4532,36.0113],[136.4578,36.0128],[136.4684,36.0182],[136.4752,36.0262],[136.4798,36.028],[136.4913,36.0277],[136.4963,36.0262],[136.505,36.0205],[136.5175,36.0176],[136.5256,36.0137],[136.5311,36.0083],[136.537,36.0065],[136.5558,36.0057],[136.5636,36.0071],[136.5664,36.0095],[136.5709,36.0174],[136.5825,36.0235],[136.5905,36.0307],[136.5974,36.0383],[136.6086,36.0425],[136.6245,36.0512],[136.6285,36.0555],[136.6399,36.0627],[136.655,36.0687],[136.6608,36.0671],[136.6561,36.0833],[136.6489,36.0915],[136.638,36.0959],[136.6166,36.1072],[136.6058,36.1255],[136.5936,36.1282],[136.5842,36.1334],[136.5759,36.14],[136.5658,36.1429],[136.5548,36.1518],[136.5476,36.1509],[136.5441,36.1505],[136.5356,36.1446],[136.5249,36.148],[136.5155,36.1439],[136.5,36.1466],[136.4953,36.1532],[136.4936,36.1555],[136.4837,36.1512],[136.4745,36.1437],[136.4658,36.1344],[136.4533,36.1364],[136.442,36.1362],[136.4384,36.1342],[136.4202,36.1302],[136.4114,36.1299],[136.3987,36.1252],[136.3922,36.119],[136.398,36.1091],[136.3983,36.1003],[136.3962,36.0969],[136.391,36.0934],[136.3842,36.0905],[136.3847,36.0876],[136.3984,36.0827],[136.4155,36.0809],[136.4205,36.0799],[136.4338,36.0751],[136.4398,36.0697],[136.44,36.0651],[136.4359,36.0451],[136.4333,36.0386]]]}},{"type":"Feature","properties":{"id":18008},"geometry":{"type":"Polygon","coordinates":[[[135.9493,35.5159],[135.9543,35.5088],[135.9618,35.5012],[135.9789,35.4918],[135.9872,35.486],[136,35.4889],[136.0104,35.4902],[136.0186,35.5075],[136.0261,35.5156],[136.0337,35.5265],[136.031,35.5337],[136.0316,35.5515],[136.0339,35.5698],[136.0327,35.5752],[136.0262,35.5815],[136.013,35.5852],[136.01,35.5876],[136.0101,35.6008],[136.0124,35.62],[136.0125,35.6302],[136.0057,35.6399],[136.0044,35.6476],[136.013,35.6615],[136.0141,35.6812],[136.0132,35.6906],[136.0137,35.7041],[136.0148,35.7148],[136.0128,35.7225],[136.0062,35.7247],[135.993,35.7245],[135.9764,35.7226],[135.9644,35.7235],[135.9608,35.7269],[135.9546,35.7229],[135.9546,35.7199],[135.9596,35.716],[135.9586,35.7111],[135.9598,35.7073],[135.9573,35.7033],[135.961,35.6995],[135.9668,35.7014],[135.9615,35.7056],[135.9648,35.7102],[135.9699,35.7118],[135.9734,35.7056],[135.971,35.7038],[135.976,35.6966],[135.9774,35.6859],[135.9729,35.6767],[135.9691,35.6718],[135.9659,35.6616],[135.9634,35.6562],[135.9734,35.6557],[135.9764,35.6508],[135.9857,35.6431],[135.9865,35.6407],[135.9839,35.6337],[135.9746,35.6244],[135.9661,35.6216],[135.9613,35.6229],[135.9604,35.626],[135.9545,35.6293],[135.9546,35.6338],[135.9486,35.632],[135.9513,35.6285],[135.9453,35.6235],[135.9404,35.6148],[135.9338,35.612],[135.9235,35.6092],[135.9128,35.6094],[135.9124,35.6135],[135.9079,35.6149],[135.908,35.6241],[135.8989,35.6233],[135.8949,35.6204],[135.8962,35.6155],[135.8926,35.6116],[135.8885,35.6155],[135.8841,35.6166],[135.8783,35.6157],[135.876,35.6099],[135.8685,35.6075],[135.8654,35.6102],[135.8595,35.6108],[135.8566,35.6151],[135.8573,35.6193],[135.8602,35.6213],[135.8565,35.6245],[135.8507,35.6231],[135.8512,35.617],[135.8568,35.6072],[135.8643,35.6028],[135.8729,35.6005],[135.8898,35.592],[135.9052,35.5834],[135.922,35.5793],[135.9355,35.5741],[135.9446,35.5652],[135.9485,35.559],[135.9601,35.5363],[135.9621,35.5288],[135.9562,35.5206],[135.9493,35.5159]]]}},{"type":"Feature","properties":{"id":18009},"geometry":{"type":"Polygon","coordinates":[[[136.0222,35.8754],[136.0174,35.8673],[136.0317,35.8567],[136.0383,35.8497],[136.0414,35.8486],[136.0436,35.8436],[136.0542,35.8361],[136.0561,35.8333],[136.0653,35.8289],[136.0758,35.8151],[136.0836,35.8017],[136.0875,35.7986],[136.0914,35.7897],[136.0969,35.7836],[136.1003,35.7769],[136.0969,35.7681],[136.1003,35.7599],[136.1148,35.7629],[136.1219,35.7615],[136.1283,35.7469],[136.1339,35.7412],[136.1364,35.7327],[136.1372,35.7251],[136.1393,35.7203],[136.1515,35.7103],[136.1534,35.7065],[136.1533,35.6979],[136.1553,35.6944],[136.1643,35.6939],[136.175,35.699],[136.1872,35.7],[136.1976,35.6957],[136.2023,35.6866],[136.2121,35.6838],[136.2268,35.6782],[136.2382,35.6782],[136.247,35.6714],[136.2605,35.6679],[136.2789,35.6611],[136.292,35.6666],[136.2977,35.6774],[136.2964,35.6881],[136.3124,35.7004],[136.3192,35.71],[136.3239,35.7201],[136.329,35.729],[136.3281,35.7399],[136.3246,35.7592],[136.3296,35.7693],[136.3513,35.7767],[136.3644,35.7839],[136.3587,35.7914],[136.3525,35.8022],[136.3508,35.8125],[136.3467,35.8175],[136.3302,35.8186],[136.3209,35.8175],[136.3067,35.8224],[136.2998,35.823],[136.2894,35.8193],[136.2767,35.8189],[136.2683,35.8207],[136.2637,35.8258],[136.2607,35.8356],[136.2479,35.8433],[136.2338,35.8507],[136.2244,35.8538],[136.2095,35.856],[136.2013,35.8557],[136.1924,35.8539],[136.1824,35.8491],[136.1767,35.8433],[136.1727,35.8377],[136.1631,35.8312],[136.1603,35.8279],[136.1582,35.8206],[136.1524,35.8136],[136.145,35.8085],[136.1389,35.8104],[136.1347,35.8151],[136.1315,35.8236],[136.1307,35.8321],[136.1238,35.8389],[136.1172,35.8408],[136.0726,35.8446],[136.0638,35.8469],[136.0563,35.8545],[136.0485,35.8601],[136.0426,35.8658],[136.0358,35.8702],[136.0222,35.8754]]]}},{"type":"Feature","properties":{"id":18010},"geometry":{"type":"Polygon","coordinates":[[[135.634,35.4786],[135.6336,35.4692],[135.6358,35.4637],[135.6434,35.4563],[135.6458,35.452],[135.6452,35.4458],[135.6432,35.4429],[135.6373,35.4415],[135.6278,35.4419],[135.6111,35.4393],[135.6038,35.4363],[135.5931,35.4294],[135.5922,35.4243],[135.5996,35.4151],[135.6236,35.4195],[135.6372,35.4236],[135.6433,35.4211],[135.6495,35.4151],[135.6592,35.4122],[135.669,35.4129],[135.6875,35.4115],[135.7022,35.4083],[135.7079,35.4078],[135.7196,35.4103],[135.7376,35.4126],[135.7439,35.4118],[135.7643,35.4021],[135.7863,35.3871],[135.8016,35.3821],[135.8038,35.3818],[135.8125,35.3875],[135.8128,35.3985],[135.8153,35.4084],[135.8272,35.4114],[135.8384,35.4086],[135.8486,35.4082],[135.8554,35.3997],[135.8616,35.4135],[135.864,35.4222],[135.8645,35.4291],[135.8626,35.4329],[135.8554,35.4395],[135.8458,35.441],[135.8318,35.4462],[135.8231,35.451],[135.8099,35.4642],[135.8032,35.4805],[135.8062,35.4862],[135.819,35.4843],[135.8283,35.4801],[135.8346,35.4797],[135.8424,35.4834],[135.8435,35.4865],[135.8456,35.5056],[135.841,35.5111],[135.8434,35.5237],[135.8498,35.5323],[135.8545,35.5356],[135.8577,35.5407],[135.8398,35.5508],[135.8241,35.5572],[135.8168,35.5668],[135.8147,35.572],[135.804,35.569],[135.8044,35.565],[135.8121,35.5639],[135.8179,35.557],[135.8247,35.5525],[135.826,35.546],[135.8295,35.5448],[135.8344,35.536],[135.8277,35.5332],[135.8219,35.5336],[135.818,35.5369],[135.8156,35.5342],[135.8134,35.5278],[135.8071,35.5273],[135.8061,35.5314],[135.7964,35.5264],[135.7951,35.5306],[135.7908,35.5302],[135.7858,35.5356],[135.79,35.5401],[135.7826,35.5455],[135.78,35.5503],[135.7754,35.5494],[135.7664,35.5569],[135.764,35.5548],[135.7654,35.5506],[135.771,35.5458],[135.7584,35.5427],[135.7542,35.5457],[135.7559,35.5485],[135.7516,35.5533],[135.753,35.5583],[135.7497,35.5667],[135.7439,35.5646],[135.7417,35.5703],[135.7343,35.5711],[135.7282,35.569],[135.7144,35.5694],[135.7119,35.5647],[135.7075,35.5642],[135.7028,35.5572],[135.6908,35.5494],[135.6886,35.5447],[135.6943,35.5424],[135.6972,35.5441],[135.7028,35.5439],[135.7168,35.5403],[135.7188,35.5364],[135.7164,35.5297],[135.7169,35.5206],[135.7242,35.5214],[135.7317,35.5236],[135.7353,35.5267],[135.7359,35.5331],[135.7392,35.5358],[135.7512,35.5375],[135.7557,35.5367],[135.7623,35.5381],[135.7655,35.5351],[135.7621,35.5305],[135.7563,35.5333],[135.7512,35.5308],[135.7511,35.5214],[135.7496,35.5148],[135.7425,35.5039],[135.7364,35.5031],[135.7361,35.4997],[135.7405,35.4983],[135.7354,35.4928],[135.73,35.4953],[135.7269,35.4919],[135.7211,35.4921],[135.7189,35.4847],[135.7144,35.483],[135.7106,35.4847],[135.7079,35.4892],[135.7019,35.49],[135.7002,35.4932],[135.6916,35.4881],[135.6759,35.4872],[135.666,35.4903],[135.6642,35.4939],[135.6604,35.4919],[135.6595,35.488],[135.6541,35.4806],[135.6497,35.4788],[135.634,35.4786]]]}},{"type":"Feature","properties":{"id":18011},"geometry":{"type":"Polygon","coordinates":[[[135.634,35.4786],[135.6318,35.4786],[135.6204,35.4861],[135.6069,35.4842],[135.6021,35.4855],[135.5922,35.4715],[135.5814,35.4677],[135.5537,35.4591],[135.5427,35.4579],[135.5289,35.458],[135.5152,35.4589],[135.5101,35.4582],[135.502,35.4549],[135.4838,35.4445],[135.4918,35.4356],[135.51,35.4193],[135.5202,35.4192],[135.5306,35.4104],[135.528,35.4002],[135.5337,35.3919],[135.5298,35.3817],[135.5359,35.3756],[135.5372,35.3742],[135.5617,35.3732],[135.5824,35.3716],[135.5926,35.3651],[135.6032,35.3679],[135.6141,35.3644],[135.625,35.3664],[135.6397,35.3605],[135.6511,35.3592],[135.6609,35.3559],[135.6714,35.3535],[135.68,35.3465],[135.6914,35.3448],[135.7015,35.3418],[135.7123,35.3442],[135.7203,35.3515],[135.731,35.3492],[135.7411,35.349],[135.7493,35.3543],[135.75,35.3547],[135.771,35.3526],[135.7833,35.3709],[135.7936,35.3833],[135.8016,35.3821],[135.7863,35.3871],[135.7643,35.4021],[135.7439,35.4118],[135.7376,35.4126],[135.7196,35.4103],[135.7079,35.4078],[135.7022,35.4083],[135.6875,35.4115],[135.669,35.4129],[135.6592,35.4122],[135.6495,35.4151],[135.6433,35.4211],[135.6372,35.4236],[135.6236,35.4195],[135.5996,35.4151],[135.5922,35.4243],[135.5931,35.4294],[135.6038,35.4363],[135.6111,35.4393],[135.6278,35.4419],[135.6373,35.4415],[135.6432,35.4429],[135.6452,35.4458],[135.6458,35.452],[135.6434,35.4563],[135.6358,35.4637],[135.6336,35.4692],[135.634,35.4786]]]}},{"type":"Feature","properties":{"id":18012},"geometry":{"type":"Polygon","coordinates":[[[136.4597,35.9125],[136.4573,35.9109],[136.4439,35.907],[136.4404,35.9045],[136.4369,35.8979],[136.4343,35.8868],[136.435,35.8697],[136.4299,35.8612],[136.4293,35.8531],[136.4362,35.8425],[136.4358,35.8382],[136.4318,35.8339],[136.4306,35.8285],[136.4334,35.8181],[136.4337,35.8082],[136.4319,35.7932],[136.4294,35.7883],[136.4174,35.7816],[136.4159,35.7794],[136.4176,35.7793],[136.4344,35.7717],[136.4467,35.7709],[136.4568,35.7735],[136.4673,35.7725],[136.4775,35.7698],[136.4883,35.7723],[136.5,35.7623],[136.5036,35.7511],[136.516,35.7587],[136.5158,35.7693],[136.5231,35.7783],[136.532,35.7829],[136.541,35.7777],[136.5633,35.776],[136.5734,35.7741],[136.5831,35.7782],[136.5885,35.7869],[136.5981,35.7921],[136.6083,35.7904],[136.6242,35.7848],[136.6312,35.7925],[136.6411,35.7943],[136.6475,35.8032],[136.6553,35.7954],[136.6567,35.7854],[136.6688,35.7819],[136.6766,35.7882],[136.6878,35.7862],[136.6981,35.7885],[136.7091,35.7883],[136.7191,35.793],[136.7259,35.8021],[136.7372,35.8022],[136.7543,35.804],[136.7639,35.8073],[136.7747,35.8037],[136.7827,35.7959],[136.794,35.8011],[136.7997,35.8108],[136.8027,35.8333],[136.811,35.8399],[136.8219,35.8407],[136.8345,35.8523],[136.8331,35.8622],[136.8288,35.8715],[136.8252,35.8818],[136.8251,35.8932],[136.8192,35.9026],[136.8116,35.9097],[136.7947,35.9175],[136.7865,35.9244],[136.7924,35.9339],[136.7929,35.9445],[136.7832,35.9474],[136.7718,35.9484],[136.7621,35.9517],[136.7529,35.956],[136.7557,35.9664],[136.7554,35.978],[136.7416,35.9899],[136.7301,35.9931],[136.7344,36.009],[136.7383,36.03],[136.7387,36.041],[136.7427,36.0504],[136.7578,36.0618],[136.765,36.0645],[136.7678,36.0655],[136.7635,36.0751],[136.7571,36.0858],[136.7417,36.0773],[136.7317,36.0784],[136.7206,36.0786],[136.7098,36.0763],[136.7001,36.0706],[136.69,36.0692],[136.6803,36.0666],[136.6611,36.066],[136.6608,36.0671],[136.655,36.0687],[136.6399,36.0627],[136.6285,36.0555],[136.6245,36.0512],[136.6086,36.0425],[136.5974,36.0383],[136.5905,36.0307],[136.5825,36.0235],[136.5709,36.0174],[136.5664,36.0095],[136.5636,36.0071],[136.5558,36.0057],[136.537,36.0065],[136.5311,36.0083],[136.5256,36.0137],[136.5175,36.0176],[136.505,36.0205],[136.4963,36.0262],[136.4913,36.0277],[136.4798,36.028],[136.4752,36.0262],[136.4684,36.0182],[136.4578,36.0128],[136.4532,36.0113],[136.46,35.9903],[136.4596,35.9852],[136.4556,35.9766],[136.4592,35.9548],[136.466,35.9417],[136.4662,35.9326],[136.4597,35.9264],[136.4597,35.9125]]]}},{"type":"Feature","properties":{"id":18013},"geometry":{"type":"Polygon","coordinates":[[[136.3376,35.9274],[136.3398,35.9414],[136.3377,35.9458],[136.3283,35.9474],[136.3256,35.9498],[136.3206,35.9589],[136.317,35.9617],[136.3054,35.9652],[136.2927,35.9714],[136.2757,35.9735],[136.2647,35.976],[136.2465,35.978],[136.2374,35.9811],[136.2293,35.9849],[136.2258,35.9848],[136.2158,35.978],[136.2113,35.9729],[136.2069,35.9727],[136.205,35.978],[136.2006,35.9833],[136.1856,35.9888],[136.1765,35.9915],[136.172,35.9908],[136.1603,35.9915],[136.1562,35.9897],[136.1572,35.9843],[136.1446,35.9686],[136.141,35.9622],[136.1393,35.956],[136.1335,35.949],[136.1268,35.9436],[136.1274,35.9378],[136.1351,35.9324],[136.1593,35.9327],[136.1691,35.9338],[136.1866,35.9272],[136.1991,35.9262],[136.2157,35.9278],[136.2277,35.9308],[136.2357,35.9359],[136.2431,35.9426],[136.2515,35.9449],[136.2573,35.9451],[136.2699,35.9386],[136.3022,35.9414],[136.3067,35.9406],[136.3184,35.9346],[136.3376,35.9274]]]}},{"type":"Feature","properties":{"id":18014},"geometry":{"type":"Polygon","coordinates":[[[136.3314,36.2042],[136.3289,36.2071],[136.3244,36.205],[136.3113,36.1875],[136.3005,36.1802],[136.2919,36.1778],[136.2856,36.1739],[136.2798,36.1732],[136.2632,36.1788],[136.2464,36.1811],[136.2397,36.1855],[136.2342,36.1908],[136.2276,36.1953],[136.222,36.1963],[136.2109,36.1948],[136.2042,36.1916],[136.1975,36.1867],[136.194,36.1875],[136.1787,36.1988],[136.1718,36.2059],[136.1736,36.2159],[136.176,36.2188],[136.1879,36.2256],[136.1969,36.2355],[136.2001,36.2423],[136.1978,36.2453],[136.1851,36.2514],[136.1799,36.253],[136.171,36.2519],[136.1603,36.249],[136.1535,36.2538],[136.1486,36.2542],[136.1454,36.2515],[136.1399,36.2525],[136.1232,36.2495],[136.1308,36.2405],[136.1256,36.2382],[136.1262,36.235],[136.1325,36.2292],[136.1322,36.2242],[136.1356,36.2203],[136.132,36.2176],[136.1323,36.2148],[136.1268,36.2091],[136.1216,36.2016],[136.127,36.1984],[136.1254,36.1914],[136.1191,36.1879],[136.114,36.1798],[136.1223,36.1789],[136.1317,36.1752],[136.1387,36.1741],[136.1477,36.1711],[136.1606,36.162],[136.1673,36.1551],[136.1738,36.1445],[136.1864,36.1305],[136.1912,36.1268],[136.1976,36.1242],[136.2142,36.1195],[136.2405,36.117],[136.2487,36.1148],[136.2644,36.1055],[136.2717,36.1005],[136.274,36.1174],[136.2779,36.1184],[136.2903,36.1122],[136.3048,36.1067],[136.3374,36.1036],[136.342,36.1054],[136.3514,36.1174],[136.3629,36.1246],[136.3696,36.1263],[136.3773,36.1255],[136.3922,36.119],[136.3987,36.1252],[136.4114,36.1299],[136.4202,36.1302],[136.4384,36.1342],[136.442,36.1362],[136.4331,36.1423],[136.4263,36.1515],[136.4152,36.1566],[136.4088,36.1676],[136.3983,36.1663],[136.3745,36.1667],[136.3631,36.1625],[136.3491,36.1691],[136.3421,36.1779],[136.3393,36.189],[136.3314,36.2042]]]}},{"type":"Feature","properties":{"id":18015},"geometry":{"type":"Polygon","coordinates":[[[135.6021,35.4855],[135.5984,35.4884],[135.5924,35.4907],[135.5857,35.4909],[135.586,35.4938],[135.5926,35.4941],[135.5964,35.4922],[135.6064,35.49],[135.6201,35.4924],[135.6263,35.4899],[135.6307,35.497],[135.6368,35.5036],[135.6418,35.5067],[135.6422,35.5092],[135.6372,35.5132],[135.6419,35.5186],[135.6345,35.5185],[135.6438,35.5263],[135.6536,35.5307],[135.659,35.5307],[135.6624,35.5256],[135.666,35.5232],[135.6693,35.5252],[135.6674,35.5322],[135.6597,35.5347],[135.6617,35.5387],[135.6658,35.5416],[135.6601,35.5454],[135.6545,35.5454],[135.6517,35.5431],[135.6468,35.5431],[135.6407,35.5382],[135.632,35.5372],[135.6199,35.5267],[135.6204,35.5216],[135.6176,35.5187],[135.6086,35.5186],[135.6022,35.5144],[135.5945,35.5064],[135.5914,35.5021],[135.5832,35.4995],[135.5767,35.4995],[135.5767,35.4932],[135.5601,35.4903],[135.5551,35.4913],[135.5524,35.4952],[135.549,35.4922],[135.5462,35.4936],[135.5421,35.4906],[135.534,35.4893],[135.5159,35.4948],[135.5095,35.5017],[135.5071,35.5075],[135.5104,35.509],[135.509,35.5137],[135.5136,35.5159],[135.5169,35.5254],[135.5144,35.5359],[135.5181,35.5438],[135.5182,35.5495],[135.5056,35.5487],[135.4991,35.5533],[135.5016,35.5401],[135.5092,35.5364],[135.5028,35.5331],[135.5024,35.5249],[135.4981,35.5255],[135.4956,35.5222],[135.4922,35.523],[135.4939,35.5281],[135.4888,35.529],[135.4872,35.5225],[135.4801,35.5222],[135.478,35.5252],[135.4828,35.5308],[135.4793,35.5348],[135.4739,35.5316],[135.4723,35.534],[135.4749,35.5382],[135.4743,35.542],[135.4794,35.5436],[135.478,35.5487],[135.4833,35.5528],[135.4865,35.5572],[135.4811,35.5591],[135.4733,35.5571],[135.4689,35.5484],[135.4622,35.5397],[135.4574,35.5309],[135.4524,35.5199],[135.4604,35.513],[135.4691,35.5073],[135.4789,35.5023],[135.4777,35.4898],[135.4622,35.4706],[135.4641,35.4607],[135.4707,35.4553],[135.4838,35.4445],[135.502,35.4549],[135.5101,35.4582],[135.5152,35.4589],[135.5289,35.458],[135.5427,35.4579],[135.5537,35.4591],[135.5814,35.4677],[135.5922,35.4715],[135.6021,35.4855]]]}},{"type":"Feature","properties":{"id":18016},"geometry":{"type":"Polygon","coordinates":[[[135.9608,35.7269],[135.9644,35.7235],[135.9764,35.7226],[135.993,35.7245],[136.0062,35.7247],[136.0128,35.7225],[136.0148,35.7148],[136.0137,35.7041],[136.0132,35.6906],[136.0141,35.6812],[136.013,35.6615],[136.0044,35.6476],[136.0057,35.6399],[136.0125,35.6302],[136.0124,35.62],[136.0101,35.6008],[136.01,35.5876],[136.013,35.5852],[136.0262,35.5815],[136.0327,35.5752],[136.0339,35.5698],[136.0316,35.5515],[136.031,35.5337],[136.0337,35.5265],[136.0544,35.5308],[136.064,35.5279],[136.0739,35.5236],[136.08,35.5319],[136.0897,35.5361],[136.0988,35.5319],[136.1107,35.5486],[136.1136,35.5588],[136.1167,35.576],[136.1317,35.5722],[136.1423,35.572],[136.1524,35.5681],[136.1671,35.5643],[136.1727,35.5628],[136.1734,35.5833],[136.1796,35.5937],[136.1702,35.6139],[136.1629,35.6227],[136.1612,35.6337],[136.1557,35.6431],[136.1535,35.6538],[136.1459,35.6607],[136.1375,35.6666],[136.1431,35.6751],[136.1506,35.6839],[136.1534,35.6945],[136.1553,35.6944],[136.1533,35.6979],[136.1534,35.7065],[136.1515,35.7103],[136.1393,35.7203],[136.1372,35.7251],[136.1364,35.7327],[136.1339,35.7412],[136.1283,35.7469],[136.1219,35.7615],[136.1148,35.7629],[136.1003,35.7599],[136.1016,35.7568],[136.1006,35.7464],[136.0952,35.7407],[136.0886,35.7411],[136.0908,35.7369],[136.0975,35.7344],[136.0964,35.7297],[136.0986,35.7244],[136.0917,35.7164],[136.0919,35.7097],[136.0844,35.7069],[136.0792,35.7019],[136.0808,35.6972],[136.0817,35.6892],[136.0864,35.6861],[136.0864,35.6836],[136.0814,35.6786],[136.0747,35.6789],[136.0733,35.6608],[136.0556,35.6561],[136.047,35.6569],[136.0439,35.6597],[136.0461,35.6631],[136.0436,35.665],[136.0422,35.6706],[136.0386,35.6714],[136.0256,35.6808],[136.0258,35.6833],[136.032,35.6917],[136.0386,35.6942],[136.0447,35.6928],[136.0447,35.6975],[136.041,35.699],[136.0419,35.7033],[136.0446,35.7051],[136.0381,35.7089],[136.0401,35.7132],[136.0364,35.7175],[136.0364,35.7225],[136.0386,35.7264],[136.0333,35.7331],[136.0283,35.7367],[136.0278,35.7408],[136.0228,35.7447],[136.0253,35.7492],[136.0297,35.7442],[136.0347,35.7436],[136.0328,35.7503],[136.0261,35.7547],[136.0231,35.7606],[136.0194,35.7637],[136.0107,35.7577],[136.0088,35.7532],[136.0031,35.7505],[135.9933,35.7486],[135.9913,35.745],[135.9845,35.7397],[135.9834,35.7351],[135.9776,35.7317],[135.974,35.7348],[135.9684,35.7349],[135.9608,35.7269]]]}},{"type":"Feature","properties":{"id":18017},"geometry":{"type":"Polygon","coordinates":[[[135.8507,35.6231],[135.8464,35.6238],[135.8451,35.6287],[135.8459,35.6353],[135.8398,35.6373],[135.8362,35.6359],[135.8277,35.6388],[135.8228,35.644],[135.8154,35.6422],[135.8133,35.6387],[135.8133,35.634],[135.8161,35.6321],[135.8227,35.6369],[135.8274,35.635],[135.8228,35.6302],[135.8284,35.6241],[135.8381,35.6222],[135.8394,35.6187],[135.8299,35.6119],[135.8299,35.6074],[135.8322,35.6031],[135.8391,35.6073],[135.8452,35.6055],[135.8463,35.6008],[135.8522,35.603],[135.8556,35.6004],[135.8543,35.5936],[135.8576,35.5888],[135.8544,35.5869],[135.857,35.5817],[135.8556,35.5792],[135.8478,35.577],[135.8489,35.5709],[135.8438,35.5709],[135.8408,35.5682],[135.841,35.564],[135.8348,35.5617],[135.8282,35.564],[135.8284,35.568],[135.8239,35.5698],[135.8205,35.5736],[135.8147,35.572],[135.8168,35.5668],[135.8241,35.5572],[135.8398,35.5508],[135.8577,35.5407],[135.8545,35.5356],[135.8498,35.5323],[135.8434,35.5237],[135.841,35.5111],[135.8456,35.5056],[135.8435,35.4865],[135.8424,35.4834],[135.8346,35.4797],[135.8283,35.4801],[135.819,35.4843],[135.8062,35.4862],[135.8032,35.4805],[135.8099,35.4642],[135.8231,35.451],[135.8318,35.4462],[135.8458,35.441],[135.8554,35.4395],[135.8626,35.4329],[135.8645,35.4291],[135.864,35.4222],[135.8616,35.4135],[135.8554,35.3997],[135.8574,35.3972],[135.8663,35.3916],[135.8768,35.394],[135.895,35.4032],[135.896,35.4166],[135.904,35.4232],[135.9141,35.4271],[135.919,35.4589],[135.925,35.4822],[135.9326,35.489],[135.9409,35.5097],[135.9479,35.518],[135.9493,35.5159],[135.9562,35.5206],[135.9621,35.5288],[135.9601,35.5363],[135.9485,35.559],[135.9446,35.5652],[135.9355,35.5741],[135.922,35.5793],[135.9052,35.5834],[135.8898,35.592],[135.8729,35.6005],[135.8643,35.6028],[135.8568,35.6072],[135.8512,35.617],[135.8507,35.6231]]]}}]}