{"type":"FeatureCollection","features":[{"type":"Feature","properties":{"id":19001},"geometry":{"type":"Polygon","coordinates":[[[138.5907,35.55],[138.5845,35.557],[138.576,35.5689],[138.5673,35.5766],[138.5636,35.5839],[138.5616,35.5943],[138.556,35.6141],[138.5456,35.6142],[138.5388,35.6152],[138.5199,35.6236],[138.5146,35.6102],[138.5122,35.6021],[138.5119,35.5949],[138.5125,35.5708],[138.5207,35.5702],[138.5268,35.5712],[138.5364,35.5753],[138.5436,35.5742],[138.5479,35.5685],[138.5457,35.5528],[138.5485,35.5478],[138.5572,35.5438],[138.5646,35.5429],[138.5741,35.5437],[138.5826,35.5462],[138.5907,35.55]]]}},{"type":"Feature","properties":{"id":19002},"geometry":{"type":"Polygon","coordinates":[[[139.1151,35.5395],[139.1141,35.5414],[139.1023,35.5419],[139.0854,35.5443],[139.0647,35.5414],[139.0454,35.5411],[139.0369,35.542],[139.0274,35.5446],[139.0181,35.5365],[139.0116,35.5296],[139.0031,35.519],[138.9899,35.5159],[138.9814,35.5122],[138.9694,35.5009],[138.9601,35.4935],[138.9425,35.4844],[138.9369,35.4766],[138.9256,35.4483],[138.9427,35.4469],[138.9501,35.4509],[138.9586,35.4571],[138.9691,35.4606],[138.9796,35.463],[138.9893,35.468],[138.9996,35.4709],[139.0113,35.4713],[139.0308,35.4802],[139.0387,35.4878],[139.0475,35.4997],[139.0542,35.5072],[139.0719,35.5065],[139.0808,35.5078],[139.0905,35.5112],[139.0993,35.5195],[139.1083,35.5252],[139.1152,35.5328],[139.1151,35.5395]]]}},{"type":"Feature","properties":{"id":19003},"geometry":{"type":"Polygon","coordinates":[[[138.7958,35.5636],[138.7868,35.5739],[138.7754,35.5819],[138.7718,35.5872],[138.7709,35.5959],[138.7711,35.6039],[138.7659,35.6065],[138.7578,35.6129],[138.7485,35.6168],[138.7396,35.6272],[138.7332,35.6315],[138.7229,35.6353],[138.719,35.638],[138.7145,35.6453],[138.7101,35.6578],[138.6986,35.6558],[138.6861,35.6551],[138.6783,35.6557],[138.671,35.6596],[138.6696,35.6644],[138.671,35.6722],[138.67,35.6753],[138.6658,35.6782],[138.6479,35.6853],[138.6415,35.6893],[138.6333,35.6966],[138.6262,35.7068],[138.6175,35.6874],[138.6162,35.6811],[138.6189,35.6737],[138.6273,35.6639],[138.6299,35.6592],[138.6311,35.6512],[138.6291,35.6446],[138.6245,35.64],[138.6142,35.6348],[138.6032,35.6267],[138.5928,35.6097],[138.5913,35.6022],[138.5923,35.5948],[138.5923,35.5849],[138.5954,35.5786],[138.6,35.5761],[138.6105,35.5736],[138.617,35.5707],[138.6241,35.5625],[138.6262,35.5569],[138.626,35.5485],[138.6271,35.5425],[138.6375,35.5296],[138.6556,35.5161],[138.6679,35.5159],[138.6735,35.5176],[138.6903,35.5275],[138.7062,35.5314],[138.7147,35.5342],[138.7261,35.5404],[138.7378,35.5452],[138.7567,35.5495],[138.77,35.5535],[138.7831,35.5551],[138.7899,35.5575],[138.7958,35.5636]]]}},{"type":"Feature","properties":{"id":19004},"geometry":{"type":"Polygon","coordinates":[[[138.6454,35.3951],[138.6523,35.3964],[138.6515,35.4033],[138.6564,35.4087],[138.6629,35.4136],[138.6644,35.417],[138.6616,35.4454],[138.6599,35.458],[138.6623,35.4699],[138.6651,35.4744],[138.6741,35.4791],[138.7044,35.4873],[138.7118,35.4881],[138.7188,35.4869],[138.7232,35.4817],[138.7208,35.4702],[138.7205,35.4642],[138.722,35.4582],[138.7301,35.4503],[138.7365,35.4476],[138.7587,35.4454],[138.7611,35.4523],[138.7648,35.4582],[138.7717,35.4756],[138.7807,35.4862],[138.7836,35.4927],[138.785,35.5007],[138.7874,35.5072],[138.7935,35.5171],[138.8017,35.5266],[138.8026,35.5422],[138.8032,35.5542],[138.8011,35.5636],[138.7958,35.5636],[138.7899,35.5575],[138.7831,35.5551],[138.77,35.5535],[138.7567,35.5495],[138.7378,35.5452],[138.7261,35.5404],[138.7147,35.5342],[138.7062,35.5314],[138.6903,35.5275],[138.6735,35.5176],[138.6679,35.5159],[138.6556,35.5161],[138.6459,35.5142],[138.6309,35.5127],[138.6177,35.5106],[138.6009,35.5066],[138.6006,35.4942],[138.5967,35.4816],[138.5933,35.4759],[138.5858,35.4673],[138.5845,35.4609],[138.5847,35.449],[138.584,35.4418],[138.5912,35.4338],[138.6009,35.4284],[138.6084,35.403],[138.6145,35.3901],[138.6422,35.3951],[138.6454,35.3951]]]}},{"type":"Feature","properties":{"id":19005},"geometry":{"type":"Polygon","coordinates":[[[138.732,35.3614],[138.7334,35.3614],[138.7599,35.3679],[138.7724,35.3702],[138.7829,35.3704],[138.8061,35.3732],[138.8178,35.3731],[138.8313,35.3744],[138.8404,35.3816],[138.851,35.3857],[138.8542,35.3908],[138.8505,35.396],[138.8456,35.3984],[138.8381,35.4049],[138.835,35.4113],[138.833,35.4204],[138.827,35.4262],[138.814,35.4315],[138.8089,35.4358],[138.8076,35.4395],[138.8101,35.4476],[138.814,35.4529],[138.8172,35.4626],[138.8215,35.4658],[138.8386,35.4655],[138.8467,35.467],[138.8551,35.4701],[138.8616,35.4748],[138.869,35.483],[138.8542,35.4961],[138.8415,35.5002],[138.8367,35.5038],[138.834,35.5089],[138.8353,35.5142],[138.8385,35.5204],[138.8362,35.5245],[138.8257,35.5273],[138.8017,35.5266],[138.7935,35.5171],[138.7874,35.5072],[138.785,35.5007],[138.7836,35.4927],[138.7807,35.4862],[138.7717,35.4756],[138.7648,35.4582],[138.7611,35.4523],[138.7587,35.4454],[138.7431,35.4289],[138.7339,35.4202],[138.7305,35.415],[138.7299,35.4044],[138.7348,35.3821],[138.7349,35.3741],[138.7318,35.3614],[138.732,35.3614]]]}},{"type":"Feature","properties":{"id":19006},"geometry":{"type":"Polygon","coordinates":[[[138.2216,35.6413],[138.2335,35.632],[138.2321,35.6219],[138.238,35.6131],[138.2396,35.6027],[138.2455,35.593],[138.2425,35.5833],[138.2479,35.5673],[138.2504,35.5571],[138.2607,35.5508],[138.2631,35.541],[138.2608,35.5308],[138.2662,35.5206],[138.2695,35.5094],[138.2633,35.5],[138.262,35.4901],[138.2613,35.4776],[138.2584,35.4672],[138.25,35.4605],[138.2503,35.4462],[138.2581,35.4377],[138.2622,35.4277],[138.2615,35.4164],[138.2582,35.4025],[138.2496,35.3968],[138.2461,35.3861],[138.2386,35.3775],[138.2391,35.3669],[138.25,35.3639],[138.2543,35.3545],[138.2578,35.3446],[138.2581,35.3334],[138.2551,35.3237],[138.2599,35.3149],[138.2704,35.3113],[138.2794,35.3044],[138.2894,35.3023],[138.2974,35.3092],[138.3182,35.3198],[138.3282,35.3241],[138.3372,35.3232],[138.3405,35.328],[138.3442,35.338],[138.3484,35.3446],[138.3552,35.3476],[138.3641,35.3484],[138.377,35.3483],[138.3857,35.3496],[138.3908,35.3534],[138.3941,35.3609],[138.3972,35.3769],[138.3995,35.3817],[138.4034,35.3852],[138.4156,35.3912],[138.4206,35.3967],[138.4226,35.4019],[138.4218,35.4128],[138.4169,35.4192],[138.4044,35.4262],[138.3904,35.4389],[138.3858,35.4464],[138.3843,35.4523],[138.3842,35.4695],[138.3854,35.4774],[138.3788,35.4823],[138.3714,35.4895],[138.3664,35.496],[138.3633,35.5023],[138.3571,35.5209],[138.3558,35.5311],[138.3554,35.5459],[138.3478,35.5453],[138.3329,35.5472],[138.3275,35.5496],[138.3241,35.5552],[138.3262,35.5635],[138.3356,35.5722],[138.344,35.5829],[138.3345,35.5927],[138.3313,35.5977],[138.3303,35.6021],[138.3306,35.6141],[138.3324,35.6249],[138.3299,35.6306],[138.3245,35.6326],[138.3051,35.6353],[138.2968,35.6375],[138.2879,35.6385],[138.2675,35.6392],[138.2443,35.6443],[138.2349,35.6447],[138.2187,35.6442],[138.2216,35.6413]]]}},{"type":"Feature","properties":{"id":19007},"geometry":{"type":"Polygon","coordinates":[[[138.1983,35.7804],[138.201,35.7785],[138.2167,35.7718],[138.2258,35.7649],[138.2353,35.7604],[138.2328,35.75],[138.2263,35.7457],[138.2365,35.7322],[138.2452,35.7273],[138.2616,35.7232],[138.283,35.711],[138.3015,35.7066],[138.315,35.7075],[138.3235,35.7095],[138.3321,35.7167],[138.3415,35.7308],[138.3447,35.7375],[138.3519,35.7434],[138.3654,35.7471],[138.3699,35.7501],[138.3702,35.7578],[138.3726,35.7631],[138.3814,35.7661],[138.3907,35.7665],[138.4157,35.7665],[138.4249,35.7652],[138.431,35.762],[138.4358,35.7576],[138.441,35.7462],[138.445,35.7408],[138.4485,35.7388],[138.4544,35.7385],[138.4776,35.7486],[138.4855,35.7526],[138.4911,35.7572],[138.5067,35.7746],[138.5117,35.7823],[138.516,35.7924],[138.5194,35.798],[138.5265,35.8009],[138.5313,35.8008],[138.5415,35.7985],[138.5529,35.7948],[138.5607,35.815],[138.5674,35.8237],[138.5727,35.826],[138.5833,35.8288],[138.5899,35.8332],[138.5955,35.8398],[138.6107,35.8507],[138.6151,35.8562],[138.6239,35.8631],[138.6264,35.8673],[138.6139,35.8705],[138.6096,35.8801],[138.6081,35.8904],[138.612,35.8999],[138.5976,35.9142],[138.5875,35.9149],[138.5798,35.9084],[138.5698,35.9132],[138.5594,35.9132],[138.5485,35.9116],[138.5368,35.9121],[138.5197,35.9167],[138.5085,35.9154],[138.5054,35.9126],[138.5006,35.9083],[138.4973,35.8984],[138.4829,35.8949],[138.4726,35.8948],[138.4632,35.9004],[138.4541,35.9049],[138.4483,35.9167],[138.4515,35.9272],[138.4568,35.9367],[138.449,35.9444],[138.4392,35.9508],[138.4299,35.9547],[138.4186,35.9562],[138.4092,35.9597],[138.398,35.9623],[138.3871,35.966],[138.3764,35.9684],[138.3713,35.964],[138.3644,35.9581],[138.363,35.9477],[138.3538,35.9432],[138.3487,35.9341],[138.3458,35.9237],[138.3381,35.9167],[138.33,35.9017],[138.3143,35.8868],[138.3017,35.8706],[138.2945,35.8631],[138.2867,35.8564],[138.2761,35.8619],[138.2698,35.8701],[138.2608,35.8765],[138.25,35.8822],[138.2401,35.8771],[138.2324,35.8637],[138.2263,35.8519],[138.2154,35.8334],[138.207,35.8221],[138.2066,35.8109],[138.1989,35.8029],[138.1908,35.7959],[138.192,35.7849],[138.1983,35.7804]]]}},{"type":"Feature","properties":{"id":19008},"geometry":{"type":"Polygon","coordinates":[[[138.5125,35.5708],[138.4996,35.568],[138.4769,35.5614],[138.4745,35.5553],[138.465,35.5448],[138.4643,35.5405],[138.4665,35.534],[138.4697,35.5313],[138.4777,35.5286],[138.4823,35.525],[138.4833,35.5201],[138.4793,35.5151],[138.4724,35.5119],[138.4586,35.4997],[138.4509,35.492],[138.4529,35.4806],[138.4557,35.4763],[138.4593,35.475],[138.4666,35.4764],[138.4758,35.4809],[138.4851,35.487],[138.4938,35.496],[138.4963,35.5035],[138.5008,35.5098],[138.5092,35.5132],[138.5209,35.515],[138.5294,35.5143],[138.5374,35.5123],[138.5442,35.5092],[138.5534,35.5029],[138.5637,35.5003],[138.575,35.499],[138.6006,35.4942],[138.6009,35.5066],[138.5972,35.5136],[138.5944,35.5214],[138.5938,35.5305],[138.595,35.543],[138.5907,35.55],[138.5826,35.5462],[138.5741,35.5437],[138.5646,35.5429],[138.5572,35.5438],[138.5485,35.5478],[138.5457,35.5528],[138.5479,35.5685],[138.5436,35.5742],[138.5364,35.5753],[138.5268,35.5712],[138.5207,35.5702],[138.5125,35.5708]]]}},{"type":"Feature","properties":{"id":19009},"geometry":{"type":"Polygon","coordinates":[[[138.5067,35.7746],[138.516,35.7667],[138.5199,35.762],[138.5208,35.7541],[138.518,35.7434],[138.5165,35.7314],[138.5117,35.7236],[138.5036,35.7178],[138.4933,35.7133],[138.4871,35.7122],[138.4787,35.7128],[138.4735,35.7115],[138.4679,35.7073],[138.465,35.7016],[138.4648,35.695],[138.4673,35.6884],[138.4737,35.6786],[138.4814,35.6699],[138.4935,35.6695],[138.4977,35.6681],[138.5023,35.6616],[138.5061,35.6457],[138.5116,35.6328],[138.5199,35.6236],[138.5279,35.6289],[138.5341,35.6342],[138.5457,35.6424],[138.5408,35.6499],[138.5362,35.6624],[138.5356,35.6664],[138.5366,35.6758],[138.5361,35.6828],[138.5317,35.6929],[138.5304,35.6979],[138.5332,35.7051],[138.545,35.7124],[138.5495,35.7162],[138.5641,35.7372],[138.5627,35.7454],[138.5475,35.7554],[138.543,35.7636],[138.5427,35.7702],[138.5438,35.7766],[138.5484,35.7885],[138.5529,35.7948],[138.5415,35.7985],[138.5313,35.8008],[138.5265,35.8009],[138.5194,35.798],[138.516,35.7924],[138.5117,35.7823],[138.5067,35.7746]]]}},{"type":"Feature","properties":{"id":19010},"geometry":{"type":"Polygon","coordinates":[[[138.3854,35.4774],[138.3975,35.4832],[138.4096,35.4877],[138.4182,35.4923],[138.426,35.4939],[138.4369,35.4927],[138.4509,35.492],[138.4586,35.4997],[138.4724,35.5119],[138.4793,35.5151],[138.4833,35.5201],[138.4823,35.525],[138.4777,35.5286],[138.4697,35.5313],[138.4665,35.534],[138.4643,35.5405],[138.465,35.5448],[138.4557,35.5454],[138.4483,35.5429],[138.4442,35.5386],[138.442,35.532],[138.4402,35.5216],[138.4373,35.5181],[138.4314,35.5151],[138.4265,35.5146],[138.4182,35.5159],[138.4086,35.5186],[138.3997,35.5225],[138.394,35.5271],[138.3917,35.532],[138.3911,35.5419],[138.3883,35.5473],[138.3798,35.5507],[138.3666,35.5498],[138.3554,35.5459],[138.3558,35.5311],[138.3571,35.5209],[138.3633,35.5023],[138.3664,35.496],[138.3714,35.4895],[138.3788,35.4823],[138.3854,35.4774]]]}},{"type":"Feature","properties":{"id":19011},"geometry":{"type":"Polygon","coordinates":[[[138.6264,35.8673],[138.6239,35.8631],[138.6151,35.8562],[138.6107,35.8507],[138.5955,35.8398],[138.5899,35.8332],[138.5833,35.8288],[138.5727,35.826],[138.5674,35.8237],[138.5607,35.815],[138.5529,35.7948],[138.5484,35.7885],[138.5438,35.7766],[138.5427,35.7702],[138.543,35.7636],[138.5475,35.7554],[138.5627,35.7454],[138.5641,35.7372],[138.5495,35.7162],[138.545,35.7124],[138.5332,35.7051],[138.5304,35.6979],[138.5317,35.6929],[138.5361,35.6828],[138.5366,35.6758],[138.5356,35.6664],[138.5362,35.6624],[138.5408,35.6499],[138.5457,35.6424],[138.5517,35.6385],[138.5554,35.6329],[138.5568,35.6254],[138.556,35.6141],[138.5616,35.5943],[138.5636,35.5839],[138.5673,35.5766],[138.576,35.5689],[138.5845,35.557],[138.5907,35.55],[138.595,35.543],[138.5938,35.5305],[138.5944,35.5214],[138.5972,35.5136],[138.6009,35.5066],[138.6177,35.5106],[138.6309,35.5127],[138.6459,35.5142],[138.6556,35.5161],[138.6375,35.5296],[138.6271,35.5425],[138.626,35.5485],[138.6262,35.5569],[138.6241,35.5625],[138.617,35.5707],[138.6105,35.5736],[138.6,35.5761],[138.5954,35.5786],[138.5923,35.5849],[138.5923,35.5948],[138.5913,35.6022],[138.5928,35.6097],[138.6032,35.6267],[138.6142,35.6348],[138.6245,35.64],[138.6291,35.6446],[138.6311,35.6512],[138.6299,35.6592],[138.6273,35.6639],[138.6189,35.6737],[138.6162,35.6811],[138.6175,35.6874],[138.6262,35.7068],[138.6141,35.7133],[138.6038,35.7167],[138.5999,35.7194],[138.5968,35.7266],[138.597,35.7379],[138.6004,35.7475],[138.6093,35.7587],[138.6138,35.7655],[138.6163,35.772],[138.6181,35.7825],[138.6231,35.7902],[138.6322,35.796],[138.6346,35.8026],[138.6333,35.8125],[138.6337,35.8186],[138.6415,35.841],[138.6438,35.8515],[138.6477,35.8578],[138.657,35.8643],[138.659,35.8689],[138.6586,35.8726],[138.6475,35.8712],[138.6362,35.8673],[138.6264,35.8673]]]}},{"type":"Feature","properties":{"id":19012},"geometry":{"type":"Polygon","coordinates":[[[138.8144,35.865],[138.8045,35.8438],[138.7989,35.8362],[138.7902,35.8289],[138.7861,35.8238],[138.7856,35.819],[138.7873,35.8107],[138.7872,35.7986],[138.7844,35.7921],[138.7767,35.7864],[138.7603,35.7848],[138.7489,35.782],[138.7451,35.7792],[138.7417,35.7731],[138.7394,35.764],[138.7366,35.7576],[138.7246,35.7448],[138.7152,35.7303],[138.7081,35.7213],[138.7055,35.7144],[138.7084,35.7057],[138.7137,35.6983],[138.7154,35.691],[138.714,35.6821],[138.7088,35.675],[138.7071,35.6673],[138.7101,35.6578],[138.7145,35.6453],[138.719,35.638],[138.7229,35.6353],[138.7332,35.6315],[138.7396,35.6272],[138.7485,35.6168],[138.7578,35.6129],[138.7659,35.6065],[138.7711,35.6039],[138.7845,35.61],[138.8148,35.6224],[138.8304,35.6265],[138.8358,35.629],[138.8459,35.6383],[138.8494,35.6495],[138.8498,35.6631],[138.8507,35.6688],[138.8571,35.6791],[138.8591,35.684],[138.8594,35.6908],[138.8574,35.7003],[138.8571,35.7072],[138.8599,35.7188],[138.8636,35.7262],[138.8588,35.7323],[138.8592,35.7393],[138.8497,35.7402],[138.836,35.7434],[138.8306,35.746],[138.8234,35.7546],[138.8207,35.7612],[138.8204,35.7656],[138.8228,35.7708],[138.8311,35.7729],[138.8508,35.7725],[138.8597,35.7737],[138.8632,35.7763],[138.8663,35.7835],[138.8671,35.7927],[138.8651,35.7993],[138.8585,35.8147],[138.8584,35.824],[138.8626,35.8315],[138.8657,35.8427],[138.8712,35.8518],[138.8568,35.8621],[138.8446,35.8618],[138.8347,35.8598],[138.8237,35.8621],[138.8144,35.865]]]}},{"type":"Feature","properties":{"id":19013},"geometry":{"type":"Polygon","coordinates":[[[139.0008,35.7485],[138.9935,35.7581],[138.9914,35.7651],[138.9763,35.7647],[138.967,35.7651],[138.9537,35.7677],[138.9429,35.7718],[138.9347,35.7721],[138.9121,35.7627],[138.9038,35.7607],[138.8909,35.7591],[138.8851,35.7571],[138.8724,35.7467],[138.8592,35.7393],[138.8588,35.7323],[138.8636,35.7262],[138.8912,35.7333],[138.9003,35.7342],[138.9171,35.7341],[138.9307,35.7317],[138.9451,35.7275],[138.9617,35.7184],[138.9734,35.7092],[138.9773,35.7042],[138.9898,35.7075],[138.9986,35.7115],[139.0049,35.7162],[139.0196,35.7296],[139.0103,35.743],[139.0008,35.7485]]]}},{"type":"Feature","properties":{"id":19014},"geometry":{"type":"Polygon","coordinates":[[[138.3554,35.5459],[138.3666,35.5498],[138.3798,35.5507],[138.3883,35.5473],[138.3911,35.5419],[138.3917,35.532],[138.394,35.5271],[138.3997,35.5225],[138.4086,35.5186],[138.4182,35.5159],[138.4265,35.5146],[138.4314,35.5151],[138.4373,35.5181],[138.4402,35.5216],[138.442,35.532],[138.4442,35.5386],[138.4483,35.5429],[138.4557,35.5454],[138.465,35.5448],[138.4745,35.5553],[138.4769,35.5614],[138.4666,35.5685],[138.4558,35.573],[138.45,35.5744],[138.4339,35.5749],[138.4255,35.5772],[138.4184,35.5824],[138.4069,35.5853],[138.383,35.5869],[138.3542,35.5847],[138.344,35.5829],[138.3356,35.5722],[138.3262,35.5635],[138.3241,35.5552],[138.3275,35.5496],[138.3329,35.5472],[138.3478,35.5453],[138.3554,35.5459]]]}},{"type":"Feature","properties":{"id":19015},"geometry":{"type":"Polygon","coordinates":[[[138.2187,35.6442],[138.2349,35.6447],[138.2443,35.6443],[138.2675,35.6392],[138.2879,35.6385],[138.2968,35.6375],[138.3051,35.6353],[138.3245,35.6326],[138.3299,35.6306],[138.3324,35.6249],[138.3306,35.6141],[138.3303,35.6021],[138.3313,35.5977],[138.3345,35.5927],[138.344,35.5829],[138.3542,35.5847],[138.383,35.5869],[138.4069,35.5853],[138.4184,35.5824],[138.4255,35.5772],[138.4339,35.5749],[138.45,35.5744],[138.4558,35.573],[138.4666,35.5685],[138.4769,35.5614],[138.4996,35.568],[138.5125,35.5708],[138.5119,35.5949],[138.5122,35.6021],[138.5146,35.6102],[138.5199,35.6236],[138.5116,35.6328],[138.5061,35.6457],[138.5023,35.6616],[138.4977,35.6681],[138.4935,35.6695],[138.4814,35.6699],[138.4664,35.6643],[138.4567,35.6617],[138.4383,35.6607],[138.4273,35.6616],[138.4127,35.6658],[138.4015,35.6681],[138.3957,35.67],[138.3816,35.6771],[138.372,35.6794],[138.3638,35.6786],[138.3533,35.6739],[138.3453,35.6716],[138.3317,35.6716],[138.3239,35.6741],[138.319,35.6781],[138.3134,35.6877],[138.3081,35.6952],[138.3015,35.7066],[138.283,35.711],[138.2616,35.7232],[138.2452,35.7273],[138.2365,35.7322],[138.2263,35.7457],[138.2191,35.7409],[138.2107,35.7331],[138.1847,35.7145],[138.1875,35.7039],[138.1955,35.6957],[138.1967,35.6856],[138.1955,35.6755],[138.2004,35.6667],[138.2087,35.6607],[138.2133,35.6496],[138.2187,35.6442]]]}},{"type":"Feature","properties":{"id":19016},"geometry":{"type":"Polygon","coordinates":[[[138.584,35.4418],[138.5847,35.449],[138.5845,35.4609],[138.5858,35.4673],[138.5933,35.4759],[138.5967,35.4816],[138.6006,35.4942],[138.575,35.499],[138.5637,35.5003],[138.5534,35.5029],[138.5442,35.5092],[138.5374,35.5123],[138.5294,35.5143],[138.5209,35.515],[138.5092,35.5132],[138.5008,35.5098],[138.4963,35.5035],[138.4938,35.496],[138.4851,35.487],[138.4758,35.4809],[138.4666,35.4764],[138.4593,35.475],[138.4557,35.4763],[138.4529,35.4806],[138.4509,35.492],[138.4369,35.4927],[138.426,35.4939],[138.4182,35.4923],[138.4096,35.4877],[138.3975,35.4832],[138.3854,35.4774],[138.3842,35.4695],[138.3843,35.4523],[138.3858,35.4464],[138.3904,35.4389],[138.4044,35.4262],[138.4169,35.4192],[138.4218,35.4128],[138.4226,35.4019],[138.4206,35.3967],[138.4156,35.3912],[138.4034,35.3852],[138.3995,35.3817],[138.3972,35.3769],[138.3941,35.3609],[138.3908,35.3534],[138.3857,35.3496],[138.377,35.3483],[138.3641,35.3484],[138.3552,35.3476],[138.3484,35.3446],[138.3442,35.338],[138.3405,35.328],[138.3372,35.3232],[138.3387,35.3231],[138.3463,35.315],[138.3574,35.3132],[138.3667,35.3088],[138.3738,35.3003],[138.3735,35.2986],[138.376,35.296],[138.3866,35.2924],[138.3941,35.2922],[138.4032,35.2938],[138.4203,35.3042],[138.4331,35.3075],[138.446,35.3088],[138.4539,35.3069],[138.4679,35.3021],[138.4727,35.3018],[138.4788,35.3036],[138.483,35.3105],[138.4836,35.3269],[138.4866,35.3379],[138.4919,35.3464],[138.505,35.3589],[138.5103,35.3647],[138.5155,35.3722],[138.5297,35.3781],[138.5318,35.3764],[138.5381,35.3838],[138.5357,35.3943],[138.5352,35.4047],[138.5513,35.4167],[138.5593,35.424],[138.5662,35.4313],[138.584,35.4418]]]}},{"type":"Feature","properties":{"id":19017},"geometry":{"type":"Polygon","coordinates":[[[138.5318,35.3764],[138.5297,35.3781],[138.5155,35.3722],[138.5103,35.3647],[138.505,35.3589],[138.4919,35.3464],[138.4866,35.3379],[138.4836,35.3269],[138.483,35.3105],[138.4788,35.3036],[138.4727,35.3018],[138.4679,35.3021],[138.4539,35.3069],[138.446,35.3088],[138.4331,35.3075],[138.4203,35.3042],[138.4032,35.2938],[138.3941,35.2922],[138.3866,35.2924],[138.376,35.296],[138.3735,35.2986],[138.3708,35.2829],[138.3714,35.2717],[138.3753,35.2617],[138.3835,35.25],[138.392,35.2342],[138.3939,35.2175],[138.3973,35.2067],[138.4017,35.1971],[138.4135,35.199],[138.4236,35.1926],[138.4294,35.1836],[138.4369,35.1763],[138.4712,35.1743],[138.4817,35.1723],[138.4994,35.1713],[138.5069,35.1788],[138.5242,35.1943],[138.5257,35.1957],[138.5361,35.1973],[138.5346,35.2072],[138.5354,35.2206],[138.5297,35.2308],[138.5245,35.25],[138.5183,35.2584],[138.5232,35.2673],[138.5237,35.2781],[138.5177,35.298],[138.5157,35.308],[138.5236,35.3158],[138.532,35.325],[138.5379,35.3334],[138.5334,35.3438],[138.5336,35.3649],[138.5318,35.3764]]]}},{"type":"Feature","properties":{"id":19018},"geometry":{"type":"Polygon","coordinates":[[[138.7318,35.3614],[138.7349,35.3741],[138.7348,35.3821],[138.7299,35.4044],[138.7305,35.415],[138.7339,35.4202],[138.7431,35.4289],[138.7587,35.4454],[138.7365,35.4476],[138.7301,35.4503],[138.722,35.4582],[138.7205,35.4642],[138.7208,35.4702],[138.7232,35.4817],[138.7188,35.4869],[138.7118,35.4881],[138.7044,35.4873],[138.6741,35.4791],[138.6651,35.4744],[138.6623,35.4699],[138.6599,35.458],[138.6616,35.4454],[138.6644,35.417],[138.6629,35.4136],[138.6564,35.4087],[138.6515,35.4033],[138.6523,35.3964],[138.6454,35.3951],[138.6666,35.3951],[138.675,35.387],[138.6815,35.3626],[138.6892,35.3548],[138.6999,35.3563],[138.7097,35.3601],[138.7198,35.3615],[138.7318,35.3614]]]}},{"type":"Feature","properties":{"id":19019},"geometry":{"type":"Polygon","coordinates":[[[138.3015,35.7066],[138.3081,35.6952],[138.3134,35.6877],[138.319,35.6781],[138.3239,35.6741],[138.3317,35.6716],[138.3453,35.6716],[138.3533,35.6739],[138.3638,35.6786],[138.372,35.6794],[138.3816,35.6771],[138.3957,35.67],[138.4015,35.6681],[138.4127,35.6658],[138.4273,35.6616],[138.4383,35.6607],[138.4567,35.6617],[138.4664,35.6643],[138.4814,35.6699],[138.4737,35.6786],[138.4673,35.6884],[138.4648,35.695],[138.465,35.7016],[138.4679,35.7073],[138.4735,35.7115],[138.4787,35.7128],[138.4871,35.7122],[138.4933,35.7133],[138.5036,35.7178],[138.5117,35.7236],[138.5165,35.7314],[138.518,35.7434],[138.5208,35.7541],[138.5199,35.762],[138.516,35.7667],[138.5067,35.7746],[138.4911,35.7572],[138.4855,35.7526],[138.4776,35.7486],[138.4544,35.7385],[138.4485,35.7388],[138.445,35.7408],[138.441,35.7462],[138.4358,35.7576],[138.431,35.762],[138.4249,35.7652],[138.4157,35.7665],[138.3907,35.7665],[138.3814,35.7661],[138.3726,35.7631],[138.3702,35.7578],[138.3699,35.7501],[138.3654,35.7471],[138.3519,35.7434],[138.3447,35.7375],[138.3415,35.7308],[138.3321,35.7167],[138.3235,35.7095],[138.315,35.7075],[138.3015,35.7066]]]}},{"type":"Feature","properties":{"id":19020},"geometry":{"type":"Polygon","coordinates":[[[138.8017,35.5266],[138.8257,35.5273],[138.8362,35.5245],[138.8385,35.5204],[138.8353,35.5142],[138.834,35.5089],[138.8367,35.5038],[138.8415,35.5002],[138.8542,35.4961],[138.8574,35.5049],[138.8591,35.5153],[138.8646,35.5271],[138.8627,35.5335],[138.8511,35.5408],[138.8393,35.544],[138.8189,35.5443],[138.8026,35.5422],[138.8017,35.5266]]]}},{"type":"Feature","properties":{"id":19021},"geometry":{"type":"Polygon","coordinates":[[[138.814,35.4529],[138.8291,35.4444],[138.8371,35.4419],[138.8436,35.4421],[138.8528,35.4438],[138.8587,35.4433],[138.8687,35.4359],[138.8779,35.4334],[138.8891,35.4357],[138.9045,35.445],[138.8989,35.4517],[138.8887,35.462],[138.8824,35.4731],[138.877,35.4791],[138.869,35.483],[138.8616,35.4748],[138.8551,35.4701],[138.8467,35.467],[138.8386,35.4655],[138.8215,35.4658],[138.8172,35.4626],[138.814,35.4529]]]}},{"type":"Feature","properties":{"id":19022},"geometry":{"type":"Polygon","coordinates":[[[138.7958,35.5636],[138.8011,35.5636],[138.814,35.5689],[138.819,35.573],[138.8247,35.5759],[138.8357,35.5767],[138.8412,35.5761],[138.8525,35.5725],[138.8611,35.5706],[138.8742,35.5703],[138.8833,35.5712],[138.9113,35.5804],[138.9212,35.5847],[138.9312,35.5868],[138.9404,35.5933],[138.9459,35.5948],[138.9519,35.5917],[138.9546,35.5854],[138.9571,35.5737],[138.963,35.5684],[138.9695,35.5668],[138.9745,35.567],[138.9997,35.5715],[139.0071,35.574],[139.022,35.577],[139.0371,35.578],[139.0561,35.5799],[139.0639,35.5818],[139.069,35.5852],[139.071,35.5938],[139.0702,35.5997],[139.0648,35.6078],[139.0589,35.609],[139.0486,35.6075],[139.0378,35.6097],[139.0315,35.6134],[139.0273,35.6231],[139.0273,35.6341],[139.0307,35.6446],[139.0309,35.6512],[139.0269,35.6582],[139.019,35.6624],[139.0042,35.6684],[139.0005,35.671],[138.9945,35.6794],[138.9838,35.6919],[138.9773,35.7042],[138.9734,35.7092],[138.9617,35.7184],[138.9451,35.7275],[138.9307,35.7317],[138.9171,35.7341],[138.9003,35.7342],[138.8912,35.7333],[138.8636,35.7262],[138.8599,35.7188],[138.8571,35.7072],[138.8574,35.7003],[138.8594,35.6908],[138.8591,35.684],[138.8571,35.6791],[138.8507,35.6688],[138.8498,35.6631],[138.8494,35.6495],[138.8459,35.6383],[138.8358,35.629],[138.8304,35.6265],[138.8148,35.6224],[138.7845,35.61],[138.7711,35.6039],[138.7709,35.5959],[138.7718,35.5872],[138.7754,35.5819],[138.7868,35.5739],[138.7958,35.5636]]]}},{"type":"Feature","properties":{"id":19023},"geometry":{"type":"Polygon","coordinates":[[[138.556,35.6141],[138.5568,35.6254],[138.5554,35.6329],[138.5517,35.6385],[138.5457,35.6424],[138.5341,35.6342],[138.5279,35.6289],[138.5199,35.6236],[138.5388,35.6152],[138.5456,35.6142],[138.556,35.6141]]]}},{"type":"Feature","properties":{"id":19024},"geometry":{"type":"Polygon","coordinates":[[[138.8712,35.8518],[138.8657,35.8427],[138.8626,35.8315],[138.8584,35.824],[138.8585,35.8147],[138.8651,35.7993],[138.8671,35.7927],[138.8663,35.7835],[138.8632,35.7763],[138.8597,35.7737],[138.8508,35.7725],[138.8311,35.7729],[138.8228,35.7708],[138.8204,35.7656],[138.8207,35.7612],[138.8234,35.7546],[138.8306,35.746],[138.836,35.7434],[138.8497,35.7402],[138.8592,35.7393],[138.8724,35.7467],[138.8851,35.7571],[138.8909,35.7591],[138.9038,35.7607],[138.9121,35.7627],[138.9347,35.7721],[138.9429,35.7718],[138.9537,35.7677],[138.967,35.7651],[138.9763,35.7647],[138.9914,35.7651],[138.9859,35.7832],[138.9784,35.7916],[138.9739,35.8009],[138.9748,35.8115],[138.973,35.8214],[138.9564,35.8333],[138.951,35.8423],[138.947,35.8518],[138.9335,35.8466],[138.9231,35.8481],[138.9126,35.848],[138.9022,35.8434],[138.8919,35.84],[138.882,35.8442],[138.8712,35.8518]]]}},{"type":"Feature","properties":{"id":19025},"geometry":{"type":"Polygon","coordinates":[[[139.0274,35.5446],[139.0263,35.5491],[139.0181,35.5613],[139.0071,35.574],[138.9997,35.5715],[138.9745,35.567],[138.9695,35.5668],[138.963,35.5684],[138.9571,35.5737],[138.9546,35.5854],[138.9519,35.5917],[138.9459,35.5948],[138.9404,35.5933],[138.9312,35.5868],[138.9212,35.5847],[138.9113,35.5804],[138.8833,35.5712],[138.8742,35.5703],[138.8611,35.5706],[138.8525,35.5725],[138.8412,35.5761],[138.8357,35.5767],[138.8247,35.5759],[138.819,35.573],[138.814,35.5689],[138.8011,35.5636],[138.8032,35.5542],[138.8026,35.5422],[138.8189,35.5443],[138.8393,35.544],[138.8511,35.5408],[138.8627,35.5335],[138.8646,35.5271],[138.8591,35.5153],[138.8574,35.5049],[138.8542,35.4961],[138.869,35.483],[138.877,35.4791],[138.8824,35.4731],[138.8887,35.462],[138.8989,35.4517],[138.9045,35.445],[138.9256,35.4483],[138.9369,35.4766],[138.9425,35.4844],[138.9601,35.4935],[138.9694,35.5009],[138.9814,35.5122],[138.9899,35.5159],[139.0031,35.519],[139.0116,35.5296],[139.0181,35.5365],[139.0274,35.5446]]]}},{"type":"Feature","properties":{"id":19026},"geometry":{"type":"Polygon","coordinates":[[[139.1335,35.67],[139.106,35.6883],[139.0958,35.688],[139.0859,35.6916],[139.0746,35.6933],[139.0549,35.7029],[139.045,35.7072],[139.0269,35.7179],[139.0196,35.7296],[139.0049,35.7162],[138.9986,35.7115],[138.9898,35.7075],[138.9773,35.7042],[138.9838,35.6919],[138.9945,35.6794],[139.0005,35.671],[139.0042,35.6684],[139.019,35.6624],[139.0269,35.6582],[139.0309,35.6512],[139.0307,35.6446],[139.0273,35.6341],[139.0273,35.6231],[139.0315,35.6134],[139.0378,35.6097],[139.0486,35.6075],[139.0589,35.609],[139.0648,35.6078],[139.0702,35.5997],[139.071,35.5938],[139.069,35.5852],[139.0639,35.5818],[139.0561,35.5799],[139.0371,35.578],[139.022,35.577],[139.0071,35.574],[139.0181,35.5613],[139.0263,35.5491],[139.0274,35.5446],[139.0369,35.542],[139.0454,35.5411],[139.0647,35.5414],[139.0854,35.5443],[139.1023,35.5419],[139.1141,35.5414],[139.1151,35.5395],[139.115,35.5465],[139.125,35.5533],[139.1324,35.5617],[139.1313,35.5726],[139.125,35.5852],[139.1332,35.5931],[139.1374,35.6137],[139.1294,35.6198],[139.1267,35.6298],[139.1252,35.6441],[139.125,35.6583],[139.1335,35.67]]]}},{"type":"Feature","properties":{"id":19027},"geometry":{"type":"Polygon","coordinates":[[[138.9427,35.4469],[138.9256,35.4483],[138.9045,35.445],[138.8891,35.4357],[138.8779,35.4334],[138.8687,35.4359],[138.8587,35.4433],[138.8528,35.4438],[138.8436,35.4421],[138.8371,35.4419],[138.8291,35.4444],[138.814,35.4529],[138.8101,35.4476],[138.8076,35.4395],[138.8089,35.4358],[138.814,35.4315],[138.827,35.4262],[138.833,35.4204],[138.835,35.4113],[138.8381,35.4049],[138.8456,35.3984],[138.8505,35.396],[138.8542,35.3908],[138.851,35.3857],[138.8656,35.3869],[138.8737,35.3806],[138.886,35.3825],[138.896,35.3872],[138.9059,35.393],[138.9196,35.3987],[138.9224,35.4087],[138.9333,35.4175],[138.9297,35.4275],[138.9342,35.4371],[138.9403,35.4457],[138.9427,35.4469]]]}},{"type":"Feature","properties":{"id":19028},"geometry":{"type":"Polygon","coordinates":[[[138.6586,35.8726],[138.659,35.8689],[138.657,35.8643],[138.6477,35.8578],[138.6438,35.8515],[138.6415,35.841],[138.6337,35.8186],[138.6333,35.8125],[138.6346,35.8026],[138.6322,35.796],[138.6231,35.7902],[138.6181,35.7825],[138.6163,35.772],[138.6138,35.7655],[138.6093,35.7587],[138.6004,35.7475],[138.597,35.7379],[138.5968,35.7266],[138.5999,35.7194],[138.6038,35.7167],[138.6141,35.7133],[138.6262,35.7068],[138.6333,35.6966],[138.6415,35.6893],[138.6479,35.6853],[138.6658,35.6782],[138.67,35.6753],[138.671,35.6722],[138.6696,35.6644],[138.671,35.6596],[138.6783,35.6557],[138.6861,35.6551],[138.6986,35.6558],[138.7101,35.6578],[138.7071,35.6673],[138.7088,35.675],[138.714,35.6821],[138.7154,35.691],[138.7137,35.6983],[138.7084,35.7057],[138.7055,35.7144],[138.7081,35.7213],[138.7152,35.7303],[138.7246,35.7448],[138.7366,35.7576],[138.7394,35.764],[138.7417,35.7731],[138.7451,35.7792],[138.7489,35.782],[138.7603,35.7848],[138.7767,35.7864],[138.7844,35.7921],[138.7872,35.7986],[138.7873,35.8107],[138.7856,35.819],[138.7861,35.8238],[138.7902,35.8289],[138.7989,35.8362],[138.8045,35.8438],[138.8144,35.865],[138.798,35.8702],[138.7912,35.8907],[138.7831,35.8965],[138.7704,35.8962],[138.7609,35.8994],[138.7423,35.9027],[138.7317,35.9061],[138.7216,35.9055],[138.7112,35.9066],[138.6867,35.8851],[138.683,35.8741],[138.6742,35.8676],[138.6586,35.8726]]]}}]}