{"type":"FeatureCollection","features":[{"type":"Feature","properties":{"id":2001},"geometry":{"type":"Polygon","coordinates":[[[140.141,40.4354],[140.1538,40.4377],[140.1536,40.4641],[140.1517,40.4724],[140.1421,40.4842],[140.1337,40.4911],[140.127,40.4989],[140.1262,40.5032],[140.1268,40.5136],[140.1371,40.5283],[140.1414,40.5322],[140.1464,40.5409],[140.1526,40.5455],[140.1645,40.5498],[140.1739,40.5668],[140.1807,40.5763],[140.1852,40.5846],[140.1934,40.5928],[140.1986,40.601],[140.2049,40.6082],[140.2128,40.6158],[140.2164,40.6231],[140.2168,40.6277],[140.2143,40.6326],[140.2147,40.6373],[140.2261,40.6514],[140.2287,40.6627],[140.2336,40.6707],[140.24,40.674],[140.2621,40.6821],[140.2792,40.6896],[140.2832,40.694],[140.2861,40.7024],[140.289,40.7191],[140.2923,40.7223],[140.3067,40.7332],[140.3115,40.7413],[140.323,40.7564],[140.2876,40.7826],[140.2701,40.7888],[140.2544,40.7957],[140.2426,40.7851],[140.2245,40.7782],[140.2203,40.7778],[140.2146,40.7822],[140.2014,40.7812],[140.1953,40.7787],[140.1852,40.7701],[140.1762,40.7675],[140.1616,40.7564],[140.1535,40.7513],[140.1582,40.7474],[140.1617,40.7419],[140.1637,40.7351],[140.1641,40.7191],[140.1615,40.7113],[140.1342,40.6905],[140.129,40.6823],[140.1242,40.6778],[140.1193,40.6691],[140.1079,40.6561],[140.1032,40.6464],[140.1042,40.6341],[140.1073,40.6257],[140.1073,40.601],[140.1047,40.593],[140.1037,40.5799],[140.1014,40.5662],[140.0979,40.5571],[140.0967,40.5462],[140.0882,40.524],[140.0838,40.5098],[140.0798,40.5003],[140.0781,40.4934],[140.0776,40.4847],[140.0758,40.4755],[140.0718,40.4661],[140.0818,40.4642],[140.0909,40.4596],[140.0995,40.4536],[140.1032,40.4431],[140.1104,40.4345],[140.1146,40.4343],[140.125,40.4338],[140.141,40.4354]]]}},{"type":"Feature","properties":{"id":2002},"geometry":{"type":"Polygon","coordinates":[[[140.6665,40.9494],[140.6654,40.9451],[140.6512,40.941],[140.6417,40.9415],[140.6366,40.9449],[140.6102,40.9548],[140.5955,40.9596],[140.5843,40.9614],[140.5565,40.9615],[140.5688,40.946],[140.5771,40.9342],[140.5817,40.9304],[140.5853,40.925],[140.5859,40.9209],[140.5858,40.9064],[140.5829,40.8993],[140.5816,40.888],[140.5837,40.8846],[140.5927,40.8794],[140.5944,40.8765],[140.5814,40.8474],[140.5808,40.8425],[140.5804,40.8171],[140.5764,40.8042],[140.5739,40.7904],[140.5666,40.7703],[140.5654,40.7642],[140.5603,40.7517],[140.5589,40.746],[140.5554,40.7405],[140.5458,40.7332],[140.5397,40.7315],[140.5277,40.7309],[140.5222,40.7174],[140.5393,40.7077],[140.5558,40.6952],[140.5672,40.6831],[140.5794,40.6854],[140.6137,40.6854],[140.6238,40.6837],[140.6406,40.6718],[140.6507,40.6655],[140.6662,40.6606],[140.6849,40.6566],[140.6924,40.6563],[140.733,40.6565],[140.7417,40.6581],[140.7532,40.6619],[140.7593,40.6613],[140.7715,40.6546],[140.7828,40.6461],[140.7907,40.6421],[140.7991,40.6364],[140.8166,40.6303],[140.8233,40.6259],[140.8284,40.6185],[140.8379,40.6124],[140.8483,40.6091],[140.8518,40.6087],[140.8622,40.603],[140.867,40.6109],[140.8746,40.6172],[140.8811,40.6245],[140.8853,40.6332],[140.8847,40.6381],[140.8795,40.6443],[140.8783,40.6496],[140.8825,40.6543],[140.8877,40.6549],[140.9,40.6509],[140.9109,40.6498],[140.9317,40.6426],[140.9353,40.6424],[140.9484,40.646],[140.9525,40.6485],[140.9716,40.6633],[140.9771,40.6792],[140.9803,40.6908],[140.9841,40.6946],[140.9801,40.6971],[140.9755,40.7026],[140.9622,40.7127],[140.955,40.7153],[140.9465,40.7166],[140.9349,40.7212],[140.9299,40.7248],[140.9091,40.7332],[140.9049,40.7391],[140.9054,40.7526],[140.9123,40.7588],[140.9223,40.7606],[140.9419,40.761],[140.9462,40.7624],[140.9622,40.7746],[140.9724,40.7897],[140.9758,40.8013],[140.9764,40.8064],[140.9514,40.8254],[140.943,40.8361],[140.9289,40.8496],[140.9207,40.8603],[140.8851,40.887],[140.8773,40.8907],[140.8628,40.8993],[140.8608,40.897],[140.8645,40.888],[140.8631,40.8844],[140.8543,40.8792],[140.8485,40.8686],[140.8407,40.868],[140.8357,40.8606],[140.8277,40.8575],[140.8153,40.8437],[140.8027,40.835],[140.7903,40.8306],[140.7815,40.8299],[140.7665,40.8307],[140.7522,40.8267],[140.7459,40.8272],[140.746,40.8314],[140.7352,40.8306],[140.7174,40.8416],[140.7045,40.8524],[140.6882,40.8764],[140.6795,40.9104],[140.6719,40.93],[140.6665,40.9494]]]}},{"type":"Feature","properties":{"id":2003},"geometry":{"type":"Polygon","coordinates":[[[140.5222,40.7174],[140.5227,40.7011],[140.5202,40.6959],[140.5146,40.6976],[140.5111,40.7025],[140.5075,40.7036],[140.5018,40.6999],[140.4957,40.6912],[140.4945,40.6764],[140.4913,40.6706],[140.487,40.6675],[140.4731,40.6672],[140.4648,40.6679],[140.4763,40.6509],[140.4831,40.6456],[140.5054,40.641],[140.5125,40.6448],[140.5254,40.6483],[140.5351,40.6521],[140.5486,40.6553],[140.5523,40.6578],[140.5617,40.6747],[140.5672,40.6831],[140.5558,40.6952],[140.5393,40.7077],[140.5222,40.7174]]]}},{"type":"Feature","properties":{"id":2004},"geometry":{"type":"Polygon","coordinates":[[[140.0718,40.4661],[140.0758,40.4755],[140.0776,40.4847],[140.0781,40.4934],[140.0798,40.5003],[140.0838,40.5098],[140.0882,40.524],[140.0967,40.5462],[140.0979,40.5571],[140.1014,40.5662],[140.1037,40.5799],[140.1047,40.593],[140.1073,40.601],[140.1073,40.6257],[140.1042,40.6341],[140.1032,40.6464],[140.1079,40.6561],[140.1193,40.6691],[140.1242,40.6778],[140.129,40.6823],[140.1342,40.6905],[140.1615,40.7113],[140.1641,40.7191],[140.1637,40.7351],[140.1617,40.7419],[140.1582,40.7474],[140.1535,40.7513],[140.1488,40.7483],[140.1288,40.7401],[140.1177,40.7399],[140.1087,40.743],[140.0913,40.758],[140.0665,40.7668],[140.0507,40.7605],[140.0356,40.757],[140.0129,40.7419],[140.0026,40.7399],[139.9825,40.7069],[139.9783,40.7026],[139.9703,40.7003],[139.9686,40.6931],[139.9646,40.6833],[139.9595,40.6799],[139.9503,40.6701],[139.9433,40.6678],[139.9377,40.668],[139.935,40.6631],[139.9358,40.6549],[139.9283,40.6522],[139.9244,40.6447],[139.9106,40.6426],[139.9047,40.6459],[139.9008,40.6451],[139.8925,40.6326],[139.8769,40.6259],[139.8682,40.6207],[139.8597,40.6142],[139.8611,40.6022],[139.8652,40.5946],[139.8639,40.5911],[139.8669,40.5853],[139.8727,40.5819],[139.8794,40.5819],[139.8822,40.5842],[139.8989,40.5817],[139.9069,40.586],[139.9179,40.5857],[139.9279,40.5758],[139.9324,40.5683],[139.9338,40.5633],[139.9305,40.5597],[139.9308,40.5558],[139.9375,40.5561],[139.9399,40.5528],[139.9443,40.5397],[139.9469,40.5297],[139.9481,40.5194],[139.9465,40.5156],[139.9486,40.51],[139.9496,40.4984],[139.9458,40.481],[139.9471,40.4773],[139.9433,40.4681],[139.9445,40.4641],[139.9417,40.4581],[139.9406,40.4489],[139.9383,40.4478],[139.9401,40.4349],[139.9363,40.4279],[139.9445,40.4268],[139.9621,40.432],[139.9711,40.4263],[139.9817,40.4254],[140,40.4315],[140.0197,40.4186],[140.0255,40.4294],[140.0258,40.4406],[140.0328,40.4525],[140.042,40.4582],[140.0527,40.4586],[140.0614,40.4646],[140.0718,40.4661]]]}},{"type":"Feature","properties":{"id":2005},"geometry":{"type":"Polygon","coordinates":[[[141.4065,40.5803],[141.4003,40.5813],[141.3827,40.5823],[141.3794,40.5715],[141.3765,40.568],[141.372,40.5672],[141.3657,40.5692],[141.3558,40.5749],[141.3489,40.5749],[141.347,40.5727],[141.3448,40.5634],[141.3432,40.5614],[141.3362,40.5596],[141.3179,40.5601],[141.3117,40.5614],[141.3073,40.5568],[141.2959,40.5507],[141.2846,40.5422],[141.2748,40.5374],[141.2577,40.5311],[141.2421,40.5303],[141.2378,40.5289],[141.2281,40.5215],[141.2166,40.5084],[141.2074,40.4991],[141.1991,40.4924],[141.1975,40.4889],[141.1983,40.4759],[141.2017,40.4657],[141.2087,40.4599],[141.2332,40.4522],[141.2538,40.4635],[141.2586,40.4646],[141.2643,40.4637],[141.2708,40.4598],[141.2864,40.4594],[141.2912,40.4581],[141.2948,40.4507],[141.2957,40.4433],[141.3093,40.4517],[141.3263,40.46],[141.3283,40.4634],[141.3384,40.4734],[141.3436,40.4759],[141.3547,40.4792],[141.3656,40.487],[141.3727,40.4958],[141.3535,40.5032],[141.3502,40.5094],[141.3568,40.517],[141.3841,40.5255],[141.3974,40.5279],[141.4059,40.5336],[141.4168,40.537],[141.4204,40.5403],[141.4219,40.5456],[141.4275,40.546],[141.4336,40.5438],[141.4368,40.5482],[141.4314,40.5549],[141.4266,40.5627],[141.4171,40.5724],[141.4065,40.5803]]]}},{"type":"Feature","properties":{"id":2006},"geometry":{"type":"MultiPolygon","coordinates":[[[[140.5277,40.7309],[140.5397,40.7315],[140.5458,40.7332],[140.5554,40.7405],[140.5589,40.746],[140.5603,40.7517],[140.5654,40.7642],[140.5666,40.7703],[140.5739,40.7904],[140.5764,40.8042],[140.5804,40.8171],[140.5808,40.8425],[140.5814,40.8474],[140.5944,40.8765],[140.5927,40.8794],[140.5837,40.8846],[140.5816,40.888],[140.5829,40.8993],[140.5858,40.9064],[140.5859,40.9209],[140.5853,40.925],[140.5817,40.9304],[140.5771,40.9342],[140.5688,40.946],[140.5565,40.9615],[140.5483,40.9706],[140.5433,40.9788],[140.5302,40.9908],[140.5222,40.9954],[140.5215,40.9824],[140.5193,40.9763],[140.5178,40.9658],[140.5147,40.9567],[140.5113,40.9514],[140.4978,40.9413],[140.4875,40.9364],[140.4757,40.9326],[140.468,40.9292],[140.4558,40.9264],[140.4474,40.9257],[140.4421,40.9234],[140.4379,40.9178],[140.4332,40.9088],[140.4275,40.9003],[140.4246,40.8962],[140.4205,40.8863],[140.4167,40.8798],[140.4055,40.8655],[140.4036,40.8611],[140.4033,40.8475],[140.4058,40.841],[140.4181,40.8258],[140.4227,40.8218],[140.436,40.802],[140.4409,40.7881],[140.444,40.7824],[140.4613,40.7685],[140.4685,40.7695],[140.479,40.7687],[140.4877,40.7657],[140.4973,40.7609],[140.514,40.7489],[140.5277,40.7309]]],[[[140.3574,40.9969],[140.3634,40.9983],[140.3646,41.0052],[140.3777,41.013],[140.3908,41.0177],[140.3965,41.0182],[140.4156,41.0182],[140.4174,41.0226],[140.4138,41.0254],[140.4118,41.0239],[140.4041,41.0241],[140.3943,41.0282],[140.3808,41.0298],[140.3744,41.0288],[140.3632,41.0191],[140.3598,41.012],[140.361,41.0094],[140.3586,41.0037],[140.3574,40.9969]]],[[[140.3407,41.0056],[140.3353,41.0122],[140.3325,41.0198],[140.33,41.037],[140.3213,41.0357],[140.3227,41.0303],[140.3197,40.998],[140.3407,41.0056]]],[[[140.4041,41.0381],[140.4174,41.043],[140.4238,41.048],[140.4258,41.0513],[140.4349,41.0607],[140.4405,41.0653],[140.4466,41.0721],[140.4531,41.0838],[140.4578,41.0948],[140.4604,41.0981],[140.462,41.1041],[140.4547,41.1083],[140.4435,41.1168],[140.4382,41.1177],[140.4238,41.1152],[140.4175,41.1152],[140.409,41.1178],[140.4015,41.1222],[140.3953,41.1225],[140.3762,41.1156],[140.3646,41.1149],[140.358,41.1118],[140.3561,41.1085],[140.3499,41.1034],[140.3421,41.1023],[140.3273,41.1061],[140.3178,41.1015],[140.3108,41.0996],[140.3148,41.0945],[140.3205,41.0908],[140.3232,41.0781],[140.3242,41.0564],[140.3226,41.0378],[140.3268,41.0403],[140.3315,41.0496],[140.3384,41.0521],[140.343,41.0491],[140.3457,41.0448],[140.3441,41.0423],[140.3498,41.0392],[140.3573,41.0388],[140.3629,41.0418],[140.3667,41.0389],[140.3735,41.0381],[140.3787,41.0396],[140.3825,41.0384],[140.3956,41.0399],[140.4041,41.0381]]]]}},{"type":"Feature","properties":{"id":2007},"geometry":{"type":"Polygon","coordinates":[[[141.3727,40.4958],[141.3759,40.4939],[141.391,40.4878],[141.4126,40.4718],[141.4211,40.4702],[141.431,40.47],[141.4362,40.4685],[141.4397,40.4654],[141.4445,40.4566],[141.4498,40.4488],[141.45,40.4383],[141.4454,40.433],[141.4353,40.4298],[141.4277,40.4263],[141.4072,40.4199],[141.3975,40.414],[141.3962,40.4018],[141.3945,40.3959],[141.389,40.3889],[141.3875,40.3832],[141.3894,40.3773],[141.3936,40.3576],[141.395,40.3552],[141.3968,40.358],[141.4058,40.363],[141.4122,40.355],[141.422,40.3604],[141.4328,40.3646],[141.4419,40.3707],[141.4655,40.372],[141.4762,40.3741],[141.487,40.3715],[141.4957,40.3665],[141.5094,40.3599],[141.5167,40.3527],[141.5393,40.3443],[141.5497,40.3491],[141.5672,40.3589],[141.559,40.3687],[141.5534,40.3733],[141.5455,40.3836],[141.5412,40.3875],[141.5273,40.408],[141.5282,40.4138],[141.5348,40.4244],[141.5349,40.4362],[141.5302,40.4436],[141.5255,40.4474],[141.5242,40.4525],[141.5265,40.4546],[141.5337,40.4542],[141.5477,40.4493],[141.5524,40.4503],[141.5594,40.4557],[141.5665,40.4654],[141.5734,40.4732],[141.5794,40.4779],[141.5875,40.4784],[141.5994,40.4723],[141.6129,40.4671],[141.6208,40.4672],[141.6427,40.4747],[141.6458,40.477],[141.6377,40.48],[141.6334,40.4851],[141.6338,40.4888],[141.6303,40.4907],[141.629,40.495],[141.621,40.4998],[141.619,40.5059],[141.6146,40.504],[141.6113,40.5057],[141.6112,40.5108],[141.6062,40.5155],[141.6016,40.5161],[141.5976,40.5204],[141.592,40.5186],[141.5877,40.5217],[141.5826,40.5283],[141.5838,40.5333],[141.5806,40.5351],[141.5824,40.5386],[141.5755,40.5429],[141.5727,40.5419],[141.5659,40.5433],[141.5596,40.538],[141.5559,40.5376],[141.5536,40.5306],[141.5461,40.5298],[141.542,40.5277],[141.5291,40.5283],[141.5292,40.5339],[141.5314,40.5381],[141.5247,40.5439],[141.5203,40.5403],[141.5253,40.5344],[141.5236,40.5331],[141.5169,40.5425],[141.5075,40.5414],[141.5125,40.5494],[141.507,40.5493],[141.5031,40.5511],[141.5003,40.5566],[141.4928,40.5594],[141.4889,40.5569],[141.485,40.5608],[141.4917,40.5656],[141.4885,40.5716],[141.4819,40.5697],[141.4714,40.5881],[141.4675,40.5984],[141.4542,40.5986],[141.4431,40.5971],[141.4351,40.5941],[141.4298,40.5909],[141.4196,40.5874],[141.4065,40.5803],[141.4171,40.5724],[141.4266,40.5627],[141.4314,40.5549],[141.4368,40.5482],[141.4336,40.5438],[141.4275,40.546],[141.4219,40.5456],[141.4204,40.5403],[141.4168,40.537],[141.4059,40.5336],[141.3974,40.5279],[141.3841,40.5255],[141.3568,40.517],[141.3502,40.5094],[141.3535,40.5032],[141.3727,40.4958]]]}},{"type":"Feature","properties":{"id":2008},"geometry":{"type":"Polygon","coordinates":[[[141.5672,40.3589],[141.5839,40.3705],[141.5864,40.3821],[141.5846,40.3926],[141.59,40.4032],[141.5993,40.4093],[141.6099,40.4112],[141.625,40.4179],[141.6385,40.4189],[141.6479,40.4233],[141.6607,40.4271],[141.6706,40.4327],[141.6847,40.4482],[141.6832,40.4514],[141.6683,40.458],[141.6602,40.4661],[141.6491,40.4701],[141.6458,40.477],[141.6427,40.4747],[141.6208,40.4672],[141.6129,40.4671],[141.5994,40.4723],[141.5875,40.4784],[141.5794,40.4779],[141.5734,40.4732],[141.5665,40.4654],[141.5594,40.4557],[141.5524,40.4503],[141.5477,40.4493],[141.5337,40.4542],[141.5265,40.4546],[141.5242,40.4525],[141.5255,40.4474],[141.5302,40.4436],[141.5349,40.4362],[141.5348,40.4244],[141.5282,40.4138],[141.5273,40.408],[141.5412,40.3875],[141.5455,40.3836],[141.5534,40.3733],[141.559,40.3687],[141.5672,40.3589]]]}},{"type":"Feature","properties":{"id":2009},"geometry":{"type":"Polygon","coordinates":[[[141.3492,41.1096],[141.3546,41.1084],[141.3674,41.1082],[141.3707,41.11],[141.3755,41.1199],[141.3815,41.1245],[141.3894,41.128],[141.3887,41.1374],[141.3887,41.1513],[141.3908,41.1683],[141.3908,41.175],[141.3944,41.1928],[141.3961,41.1942],[141.4036,41.2206],[141.4033,41.2283],[141.4044,41.235],[141.4103,41.2553],[141.4142,41.2644],[141.4153,41.2708],[141.4197,41.2822],[141.4283,41.3131],[141.4358,41.3339],[141.4386,41.3458],[141.4464,41.3661],[141.4508,41.37],[141.4503,41.3739],[141.4561,41.3756],[141.4611,41.38],[141.4586,41.3819],[141.4614,41.3892],[141.453,41.3953],[141.4542,41.4006],[141.4617,41.4047],[141.46,41.4125],[141.4625,41.4175],[141.4683,41.4189],[141.4636,41.4236],[141.4625,41.4311],[141.4572,41.4256],[141.452,41.4231],[141.4342,41.4086],[141.4339,41.4061],[141.4256,41.4019],[141.4222,41.3972],[141.4108,41.3908],[141.4058,41.385],[141.3956,41.3792],[141.3692,41.3686],[141.3425,41.3583],[141.3381,41.3586],[141.3347,41.3561],[141.3217,41.3539],[141.3108,41.3511],[141.2903,41.3511],[141.2639,41.3558],[141.2539,41.3589],[141.2481,41.3442],[141.2425,41.3366],[141.2392,41.3285],[141.238,41.3181],[141.2395,41.3123],[141.2446,41.3039],[141.2485,41.2938],[141.2493,41.2874],[141.2547,41.2693],[141.2555,41.2626],[141.259,41.2538],[141.2619,41.2515],[141.2701,41.2508],[141.2949,41.251],[141.304,41.2501],[141.3242,41.2431],[141.3317,41.2358],[141.3355,41.2308],[141.3373,41.2247],[141.3372,41.2102],[141.3319,41.19],[141.3273,41.178],[141.3235,41.1708],[141.3219,41.1651],[141.316,41.155],[141.3248,41.1448],[141.3315,41.1334],[141.3341,41.1223],[141.3393,41.1136],[141.3492,41.1096]]]}},{"type":"Feature","properties":{"id":2010},"geometry":{"type":"Polygon","coordinates":[[[140.8775,40.5067],[140.8698,40.5199],[140.8677,40.5268],[140.8673,40.5328],[140.8675,40.5736],[140.8668,40.5836],[140.8622,40.603],[140.8518,40.6087],[140.8483,40.6091],[140.8378,40.6012],[140.8358,40.5979],[140.8217,40.5842],[140.8197,40.5809],[140.8118,40.5747],[140.8062,40.5685],[140.7953,40.5646],[140.7842,40.5629],[140.7727,40.5597],[140.7601,40.5504],[140.7578,40.5451],[140.7573,40.5387],[140.7521,40.534],[140.7338,40.5308],[140.7158,40.5309],[140.7102,40.5324],[140.7022,40.5368],[140.6988,40.5409],[140.6951,40.5495],[140.6944,40.5611],[140.6911,40.5632],[140.6825,40.5634],[140.6763,40.5624],[140.6707,40.5587],[140.6627,40.5591],[140.6569,40.5661],[140.6602,40.579],[140.6593,40.5867],[140.6552,40.5917],[140.6494,40.5942],[140.6297,40.6002],[140.6156,40.6071],[140.6098,40.6108],[140.597,40.6156],[140.5839,40.6199],[140.5771,40.6237],[140.5384,40.6237],[140.5303,40.6258],[140.5144,40.6269],[140.5178,40.6158],[140.5233,40.6034],[140.5264,40.5912],[140.5276,40.5837],[140.5339,40.5715],[140.5423,40.5634],[140.5546,40.5607],[140.5676,40.5604],[140.595,40.5559],[140.5993,40.5541],[140.6048,40.5417],[140.6134,40.5372],[140.64,40.5274],[140.6614,40.5261],[140.6805,40.5121],[140.681,40.5078],[140.6738,40.5029],[140.6628,40.4985],[140.6421,40.494],[140.6259,40.4862],[140.6195,40.4849],[140.598,40.4869],[140.592,40.4802],[140.5913,40.4759],[140.5982,40.4641],[140.6034,40.4578],[140.6041,40.4482],[140.603,40.4451],[140.5971,40.4383],[140.592,40.434],[140.5908,40.4312],[140.5941,40.4336],[140.6048,40.4288],[140.6134,40.4222],[140.625,40.4211],[140.6384,40.4073],[140.6472,40.4009],[140.6575,40.401],[140.6685,40.4051],[140.6794,40.4101],[140.6911,40.4166],[140.6977,40.4253],[140.7189,40.4249],[140.7362,40.4271],[140.739,40.4371],[140.756,40.4362],[140.7635,40.4442],[140.7728,40.4511],[140.7905,40.4543],[140.7982,40.4468],[140.8087,40.4473],[140.8134,40.4698],[140.8145,40.4808],[140.8208,40.4891],[140.8309,40.4935],[140.8419,40.5008],[140.8521,40.5046],[140.8625,40.5038],[140.8775,40.5067]]]}},{"type":"Feature","properties":{"id":2011},"geometry":{"type":"Polygon","coordinates":[[[140.8628,40.8993],[140.8773,40.8907],[140.8851,40.887],[140.9207,40.8603],[140.9289,40.8496],[140.943,40.8361],[140.9514,40.8254],[140.9764,40.8064],[141.0015,40.8123],[141.0104,40.8133],[141.0222,40.8265],[141.0295,40.8315],[141.0369,40.835],[141.0433,40.8407],[141.0441,40.8457],[141.0444,40.8666],[141.0476,40.872],[141.0522,40.8764],[141.0597,40.8802],[141.0736,40.8819],[141.0861,40.8843],[141.0828,40.8869],[141.08,40.8956],[141.0672,40.9081],[141.0647,40.9133],[141.0544,40.9167],[141.0422,40.915],[141.0358,40.9169],[141.0253,40.9231],[141.0219,40.9292],[141.0118,40.9311],[141.0093,40.9286],[141.0046,40.9306],[140.9808,40.9306],[140.9788,40.9329],[140.9877,40.938],[140.9902,40.9517],[140.9836,40.9619],[140.974,40.9648],[140.9632,40.9746],[140.9558,40.9885],[140.9513,40.9908],[140.9254,40.9911],[140.8984,41.0071],[140.8893,41.0054],[140.8808,41.0068],[140.8793,41.0005],[140.8801,40.9912],[140.8772,40.9859],[140.8684,40.982],[140.8683,40.9795],[140.8757,40.9752],[140.8744,40.972],[140.8668,40.9678],[140.8645,40.9637],[140.8652,40.9573],[140.8633,40.9537],[140.8466,40.9492],[140.846,40.9473],[140.8522,40.9431],[140.8723,40.9398],[140.8737,40.9368],[140.8715,40.9323],[140.8736,40.9215],[140.8701,40.9158],[140.8741,40.9103],[140.8743,40.9059],[140.8705,40.8998],[140.8628,40.8993]]]}},{"type":"Feature","properties":{"id":2012},"geometry":{"type":"Polygon","coordinates":[[[140.44,40.4738],[140.4506,40.475],[140.4586,40.4774],[140.4603,40.4798],[140.4607,40.4907],[140.4633,40.4968],[140.4747,40.5008],[140.4875,40.5061],[140.4928,40.5096],[140.5035,40.5143],[140.5088,40.5152],[140.5252,40.5215],[140.5369,40.5231],[140.5531,40.5232],[140.5693,40.5271],[140.5896,40.5345],[140.6048,40.5417],[140.5993,40.5541],[140.595,40.5559],[140.5676,40.5604],[140.5546,40.5607],[140.5423,40.5634],[140.5339,40.5715],[140.5276,40.5837],[140.5264,40.5912],[140.5233,40.6034],[140.5178,40.6158],[140.5144,40.6269],[140.5116,40.6296],[140.5054,40.641],[140.4831,40.6456],[140.4763,40.6509],[140.4648,40.6679],[140.4619,40.6733],[140.4327,40.7165],[140.4214,40.7258],[140.4166,40.7318],[140.4111,40.7348],[140.4045,40.7352],[140.3959,40.7381],[140.3901,40.7417],[140.3642,40.7499],[140.3521,40.7585],[140.3449,40.7624],[140.3372,40.7609],[140.323,40.7564],[140.3115,40.7413],[140.3067,40.7332],[140.2923,40.7223],[140.289,40.7191],[140.2861,40.7024],[140.2832,40.694],[140.2792,40.6896],[140.2621,40.6821],[140.24,40.674],[140.2336,40.6707],[140.2287,40.6627],[140.2261,40.6514],[140.2147,40.6373],[140.2143,40.6326],[140.2168,40.6277],[140.2164,40.6231],[140.2128,40.6158],[140.2049,40.6082],[140.1986,40.601],[140.1934,40.5928],[140.1852,40.5846],[140.1807,40.5763],[140.1739,40.5668],[140.183,40.5562],[140.1893,40.5536],[140.1992,40.5538],[140.2062,40.5613],[140.2109,40.5691],[140.2194,40.5782],[140.2244,40.5864],[140.2359,40.598],[140.2434,40.6077],[140.2523,40.6087],[140.2649,40.6056],[140.2799,40.6037],[140.2899,40.6007],[140.3003,40.5859],[140.3054,40.5698],[140.3071,40.5581],[140.3072,40.5501],[140.3053,40.5368],[140.303,40.5278],[140.3048,40.5225],[140.3192,40.5115],[140.3213,40.5076],[140.322,40.4925],[140.3265,40.4785],[140.3283,40.4762],[140.3536,40.4632],[140.3571,40.4681],[140.3642,40.4753],[140.375,40.4737],[140.3853,40.4775],[140.3947,40.4825],[140.4022,40.475],[140.4141,40.4735],[140.4306,40.4797],[140.4408,40.4756],[140.44,40.4738]]]}},{"type":"Feature","properties":{"id":2013},"geometry":{"type":"Polygon","coordinates":[[[140.462,41.1041],[140.4875,41.1008],[140.5011,41.1002],[140.5171,41.0974],[140.5231,41.0974],[140.5441,41.1011],[140.5557,41.107],[140.5596,41.111],[140.5738,41.1332],[140.5888,41.1448],[140.5926,41.1547],[140.5936,41.1671],[140.598,41.1775],[140.6063,41.1811],[140.609,41.187],[140.6055,41.2005],[140.6005,41.2105],[140.5923,41.2163],[140.5851,41.2184],[140.5826,41.2211],[140.5647,41.225],[140.5548,41.2245],[140.5483,41.2283],[140.545,41.2225],[140.5393,41.2183],[140.5349,41.2213],[140.5273,41.2209],[140.525,41.2166],[140.521,41.2136],[140.5217,41.2088],[140.5181,41.2043],[140.5076,41.1958],[140.4978,41.1897],[140.4835,41.1837],[140.4722,41.182],[140.4616,41.1834],[140.4595,41.1875],[140.4518,41.1797],[140.4446,41.1685],[140.444,41.1642],[140.4473,41.1553],[140.4471,41.1466],[140.4409,41.1356],[140.4305,41.1278],[140.4167,41.1239],[140.4015,41.1222],[140.409,41.1178],[140.4175,41.1152],[140.4238,41.1152],[140.4382,41.1177],[140.4435,41.1168],[140.4547,41.1083],[140.462,41.1041]]]}},{"type":"Feature","properties":{"id":2014},"geometry":{"type":"Polygon","coordinates":[[[140.5054,40.641],[140.5116,40.6296],[140.5144,40.6269],[140.5303,40.6258],[140.5384,40.6237],[140.5771,40.6237],[140.5668,40.6364],[140.5665,40.6404],[140.5736,40.6572],[140.5752,40.663],[140.5749,40.6684],[140.5692,40.678],[140.5672,40.6831],[140.5617,40.6747],[140.5523,40.6578],[140.5486,40.6553],[140.5351,40.6521],[140.5254,40.6483],[140.5125,40.6448],[140.5054,40.641]]]}},{"type":"Feature","properties":{"id":2015},"geometry":{"type":"Polygon","coordinates":[[[140.5277,40.7309],[140.514,40.7489],[140.5024,40.7439],[140.4972,40.7406],[140.4835,40.7346],[140.4715,40.7259],[140.4679,40.7246],[140.4535,40.7239],[140.4456,40.7226],[140.4327,40.7165],[140.4619,40.6733],[140.4648,40.6679],[140.4731,40.6672],[140.487,40.6675],[140.4913,40.6706],[140.4945,40.6764],[140.4957,40.6912],[140.5018,40.6999],[140.5075,40.7036],[140.5111,40.7025],[140.5146,40.6976],[140.5202,40.6959],[140.5227,40.7011],[140.5222,40.7174],[140.5277,40.7309]]]}},{"type":"Feature","properties":{"id":2016},"geometry":{"type":"Polygon","coordinates":[[[140.9376,41.5292],[140.9381,41.512],[140.9428,41.4996],[140.9468,41.4936],[140.9516,41.4892],[140.955,41.4836],[140.9554,41.46],[140.9572,41.445],[140.9626,41.4307],[140.9826,41.4311],[140.9957,41.4273],[141.0053,41.4207],[141.0139,41.4191],[141.0234,41.4193],[141.0351,41.4233],[141.0453,41.4312],[141.0527,41.4408],[141.0602,41.4477],[141.0677,41.4506],[141.0748,41.4517],[141.1204,41.4518],[141.1144,41.4564],[141.1119,41.4631],[141.1069,41.465],[141.1017,41.465],[141.0881,41.4703],[141.0703,41.4783],[141.0692,41.4814],[141.0633,41.4828],[141.0456,41.4833],[141.0403,41.4825],[141.0219,41.4828],[141.0096,41.4855],[141.0014,41.4859],[140.9915,41.4926],[140.9808,41.4952],[140.9713,41.5011],[140.9702,41.5059],[140.9633,41.5094],[140.9635,41.5126],[140.9546,41.5189],[140.9525,41.5219],[140.9458,41.5229],[140.9376,41.5292]]]}},{"type":"Feature","properties":{"id":2017},"geometry":{"type":"Polygon","coordinates":[[[140.5672,40.6831],[140.5692,40.678],[140.5749,40.6684],[140.5752,40.663],[140.5736,40.6572],[140.5665,40.6404],[140.5668,40.6364],[140.5771,40.6237],[140.5839,40.6199],[140.597,40.6156],[140.6098,40.6108],[140.6156,40.6071],[140.6297,40.6002],[140.6494,40.5942],[140.6552,40.5917],[140.6593,40.5867],[140.6602,40.579],[140.6569,40.5661],[140.6627,40.5591],[140.6707,40.5587],[140.6763,40.5624],[140.6825,40.5634],[140.6911,40.5632],[140.6944,40.5611],[140.6951,40.5495],[140.6988,40.5409],[140.7022,40.5368],[140.7102,40.5324],[140.7158,40.5309],[140.7338,40.5308],[140.7521,40.534],[140.7573,40.5387],[140.7578,40.5451],[140.7601,40.5504],[140.7727,40.5597],[140.7842,40.5629],[140.7953,40.5646],[140.8062,40.5685],[140.8118,40.5747],[140.8197,40.5809],[140.8217,40.5842],[140.8358,40.5979],[140.8378,40.6012],[140.8483,40.6091],[140.8379,40.6124],[140.8284,40.6185],[140.8233,40.6259],[140.8166,40.6303],[140.7991,40.6364],[140.7907,40.6421],[140.7828,40.6461],[140.7715,40.6546],[140.7593,40.6613],[140.7532,40.6619],[140.7417,40.6581],[140.733,40.6565],[140.6924,40.6563],[140.6849,40.6566],[140.6662,40.6606],[140.6507,40.6655],[140.6406,40.6718],[140.6238,40.6837],[140.6137,40.6854],[140.5794,40.6854],[140.5672,40.6831]]]}},{"type":"Feature","properties":{"id":2018},"geometry":{"type":"Polygon","coordinates":[[[141.4397,40.6692],[141.4375,40.6722],[141.4395,40.6801],[141.4392,40.6856],[141.4336,40.6872],[141.4306,40.6903],[141.4253,40.7094],[141.4233,40.7114],[141.423,40.7222],[141.42,40.7286],[141.4164,40.7461],[141.4178,40.7475],[141.4125,40.7575],[141.4142,40.7622],[141.4128,40.7694],[141.4089,40.7783],[141.4083,40.7925],[141.4061,40.7964],[141.4067,40.8028],[141.4031,40.8194],[141.4,40.8436],[141.3967,40.8472],[141.3942,40.8722],[141.3928,40.8733],[141.3929,40.8817],[141.3819,40.8814],[141.3779,40.8797],[141.3741,40.872],[141.3735,40.8539],[141.3714,40.8456],[141.3678,40.8396],[141.3665,40.8268],[141.3627,40.8207],[141.3511,40.8115],[141.3476,40.803],[141.3465,40.793],[141.3477,40.7854],[141.3516,40.775],[141.3548,40.7629],[141.3555,40.7563],[141.3554,40.7401],[141.3548,40.7343],[141.3516,40.7245],[141.3469,40.7147],[141.3312,40.7033],[141.334,40.6984],[141.343,40.6872],[141.3514,40.6733],[141.3548,40.665],[141.3572,40.6632],[141.3728,40.6596],[141.4034,40.662],[141.4224,40.6654],[141.4263,40.667],[141.4397,40.6692]]]}},{"type":"Feature","properties":{"id":2019},"geometry":{"type":"Polygon","coordinates":[[[141.316,41.155],[141.3219,41.1651],[141.3235,41.1708],[141.3273,41.178],[141.3319,41.19],[141.3372,41.2102],[141.3373,41.2247],[141.3355,41.2308],[141.3317,41.2358],[141.3242,41.2431],[141.304,41.2501],[141.2949,41.251],[141.2701,41.2508],[141.2619,41.2515],[141.259,41.2538],[141.2555,41.2626],[141.2547,41.2693],[141.2493,41.2874],[141.2485,41.2938],[141.2446,41.3039],[141.2395,41.3123],[141.238,41.3181],[141.2392,41.3285],[141.2425,41.3366],[141.2481,41.3442],[141.2539,41.3589],[141.2381,41.3639],[141.2296,41.3681],[141.2133,41.3744],[141.1917,41.3878],[141.1786,41.3989],[141.1764,41.4034],[141.1664,41.4133],[141.1597,41.4153],[141.1497,41.4242],[141.1472,41.4303],[141.142,41.4346],[141.1344,41.4353],[141.1314,41.4397],[141.1253,41.4444],[141.1204,41.4518],[141.0748,41.4517],[141.0677,41.4506],[141.0602,41.4477],[141.0527,41.4408],[141.0453,41.4312],[141.0351,41.4233],[141.0234,41.4193],[141.0139,41.4191],[141.0053,41.4207],[140.9957,41.4273],[140.9826,41.4311],[140.9626,41.4307],[140.9555,41.4296],[140.941,41.4255],[140.9305,41.4247],[140.9354,41.408],[140.9356,41.4035],[140.932,41.3973],[140.9271,41.3916],[140.9221,41.3793],[140.9188,41.3749],[140.9075,41.3663],[140.8929,41.3508],[140.8877,41.3465],[140.8797,41.3363],[140.8747,41.332],[140.864,41.3197],[140.8474,41.31],[140.8394,41.3034],[140.8373,41.2963],[140.8396,41.2915],[140.8525,41.2757],[140.8636,41.2671],[140.8648,41.2624],[140.8572,41.2586],[140.8523,41.2588],[140.8474,41.2623],[140.8419,41.2638],[140.8359,41.2617],[140.831,41.2542],[140.8304,41.2398],[140.8252,41.2343],[140.8149,41.2297],[140.8014,41.2246],[140.7794,41.2186],[140.7772,41.2122],[140.78,41.2092],[140.7711,41.2036],[140.7639,41.1952],[140.7653,41.1861],[140.7668,41.1831],[140.7686,41.1723],[140.7661,41.1614],[140.7681,41.1589],[140.766,41.1554],[140.7664,41.1508],[140.7639,41.1481],[140.769,41.1412],[140.7735,41.1415],[140.7772,41.1353],[140.7825,41.1311],[140.7927,41.133],[140.7993,41.1284],[140.8062,41.1299],[140.811,41.1276],[140.8147,41.1306],[140.8181,41.1377],[140.8228,41.1403],[140.8329,41.1495],[140.8394,41.1515],[140.847,41.1554],[140.8498,41.159],[140.8542,41.1611],[140.8601,41.1611],[140.866,41.1641],[140.876,41.1668],[140.8851,41.1652],[140.8902,41.1633],[140.9049,41.1691],[140.9097,41.1739],[140.9224,41.1759],[140.9297,41.1729],[140.9342,41.1753],[140.9474,41.1746],[140.9557,41.1821],[140.9568,41.1854],[140.9616,41.1878],[140.9659,41.1921],[140.9783,41.1985],[140.9869,41.1981],[140.9964,41.1953],[141.0016,41.1977],[141.0081,41.1977],[141.0142,41.1958],[141.0311,41.186],[141.0347,41.1848],[141.0429,41.1851],[141.0522,41.1821],[141.0587,41.1836],[141.0614,41.1885],[141.073,41.1996],[141.0798,41.2035],[141.0874,41.2062],[141.0995,41.2131],[141.1123,41.213],[141.1254,41.2204],[141.1345,41.2286],[141.1425,41.2336],[141.1464,41.2375],[141.1539,41.2425],[141.1576,41.2532],[141.1464,41.2447],[141.1436,41.2406],[141.1344,41.2403],[141.1336,41.2433],[141.1387,41.2468],[141.142,41.2534],[141.1454,41.2558],[141.1518,41.2631],[141.1558,41.2695],[141.1578,41.2757],[141.1603,41.2781],[141.1766,41.2794],[141.1783,41.2767],[141.1887,41.278],[141.2012,41.2694],[141.2222,41.2528],[141.2312,41.2443],[141.2414,41.2325],[141.2502,41.2209],[141.2588,41.2078],[141.2617,41.1992],[141.2645,41.1977],[141.2704,41.1848],[141.2773,41.1653],[141.2895,41.1609],[141.3036,41.1572],[141.316,41.155]]]}},{"type":"Feature","properties":{"id":2020},"geometry":{"type":"MultiPolygon","coordinates":[[[[140.4275,40.9003],[140.4332,40.9088],[140.4379,40.9178],[140.4421,40.9234],[140.4474,40.9257],[140.4558,40.9264],[140.468,40.9292],[140.4757,40.9326],[140.4875,40.9364],[140.4978,40.9413],[140.5113,40.9514],[140.5147,40.9567],[140.5178,40.9658],[140.5193,40.9763],[140.5215,40.9824],[140.5222,40.9954],[140.5225,40.9991],[140.5197,41.0143],[140.5065,41.03],[140.5016,41.0388],[140.4969,41.0445],[140.495,41.0494],[140.4855,41.0654],[140.4798,41.0706],[140.469,41.0874],[140.4667,41.0933],[140.4604,41.0981],[140.4578,41.0948],[140.4531,41.0838],[140.4466,41.0721],[140.4405,41.0653],[140.4349,41.0607],[140.4258,41.0513],[140.4238,41.048],[140.4174,41.043],[140.4041,41.0381],[140.4052,41.0337],[140.4113,41.031],[140.4138,41.0254],[140.4174,41.0226],[140.4156,41.0182],[140.3965,41.0182],[140.3908,41.0177],[140.3777,41.013],[140.3646,41.0052],[140.3785,41.0005],[140.3911,40.9913],[140.3929,40.9874],[140.3913,40.9815],[140.3864,40.9744],[140.3851,40.9681],[140.3869,40.9628],[140.3897,40.9476],[140.393,40.9414],[140.417,40.9231],[140.4205,40.9177],[140.4221,40.912],[140.4275,40.9003]]],[[[140.3108,41.0996],[140.3178,41.1015],[140.3273,41.1061],[140.3421,41.1023],[140.3499,41.1034],[140.3561,41.1085],[140.358,41.1118],[140.3646,41.1149],[140.3762,41.1156],[140.3953,41.1225],[140.3858,41.1333],[140.3773,41.1418],[140.3737,41.1506],[140.3725,41.1621],[140.3811,41.1801],[140.3817,41.1897],[140.3791,41.1991],[140.3681,41.2102],[140.3644,41.2186],[140.3631,41.2261],[140.3572,41.2348],[140.3432,41.2498],[140.3405,41.2392],[140.3328,41.2369],[140.3336,41.2337],[140.331,41.2288],[140.3308,41.2189],[140.335,41.2075],[140.331,41.2017],[140.3327,41.1961],[140.3363,41.1897],[140.3314,41.1759],[140.3325,41.1739],[140.3288,41.1667],[140.3282,41.16],[140.3215,41.1475],[140.3125,41.1431],[140.3118,41.1376],[140.3044,41.1314],[140.2947,41.1319],[140.2894,41.1348],[140.2836,41.1361],[140.279,41.1392],[140.2649,41.1356],[140.2574,41.14],[140.2508,41.1333],[140.2496,41.124],[140.2565,41.1208],[140.2706,41.1214],[140.2751,41.1205],[140.2837,41.1224],[140.2912,41.1161],[140.2974,41.115],[140.3027,41.1076],[140.3051,41.1071],[140.3108,41.0996]]],[[[139.8129,41.3633],[139.8067,41.3658],[139.8003,41.365],[139.7944,41.3599],[139.7989,41.3583],[139.7986,41.3517],[139.8072,41.3529],[139.8161,41.3589],[139.8129,41.3633]]],[[[139.3639,41.5236],[139.3548,41.5233],[139.3421,41.5254],[139.3367,41.5228],[139.3347,41.515],[139.3379,41.51],[139.3392,41.505],[139.3392,41.4954],[139.3475,41.495],[139.3506,41.4981],[139.3583,41.5002],[139.3733,41.5015],[139.3803,41.5047],[139.385,41.5086],[139.3844,41.5133],[139.3767,41.5231],[139.3733,41.5242],[139.3639,41.5236]]]]}},{"type":"Feature","properties":{"id":2021},"geometry":{"type":"Polygon","coordinates":[[[141.2957,40.4433],[141.2834,40.4396],[141.2616,40.4285],[141.2537,40.4257],[141.219,40.4158],[141.2261,40.4077],[141.2311,40.3994],[141.235,40.3955],[141.2433,40.3919],[141.2487,40.3922],[141.2589,40.3973],[141.2706,40.3977],[141.281,40.3957],[141.2941,40.3869],[141.3083,40.384],[141.3134,40.3813],[141.3247,40.3728],[141.3299,40.3707],[141.3241,40.3666],[141.3285,40.3628],[141.338,40.3587],[141.3398,40.3475],[141.3467,40.3391],[141.3546,40.328],[141.3574,40.3292],[141.3649,40.3322],[141.375,40.3379],[141.385,40.3393],[141.395,40.3552],[141.3936,40.3576],[141.3894,40.3773],[141.3875,40.3832],[141.389,40.3889],[141.3945,40.3959],[141.3962,40.4018],[141.3975,40.414],[141.4072,40.4199],[141.4277,40.4263],[141.4353,40.4298],[141.4454,40.433],[141.45,40.4383],[141.4498,40.4488],[141.4445,40.4566],[141.4397,40.4654],[141.4362,40.4685],[141.431,40.47],[141.4211,40.4702],[141.4126,40.4718],[141.391,40.4878],[141.3759,40.4939],[141.3727,40.4958],[141.3656,40.487],[141.3547,40.4792],[141.3436,40.4759],[141.3384,40.4734],[141.3283,40.4634],[141.3263,40.46],[141.3093,40.4517],[141.2957,40.4433]]]}},{"type":"Feature","properties":{"id":2022},"geometry":{"type":"Polygon","coordinates":[[[140.3385,40.4367],[140.3453,40.4442],[140.3471,40.4541],[140.3536,40.4632],[140.3283,40.4762],[140.3265,40.4785],[140.322,40.4925],[140.3213,40.5076],[140.3192,40.5115],[140.3048,40.5225],[140.303,40.5278],[140.3053,40.5368],[140.3072,40.5501],[140.3071,40.5581],[140.3054,40.5698],[140.3003,40.5859],[140.2899,40.6007],[140.2799,40.6037],[140.2649,40.6056],[140.2523,40.6087],[140.2434,40.6077],[140.2359,40.598],[140.2244,40.5864],[140.2194,40.5782],[140.2109,40.5691],[140.2062,40.5613],[140.1992,40.5538],[140.1893,40.5536],[140.183,40.5562],[140.1739,40.5668],[140.1645,40.5498],[140.1526,40.5455],[140.1464,40.5409],[140.1414,40.5322],[140.1371,40.5283],[140.1268,40.5136],[140.1262,40.5032],[140.127,40.4989],[140.1337,40.4911],[140.1421,40.4842],[140.1517,40.4724],[140.1536,40.4641],[140.1538,40.4377],[140.141,40.4354],[140.1637,40.436],[140.1747,40.4355],[140.1854,40.4395],[140.1952,40.4342],[140.2162,40.4324],[140.2266,40.4288],[140.2514,40.4378],[140.274,40.4394],[140.2842,40.4431],[140.2952,40.4436],[140.3058,40.44],[140.3162,40.4343],[140.3261,40.4366],[140.3385,40.4367]]]}},{"type":"Feature","properties":{"id":2023},"geometry":{"type":"Polygon","coordinates":[[[141.0433,40.8407],[141.0481,40.8376],[141.0606,40.8326],[141.0741,40.8297],[141.0844,40.8291],[141.0916,40.8303],[141.0992,40.834],[141.1148,40.839],[141.1288,40.8326],[141.1373,40.8325],[141.1408,40.8352],[141.1443,40.8443],[141.1483,40.8485],[141.1587,40.8534],[141.1827,40.8592],[141.1874,40.8612],[141.1935,40.8678],[141.2163,40.8846],[141.2243,40.8884],[141.2277,40.8928],[141.2319,40.9016],[141.2374,40.9105],[141.2391,40.9172],[141.2463,40.926],[141.2486,40.936],[141.2568,40.9496],[141.2601,40.9575],[141.2677,40.969],[141.2482,40.971],[141.2432,40.9708],[141.2298,40.9681],[141.2179,40.9643],[141.2128,40.9542],[141.2106,40.9522],[141.2075,40.9447],[141.2028,40.9372],[141.187,40.9144],[141.1778,40.9039],[141.1642,40.8911],[141.1503,40.8803],[141.1436,40.8786],[141.1333,40.8728],[141.1258,40.8731],[141.1194,40.8711],[141.1131,40.8739],[141.1042,40.8722],[141.0914,40.8794],[141.0861,40.8843],[141.0736,40.8819],[141.0597,40.8802],[141.0522,40.8764],[141.0476,40.872],[141.0444,40.8666],[141.0441,40.8457],[141.0433,40.8407]]]}},{"type":"Feature","properties":{"id":2024},"geometry":{"type":"Polygon","coordinates":[[[141.4065,40.5803],[141.4196,40.5874],[141.4298,40.5909],[141.4351,40.5941],[141.4431,40.5971],[141.4542,40.5986],[141.4675,40.5984],[141.4608,40.6044],[141.4619,40.61],[141.4511,40.6298],[141.4472,40.6389],[141.4478,40.6436],[141.445,40.6469],[141.4444,40.6533],[141.4408,40.6633],[141.4397,40.6692],[141.4263,40.667],[141.4224,40.6654],[141.4034,40.662],[141.3728,40.6596],[141.3709,40.6479],[141.3661,40.6355],[141.3621,40.6295],[141.3577,40.6256],[141.3554,40.6194],[141.3549,40.6067],[141.3565,40.6035],[141.3691,40.601],[141.3723,40.5985],[141.3772,40.5897],[141.3827,40.5823],[141.4003,40.5813],[141.4065,40.5803]]]}},{"type":"Feature","properties":{"id":2025},"geometry":{"type":"Polygon","coordinates":[[[140.9626,41.4307],[140.9572,41.445],[140.9554,41.46],[140.955,41.4836],[140.9516,41.4892],[140.9468,41.4936],[140.9428,41.4996],[140.9381,41.512],[140.9376,41.5292],[140.9247,41.5348],[140.924,41.5378],[140.9167,41.5449],[140.9117,41.5458],[140.9076,41.5376],[140.909,41.5351],[140.8982,41.5228],[140.9044,41.5169],[140.9096,41.5048],[140.9059,41.4983],[140.9087,41.4942],[140.9049,41.4923],[140.9039,41.4875],[140.8993,41.4828],[140.8979,41.4769],[140.8938,41.4754],[140.8809,41.4626],[140.8862,41.457],[140.8885,41.4525],[140.8993,41.4389],[140.9011,41.4302],[140.9039,41.4261],[140.9104,41.4212],[140.9155,41.4205],[140.9305,41.4247],[140.941,41.4255],[140.9555,41.4296],[140.9626,41.4307]]]}},{"type":"Feature","properties":{"id":2026},"geometry":{"type":"Polygon","coordinates":[[[140.5908,40.4312],[140.592,40.434],[140.5971,40.4383],[140.603,40.4451],[140.6041,40.4482],[140.6034,40.4578],[140.5982,40.4641],[140.5913,40.4759],[140.592,40.4802],[140.598,40.4869],[140.6195,40.4849],[140.6259,40.4862],[140.6421,40.494],[140.6628,40.4985],[140.6738,40.5029],[140.681,40.5078],[140.6805,40.5121],[140.6614,40.5261],[140.64,40.5274],[140.6134,40.5372],[140.6048,40.5417],[140.5896,40.5345],[140.5693,40.5271],[140.5531,40.5232],[140.5369,40.5231],[140.5252,40.5215],[140.5088,40.5152],[140.5035,40.5143],[140.4928,40.5096],[140.4875,40.5061],[140.4747,40.5008],[140.4633,40.4968],[140.4607,40.4907],[140.4603,40.4798],[140.4586,40.4774],[140.4506,40.475],[140.44,40.4738],[140.4368,40.4662],[140.4441,40.4471],[140.4534,40.4512],[140.4634,40.4536],[140.4746,40.4508],[140.4847,40.4471],[140.4892,40.4379],[140.5,40.4338],[140.51,40.4269],[140.5323,40.4283],[140.5331,40.4176],[140.5432,40.401],[140.5533,40.3992],[140.5638,40.4078],[140.5576,40.4166],[140.5652,40.4238],[140.5754,40.4236],[140.5856,40.4273],[140.5908,40.4312]]]}},{"type":"Feature","properties":{"id":2027},"geometry":{"type":"Polygon","coordinates":[[[141.3887,41.1513],[141.3887,41.1374],[141.3894,41.128],[141.3815,41.1245],[141.3755,41.1199],[141.3707,41.11],[141.3674,41.1082],[141.3546,41.1084],[141.3492,41.1096],[141.3527,41.0988],[141.3534,41.0915],[141.3556,41.0826],[141.3545,41.0773],[141.349,41.0667],[141.3473,41.06],[141.3393,41.0449],[141.3378,41.0392],[141.3323,41.0333],[141.3014,41.0102],[141.2907,41.0009],[141.2844,40.9936],[141.2775,40.9837],[141.2759,40.9781],[141.2677,40.969],[141.2601,40.9575],[141.2568,40.9496],[141.2486,40.936],[141.2463,40.926],[141.2561,40.9266],[141.261,40.9257],[141.2641,40.9204],[141.2641,40.9024],[141.273,40.8883],[141.274,40.8824],[141.2765,40.8774],[141.2772,40.871],[141.2811,40.8591],[141.284,40.8449],[141.2975,40.835],[141.312,40.8298],[141.3169,40.8301],[141.3333,40.8416],[141.3369,40.8421],[141.3465,40.8397],[141.3678,40.8396],[141.3714,40.8456],[141.3735,40.8539],[141.3741,40.872],[141.3779,40.8797],[141.3819,40.8814],[141.3929,40.8817],[141.3924,40.8947],[141.3907,40.9038],[141.3908,40.9097],[141.3892,40.9171],[141.3908,40.9286],[141.387,40.9365],[141.3872,40.9442],[141.3856,40.9518],[141.3856,40.9603],[141.3875,40.9633],[141.3844,40.9714],[141.3864,40.9797],[141.3861,40.9978],[141.3847,41.0067],[141.3861,41.0286],[141.3883,41.0442],[141.3886,41.0522],[141.3903,41.0597],[141.3905,41.0678],[141.3936,41.0867],[141.3989,41.0975],[141.3931,41.1025],[141.3942,41.1228],[141.3961,41.1275],[141.3925,41.1347],[141.3887,41.1513]]]}},{"type":"Feature","properties":{"id":2028},"geometry":{"type":"Polygon","coordinates":[[[141.3827,40.5823],[141.3772,40.5897],[141.3723,40.5985],[141.3691,40.601],[141.3565,40.6035],[141.3549,40.6067],[141.3554,40.6194],[141.3577,40.6256],[141.3621,40.6295],[141.3661,40.6355],[141.3709,40.6479],[141.3728,40.6596],[141.3572,40.6632],[141.3548,40.665],[141.3514,40.6733],[141.343,40.6872],[141.334,40.6984],[141.3312,40.7033],[141.3223,40.6934],[141.3172,40.6852],[141.3009,40.6731],[141.2905,40.6696],[141.2777,40.6623],[141.2761,40.6489],[141.2761,40.636],[141.2753,40.6301],[141.273,40.626],[141.273,40.6186],[141.2762,40.6151],[141.2867,40.6078],[141.2911,40.6063],[141.2964,40.6007],[141.2975,40.5818],[141.3085,40.5646],[141.3117,40.5614],[141.3179,40.5601],[141.3362,40.5596],[141.3432,40.5614],[141.3448,40.5634],[141.347,40.5727],[141.3489,40.5749],[141.3558,40.5749],[141.3657,40.5692],[141.372,40.5672],[141.3765,40.568],[141.3794,40.5715],[141.3827,40.5823]]]}},{"type":"Feature","properties":{"id":2029},"geometry":{"type":"Polygon","coordinates":[[[140.9305,41.4247],[140.9155,41.4205],[140.9104,41.4212],[140.9039,41.4261],[140.9011,41.4302],[140.8993,41.4389],[140.8885,41.4525],[140.8862,41.457],[140.8809,41.4626],[140.878,41.4573],[140.8791,41.4538],[140.8666,41.4473],[140.8664,41.4366],[140.8629,41.4331],[140.8573,41.433],[140.8527,41.4304],[140.8493,41.4226],[140.8431,41.4192],[140.8383,41.4197],[140.8356,41.4154],[140.8384,41.4136],[140.8336,41.4058],[140.833,41.4002],[140.8296,41.395],[140.8261,41.3858],[140.8278,41.3781],[140.8274,41.3709],[140.824,41.3689],[140.8244,41.3641],[140.8202,41.3466],[140.8164,41.3386],[140.8107,41.3339],[140.8072,41.3347],[140.8003,41.3283],[140.8044,41.3261],[140.7989,41.3214],[140.8052,41.3166],[140.8058,41.313],[140.7997,41.3039],[140.7982,41.2984],[140.7997,41.2948],[140.7955,41.2792],[140.7907,41.2743],[140.7896,41.2653],[140.7861,41.2625],[140.7848,41.2563],[140.7789,41.2528],[140.7786,41.2494],[140.7831,41.2428],[140.7852,41.2352],[140.7822,41.2225],[140.7794,41.2186],[140.8014,41.2246],[140.8149,41.2297],[140.8252,41.2343],[140.8304,41.2398],[140.831,41.2542],[140.8359,41.2617],[140.8419,41.2638],[140.8474,41.2623],[140.8523,41.2588],[140.8572,41.2586],[140.8648,41.2624],[140.8636,41.2671],[140.8525,41.2757],[140.8396,41.2915],[140.8373,41.2963],[140.8394,41.3034],[140.8474,41.31],[140.864,41.3197],[140.8747,41.332],[140.8797,41.3363],[140.8877,41.3465],[140.8929,41.3508],[140.9075,41.3663],[140.9188,41.3749],[140.9221,41.3793],[140.9271,41.3916],[140.932,41.3973],[140.9356,41.4035],[140.9354,41.408],[140.9305,41.4247]]]}},{"type":"Feature","properties":{"id":2030},"geometry":{"type":"Polygon","coordinates":[[[141.219,40.4158],[141.1883,40.4156],[141.1768,40.4161],[141.1685,40.4179],[141.1564,40.419],[141.1465,40.418],[141.1279,40.41],[141.1195,40.4043],[141.1041,40.3991],[141.0991,40.3991],[141.0862,40.4042],[141.0772,40.4048],[141.029,40.4047],[141.0153,40.4066],[141.0029,40.4071],[140.9919,40.4066],[141,40.4017],[141.0226,40.3847],[141.0271,40.3822],[141.0398,40.3819],[141.0478,40.384],[141.0619,40.3811],[141.0883,40.3725],[141.098,40.37],[141.1241,40.3697],[141.1369,40.3664],[141.1445,40.3629],[141.1547,40.362],[141.1693,40.3592],[141.1833,40.3547],[141.1906,40.35],[141.1913,40.3371],[141.1866,40.3252],[141.1841,40.3219],[141.1669,40.3094],[141.1656,40.3036],[141.1798,40.3071],[141.1909,40.3049],[141.2009,40.305],[141.2105,40.3099],[141.2206,40.3121],[141.2271,40.3203],[141.2357,40.3255],[141.25,40.3362],[141.2605,40.3387],[141.2679,40.3471],[141.2784,40.3422],[141.2889,40.3453],[141.2958,40.3536],[141.3014,40.3628],[141.3202,40.3698],[141.3241,40.3666],[141.3299,40.3707],[141.3247,40.3728],[141.3134,40.3813],[141.3083,40.384],[141.2941,40.3869],[141.281,40.3957],[141.2706,40.3977],[141.2589,40.3973],[141.2487,40.3922],[141.2433,40.3919],[141.235,40.3955],[141.2311,40.3994],[141.2261,40.4077],[141.219,40.4158]]]}},{"type":"Feature","properties":{"id":2031},"geometry":{"type":"Polygon","coordinates":[[[140.9841,40.6946],[140.9873,40.6936],[140.9977,40.6861],[141.0057,40.6753],[141.0139,40.6679],[141.0255,40.6627],[141.0426,40.6593],[141.0523,40.6545],[141.0647,40.6461],[141.0793,40.6388],[141.0979,40.6319],[141.1054,40.6316],[141.132,40.638],[141.1401,40.639],[141.1525,40.6437],[141.1581,40.6494],[141.1605,40.66],[141.1634,40.664],[141.1817,40.6777],[141.1878,40.6818],[141.1894,40.6899],[141.1926,40.7004],[141.1978,40.7098],[141.2134,40.7154],[141.2314,40.7201],[141.247,40.7236],[141.2528,40.7261],[141.258,40.7318],[141.2614,40.7422],[141.2633,40.7515],[141.2627,40.7593],[141.2569,40.7696],[141.2521,40.7725],[141.2451,40.7708],[141.2402,40.7621],[141.2338,40.7533],[141.227,40.748],[141.2186,40.7483],[141.2135,40.7518],[141.2028,40.7559],[141.192,40.7746],[141.1657,40.7878],[141.1522,40.7928],[141.1353,40.7979],[141.1246,40.7994],[141.1058,40.7992],[141.0925,40.7979],[141.0831,40.7957],[141.0466,40.7956],[141.0385,40.7964],[141.0289,40.8014],[141.0173,40.8096],[141.0104,40.8133],[141.0015,40.8123],[140.9764,40.8064],[140.9758,40.8013],[140.9724,40.7897],[140.9622,40.7746],[140.9462,40.7624],[140.9419,40.761],[140.9223,40.7606],[140.9123,40.7588],[140.9054,40.7526],[140.9049,40.7391],[140.9091,40.7332],[140.9299,40.7248],[140.9349,40.7212],[140.9465,40.7166],[140.955,40.7153],[140.9622,40.7127],[140.9755,40.7026],[140.9801,40.6971],[140.9841,40.6946]]]}},{"type":"Feature","properties":{"id":2032},"geometry":{"type":"Polygon","coordinates":[[[140.9883,40.4009],[140.9919,40.4066],[141.0029,40.4071],[141.0153,40.4066],[141.029,40.4047],[141.0772,40.4048],[141.0862,40.4042],[141.0991,40.3991],[141.1041,40.3991],[141.1195,40.4043],[141.1279,40.41],[141.1465,40.418],[141.1564,40.419],[141.1685,40.4179],[141.1768,40.4161],[141.1883,40.4156],[141.219,40.4158],[141.2537,40.4257],[141.2616,40.4285],[141.2834,40.4396],[141.2957,40.4433],[141.2948,40.4507],[141.2912,40.4581],[141.2864,40.4594],[141.2708,40.4598],[141.2643,40.4637],[141.2586,40.4646],[141.2538,40.4635],[141.2332,40.4522],[141.2087,40.4599],[141.2017,40.4657],[141.1983,40.4759],[141.1975,40.4889],[141.187,40.4883],[141.0899,40.4883],[141.0836,40.4878],[141.0752,40.4839],[141.0611,40.4789],[141.0409,40.4705],[141.0363,40.4675],[141.0307,40.4664],[141.0192,40.4665],[141.0137,40.4645],[141.0083,40.4565],[141.0071,40.4528],[140.9974,40.4384],[140.9813,40.4259],[140.9833,40.4256],[140.9861,40.4092],[140.9883,40.4009]]]}},{"type":"Feature","properties":{"id":2033},"geometry":{"type":"MultiPolygon","coordinates":[[[[140.462,41.1041],[140.4604,41.0981],[140.4667,41.0933],[140.469,41.0874],[140.4798,41.0706],[140.4855,41.0654],[140.495,41.0494],[140.4969,41.0445],[140.5016,41.0388],[140.5065,41.03],[140.5197,41.0143],[140.5462,41.0146],[140.5554,41.0161],[140.5703,41.0224],[140.5824,41.0251],[140.6052,41.0289],[140.6143,41.0292],[140.6473,41.0292],[140.6456,41.0363],[140.6444,41.0502],[140.6426,41.0564],[140.6391,41.0609],[140.6374,41.0739],[140.6348,41.0766],[140.6345,41.0875],[140.6316,41.0994],[140.6327,41.1035],[140.6326,41.1133],[140.6342,41.1247],[140.6334,41.1307],[140.638,41.1456],[140.64,41.1481],[140.6381,41.1549],[140.6429,41.1695],[140.6435,41.1744],[140.6394,41.1833],[140.6308,41.1923],[140.6183,41.1972],[140.611,41.2051],[140.6072,41.2115],[140.6039,41.214],[140.5923,41.2163],[140.6005,41.2105],[140.6055,41.2005],[140.609,41.187],[140.6063,41.1811],[140.598,41.1775],[140.5936,41.1671],[140.5926,41.1547],[140.5888,41.1448],[140.5738,41.1332],[140.5596,41.111],[140.5557,41.107],[140.5441,41.1011],[140.5231,41.0974],[140.5171,41.0974],[140.5011,41.1002],[140.4875,41.1008],[140.462,41.1041]]],[[[140.3953,41.1225],[140.4015,41.1222],[140.4167,41.1239],[140.4305,41.1278],[140.4409,41.1356],[140.4471,41.1466],[140.4473,41.1553],[140.444,41.1642],[140.4446,41.1685],[140.4518,41.1797],[140.4595,41.1875],[140.4464,41.1892],[140.4384,41.1937],[140.4321,41.1961],[140.432,41.199],[140.4274,41.2045],[140.4267,41.208],[140.4161,41.2141],[140.4138,41.2168],[140.4048,41.2202],[140.4007,41.2298],[140.3974,41.2344],[140.3913,41.2382],[140.3768,41.2444],[140.3683,41.25],[140.3628,41.25],[140.3591,41.2533],[140.3527,41.2555],[140.3442,41.2611],[140.3397,41.2585],[140.3398,41.2552],[140.3432,41.2498],[140.3572,41.2348],[140.3631,41.2261],[140.3644,41.2186],[140.3681,41.2102],[140.3791,41.1991],[140.3817,41.1897],[140.3811,41.1801],[140.3725,41.1621],[140.3737,41.1506],[140.3773,41.1418],[140.3858,41.1333],[140.3953,41.1225]]]]}},{"type":"Feature","properties":{"id":2034},"geometry":{"type":"Polygon","coordinates":[[[140.9584,40.2456],[140.9668,40.2379],[140.9729,40.2266],[140.9817,40.2193],[140.9918,40.2192],[141.0091,40.2152],[141.0253,40.2178],[141.0296,40.2188],[141.0388,40.2251],[141.0507,40.2301],[141.0607,40.2304],[141.0726,40.2393],[141.0802,40.2491],[141.0921,40.2501],[141.1037,40.25],[141.1132,40.2586],[141.1058,40.2778],[141.1154,40.2815],[141.1342,40.2913],[141.1433,40.2974],[141.1534,40.298],[141.1656,40.3036],[141.1669,40.3094],[141.1841,40.3219],[141.1866,40.3252],[141.1913,40.3371],[141.1906,40.35],[141.1833,40.3547],[141.1693,40.3592],[141.1547,40.362],[141.1445,40.3629],[141.1369,40.3664],[141.1241,40.3697],[141.098,40.37],[141.0883,40.3725],[141.0619,40.3811],[141.0478,40.384],[141.0398,40.3819],[141.0271,40.3822],[141.0226,40.3847],[141,40.4017],[140.9919,40.4066],[140.9883,40.4009],[140.9897,40.3818],[140.9968,40.3742],[140.9952,40.3643],[140.9974,40.3542],[140.9905,40.345],[140.9765,40.3439],[140.9717,40.3338],[140.9662,40.3253],[140.9614,40.314],[140.961,40.3035],[140.9513,40.2965],[140.9481,40.2861],[140.9579,40.282],[140.9563,40.27],[140.9507,40.2593],[140.9584,40.2456]]]}},{"type":"Feature","properties":{"id":2035},"geometry":{"type":"Polygon","coordinates":[[[141.0104,40.8133],[141.0173,40.8096],[141.0289,40.8014],[141.0385,40.7964],[141.0466,40.7956],[141.0831,40.7957],[141.0925,40.7979],[141.1058,40.7992],[141.1246,40.7994],[141.1353,40.7979],[141.1522,40.7928],[141.1657,40.7878],[141.192,40.7746],[141.2028,40.7559],[141.2135,40.7518],[141.2186,40.7483],[141.227,40.748],[141.2338,40.7533],[141.2402,40.7621],[141.2451,40.7708],[141.2521,40.7725],[141.2569,40.7696],[141.2627,40.7593],[141.2633,40.7515],[141.2614,40.7422],[141.258,40.7318],[141.2528,40.7261],[141.247,40.7236],[141.2314,40.7201],[141.2134,40.7154],[141.1978,40.7098],[141.1926,40.7004],[141.1894,40.6899],[141.1878,40.6818],[141.2107,40.6834],[141.2199,40.6851],[141.2445,40.6878],[141.2577,40.6939],[141.2675,40.694],[141.2721,40.691],[141.2757,40.6835],[141.2777,40.6623],[141.2905,40.6696],[141.3009,40.6731],[141.3172,40.6852],[141.3223,40.6934],[141.3312,40.7033],[141.3469,40.7147],[141.3516,40.7245],[141.3548,40.7343],[141.3554,40.7401],[141.3555,40.7563],[141.3548,40.7629],[141.3516,40.775],[141.3477,40.7854],[141.3465,40.793],[141.3476,40.803],[141.3511,40.8115],[141.3627,40.8207],[141.3665,40.8268],[141.3678,40.8396],[141.3465,40.8397],[141.3369,40.8421],[141.3333,40.8416],[141.3169,40.8301],[141.312,40.8298],[141.2975,40.835],[141.284,40.8449],[141.2811,40.8591],[141.2772,40.871],[141.2765,40.8774],[141.274,40.8824],[141.273,40.8883],[141.2641,40.9024],[141.2641,40.9204],[141.261,40.9257],[141.2561,40.9266],[141.2463,40.926],[141.2391,40.9172],[141.2374,40.9105],[141.2319,40.9016],[141.2277,40.8928],[141.2243,40.8884],[141.2163,40.8846],[141.1935,40.8678],[141.1874,40.8612],[141.1827,40.8592],[141.1587,40.8534],[141.1483,40.8485],[141.1443,40.8443],[141.1408,40.8352],[141.1373,40.8325],[141.1288,40.8326],[141.1148,40.839],[141.0992,40.834],[141.0916,40.8303],[141.0844,40.8291],[141.0741,40.8297],[141.0606,40.8326],[141.0481,40.8376],[141.0433,40.8407],[141.0369,40.835],[141.0295,40.8315],[141.0222,40.8265],[141.0104,40.8133]]]}},{"type":"Feature","properties":{"id":2036},"geometry":{"type":"Polygon","coordinates":[[[140.9813,40.4259],[140.9974,40.4384],[141.0071,40.4528],[141.0083,40.4565],[141.0137,40.4645],[141.0192,40.4665],[141.0307,40.4664],[141.0363,40.4675],[141.0409,40.4705],[141.0611,40.4789],[141.0752,40.4839],[141.0836,40.4878],[141.0899,40.4883],[141.187,40.4883],[141.1975,40.4889],[141.1991,40.4924],[141.2074,40.4991],[141.2166,40.5084],[141.2281,40.5215],[141.2378,40.5289],[141.2421,40.5303],[141.2577,40.5311],[141.2748,40.5374],[141.2846,40.5422],[141.2959,40.5507],[141.3073,40.5568],[141.3117,40.5614],[141.3085,40.5646],[141.2975,40.5818],[141.2964,40.6007],[141.2911,40.6063],[141.2867,40.6078],[141.2762,40.6151],[141.273,40.6186],[141.273,40.626],[141.2753,40.6301],[141.2761,40.636],[141.2761,40.6489],[141.2777,40.6623],[141.2757,40.6835],[141.2721,40.691],[141.2675,40.694],[141.2577,40.6939],[141.2445,40.6878],[141.2199,40.6851],[141.2107,40.6834],[141.1878,40.6818],[141.1817,40.6777],[141.1634,40.664],[141.1605,40.66],[141.1581,40.6494],[141.1525,40.6437],[141.1401,40.639],[141.132,40.638],[141.1054,40.6316],[141.0979,40.6319],[141.0793,40.6388],[141.0647,40.6461],[141.0523,40.6545],[141.0426,40.6593],[141.0255,40.6627],[141.0139,40.6679],[141.0057,40.6753],[140.9977,40.6861],[140.9873,40.6936],[140.9841,40.6946],[140.9803,40.6908],[140.9771,40.6792],[140.9716,40.6633],[140.9525,40.6485],[140.9484,40.646],[140.9353,40.6424],[140.9317,40.6426],[140.9109,40.6498],[140.9,40.6509],[140.8877,40.6549],[140.8825,40.6543],[140.8783,40.6496],[140.8795,40.6443],[140.8847,40.6381],[140.8853,40.6332],[140.8811,40.6245],[140.8746,40.6172],[140.867,40.6109],[140.8622,40.603],[140.8668,40.5836],[140.8675,40.5736],[140.8673,40.5328],[140.8677,40.5268],[140.8698,40.5199],[140.8775,40.5067],[140.8833,40.5079],[140.8753,40.4946],[140.875,40.4166],[140.9079,40.4222],[140.9195,40.4218],[140.9293,40.4188],[140.9407,40.4223],[140.9506,40.4245],[140.962,40.4236],[140.9728,40.4268],[140.9813,40.4259]]]}},{"type":"Feature","properties":{"id":2037},"geometry":{"type":"Polygon","coordinates":[[[140.323,40.7564],[140.3372,40.7609],[140.3449,40.7624],[140.3641,40.7758],[140.3759,40.7804],[140.3824,40.7809],[140.3901,40.7795],[140.4001,40.7758],[140.4072,40.7707],[140.4121,40.7647],[140.4177,40.76],[140.4237,40.7595],[140.4268,40.7627],[140.4266,40.7668],[140.4227,40.7756],[140.424,40.7807],[140.4285,40.7831],[140.4369,40.7834],[140.444,40.7824],[140.4409,40.7881],[140.436,40.802],[140.4227,40.8218],[140.4181,40.8258],[140.4058,40.841],[140.4033,40.8475],[140.4036,40.8611],[140.4055,40.8655],[140.4167,40.8798],[140.4205,40.8863],[140.4246,40.8962],[140.4275,40.9003],[140.4221,40.912],[140.4205,40.9177],[140.417,40.9231],[140.393,40.9414],[140.3897,40.9476],[140.3869,40.9628],[140.3851,40.9681],[140.3864,40.9744],[140.3913,40.9815],[140.3929,40.9874],[140.3911,40.9913],[140.3785,41.0005],[140.3646,41.0052],[140.3634,40.9983],[140.3574,40.9969],[140.3524,40.997],[140.3479,40.9993],[140.3407,41.0056],[140.3197,40.998],[140.3157,40.9476],[140.3038,40.9116],[140.2936,40.8687],[140.2822,40.8407],[140.2638,40.8086],[140.2544,40.7957],[140.2701,40.7888],[140.2876,40.7826],[140.323,40.7564]]]}},{"type":"Feature","properties":{"id":2038},"geometry":{"type":"Polygon","coordinates":[[[140.444,40.7824],[140.4369,40.7834],[140.4285,40.7831],[140.424,40.7807],[140.4227,40.7756],[140.4266,40.7668],[140.4268,40.7627],[140.4237,40.7595],[140.4177,40.76],[140.4121,40.7647],[140.4072,40.7707],[140.4001,40.7758],[140.3901,40.7795],[140.3824,40.7809],[140.3759,40.7804],[140.3641,40.7758],[140.3449,40.7624],[140.3521,40.7585],[140.3642,40.7499],[140.3901,40.7417],[140.3959,40.7381],[140.4045,40.7352],[140.4111,40.7348],[140.4166,40.7318],[140.4214,40.7258],[140.4327,40.7165],[140.4456,40.7226],[140.4535,40.7239],[140.4679,40.7246],[140.4715,40.7259],[140.4835,40.7346],[140.4972,40.7406],[140.5024,40.7439],[140.514,40.7489],[140.4973,40.7609],[140.4877,40.7657],[140.479,40.7687],[140.4685,40.7695],[140.4613,40.7685],[140.444,40.7824]]]}},{"type":"Feature","properties":{"id":2039},"geometry":{"type":"Polygon","coordinates":[[[141.316,41.155],[141.3036,41.1572],[141.2895,41.1609],[141.2773,41.1653],[141.2786,41.1594],[141.2752,41.1438],[141.272,41.1354],[141.2639,41.1262],[141.2605,41.1268],[141.254,41.1191],[141.2479,41.11],[141.2462,41.1019],[141.2476,41.0984],[141.2469,41.0892],[141.2414,41.0807],[141.2429,41.0689],[141.2427,41.0574],[141.2416,41.0442],[141.2395,41.0367],[141.2393,41.0296],[141.237,41.0187],[141.2308,40.9944],[141.2179,40.9643],[141.2298,40.9681],[141.2432,40.9708],[141.2482,40.971],[141.2677,40.969],[141.2759,40.9781],[141.2775,40.9837],[141.2844,40.9936],[141.2907,41.0009],[141.3014,41.0102],[141.3323,41.0333],[141.3378,41.0392],[141.3393,41.0449],[141.3473,41.06],[141.349,41.0667],[141.3545,41.0773],[141.3556,41.0826],[141.3534,41.0915],[141.3527,41.0988],[141.3492,41.1096],[141.3393,41.1136],[141.3341,41.1223],[141.3315,41.1334],[141.3248,41.1448],[141.316,41.155]]]}},{"type":"Feature","properties":{"id":2040},"geometry":{"type":"Polygon","coordinates":[[[140.6665,40.9494],[140.6526,41],[140.6475,41.0239],[140.6473,41.0292],[140.6143,41.0292],[140.6052,41.0289],[140.5824,41.0251],[140.5703,41.0224],[140.5554,41.0161],[140.5462,41.0146],[140.5197,41.0143],[140.5225,40.9991],[140.5222,40.9954],[140.5302,40.9908],[140.5433,40.9788],[140.5483,40.9706],[140.5565,40.9615],[140.5843,40.9614],[140.5955,40.9596],[140.6102,40.9548],[140.6366,40.9449],[140.6417,40.9415],[140.6512,40.941],[140.6654,40.9451],[140.6665,40.9494]]]}}]}