{"type":"FeatureCollection","features":[{"type":"Feature","properties":{"id":20001},"geometry":{"type":"Polygon","coordinates":[[[137.6364,35.3975],[137.6395,35.392],[137.6435,35.3812],[137.6461,35.3775],[137.648,35.3703],[137.6524,35.3629],[137.6635,35.3527],[137.6671,35.3472],[137.6793,35.3402],[137.6867,35.3387],[137.6983,35.3396],[137.7095,35.342],[137.7148,35.3456],[137.721,35.3479],[137.7335,35.3546],[137.7475,35.3637],[137.732,35.3771],[137.7299,35.3859],[137.7313,35.3892],[137.7414,35.3976],[137.7507,35.4023],[137.7552,35.4061],[137.7583,35.4117],[137.7663,35.4222],[137.7755,35.4291],[137.7668,35.4396],[137.7646,35.4441],[137.7553,35.4594],[137.7511,35.4633],[137.731,35.4796],[137.7245,35.4873],[137.712,35.4828],[137.7039,35.4808],[137.6789,35.4784],[137.6743,35.4799],[137.6725,35.4838],[137.6711,35.4956],[137.6675,35.4988],[137.6517,35.5051],[137.6387,35.5132],[137.6338,35.507],[137.6348,35.5058],[137.6286,35.4898],[137.6328,35.4793],[137.6349,35.4679],[137.625,35.4643],[137.6036,35.4489],[137.602,35.4389],[137.6113,35.4345],[137.6188,35.4271],[137.6214,35.4161],[137.6303,35.4075],[137.638,35.3984],[137.6364,35.3975]]]}},{"type":"Feature","properties":{"id":20002},"geometry":{"type":"Polygon","coordinates":[[[137.6329,35.7916],[137.6262,35.7819],[137.6213,35.7789],[137.612,35.7773],[137.6052,35.7747],[137.6012,35.7715],[137.5995,35.7615],[137.5979,35.758],[137.5937,35.7565],[137.5838,35.7557],[137.569,35.7516],[137.5528,35.7507],[137.5481,35.7481],[137.547,35.7395],[137.5496,35.7327],[137.5554,35.7216],[137.5594,35.7254],[137.5708,35.7339],[137.5758,35.7352],[137.586,35.7346],[137.5895,35.7333],[137.5933,35.7253],[137.5937,35.7122],[137.5969,35.7063],[137.6027,35.7039],[137.6081,35.7036],[137.6249,35.7057],[137.6385,35.71],[137.6475,35.7171],[137.6523,35.723],[137.655,35.7425],[137.6566,35.7469],[137.66,35.7503],[137.6679,35.7509],[137.6813,35.7456],[137.6893,35.7395],[137.6998,35.734],[137.707,35.7286],[137.7271,35.7177],[137.7369,35.7139],[137.7439,35.7135],[137.7548,35.7179],[137.7602,35.7263],[137.7637,35.7405],[137.7682,35.7455],[137.7774,35.7524],[137.7834,35.7548],[137.7914,35.7602],[137.8002,35.764],[137.8125,35.7667],[137.8116,35.772],[137.8113,35.7849],[137.7883,35.7929],[137.777,35.795],[137.761,35.8075],[137.7477,35.8145],[137.7383,35.8166],[137.7323,35.819],[137.7256,35.8199],[137.7173,35.8186],[137.7061,35.8146],[137.697,35.8062],[137.6948,35.802],[137.6842,35.7915],[137.6786,35.7867],[137.663,35.7909],[137.6547,35.7915],[137.6329,35.7916]]]}},{"type":"Feature","properties":{"id":20003},"geometry":{"type":"Polygon","coordinates":[[[137.7095,35.342],[137.7013,35.3301],[137.6991,35.3221],[137.6953,35.3154],[137.6893,35.3076],[137.6984,35.3035],[137.7056,35.3015],[137.7159,35.296],[137.7282,35.2914],[137.7314,35.2881],[137.7356,35.2782],[137.7379,35.2669],[137.7365,35.2532],[137.7364,35.2406],[137.7334,35.2386],[137.7343,35.2314],[137.7409,35.2315],[137.7431,35.2351],[137.751,35.2395],[137.7572,35.2418],[137.775,35.2562],[137.7791,35.2601],[137.7854,35.272],[137.7905,35.278],[137.8086,35.2915],[137.822,35.2966],[137.8322,35.302],[137.8395,35.304],[137.8482,35.3079],[137.8451,35.3213],[137.8379,35.3402],[137.8363,35.3495],[137.834,35.3561],[137.8231,35.3746],[137.8118,35.3853],[137.8024,35.3753],[137.7959,35.3664],[137.7785,35.3515],[137.772,35.3499],[137.7641,35.3511],[137.7522,35.3594],[137.7475,35.3637],[137.7335,35.3546],[137.721,35.3479],[137.7148,35.3456],[137.7095,35.342]]]}},{"type":"Feature","properties":{"id":20004},"geometry":{"type":"Polygon","coordinates":[[[138.0818,36.3677],[138.0755,36.3503],[138.0751,36.3298],[138.0765,36.3234],[138.0811,36.3162],[138.0858,36.3122],[138.1018,36.3114],[138.1095,36.3125],[138.1163,36.3156],[138.1268,36.3274],[138.1359,36.3427],[138.1454,36.365],[138.1456,36.3749],[138.1447,36.3821],[138.1428,36.3843],[138.1251,36.3927],[138.1171,36.3996],[138.1054,36.3994],[138.0924,36.4001],[138.0789,36.4026],[138.0738,36.4026],[138.0691,36.3985],[138.0685,36.3939],[138.0713,36.3858],[138.0767,36.3755],[138.0818,36.3677]]]}},{"type":"Feature","properties":{"id":20005},"geometry":{"type":"Polygon","coordinates":[[[137.7566,36.0796],[137.7735,36.0728],[137.7811,36.071],[137.7905,36.073],[137.7997,36.0762],[137.8034,36.0752],[137.8076,36.0714],[137.8197,36.0556],[137.8265,36.0528],[137.8376,36.0506],[137.8428,36.0515],[137.8477,36.0559],[137.8497,36.0603],[137.86,36.0736],[137.8629,36.0804],[137.8691,36.089],[137.8713,36.0935],[137.8881,36.1149],[137.8948,36.1214],[137.8976,36.1265],[137.9016,36.1301],[137.8976,36.1427],[137.8942,36.1506],[137.8743,36.1488],[137.8555,36.1452],[137.8484,36.1426],[137.8295,36.1394],[137.8211,36.1346],[137.8097,36.1251],[137.801,36.1157],[137.7981,36.1063],[137.7943,36.0995],[137.7887,36.0949],[137.7831,36.0931],[137.7667,36.0837],[137.7566,36.0796]]]}},{"type":"Feature","properties":{"id":20006},"geometry":{"type":"Polygon","coordinates":[[[137.9732,36.4045],[137.9679,36.3936],[137.9539,36.3794],[137.9489,36.3778],[137.9428,36.3811],[137.9401,36.3873],[137.9398,36.398],[137.9374,36.4043],[137.9316,36.4099],[137.9227,36.4153],[137.9186,36.3991],[137.9176,36.3872],[137.9147,36.3742],[137.9092,36.3699],[137.9024,36.3678],[137.8931,36.3631],[137.8855,36.3641],[137.8794,36.3717],[137.8743,36.3762],[137.8655,36.3834],[137.8584,36.387],[137.8538,36.388],[137.8481,36.387],[137.8445,36.3821],[137.8404,36.3798],[137.8356,36.38],[137.8203,36.3883],[137.8143,36.3908],[137.8064,36.3911],[137.7743,36.3907],[137.7654,36.3922],[137.7583,36.3992],[137.7522,36.4117],[137.7378,36.4173],[137.7318,36.4163],[137.7272,36.4117],[137.7224,36.4026],[137.721,36.3957],[137.7183,36.3893],[137.7167,36.381],[137.714,36.3746],[137.7122,36.3635],[137.716,36.3584],[137.7192,36.3515],[137.7347,36.3376],[137.7371,36.3333],[137.7427,36.328],[137.7443,36.3247],[137.7445,36.3186],[137.7369,36.3025],[137.7359,36.297],[137.7361,36.2857],[137.7374,36.2818],[137.7455,36.2715],[137.7547,36.2633],[137.7626,36.2591],[137.7693,36.2596],[137.7737,36.2618],[137.7863,36.2659],[137.7991,36.2673],[137.8062,36.2648],[137.8079,36.2608],[137.8061,36.2536],[137.7994,36.2472],[137.7986,36.2433],[137.8037,36.2381],[137.8084,36.2371],[137.8247,36.2369],[137.837,36.2355],[137.8654,36.2354],[137.8738,36.2359],[137.8808,36.2378],[137.8929,36.2441],[137.9026,36.2481],[137.9121,36.2499],[137.9251,36.2507],[137.9288,36.2518],[137.934,36.2563],[137.9442,36.2725],[137.9491,36.2769],[137.9551,36.2792],[137.9629,36.2848],[137.9729,36.2899],[137.982,36.2968],[137.9823,36.3024],[137.9763,36.3068],[137.962,36.312],[137.9535,36.3187],[137.952,36.3219],[137.952,36.328],[137.9545,36.3382],[137.962,36.3581],[137.9658,36.3614],[137.9727,36.3639],[137.9967,36.3675],[137.9895,36.3813],[137.9768,36.3983],[137.9732,36.4045]]]}},{"type":"Feature","properties":{"id":20007},"geometry":{"type":"Polygon","coordinates":[[[138.1171,36.3996],[138.1163,36.415],[138.1201,36.4259],[138.1282,36.4358],[138.1197,36.4446],[138.1168,36.4497],[138.1107,36.4556],[138.108,36.4606],[138.0985,36.4686],[138.0854,36.4739],[138.0791,36.4705],[138.0709,36.4678],[138.0664,36.4641],[138.0575,36.4485],[138.0556,36.4399],[138.0517,36.4324],[138.044,36.4276],[138.034,36.4309],[138.0071,36.4359],[138.0041,36.4386],[138.0034,36.4509],[138.002,36.4566],[137.9954,36.4657],[137.9861,36.4657],[137.963,36.4687],[137.9692,36.4559],[137.9719,36.4519],[137.9733,36.4448],[137.9693,36.4316],[137.9692,36.4212],[137.9732,36.4045],[137.9768,36.3983],[137.9895,36.3813],[137.9967,36.3675],[138.0109,36.3679],[138.0576,36.3681],[138.0818,36.3677],[138.0767,36.3755],[138.0713,36.3858],[138.0685,36.3939],[138.0691,36.3985],[138.0738,36.4026],[138.0789,36.4026],[138.0924,36.4001],[138.1054,36.3994],[138.1171,36.3996]]]}},{"type":"Feature","properties":{"id":20008},"geometry":{"type":"Polygon","coordinates":[[[138.1282,36.4358],[138.137,36.4462],[138.1522,36.4593],[138.1676,36.4756],[138.1762,36.4832],[138.1817,36.487],[138.195,36.4921],[138.2082,36.4981],[138.2165,36.4998],[138.2007,36.5228],[138.1922,36.533],[138.1815,36.5383],[138.1671,36.5436],[138.1461,36.5564],[138.1403,36.5561],[138.1318,36.5524],[138.1248,36.5471],[138.1187,36.5449],[138.1099,36.5391],[138.1027,36.5385],[138.0679,36.5386],[138.0622,36.5378],[138.0566,36.5339],[138.049,36.5253],[138.0455,36.5154],[138.0478,36.4996],[138.0517,36.49],[138.0627,36.4842],[138.0766,36.4793],[138.0854,36.4739],[138.0985,36.4686],[138.108,36.4606],[138.1107,36.4556],[138.1168,36.4497],[138.1197,36.4446],[138.1282,36.4358]]]}},{"type":"Feature","properties":{"id":20009},"geometry":{"type":"Polygon","coordinates":[[[138.2021,35.9481],[138.1978,35.9607],[138.1997,35.9652],[138.2031,35.9675],[138.2275,35.9776],[138.2322,35.9785],[138.2401,35.9777],[138.2472,35.9754],[138.2605,35.9748],[138.2841,35.9719],[138.2991,35.9716],[138.31,35.9688],[138.3203,35.968],[138.35,35.968],[138.3681,35.9644],[138.3709,35.9739],[138.3715,35.9829],[138.3709,35.9903],[138.3675,36.0092],[138.3663,36.0226],[138.3643,36.0302],[138.361,36.0362],[138.3589,36.0431],[138.3539,36.0525],[138.3511,36.0581],[138.3391,36.0775],[138.3364,36.0849],[138.3322,36.0928],[138.3269,36.1003],[138.3118,36.1083],[138.3054,36.1009],[138.2999,36.0968],[138.2851,36.0901],[138.2727,36.0884],[138.2646,36.0857],[138.2546,36.0846],[138.247,36.0854],[138.2426,36.0903],[138.2412,36.1009],[138.2319,36.0997],[138.2008,36.0992],[138.1972,36.094],[138.1911,36.0792],[138.1885,36.0756],[138.1781,36.0572],[138.1676,36.0476],[138.1662,36.0383],[138.1712,36.0177],[138.1689,36.0118],[138.1649,36.0087],[138.1588,36.0065],[138.1517,36.0015],[138.1455,35.9992],[138.1323,35.9921],[138.1026,35.9672],[138.1194,35.9674],[138.1257,35.9662],[138.1725,35.9281],[138.1816,35.9224],[138.1919,35.9357],[138.1945,35.9409],[138.2021,35.9481]]]}},{"type":"Feature","properties":{"id":20010},"geometry":{"type":"Polygon","coordinates":[[[138.1816,35.9224],[138.1764,35.9111],[138.1746,35.8995],[138.1761,35.8908],[138.1835,35.8821],[138.1886,35.8741],[138.1911,35.8666],[138.1917,35.8607],[138.1892,35.8496],[138.1817,35.8374],[138.1792,35.8287],[138.1789,35.8051],[138.1802,35.7962],[138.1852,35.7838],[138.1904,35.7804],[138.1983,35.7804],[138.192,35.7849],[138.1908,35.7959],[138.1989,35.8029],[138.2066,35.8109],[138.207,35.8221],[138.2154,35.8334],[138.2263,35.8519],[138.2324,35.8637],[138.2401,35.8771],[138.25,35.8822],[138.2608,35.8765],[138.2698,35.8701],[138.2761,35.8619],[138.2867,35.8564],[138.2945,35.8631],[138.3017,35.8706],[138.3143,35.8868],[138.33,35.9017],[138.3381,35.9167],[138.3458,35.9237],[138.3487,35.9341],[138.3538,35.9432],[138.363,35.9477],[138.3644,35.9581],[138.3713,35.964],[138.3681,35.9644],[138.3426,35.9578],[138.3331,35.9565],[138.3257,35.954],[138.3124,35.9568],[138.2979,35.9582],[138.2912,35.9561],[138.2801,35.9468],[138.2651,35.9389],[138.2546,35.9357],[138.2377,35.9313],[138.2307,35.9317],[138.2218,35.9353],[138.2095,35.9447],[138.2021,35.9481],[138.1945,35.9409],[138.1919,35.9357],[138.1816,35.9224]]]}},{"type":"Feature","properties":{"id":20011},"geometry":{"type":"Polygon","coordinates":[[[137.9362,36.7245],[137.9224,36.731],[137.9147,36.7332],[137.8961,36.7342],[137.8763,36.7358],[137.8614,36.7394],[137.8444,36.7468],[137.8277,36.7601],[137.8183,36.764],[137.8072,36.7654],[137.7909,36.7688],[137.7864,36.7707],[137.7751,36.7686],[137.7658,36.7642],[137.7571,36.7513],[137.7585,36.7398],[137.7572,36.7293],[137.7547,36.7188],[137.7557,36.697],[137.7573,36.6864],[137.7632,36.6774],[137.7641,36.6666],[137.7593,36.6544],[137.7737,36.6541],[137.7932,36.6462],[137.8004,36.6412],[137.8066,36.639],[137.816,36.631],[137.8221,36.6185],[137.8271,36.6139],[137.8365,36.6132],[137.8526,36.6174],[137.8641,36.6194],[137.8681,36.6225],[137.8752,36.6356],[137.879,36.6388],[137.8841,36.6404],[137.9133,36.6401],[137.9145,36.6552],[137.9135,36.6724],[137.9148,36.6777],[137.9292,36.7023],[137.9315,36.7123],[137.9362,36.7245]]]}},{"type":"Feature","properties":{"id":20012},"geometry":{"type":"Polygon","coordinates":[[[138.2021,35.9481],[138.2095,35.9447],[138.2218,35.9353],[138.2307,35.9317],[138.2377,35.9313],[138.2546,35.9357],[138.2651,35.9389],[138.2801,35.9468],[138.2912,35.9561],[138.2979,35.9582],[138.3124,35.9568],[138.3257,35.954],[138.3331,35.9565],[138.3426,35.9578],[138.3681,35.9644],[138.35,35.968],[138.3203,35.968],[138.31,35.9688],[138.2991,35.9716],[138.2841,35.9719],[138.2605,35.9748],[138.2472,35.9754],[138.2401,35.9777],[138.2322,35.9785],[138.2275,35.9776],[138.2031,35.9675],[138.1997,35.9652],[138.1978,35.9607],[138.2021,35.9481]]]}},{"type":"Feature","properties":{"id":20013},"geometry":{"type":"Polygon","coordinates":[[[137.8295,36.1394],[137.8364,36.1474],[137.8565,36.1642],[137.8706,36.1741],[137.8768,36.1762],[137.892,36.1871],[137.8931,36.1923],[137.8937,36.2064],[137.8929,36.2105],[137.8881,36.2137],[137.8772,36.2135],[137.8658,36.2107],[137.8457,36.1945],[137.8397,36.1921],[137.8325,36.1871],[137.8265,36.1848],[137.8193,36.1798],[137.8133,36.1774],[137.8086,36.174],[137.7783,36.148],[137.7755,36.143],[137.7691,36.1363],[137.765,36.1268],[137.7636,36.1172],[137.7606,36.1105],[137.7593,36.0966],[137.7566,36.0796],[137.7667,36.0837],[137.7831,36.0931],[137.7887,36.0949],[137.7943,36.0995],[137.7981,36.1063],[137.801,36.1157],[137.8097,36.1251],[137.8211,36.1346],[137.8295,36.1394]]]}},{"type":"Feature","properties":{"id":20014},"geometry":{"type":"Polygon","coordinates":[[[137.577,35.3128],[137.5973,35.309],[137.6174,35.3035],[137.6296,35.3009],[137.6334,35.2979],[137.6353,35.2925],[137.6331,35.2809],[137.6321,35.2645],[137.6329,35.2601],[137.6377,35.2573],[137.6477,35.2586],[137.6587,35.2635],[137.6688,35.2744],[137.6713,35.2796],[137.6818,35.2927],[137.6866,35.3008],[137.6893,35.3076],[137.6953,35.3154],[137.6991,35.3221],[137.7013,35.3301],[137.7095,35.342],[137.6983,35.3396],[137.6867,35.3387],[137.6793,35.3402],[137.6671,35.3472],[137.6635,35.3527],[137.6524,35.3629],[137.648,35.3703],[137.6461,35.3775],[137.6435,35.3812],[137.6395,35.392],[137.6364,35.3975],[137.6242,35.3906],[137.6106,35.3903],[137.6045,35.3889],[137.594,35.3865],[137.601,35.376],[137.6016,35.3656],[137.6044,35.3535],[137.6043,35.3433],[137.6071,35.3333],[137.5954,35.3263],[137.577,35.3128]]]}},{"type":"Feature","properties":{"id":20015},"geometry":{"type":"Polygon","coordinates":[[[137.7755,35.4291],[137.8036,35.4234],[137.8113,35.4209],[137.8213,35.419],[137.8298,35.4161],[137.8429,35.4102],[137.8572,35.4048],[137.8728,35.3921],[137.8784,35.3884],[137.8837,35.3866],[137.9128,35.363],[137.9242,35.3532],[137.9245,35.3477],[137.9196,35.3359],[137.9138,35.3292],[137.8985,35.3226],[137.884,35.3187],[137.8747,35.3173],[137.8564,35.3103],[137.8482,35.3079],[137.8581,35.3024],[137.8658,35.2965],[137.8758,35.2915],[137.8851,35.2833],[137.8874,35.279],[137.8938,35.2732],[137.8986,35.2655],[137.8998,35.2596],[137.9049,35.2529],[137.9141,35.2505],[137.9243,35.2547],[137.9292,35.2641],[137.9347,35.2727],[137.9451,35.2727],[137.9535,35.2786],[137.9654,35.2807],[137.9743,35.2861],[137.9847,35.2892],[138,35.2993],[138.0118,35.3006],[138.0169,35.2992],[138.0218,35.2979],[138.0295,35.3064],[138.0289,35.3167],[138.039,35.3221],[138.045,35.3316],[138.0552,35.3334],[138.0613,35.3416],[138.0714,35.3437],[138.0818,35.3405],[138.0905,35.3347],[138.0936,35.3366],[138.099,35.34],[138.0997,35.3508],[138.109,35.3549],[138.125,35.3641],[138.1356,35.3629],[138.145,35.3677],[138.1483,35.3783],[138.154,35.3867],[138.152,35.3977],[138.1415,35.4031],[138.1418,35.4167],[138.125,35.4253],[138.1249,35.4522],[138.1166,35.4661],[138.1101,35.4746],[138.1078,35.4791],[138.0992,35.4865],[138.0903,35.4887],[138.075,35.4863],[138.0685,35.4824],[138.0591,35.4751],[138.0496,35.4719],[138.0361,35.4724],[138.0291,35.4737],[138.0134,35.4808],[138.0013,35.4907],[137.9951,35.4941],[137.9869,35.4755],[137.9849,35.4632],[137.981,35.4589],[137.9501,35.437],[137.9391,35.4357],[137.9196,35.4389],[137.9143,35.4424],[137.9158,35.4609],[137.9132,35.4644],[137.9074,35.4664],[137.8949,35.4688],[137.8896,35.4724],[137.8866,35.4784],[137.8833,35.4884],[137.8788,35.4958],[137.8682,35.5053],[137.8643,35.5152],[137.8642,35.5236],[137.8681,35.53],[137.8769,35.5343],[137.8835,35.5362],[137.8777,35.5403],[137.8647,35.5515],[137.8508,35.5592],[137.8457,35.5609],[137.8344,35.561],[137.8249,35.5592],[137.8185,35.5606],[137.8114,35.5656],[137.8054,35.5678],[137.8009,35.5715],[137.7995,35.5761],[137.8008,35.5821],[137.8052,35.5894],[137.8118,35.598],[137.8179,35.609],[137.8237,35.6165],[137.8159,35.6362],[137.8112,35.6428],[137.8058,35.648],[137.7978,35.6534],[137.7915,35.6501],[137.7844,35.6448],[137.7791,35.6429],[137.7626,35.63],[137.7411,35.6213],[137.7348,35.611],[137.7323,35.605],[137.7258,35.5984],[137.7193,35.5866],[137.7127,35.58],[137.7062,35.5682],[137.7026,35.5633],[137.7103,35.5544],[137.7127,35.5465],[137.7155,35.5418],[137.7189,35.5283],[137.723,35.5233],[137.7282,35.5214],[137.7376,35.5148],[137.739,35.5117],[137.7379,35.506],[137.7289,35.4914],[137.7245,35.4873],[137.731,35.4796],[137.7511,35.4633],[137.7553,35.4594],[137.7646,35.4441],[137.7668,35.4396],[137.7755,35.4291]]]}},{"type":"Feature","properties":{"id":20016},"geometry":{"type":"Polygon","coordinates":[[[137.8218,35.7186],[137.8198,35.7088],[137.8168,35.7033],[137.811,35.6787],[137.8085,35.6749],[137.8021,35.6603],[137.7978,35.6534],[137.8097,35.6546],[137.8287,35.6549],[137.8373,35.6517],[137.851,35.6385],[137.8541,35.6336],[137.8611,35.6298],[137.8711,35.6262],[137.8765,35.6264],[137.8852,35.63],[137.9002,35.6379],[137.9045,35.6409],[137.9159,35.6449],[137.9281,35.6505],[137.9399,35.655],[137.9484,35.656],[137.9649,35.6595],[137.9733,35.6632],[137.9867,35.6719],[137.9998,35.6788],[137.9922,35.6841],[137.9846,35.6873],[137.9742,35.6872],[137.9574,35.6813],[137.9531,35.6825],[137.9509,35.6868],[137.9494,35.6964],[137.945,35.699],[137.9396,35.6995],[137.9043,35.699],[137.8904,35.7003],[137.8773,35.7054],[137.8713,35.707],[137.8479,35.7169],[137.84,35.7184],[137.8218,35.7186]]]}},{"type":"Feature","properties":{"id":20017},"geometry":{"type":"Polygon","coordinates":[[[138.4844,36.8887],[138.4632,36.8977],[138.4542,36.8999],[138.4399,36.9053],[138.4337,36.9068],[138.424,36.9144],[138.4224,36.9224],[138.4225,36.9334],[138.4238,36.9381],[138.4306,36.9445],[138.4367,36.9527],[138.4587,36.9713],[138.4678,36.9754],[138.4853,36.9791],[138.4931,36.9796],[138.4979,36.9904],[138.502,36.9964],[138.5137,37.0071],[138.5179,37.0145],[138.5188,37.02],[138.5221,37.0228],[138.5218,37.0268],[138.517,37.0264],[138.4908,37.017],[138.4794,37.017],[138.4673,37.0155],[138.4552,37.0128],[138.4455,37.0096],[138.4363,37.0039],[138.4264,37.0022],[138.4085,36.9953],[138.3978,36.9942],[138.3915,36.9829],[138.3821,36.9773],[138.3789,36.971],[138.375,36.9629],[138.3668,36.9499],[138.3658,36.9393],[138.3607,36.9306],[138.3423,36.9196],[138.3319,36.9237],[138.3214,36.9221],[138.3115,36.9167],[138.3004,36.9089],[138.2961,36.898],[138.2997,36.8794],[138.296,36.8699],[138.2956,36.8589],[138.2944,36.8488],[138.2876,36.842],[138.2927,36.8399],[138.3064,36.8319],[138.3182,36.816],[138.3292,36.8041],[138.3383,36.8033],[138.3515,36.807],[138.358,36.812],[138.3595,36.8163],[138.3615,36.8285],[138.3643,36.8318],[138.3705,36.832],[138.386,36.8272],[138.3976,36.8567],[138.4023,36.8647],[138.4068,36.8684],[138.4274,36.8766],[138.4351,36.877],[138.4668,36.8768],[138.4753,36.8788],[138.4844,36.8887]]]}},{"type":"Feature","properties":{"id":20018},"geometry":{"type":"Polygon","coordinates":[[[138.3055,36.7515],[138.2996,36.7698],[138.2943,36.7843],[138.2921,36.7936],[138.2906,36.8064],[138.2839,36.8328],[138.2806,36.8407],[138.2756,36.84],[138.2724,36.8338],[138.271,36.8218],[138.2686,36.8155],[138.2659,36.8121],[138.2593,36.8004],[138.2509,36.7927],[138.2353,36.7837],[138.2202,36.7707],[138.2136,36.7666],[138.2075,36.7648],[138.197,36.7595],[138.1898,36.7574],[138.1785,36.7517],[138.1685,36.7501],[138.1599,36.751],[138.1409,36.7511],[138.1289,36.7502],[138.1341,36.742],[138.1442,36.7372],[138.1762,36.7246],[138.1887,36.7179],[138.1965,36.7122],[138.2032,36.7112],[138.2188,36.7143],[138.2288,36.7156],[138.2493,36.7216],[138.2522,36.7248],[138.2583,36.7409],[138.2668,36.7444],[138.2819,36.7445],[138.2939,36.7469],[138.3055,36.7515]]]}},{"type":"Feature","properties":{"id":20019},"geometry":{"type":"Polygon","coordinates":[[[137.9227,36.4153],[137.9254,36.4351],[137.932,36.4484],[137.9339,36.4555],[137.9398,36.4628],[137.9238,36.4679],[137.9105,36.4716],[137.902,36.4721],[137.8957,36.4685],[137.8954,36.4605],[137.8973,36.4514],[137.8969,36.4483],[137.8897,36.4428],[137.8728,36.4418],[137.8777,36.4283],[137.8799,36.4191],[137.8802,36.405],[137.8781,36.392],[137.8743,36.3762],[137.8794,36.3717],[137.8855,36.3641],[137.8931,36.3631],[137.9024,36.3678],[137.9092,36.3699],[137.9147,36.3742],[137.9176,36.3872],[137.9186,36.3991],[137.9227,36.4153]]]}},{"type":"Feature","properties":{"id":20020},"geometry":{"type":"Polygon","coordinates":[[[137.9732,36.4045],[137.9692,36.4212],[137.9693,36.4316],[137.9733,36.4448],[137.9719,36.4519],[137.9692,36.4559],[137.963,36.4687],[137.9509,36.4675],[137.9398,36.4628],[137.9339,36.4555],[137.932,36.4484],[137.9254,36.4351],[137.9227,36.4153],[137.9316,36.4099],[137.9374,36.4043],[137.9398,36.398],[137.9401,36.3873],[137.9428,36.3811],[137.9489,36.3778],[137.9539,36.3794],[137.9679,36.3936],[137.9732,36.4045]]]}},{"type":"Feature","properties":{"id":20021},"geometry":{"type":"Polygon","coordinates":[[[138.1026,35.9672],[138.0948,35.9608],[138.088,35.9563],[138.0897,35.9407],[138.0864,35.9315],[138.0602,35.9093],[138.0555,35.9059],[138.04,35.8985],[138.0213,35.8909],[138.0159,35.8895],[138.0062,35.8845],[138.0003,35.8805],[138.0024,35.869],[138.0004,35.8639],[137.9957,35.8623],[137.9875,35.8625],[137.9792,35.8639],[137.9704,35.8629],[137.9623,35.8575],[137.9503,35.8523],[137.9449,35.8518],[137.9343,35.8526],[137.93,35.8542],[137.9311,35.8595],[137.941,35.8616],[137.9464,35.8649],[137.9502,35.8705],[137.9527,35.8775],[137.9611,35.888],[137.9616,35.9024],[137.9596,35.9087],[137.9563,35.9119],[137.9486,35.9138],[137.9404,35.9131],[137.9341,35.9096],[137.9317,35.9055],[137.9251,35.8979],[137.9161,35.8986],[137.9019,35.8984],[137.8956,35.8964],[137.8863,35.8885],[137.8852,35.8848],[137.8852,35.867],[137.8804,35.8649],[137.8756,35.8676],[137.8614,35.8783],[137.8589,35.8664],[137.8584,35.8541],[137.8542,35.8427],[137.8492,35.8354],[137.8338,35.8223],[137.831,35.8187],[137.8184,35.8051],[137.8133,35.8017],[137.8347,35.7946],[137.8576,35.7893],[137.8802,35.7857],[137.8925,35.7792],[137.8998,35.7741],[137.9041,35.7726],[137.9218,35.77],[137.9317,35.7679],[137.9431,35.7694],[137.9534,35.7739],[137.9602,35.7783],[137.976,35.7783],[138,35.7812],[138.0115,35.7794],[138.0222,35.7742],[138.0291,35.7721],[138.0375,35.7668],[138.0434,35.7642],[138.0527,35.7536],[138.0663,35.7361],[138.0696,35.7246],[138.0696,35.7121],[138.067,35.7006],[138.0795,35.6913],[138.0948,35.6684],[138.1025,35.658],[138.1052,35.6519],[138.1074,35.6426],[138.1079,35.6249],[138.1105,35.6113],[138.1135,35.6056],[138.1424,35.5818],[138.1511,35.5708],[138.1537,35.5657],[138.1636,35.5744],[138.174,35.5792],[138.1812,35.5719],[138.192,35.5734],[138.2003,35.5934],[138.2067,35.6024],[138.2071,35.6125],[138.2059,35.6228],[138.2216,35.6413],[138.2187,35.6442],[138.2133,35.6496],[138.2087,35.6607],[138.2004,35.6667],[138.1955,35.6755],[138.1967,35.6856],[138.1955,35.6957],[138.1875,35.7039],[138.1847,35.7145],[138.2107,35.7331],[138.2191,35.7409],[138.2263,35.7457],[138.2328,35.75],[138.2353,35.7604],[138.2258,35.7649],[138.2167,35.7718],[138.201,35.7785],[138.1983,35.7804],[138.1904,35.7804],[138.1852,35.7838],[138.1802,35.7962],[138.1789,35.8051],[138.1792,35.8287],[138.1817,35.8374],[138.1892,35.8496],[138.1917,35.8607],[138.1911,35.8666],[138.1886,35.8741],[138.1835,35.8821],[138.1761,35.8908],[138.1746,35.8995],[138.1764,35.9111],[138.1816,35.9224],[138.1725,35.9281],[138.1257,35.9662],[138.1194,35.9674],[138.1026,35.9672]]]}},{"type":"Feature","properties":{"id":20022},"geometry":{"type":"Polygon","coordinates":[[[138.6474,36.4062],[138.6449,36.411],[138.6357,36.4148],[138.625,36.4132],[138.6137,36.4197],[138.6028,36.421],[138.5876,36.4193],[138.5777,36.4165],[138.5736,36.4167],[138.5669,36.4171],[138.5521,36.409],[138.5447,36.4007],[138.5337,36.3995],[138.5141,36.4066],[138.5172,36.3822],[138.5244,36.3715],[138.5269,36.359],[138.5269,36.3418],[138.5275,36.3347],[138.5303,36.3287],[138.5406,36.3212],[138.5598,36.3204],[138.5643,36.3189],[138.5902,36.2977],[138.6015,36.2852],[138.6092,36.2792],[138.6092,36.2775],[138.625,36.2838],[138.6466,36.2906],[138.6541,36.3003],[138.6561,36.303],[138.651,36.3125],[138.6552,36.3237],[138.6532,36.3431],[138.657,36.3539],[138.6592,36.3638],[138.6542,36.3727],[138.6553,36.383],[138.6539,36.3937],[138.6474,36.4062]]]}},{"type":"Feature","properties":{"id":20023},"geometry":{"type":"Polygon","coordinates":[[[138.7042,35.9866],[138.7065,35.9842],[138.6488,35.9839],[138.6362,35.9847],[138.6275,35.9873],[138.6149,35.9879],[138.6034,35.9891],[138.5794,35.9894],[138.57,35.9907],[138.5565,35.9844],[138.5473,35.9828],[138.5396,35.9805],[138.5198,35.98],[138.5127,35.9789],[138.5067,35.9707],[138.5047,35.9662],[138.4981,35.956],[138.4966,35.9478],[138.4978,35.9394],[138.5013,35.933],[138.5051,35.918],[138.5054,35.9126],[138.5085,35.9154],[138.5197,35.9167],[138.5368,35.9121],[138.5485,35.9116],[138.5594,35.9132],[138.5698,35.9132],[138.5798,35.9084],[138.5875,35.9149],[138.5976,35.9142],[138.612,35.8999],[138.6081,35.8904],[138.6096,35.8801],[138.6139,35.8705],[138.6264,35.8673],[138.6362,35.8673],[138.6475,35.8712],[138.6586,35.8726],[138.6742,35.8676],[138.683,35.8741],[138.6867,35.8851],[138.7112,35.9066],[138.7216,35.9055],[138.7317,35.9061],[138.7355,35.9167],[138.7419,35.9277],[138.7393,35.9381],[138.7273,35.955],[138.7191,35.9613],[138.7153,35.9707],[138.7203,35.99],[138.7042,35.9866]]]}},{"type":"Feature","properties":{"id":20024},"geometry":{"type":"Polygon","coordinates":[[[138.386,36.8272],[138.3917,36.8236],[138.3941,36.8192],[138.4002,36.8134],[138.4031,36.8083],[138.411,36.7989],[138.4162,36.8016],[138.4372,36.8103],[138.4462,36.8121],[138.463,36.8102],[138.4703,36.8069],[138.4788,36.8008],[138.4915,36.797],[138.5066,36.7953],[138.5187,36.7972],[138.5352,36.8044],[138.5457,36.8161],[138.5502,36.8246],[138.5505,36.8331],[138.5469,36.8477],[138.5444,36.8512],[138.5396,36.8538],[138.5333,36.8551],[138.5233,36.8552],[138.5136,36.8577],[138.5079,36.8634],[138.5052,36.8682],[138.4993,36.8823],[138.4913,36.885],[138.4844,36.8887],[138.4753,36.8788],[138.4668,36.8768],[138.4351,36.877],[138.4274,36.8766],[138.4068,36.8684],[138.4023,36.8647],[138.3976,36.8567],[138.386,36.8272]]]}},{"type":"Feature","properties":{"id":20025},"geometry":{"type":"Polygon","coordinates":[[[137.474,35.89],[137.4863,35.8838],[137.4918,35.8787],[137.4938,35.8737],[137.498,35.8678],[137.5081,35.863],[137.5172,35.8595],[137.55,35.8546],[137.5623,35.8513],[137.5695,35.8478],[137.5739,35.8419],[137.5799,35.8359],[137.5863,35.824],[137.5951,35.8155],[137.5999,35.8142],[137.6034,35.8165],[137.6087,35.8252],[137.6131,35.8299],[137.6163,35.831],[137.6203,35.8291],[137.6215,35.8253],[137.6211,35.8125],[137.6197,35.8089],[137.6137,35.8033],[137.614,35.7979],[137.6237,35.7935],[137.6329,35.7916],[137.6547,35.7915],[137.663,35.7909],[137.6786,35.7867],[137.6842,35.7915],[137.6948,35.802],[137.697,35.8062],[137.7061,35.8146],[137.7173,35.8186],[137.7256,35.8199],[137.7323,35.819],[137.7383,35.8166],[137.7477,35.8145],[137.761,35.8075],[137.777,35.795],[137.7883,35.7929],[137.8113,35.7849],[137.8133,35.8017],[137.8184,35.8051],[137.831,35.8187],[137.8214,35.8237],[137.8154,35.8285],[137.8119,35.8336],[137.8108,35.8384],[137.8138,35.8492],[137.8154,35.8586],[137.8196,35.8727],[137.8183,35.8767],[137.811,35.8874],[137.809,35.8945],[137.8062,35.8993],[137.805,35.9158],[137.8036,35.9248],[137.7864,35.9158],[137.7784,35.9134],[137.769,35.9083],[137.7594,35.9064],[137.7533,35.9093],[137.7511,35.9208],[137.7468,35.9248],[137.7322,35.9333],[137.7004,35.9592],[137.6984,35.9647],[137.6994,35.9766],[137.702,35.9815],[137.7037,35.9926],[137.706,36.0003],[137.7107,36.0107],[137.6986,36.0097],[137.6727,36.0096],[137.666,36.0103],[137.6586,36.0127],[137.6302,36.0148],[137.5993,36.0151],[137.5968,36.0084],[137.5872,35.9998],[137.5762,35.9926],[137.5666,35.9881],[137.5566,35.9843],[137.5464,35.9769],[137.5446,35.9668],[137.537,35.9594],[137.532,35.9503],[137.5274,35.9392],[137.5154,35.9377],[137.5053,35.9349],[137.5,35.925],[137.4921,35.9166],[137.4904,35.9131],[137.4785,35.8912],[137.474,35.89]]]}},{"type":"Feature","properties":{"id":20026},"geometry":{"type":"Polygon","coordinates":[[[137.7566,36.0796],[137.7522,36.0753],[137.7436,36.0637],[137.7426,36.0583],[137.7463,36.0512],[137.7492,36.0413],[137.749,36.0349],[137.7464,36.0284],[137.7368,36.0195],[137.7247,36.0142],[137.7144,36.0126],[137.7107,36.0107],[137.706,36.0003],[137.7037,35.9926],[137.702,35.9815],[137.6994,35.9766],[137.6984,35.9647],[137.7004,35.9592],[137.7322,35.9333],[137.7468,35.9248],[137.7511,35.9208],[137.7533,35.9093],[137.7594,35.9064],[137.769,35.9083],[137.7784,35.9134],[137.7864,35.9158],[137.8036,35.9248],[137.8031,35.9455],[137.8057,35.9591],[137.8084,35.9646],[137.8093,35.9721],[137.8092,35.9872],[137.8103,35.9951],[137.8174,36.0094],[137.8197,36.0184],[137.82,36.025],[137.8197,36.0556],[137.8076,36.0714],[137.8034,36.0752],[137.7997,36.0762],[137.7905,36.073],[137.7811,36.071],[137.7735,36.0728],[137.7566,36.0796]]]}},{"type":"Feature","properties":{"id":20027},"geometry":{"type":"Polygon","coordinates":[[[138.6355,36.0841],[138.6326,36.0818],[138.6262,36.0857],[138.6161,36.0898],[138.6083,36.0913],[138.5935,36.0909],[138.5855,36.0854],[138.5663,36.0694],[138.5587,36.0678],[138.5411,36.0678],[138.5329,36.0667],[138.5294,36.0649],[138.5093,36.0585],[138.5192,36.051],[138.5322,36.0467],[138.5427,36.045],[138.5588,36.0395],[138.5692,36.0377],[138.5739,36.0357],[138.592,36.0345],[138.6085,36.0319],[138.62,36.031],[138.6277,36.0286],[138.632,36.0287],[138.6422,36.0322],[138.6404,36.035],[138.6461,36.0537],[138.6461,36.0642],[138.6403,36.074],[138.6355,36.0841]]]}},{"type":"Feature","properties":{"id":20028},"geometry":{"type":"Polygon","coordinates":[[[137.9998,35.6788],[138.0105,35.6789],[138.0219,35.677],[138.0384,35.6704],[138.0447,35.6793],[138.0468,35.6839],[138.052,35.6901],[138.0605,35.6973],[138.067,35.7006],[138.0696,35.7121],[138.0696,35.7246],[138.0663,35.7361],[138.0527,35.7536],[138.0434,35.7642],[138.0375,35.7668],[138.0291,35.7721],[138.0222,35.7742],[138.0115,35.7794],[138,35.7812],[137.976,35.7783],[137.9602,35.7783],[137.963,35.7622],[137.9626,35.7578],[137.9594,35.754],[137.952,35.7521],[137.9076,35.7522],[137.8992,35.7526],[137.888,35.7546],[137.8798,35.7568],[137.8645,35.7584],[137.8456,35.7627],[137.8358,35.7643],[137.8215,35.7652],[137.8125,35.7667],[137.8149,35.7571],[137.816,35.7478],[137.8194,35.7398],[137.8197,35.7329],[137.8218,35.7186],[137.84,35.7184],[137.8479,35.7169],[137.8713,35.707],[137.8773,35.7054],[137.8904,35.7003],[137.9043,35.699],[137.9396,35.6995],[137.945,35.699],[137.9494,35.6964],[137.9509,35.6868],[137.9531,35.6825],[137.9574,35.6813],[137.9742,35.6872],[137.9846,35.6873],[137.9922,35.6841],[137.9998,35.6788]]]}},{"type":"Feature","properties":{"id":20029},"geometry":{"type":"Polygon","coordinates":[[[138.4409,36.42],[138.4356,36.41],[138.4326,36.4062],[138.4301,36.4002],[138.4191,36.3836],[138.4085,36.3761],[138.4024,36.3738],[138.3936,36.3665],[138.3909,36.3614],[138.3805,36.3518],[138.3754,36.343],[138.3693,36.3215],[138.3718,36.3135],[138.3852,36.3025],[138.3948,36.2971],[138.4031,36.2918],[138.4144,36.2893],[138.4201,36.2859],[138.4232,36.282],[138.4251,36.2735],[138.4287,36.2703],[138.434,36.27],[138.4398,36.2728],[138.4473,36.2788],[138.4535,36.281],[138.466,36.2877],[138.4736,36.2937],[138.4805,36.2969],[138.4849,36.3143],[138.4848,36.3288],[138.4769,36.3397],[138.4755,36.3449],[138.477,36.355],[138.4798,36.3597],[138.4813,36.3676],[138.4856,36.3808],[138.4904,36.3889],[138.4977,36.3969],[138.4895,36.3984],[138.4779,36.4009],[138.4676,36.4012],[138.4609,36.4086],[138.451,36.4167],[138.4409,36.42]]]}},{"type":"Feature","properties":{"id":20030},"geometry":{"type":"Polygon","coordinates":[[[138.3675,36.0092],[138.4016,36.0132],[138.4079,36.0154],[138.4214,36.0174],[138.4457,36.0187],[138.4591,36.0242],[138.4624,36.0326],[138.4698,36.0476],[138.4765,36.0479],[138.4853,36.0398],[138.4953,36.0465],[138.5024,36.0535],[138.5093,36.0585],[138.5294,36.0649],[138.5329,36.0667],[138.5411,36.0678],[138.5587,36.0678],[138.5663,36.0694],[138.5855,36.0854],[138.5935,36.0909],[138.5777,36.0944],[138.5697,36.097],[138.5594,36.0976],[138.5423,36.1015],[138.5173,36.113],[138.504,36.1248],[138.4868,36.1293],[138.4793,36.1287],[138.4669,36.122],[138.453,36.1104],[138.4469,36.102],[138.4421,36.0975],[138.4112,36.0721],[138.3928,36.0665],[138.3883,36.0644],[138.3768,36.0623],[138.3596,36.0553],[138.3539,36.0525],[138.3589,36.0431],[138.361,36.0362],[138.3643,36.0302],[138.3663,36.0226],[138.3675,36.0092]]]}},{"type":"Feature","properties":{"id":20031},"geometry":{"type":"Polygon","coordinates":[[[137.8237,35.6165],[137.8323,35.6116],[137.8677,35.5971],[137.8874,35.5924],[137.8951,35.5898],[137.9041,35.5845],[137.9167,35.5709],[137.9224,35.5703],[137.9404,35.5664],[137.9493,35.5639],[137.9541,35.564],[137.9684,35.5701],[137.9767,35.5713],[137.9832,35.5708],[137.9934,35.5669],[138.0103,35.5544],[138.0113,35.5649],[138.0107,35.5809],[138.0074,35.5945],[138.0073,35.601],[137.998,35.6037],[137.9852,35.6053],[137.9575,35.6027],[137.9466,35.6045],[137.9309,35.6087],[137.9249,35.6117],[137.9196,35.618],[137.9173,35.6239],[137.9123,35.6321],[137.9045,35.6409],[137.9002,35.6379],[137.8852,35.63],[137.8765,35.6264],[137.8711,35.6262],[137.8611,35.6298],[137.8541,35.6336],[137.851,35.6385],[137.8373,35.6517],[137.8287,35.6549],[137.8097,35.6546],[137.7978,35.6534],[137.8058,35.648],[137.8112,35.6428],[137.8159,35.6362],[137.8237,35.6165]]]}},{"type":"Feature","properties":{"id":20032},"geometry":{"type":"Polygon","coordinates":[[[137.5993,36.0151],[137.6302,36.0148],[137.6586,36.0127],[137.666,36.0103],[137.6727,36.0096],[137.6986,36.0097],[137.7107,36.0107],[137.7144,36.0126],[137.7247,36.0142],[137.7368,36.0195],[137.7464,36.0284],[137.749,36.0349],[137.7492,36.0413],[137.7463,36.0512],[137.7426,36.0583],[137.7436,36.0637],[137.7522,36.0753],[137.7566,36.0796],[137.7593,36.0966],[137.7606,36.1105],[137.7636,36.1172],[137.765,36.1268],[137.7691,36.1363],[137.7755,36.143],[137.7783,36.148],[137.8086,36.174],[137.8133,36.1774],[137.8193,36.1798],[137.8265,36.1848],[137.8325,36.1871],[137.8397,36.1921],[137.8457,36.1945],[137.8658,36.2107],[137.8772,36.2135],[137.8881,36.2137],[137.8929,36.2105],[137.8937,36.2064],[137.8931,36.1923],[137.892,36.1871],[137.8981,36.1832],[137.9029,36.1785],[137.9045,36.1744],[137.9013,36.1661],[137.8942,36.1506],[137.8976,36.1427],[137.9016,36.1301],[137.9123,36.1435],[137.9149,36.1486],[137.9233,36.1561],[137.9273,36.1571],[137.9326,36.1553],[137.9369,36.1513],[137.9433,36.151],[137.9502,36.1559],[137.9622,36.161],[137.9711,36.1619],[137.9751,36.1599],[137.9779,36.1524],[137.9804,36.1491],[137.9962,36.1465],[138.0139,36.1464],[138.0217,36.1456],[138.0306,36.1428],[138.0411,36.1421],[138.0495,36.1519],[138.0551,36.1595],[138.0622,36.1619],[138.0681,36.1611],[138.0745,36.1584],[138.0843,36.1575],[138.1072,36.1576],[138.1142,36.1607],[138.1267,36.1614],[138.135,36.1604],[138.136,36.1701],[138.1355,36.1839],[138.1336,36.1905],[138.1302,36.1965],[138.1239,36.2107],[138.1156,36.2212],[138.1036,36.232],[138.0993,36.2377],[138.0899,36.2547],[138.0836,36.2693],[138.0765,36.2802],[138.0766,36.2855],[138.0827,36.2962],[138.0858,36.3122],[138.0811,36.3162],[138.0765,36.3234],[138.0751,36.3298],[138.0755,36.3503],[138.0818,36.3677],[138.0576,36.3681],[138.0109,36.3679],[137.9967,36.3675],[137.9727,36.3639],[137.9658,36.3614],[137.962,36.3581],[137.9545,36.3382],[137.952,36.328],[137.952,36.3219],[137.9535,36.3187],[137.962,36.312],[137.9763,36.3068],[137.9823,36.3024],[137.982,36.2968],[137.9729,36.2899],[137.9629,36.2848],[137.9551,36.2792],[137.9491,36.2769],[137.9442,36.2725],[137.934,36.2563],[137.9288,36.2518],[137.9251,36.2507],[137.9121,36.2499],[137.9026,36.2481],[137.8929,36.2441],[137.8808,36.2378],[137.8738,36.2359],[137.8654,36.2354],[137.837,36.2355],[137.8247,36.2369],[137.8084,36.2371],[137.8037,36.2381],[137.7986,36.2433],[137.7994,36.2472],[137.8061,36.2536],[137.8079,36.2608],[137.8062,36.2648],[137.7991,36.2673],[137.7863,36.2659],[137.7737,36.2618],[137.7693,36.2596],[137.7626,36.2591],[137.7547,36.2633],[137.7455,36.2715],[137.7374,36.2818],[137.7361,36.2857],[137.7359,36.297],[137.7369,36.3025],[137.7445,36.3186],[137.7443,36.3247],[137.7427,36.328],[137.7371,36.3333],[137.7347,36.3376],[137.7192,36.3515],[137.716,36.3584],[137.7122,36.3635],[137.7066,36.3583],[137.6949,36.344],[137.6902,36.3402],[137.6831,36.3377],[137.6773,36.3373],[137.6492,36.3378],[137.6501,36.3268],[137.6538,36.3171],[137.6511,36.2952],[137.6493,36.285],[137.6403,36.2804],[137.6313,36.2739],[137.625,36.2649],[137.6101,36.2498],[137.5989,36.239],[137.5937,36.2291],[137.5873,36.2195],[137.5784,36.2104],[137.5797,36.1996],[137.5874,36.1908],[137.5978,36.1879],[137.595,36.1783],[137.5956,36.1666],[137.5849,36.1567],[137.5737,36.1522],[137.5684,36.1429],[137.5575,36.1371],[137.563,36.1254],[137.557,36.1038],[137.5802,36.0833],[137.5962,36.0776],[137.6053,36.0733],[137.6169,36.0731],[137.6179,36.0589],[137.6103,36.0514],[137.6041,36.0433],[137.6012,36.0333],[137.6023,36.0231],[137.5993,36.0151]]]}},{"type":"Feature","properties":{"id":20033},"geometry":{"type":"Polygon","coordinates":[[[138.6422,36.0322],[138.632,36.0287],[138.6277,36.0286],[138.62,36.031],[138.6085,36.0319],[138.592,36.0345],[138.5739,36.0357],[138.5692,36.0377],[138.5588,36.0395],[138.5427,36.045],[138.5322,36.0467],[138.5192,36.051],[138.5093,36.0585],[138.5024,36.0535],[138.4953,36.0465],[138.4853,36.0398],[138.4977,36.0304],[138.5043,36.0264],[138.5112,36.0209],[138.5171,36.018],[138.534,36.013],[138.5485,36.0118],[138.5533,36.0083],[138.5638,35.9962],[138.57,35.9907],[138.5794,35.9894],[138.6034,35.9891],[138.6149,35.9879],[138.6275,35.9873],[138.6362,35.9847],[138.6488,35.9839],[138.7065,35.9842],[138.7042,35.9866],[138.702,35.9862],[138.6902,35.9907],[138.6839,36.0075],[138.6733,36.0091],[138.6641,36.0133],[138.653,36.0156],[138.6422,36.0322]]]}},{"type":"Feature","properties":{"id":20034},"geometry":{"type":"Polygon","coordinates":[[[138.3681,35.9644],[138.3713,35.964],[138.3764,35.9684],[138.3871,35.966],[138.398,35.9623],[138.4092,35.9597],[138.4186,35.9562],[138.4299,35.9547],[138.4392,35.9508],[138.449,35.9444],[138.4568,35.9367],[138.4515,35.9272],[138.4483,35.9167],[138.4541,35.9049],[138.4632,35.9004],[138.4726,35.8948],[138.4829,35.8949],[138.4973,35.8984],[138.5006,35.9083],[138.5054,35.9126],[138.5051,35.918],[138.5013,35.933],[138.4978,35.9394],[138.4966,35.9478],[138.4981,35.956],[138.5047,35.9662],[138.5067,35.9707],[138.5127,35.9789],[138.5198,35.98],[138.5396,35.9805],[138.5473,35.9828],[138.5565,35.9844],[138.57,35.9907],[138.5638,35.9962],[138.5533,36.0083],[138.5485,36.0118],[138.534,36.013],[138.5171,36.018],[138.5112,36.0209],[138.5043,36.0264],[138.4977,36.0304],[138.4853,36.0398],[138.4765,36.0479],[138.4698,36.0476],[138.4624,36.0326],[138.4591,36.0242],[138.4457,36.0187],[138.4214,36.0174],[138.4079,36.0154],[138.4016,36.0132],[138.3675,36.0092],[138.3709,35.9903],[138.3715,35.9829],[138.3709,35.9739],[138.3681,35.9644]]]}},{"type":"Feature","properties":{"id":20035},"geometry":{"type":"Polygon","coordinates":[[[138.0003,35.8805],[137.9943,35.8889],[137.9872,35.8932],[137.9779,35.8931],[137.969,35.8911],[137.9611,35.888],[137.9527,35.8775],[137.9502,35.8705],[137.9464,35.8649],[137.941,35.8616],[137.9311,35.8595],[137.93,35.8542],[137.9343,35.8526],[137.9449,35.8518],[137.9503,35.8523],[137.9623,35.8575],[137.9704,35.8629],[137.9792,35.8639],[137.9875,35.8625],[137.9957,35.8623],[138.0004,35.8639],[138.0024,35.869],[138.0003,35.8805]]]}},{"type":"Feature","properties":{"id":20036},"geometry":{"type":"Polygon","coordinates":[[[137.9611,35.888],[137.969,35.8911],[137.9779,35.8931],[137.9872,35.8932],[137.9943,35.8889],[138.0003,35.8805],[138.0062,35.8845],[138.0159,35.8895],[138.0213,35.8909],[138.04,35.8985],[138.0555,35.9059],[138.0602,35.9093],[138.0864,35.9315],[138.0897,35.9407],[138.088,35.9563],[138.0749,35.9499],[138.0687,35.9493],[138.0558,35.9537],[138.0445,35.9594],[138.0208,35.9495],[138.01,35.9456],[138.0011,35.9436],[137.9922,35.9429],[137.9738,35.9429],[137.9665,35.9437],[137.9547,35.9477],[137.9469,35.9495],[137.9386,35.9474],[137.9278,35.9381],[137.9195,35.9338],[137.9116,35.9327],[137.8909,35.9285],[137.9178,35.9062],[137.9251,35.8979],[137.9317,35.9055],[137.9341,35.9096],[137.9404,35.9131],[137.9486,35.9138],[137.9563,35.9119],[137.9596,35.9087],[137.9616,35.9024],[137.9611,35.888]]]}},{"type":"Feature","properties":{"id":20037},"geometry":{"type":"Polygon","coordinates":[[[137.8125,35.7667],[137.8215,35.7652],[137.8358,35.7643],[137.8456,35.7627],[137.8645,35.7584],[137.8798,35.7568],[137.888,35.7546],[137.8992,35.7526],[137.9076,35.7522],[137.952,35.7521],[137.9594,35.754],[137.9626,35.7578],[137.963,35.7622],[137.9602,35.7783],[137.9534,35.7739],[137.9431,35.7694],[137.9317,35.7679],[137.9218,35.77],[137.9041,35.7726],[137.8998,35.7741],[137.8925,35.7792],[137.8802,35.7857],[137.8576,35.7893],[137.8347,35.7946],[137.8133,35.8017],[137.8113,35.7849],[137.8116,35.772],[137.8125,35.7667]]]}},{"type":"Feature","properties":{"id":20038},"geometry":{"type":"Polygon","coordinates":[[[138.6092,36.2775],[138.6092,36.2792],[138.6015,36.2852],[138.5902,36.2977],[138.5643,36.3189],[138.5598,36.3204],[138.5406,36.3212],[138.5303,36.3287],[138.5275,36.3347],[138.5269,36.3418],[138.5269,36.359],[138.5244,36.3715],[138.5172,36.3822],[138.5141,36.4066],[138.5,36.411],[138.4895,36.3984],[138.4977,36.3969],[138.4904,36.3889],[138.4856,36.3808],[138.4813,36.3676],[138.4798,36.3597],[138.477,36.355],[138.4755,36.3449],[138.4769,36.3397],[138.4848,36.3288],[138.4849,36.3143],[138.4805,36.2969],[138.4877,36.2917],[138.4991,36.2882],[138.5045,36.2881],[138.5088,36.29],[138.5149,36.2905],[138.5196,36.288],[138.5282,36.279],[138.5313,36.2743],[138.5355,36.2729],[138.5808,36.273],[138.5912,36.2737],[138.602,36.2768],[138.6034,36.2753],[138.6092,36.2775]]]}},{"type":"Feature","properties":{"id":20039},"geometry":{"type":"Polygon","coordinates":[[[137.9954,36.4657],[138.0117,36.4695],[138.0279,36.4766],[138.0354,36.4823],[138.0407,36.4842],[138.0517,36.49],[138.0478,36.4996],[138.0455,36.5154],[138.049,36.5253],[138.0566,36.5339],[138.0622,36.5378],[138.0679,36.5386],[138.1027,36.5385],[138.1099,36.5391],[138.1187,36.5449],[138.1248,36.5471],[138.1318,36.5524],[138.1403,36.5561],[138.1461,36.5564],[138.1671,36.5436],[138.1815,36.5383],[138.1922,36.533],[138.2007,36.5228],[138.2165,36.4998],[138.2244,36.5088],[138.2303,36.5128],[138.2406,36.5126],[138.2472,36.5106],[138.2541,36.5105],[138.2681,36.5145],[138.2747,36.5186],[138.2772,36.5263],[138.2818,36.5311],[138.2886,36.5346],[138.3153,36.5458],[138.3115,36.5602],[138.3105,36.5821],[138.3056,36.5962],[138.2991,36.6029],[138.2968,36.6072],[138.2918,36.6115],[138.2857,36.6137],[138.2632,36.6312],[138.2623,36.6405],[138.2668,36.6539],[138.2767,36.6695],[138.28,36.6819],[138.2848,36.6957],[138.2899,36.7001],[138.313,36.7125],[138.3227,36.7212],[138.3219,36.7259],[138.3177,36.7354],[138.3055,36.7515],[138.2939,36.7469],[138.2819,36.7445],[138.2668,36.7444],[138.2583,36.7409],[138.2522,36.7248],[138.2493,36.7216],[138.2288,36.7156],[138.2188,36.7143],[138.2032,36.7112],[138.1965,36.7122],[138.1887,36.7179],[138.1762,36.7246],[138.1442,36.7372],[138.1341,36.742],[138.1289,36.7502],[138.128,36.7619],[138.1259,36.7674],[138.1218,36.7727],[138.1047,36.7809],[138.1033,36.7868],[138.1097,36.7953],[138.1124,36.8019],[138.1131,36.8139],[138.1111,36.8206],[138.108,36.8237],[138.098,36.8269],[138.0883,36.8285],[138.0849,36.8262],[138.0786,36.8164],[138.0759,36.8049],[138.0662,36.8004],[138.0555,36.7969],[138.0487,36.8069],[138.0352,36.8091],[138.026,36.8152],[138.0161,36.8185],[138.0073,36.8249],[137.9968,36.8148],[137.9951,36.8111],[137.9886,36.8025],[137.9815,36.7903],[137.9751,36.7817],[137.9729,36.7773],[137.9624,36.7677],[137.9597,36.7626],[137.9532,36.7561],[137.9489,36.7487],[137.9428,36.734],[137.9362,36.7245],[137.9315,36.7123],[137.9292,36.7023],[137.9148,36.6777],[137.9135,36.6724],[137.9145,36.6552],[137.9316,36.6616],[137.9405,36.6635],[137.9613,36.6691],[137.9736,36.67],[137.9803,36.6688],[137.9959,36.6616],[138.0068,36.654],[138.0109,36.6501],[138.0322,36.6501],[138.0499,36.6474],[138.0618,36.642],[138.0749,36.6397],[138.0764,36.637],[138.0736,36.6286],[138.0726,36.6203],[138.0728,36.6082],[138.0714,36.6019],[138.0587,36.5919],[138.0613,36.586],[138.0623,36.5745],[138.0588,36.5687],[138.0523,36.5676],[138.0354,36.5672],[138.0321,36.5657],[138.0292,36.5612],[138.0285,36.552],[138.024,36.5422],[138.0189,36.5366],[138.0103,36.5315],[138.0031,36.5326],[137.997,36.5369],[137.9898,36.5376],[137.9681,36.5335],[137.9677,36.524],[137.9679,36.5005],[137.9671,36.4907],[137.9641,36.4781],[137.963,36.4687],[137.9861,36.4657],[137.9954,36.4657]]]}},{"type":"Feature","properties":{"id":20040},"geometry":{"type":"Polygon","coordinates":[[[138.2412,36.1009],[138.2521,36.1118],[138.2549,36.1168],[138.2602,36.1222],[138.2632,36.1331],[138.2724,36.1589],[138.2789,36.1687],[138.2808,36.1751],[138.2815,36.1844],[138.2813,36.1996],[138.2818,36.2062],[138.2843,36.2131],[138.2953,36.2321],[138.2976,36.2446],[138.2946,36.2606],[138.2937,36.2791],[138.2881,36.2817],[138.2736,36.2867],[138.2646,36.2882],[138.2606,36.2878],[138.2565,36.2848],[138.2543,36.2796],[138.2516,36.2622],[138.2493,36.2519],[138.247,36.2464],[138.2425,36.2398],[138.2334,36.2325],[138.2148,36.2247],[138.1992,36.221],[138.1856,36.2196],[138.1796,36.2173],[138.1711,36.2173],[138.1651,36.2196],[138.1502,36.2217],[138.1327,36.2219],[138.1156,36.2212],[138.1239,36.2107],[138.1302,36.1965],[138.1336,36.1905],[138.1355,36.1839],[138.136,36.1701],[138.135,36.1604],[138.1416,36.157],[138.1504,36.1494],[138.1532,36.1444],[138.1592,36.1385],[138.1643,36.1248],[138.1652,36.1171],[138.1741,36.1191],[138.1854,36.1198],[138.1914,36.1189],[138.1958,36.116],[138.2,36.1062],[138.2008,36.0992],[138.2319,36.0997],[138.2412,36.1009]]]}},{"type":"Feature","properties":{"id":20041},"geometry":{"type":"Polygon","coordinates":[[[137.6338,35.507],[137.6387,35.5132],[137.6421,35.521],[137.6513,35.5287],[137.6585,35.531],[137.6739,35.5322],[137.6794,35.5347],[137.6825,35.5395],[137.6892,35.5463],[137.7026,35.5633],[137.7062,35.5682],[137.7127,35.58],[137.7193,35.5866],[137.7258,35.5984],[137.7323,35.605],[137.7348,35.611],[137.7411,35.6213],[137.7279,35.6263],[137.7176,35.6317],[137.7034,35.6371],[137.6831,35.6532],[137.6774,35.6543],[137.6578,35.6539],[137.639,35.6468],[137.6315,35.6469],[137.6276,35.6482],[137.6211,35.6528],[137.615,35.6551],[137.6101,35.6594],[137.6078,35.6638],[137.6019,35.6698],[137.5982,35.6752],[137.5878,35.6788],[137.5632,35.6827],[137.5447,35.6827],[137.5292,35.6807],[137.5157,35.6776],[137.5235,35.6734],[137.532,35.6665],[137.5417,35.6552],[137.5451,35.6451],[137.5399,35.6348],[137.5302,35.6318],[137.5263,35.6218],[137.5195,35.6141],[137.52,35.6021],[137.5325,35.5907],[137.5396,35.5833],[137.5414,35.5725],[137.5352,35.5632],[137.5446,35.5525],[137.5363,35.538],[137.5525,35.5253],[137.552,35.5151],[137.562,35.5134],[137.5718,35.5172],[137.5819,35.5231],[137.5928,35.5259],[137.606,35.5281],[137.6162,35.5259],[137.625,35.5175],[137.6338,35.507]]]}},{"type":"Feature","properties":{"id":20042},"geometry":{"type":"Polygon","coordinates":[[[137.9045,35.6409],[137.9123,35.6321],[137.9173,35.6239],[137.9196,35.618],[137.9249,35.6117],[137.9309,35.6087],[137.9466,35.6045],[137.9575,35.6027],[137.9852,35.6053],[137.998,35.6037],[138.0073,35.601],[138.0123,35.6105],[138.023,35.62],[138.0315,35.6311],[138.0365,35.6424],[138.0388,35.6516],[138.039,35.6653],[138.0384,35.6704],[138.0219,35.677],[138.0105,35.6789],[137.9998,35.6788],[137.9867,35.6719],[137.9733,35.6632],[137.9649,35.6595],[137.9484,35.656],[137.9399,35.655],[137.9281,35.6505],[137.9159,35.6449],[137.9045,35.6409]]]}},{"type":"Feature","properties":{"id":20043},"geometry":{"type":"Polygon","coordinates":[[[138.0109,36.6501],[138.0107,36.6372],[138.0097,36.6302],[138.0029,36.6137],[137.9989,36.5905],[138.0324,36.5882],[138.0521,36.5901],[138.0587,36.5919],[138.0714,36.6019],[138.0728,36.6082],[138.0726,36.6203],[138.0736,36.6286],[138.0764,36.637],[138.0749,36.6397],[138.0618,36.642],[138.0499,36.6474],[138.0322,36.6501],[138.0109,36.6501]]]}},{"type":"Feature","properties":{"id":20044},"geometry":{"type":"Polygon","coordinates":[[[138.2876,36.842],[138.2806,36.8407],[138.2839,36.8328],[138.2906,36.8064],[138.2921,36.7936],[138.2943,36.7843],[138.2996,36.7698],[138.3055,36.7515],[138.3177,36.7354],[138.3219,36.7259],[138.3227,36.7212],[138.3377,36.7127],[138.3526,36.7068],[138.3664,36.6904],[138.3795,36.6932],[138.3949,36.694],[138.4151,36.6963],[138.4001,36.7124],[138.3965,36.7213],[138.3956,36.7279],[138.3953,36.764],[138.3976,36.7776],[138.4031,36.7877],[138.411,36.7989],[138.4031,36.8083],[138.4002,36.8134],[138.3941,36.8192],[138.3917,36.8236],[138.386,36.8272],[138.3705,36.832],[138.3643,36.8318],[138.3615,36.8285],[138.3595,36.8163],[138.358,36.812],[138.3515,36.807],[138.3383,36.8033],[138.3292,36.8041],[138.3182,36.816],[138.3064,36.8319],[138.2927,36.8399],[138.2876,36.842]]]}},{"type":"Feature","properties":{"id":20045},"geometry":{"type":"Polygon","coordinates":[[[137.6521,35.2112],[137.656,35.2141],[137.6667,35.2245],[137.6742,35.2266],[137.6749,35.235],[137.6741,35.2451],[137.669,35.254],[137.6587,35.2635],[137.6477,35.2586],[137.6377,35.2573],[137.6329,35.2601],[137.6321,35.2645],[137.6331,35.2809],[137.6353,35.2925],[137.6334,35.2979],[137.6296,35.3009],[137.6174,35.3035],[137.5973,35.309],[137.577,35.3128],[137.5647,35.3065],[137.5615,35.2969],[137.5651,35.2844],[137.5604,35.2676],[137.5564,35.258],[137.5491,35.25],[137.5549,35.2383],[137.5648,35.2325],[137.5715,35.2248],[137.5814,35.2163],[137.5808,35.2058],[137.5811,35.1948],[137.5841,35.1951],[137.5932,35.196],[137.6027,35.1999],[137.6203,35.2062],[137.632,35.2082],[137.6448,35.2058],[137.6521,35.2112]]]}},{"type":"Feature","properties":{"id":20046},"geometry":{"type":"Polygon","coordinates":[[[138.4844,36.8887],[138.4913,36.885],[138.4993,36.8823],[138.5126,36.8932],[138.5156,36.9009],[138.5155,36.9146],[138.5131,36.9207],[138.4936,36.9311],[138.4928,36.9361],[138.4927,36.9537],[138.4941,36.9604],[138.4979,36.9637],[138.5047,36.9662],[138.5119,36.9711],[138.5179,36.9732],[138.5193,36.9782],[138.5115,36.98],[138.4931,36.9796],[138.4853,36.9791],[138.4678,36.9754],[138.4587,36.9713],[138.4367,36.9527],[138.4306,36.9445],[138.4238,36.9381],[138.4225,36.9334],[138.4224,36.9224],[138.424,36.9144],[138.4337,36.9068],[138.4399,36.9053],[138.4542,36.8999],[138.4632,36.8977],[138.4844,36.8887]]]}},{"type":"Feature","properties":{"id":20047},"geometry":{"type":"Polygon","coordinates":[[[138.2767,36.6695],[138.2994,36.6763],[138.3102,36.6785],[138.3225,36.6791],[138.3362,36.6756],[138.3545,36.6854],[138.3664,36.6904],[138.3526,36.7068],[138.3377,36.7127],[138.3227,36.7212],[138.313,36.7125],[138.2899,36.7001],[138.2848,36.6957],[138.28,36.6819],[138.2767,36.6695]]]}},{"type":"Feature","properties":{"id":20048},"geometry":{"type":"Polygon","coordinates":[[[137.9133,36.6401],[137.9171,36.6328],[137.9232,36.6174],[137.9285,36.6086],[137.9354,36.6023],[137.9436,36.5906],[137.9629,36.5961],[137.9756,36.5966],[137.9936,36.5923],[137.9989,36.5905],[138.0029,36.6137],[138.0097,36.6302],[138.0107,36.6372],[138.0109,36.6501],[138.0068,36.654],[137.9959,36.6616],[137.9803,36.6688],[137.9736,36.67],[137.9613,36.6691],[137.9405,36.6635],[137.9316,36.6616],[137.9145,36.6552],[137.9133,36.6401]]]}},{"type":"Feature","properties":{"id":20049},"geometry":{"type":"Polygon","coordinates":[[[138.0411,36.1421],[138.0412,36.1355],[138.0399,36.1272],[138.0392,36.1144],[138.036,36.1029],[138.0348,36.0947],[138.0322,36.0845],[138.0282,36.077],[138.0234,36.0705],[138.0101,36.0593],[138.0023,36.0548],[137.9983,36.0474],[138.0049,36.0419],[138.0042,36.0361],[138.0014,36.0269],[138.0004,36.0148],[138.0022,36.0099],[138.0056,36.0077],[138.0137,36.0068],[138.0356,36.0066],[138.0485,36.0135],[138.0546,36.0158],[138.0623,36.0213],[138.0776,36.0267],[138.0849,36.0307],[138.0744,36.0375],[138.0682,36.0445],[138.0693,36.0499],[138.079,36.0583],[138.0842,36.061],[138.0841,36.0823],[138.0865,36.0964],[138.0941,36.1163],[138.0955,36.1244],[138.0996,36.1379],[138.1044,36.1518],[138.1072,36.1576],[138.0843,36.1575],[138.0745,36.1584],[138.0681,36.1611],[138.0622,36.1619],[138.0551,36.1595],[138.0495,36.1519],[138.0411,36.1421]]]}},{"type":"Feature","properties":{"id":20050},"geometry":{"type":"Polygon","coordinates":[[[137.5157,35.6776],[137.5292,35.6807],[137.5447,35.6827],[137.5632,35.6827],[137.5878,35.6788],[137.5982,35.6752],[137.6019,35.6698],[137.6078,35.6638],[137.6101,35.6594],[137.615,35.6551],[137.6211,35.6528],[137.6276,35.6482],[137.6315,35.6469],[137.639,35.6468],[137.6578,35.6539],[137.6774,35.6543],[137.6831,35.6532],[137.7034,35.6371],[137.7176,35.6317],[137.7279,35.6263],[137.7411,35.6213],[137.7626,35.63],[137.7791,35.6429],[137.7844,35.6448],[137.7915,35.6501],[137.7978,35.6534],[137.8021,35.6603],[137.8085,35.6749],[137.811,35.6787],[137.8168,35.7033],[137.8198,35.7088],[137.8218,35.7186],[137.8197,35.7329],[137.8194,35.7398],[137.816,35.7478],[137.8149,35.7571],[137.8125,35.7667],[137.8002,35.764],[137.7914,35.7602],[137.7834,35.7548],[137.7774,35.7524],[137.7682,35.7455],[137.7637,35.7405],[137.7602,35.7263],[137.7548,35.7179],[137.7439,35.7135],[137.7369,35.7139],[137.7271,35.7177],[137.707,35.7286],[137.6998,35.734],[137.6893,35.7395],[137.6813,35.7456],[137.6679,35.7509],[137.66,35.7503],[137.6566,35.7469],[137.655,35.7425],[137.6523,35.723],[137.6475,35.7171],[137.6385,35.71],[137.6249,35.7057],[137.6081,35.7036],[137.6027,35.7039],[137.5969,35.7063],[137.5937,35.7122],[137.5933,35.7253],[137.5895,35.7333],[137.586,35.7346],[137.5758,35.7352],[137.5708,35.7339],[137.5594,35.7254],[137.5554,35.7216],[137.5469,35.7103],[137.543,35.7072],[137.5339,35.7049],[137.5229,35.7043],[137.5106,35.7053],[137.5026,35.7073],[137.4946,35.7073],[137.4905,35.7112],[137.4913,35.7017],[137.5005,35.695],[137.502,35.6841],[137.5157,35.6776]]]}},{"type":"Feature","properties":{"id":20051},"geometry":{"type":"Polygon","coordinates":[[[137.6492,36.3378],[137.6773,36.3373],[137.6831,36.3377],[137.6902,36.3402],[137.6949,36.344],[137.7066,36.3583],[137.7122,36.3635],[137.714,36.3746],[137.7167,36.381],[137.7183,36.3893],[137.721,36.3957],[137.7224,36.4026],[137.7272,36.4117],[137.7318,36.4163],[137.7378,36.4173],[137.7522,36.4117],[137.7773,36.4134],[137.7949,36.4176],[137.8116,36.4207],[137.814,36.4238],[137.8111,36.4295],[137.811,36.434],[137.8159,36.4417],[137.8204,36.4423],[137.8315,36.4408],[137.8621,36.4407],[137.8728,36.4418],[137.8897,36.4428],[137.8969,36.4483],[137.8973,36.4514],[137.8954,36.4605],[137.8957,36.4685],[137.902,36.4721],[137.9105,36.4716],[137.9238,36.4679],[137.9398,36.4628],[137.9509,36.4675],[137.963,36.4687],[137.9641,36.4781],[137.9671,36.4907],[137.9679,36.5005],[137.9677,36.524],[137.9681,36.5335],[137.9393,36.5365],[137.9346,36.5381],[137.9318,36.5415],[137.9324,36.5462],[137.9396,36.5567],[137.9423,36.5657],[137.9436,36.5906],[137.9354,36.6023],[137.9285,36.6086],[137.9232,36.6174],[137.9171,36.6328],[137.9133,36.6401],[137.8841,36.6404],[137.879,36.6388],[137.8752,36.6356],[137.8681,36.6225],[137.8641,36.6194],[137.8526,36.6174],[137.8365,36.6132],[137.8271,36.6139],[137.8221,36.6185],[137.816,36.631],[137.8066,36.639],[137.8004,36.6412],[137.7932,36.6462],[137.7737,36.6541],[137.7593,36.6544],[137.7582,36.6516],[137.7585,36.6411],[137.7559,36.63],[137.75,36.6211],[137.75,36.6022],[137.7555,36.5933],[137.75,36.5841],[137.7361,36.5852],[137.7263,36.5828],[137.7163,36.5747],[137.7072,36.5692],[137.6959,36.5645],[137.692,36.5532],[137.6895,36.543],[137.6902,36.5329],[137.7008,36.5345],[137.705,36.5207],[137.7068,36.5146],[137.6974,36.508],[137.6865,36.5097],[137.6764,36.5077],[137.6698,36.4999],[137.6561,36.486],[137.655,36.4758],[137.659,36.4654],[137.6575,36.4552],[137.6482,36.4508],[137.6429,36.4422],[137.6405,36.4314],[137.6358,36.4218],[137.625,36.4198],[137.6079,36.409],[137.6079,36.3989],[137.5993,36.3911],[137.5902,36.3866],[137.5892,36.3724],[137.5967,36.3656],[137.6068,36.3655],[137.617,36.3635],[137.6253,36.3565],[137.6315,36.3466],[137.6387,36.3393],[137.6492,36.3378]]]}},{"type":"Feature","properties":{"id":20052},"geometry":{"type":"Polygon","coordinates":[[[138.0854,36.4739],[138.0766,36.4793],[138.0627,36.4842],[138.0517,36.49],[138.0407,36.4842],[138.0354,36.4823],[138.0279,36.4766],[138.0117,36.4695],[137.9954,36.4657],[138.002,36.4566],[138.0034,36.4509],[138.0041,36.4386],[138.0071,36.4359],[138.034,36.4309],[138.044,36.4276],[138.0517,36.4324],[138.0556,36.4399],[138.0575,36.4485],[138.0664,36.4641],[138.0709,36.4678],[138.0791,36.4705],[138.0854,36.4739]]]}},{"type":"Feature","properties":{"id":20053},"geometry":{"type":"Polygon","coordinates":[[[138.1249,35.4522],[138.1352,35.4505],[138.1449,35.456],[138.156,35.4558],[138.1628,35.464],[138.1595,35.4738],[138.1632,35.4852],[138.1567,35.4929],[138.1429,35.4996],[138.1492,35.51],[138.1414,35.5182],[138.1483,35.5255],[138.1623,35.5416],[138.1566,35.5503],[138.1454,35.5523],[138.1537,35.5657],[138.1511,35.5708],[138.1424,35.5818],[138.1135,35.6056],[138.1105,35.6113],[138.1079,35.6249],[138.1074,35.6426],[138.1052,35.6519],[138.1025,35.658],[138.0948,35.6684],[138.0795,35.6913],[138.067,35.7006],[138.0605,35.6973],[138.052,35.6901],[138.0468,35.6839],[138.0447,35.6793],[138.0384,35.6704],[138.039,35.6653],[138.0388,35.6516],[138.0365,35.6424],[138.0315,35.6311],[138.023,35.62],[138.0123,35.6105],[138.0073,35.601],[138.0074,35.5945],[138.0107,35.5809],[138.0113,35.5649],[138.0103,35.5544],[138.0112,35.5446],[138.0086,35.5294],[138.0025,35.5083],[137.9951,35.4941],[138.0013,35.4907],[138.0134,35.4808],[138.0291,35.4737],[138.0361,35.4724],[138.0496,35.4719],[138.0591,35.4751],[138.0685,35.4824],[138.075,35.4863],[138.0903,35.4887],[138.0992,35.4865],[138.1078,35.4791],[138.1101,35.4746],[138.1166,35.4661],[138.1249,35.4522]]]}},{"type":"Feature","properties":{"id":20054},"geometry":{"type":"Polygon","coordinates":[[[137.3614,35.794],[137.3634,35.7928],[137.375,35.7967],[137.3861,35.7973],[137.3966,35.7946],[137.3992,35.7843],[137.3988,35.7734],[137.4107,35.7737],[137.4355,35.768],[137.4408,35.7593],[137.4505,35.7554],[137.4615,35.758],[137.4678,35.75],[137.4754,35.7318],[137.4832,35.7233],[137.4904,35.7136],[137.4905,35.7112],[137.4946,35.7073],[137.5026,35.7073],[137.5106,35.7053],[137.5229,35.7043],[137.5339,35.7049],[137.543,35.7072],[137.5469,35.7103],[137.5554,35.7216],[137.5496,35.7327],[137.547,35.7395],[137.5481,35.7481],[137.5528,35.7507],[137.569,35.7516],[137.5838,35.7557],[137.5937,35.7565],[137.5979,35.758],[137.5995,35.7615],[137.6012,35.7715],[137.6052,35.7747],[137.612,35.7773],[137.6213,35.7789],[137.6262,35.7819],[137.6329,35.7916],[137.6237,35.7935],[137.614,35.7979],[137.6137,35.8033],[137.6197,35.8089],[137.6211,35.8125],[137.6215,35.8253],[137.6203,35.8291],[137.6163,35.831],[137.6131,35.8299],[137.6087,35.8252],[137.6034,35.8165],[137.5999,35.8142],[137.5951,35.8155],[137.5863,35.824],[137.5799,35.8359],[137.5739,35.8419],[137.5695,35.8478],[137.5623,35.8513],[137.55,35.8546],[137.5172,35.8595],[137.5081,35.863],[137.498,35.8678],[137.4938,35.8737],[137.4918,35.8787],[137.4863,35.8838],[137.474,35.89],[137.4678,35.8884],[137.4573,35.8882],[137.4484,35.8929],[137.4405,35.9019],[137.4172,35.8983],[137.4051,35.8941],[137.3822,35.8876],[137.3741,35.8803],[137.3708,35.8662],[137.3692,35.8543],[137.3645,35.8438],[137.3544,35.8398],[137.3433,35.8408],[137.3345,35.8333],[137.3304,35.8225],[137.3293,35.8109],[137.3356,35.8029],[137.3436,35.795],[137.3542,35.7982],[137.3614,35.794]]]}},{"type":"Feature","properties":{"id":20055},"geometry":{"type":"Polygon","coordinates":[[[137.9362,36.7245],[137.9428,36.734],[137.9489,36.7487],[137.9532,36.7561],[137.9597,36.7626],[137.9624,36.7677],[137.9729,36.7773],[137.9751,36.7817],[137.9815,36.7903],[137.9886,36.8025],[137.9951,36.8111],[137.9968,36.8148],[138.0073,36.8249],[138.015,36.8334],[138.0233,36.8402],[138.019,36.8504],[138.0292,36.8693],[138.0354,36.8777],[138.0346,36.8878],[138.0238,36.8879],[138.0167,36.9006],[138.0139,36.9012],[137.9891,36.9067],[137.9778,36.9057],[137.9676,36.9014],[137.9572,36.9018],[137.951,36.91],[137.94,36.9103],[137.9223,36.9166],[137.9125,36.9139],[137.8954,36.907],[137.8708,36.9129],[137.8676,36.903],[137.8677,36.893],[137.8696,36.8826],[137.875,36.8727],[137.875,36.8604],[137.8632,36.8511],[137.8593,36.8404],[137.851,36.8333],[137.8382,36.8192],[137.8354,36.8071],[137.8259,36.8017],[137.8197,36.7935],[137.8002,36.7845],[137.7945,36.7757],[137.7864,36.7707],[137.7909,36.7688],[137.8072,36.7654],[137.8183,36.764],[137.8277,36.7601],[137.8444,36.7468],[137.8614,36.7394],[137.8763,36.7358],[137.8961,36.7342],[137.9147,36.7332],[137.9224,36.731],[137.9362,36.7245]]]}},{"type":"Feature","properties":{"id":20056},"geometry":{"type":"Polygon","coordinates":[[[138.4931,36.9796],[138.5115,36.98],[138.5193,36.9782],[138.5179,36.9732],[138.5119,36.9711],[138.5047,36.9662],[138.4979,36.9637],[138.4941,36.9604],[138.4927,36.9537],[138.4928,36.9361],[138.4936,36.9311],[138.5131,36.9207],[138.5155,36.9146],[138.5156,36.9009],[138.5126,36.8932],[138.4993,36.8823],[138.5052,36.8682],[138.5079,36.8634],[138.5136,36.8577],[138.5233,36.8552],[138.5333,36.8551],[138.5396,36.8538],[138.5444,36.8512],[138.5469,36.8477],[138.5505,36.8331],[138.5502,36.8246],[138.5685,36.8197],[138.5805,36.8181],[138.5885,36.8157],[138.5995,36.8139],[138.615,36.8125],[138.6208,36.8087],[138.6259,36.8024],[138.6302,36.7894],[138.6321,36.777],[138.6369,36.7672],[138.6405,36.7625],[138.6464,36.7605],[138.6635,36.7605],[138.6686,36.7598],[138.6812,36.7508],[138.6873,36.7484],[138.6976,36.7419],[138.6942,36.7505],[138.692,36.7607],[138.6825,36.7638],[138.6726,36.7707],[138.6764,36.7808],[138.6881,36.7858],[138.6935,36.7964],[138.6991,36.8055],[138.6909,36.8134],[138.6873,36.8242],[138.6935,36.8431],[138.6944,36.8538],[138.6856,36.8603],[138.6829,36.861],[138.6758,36.8628],[138.6653,36.8642],[138.6446,36.8721],[138.6378,36.8794],[138.625,36.8849],[138.6167,36.9049],[138.6056,36.9043],[138.5924,36.9167],[138.5862,36.9257],[138.5884,36.9362],[138.59,36.9584],[138.5896,36.9691],[138.5906,36.9797],[138.5849,36.9893],[138.5768,37],[138.5726,37.0098],[138.5691,37.018],[138.5587,37.0196],[138.5469,37.0185],[138.5358,37.0193],[138.529,37.0262],[138.5218,37.0268],[138.5221,37.0228],[138.5188,37.02],[138.5179,37.0145],[138.5137,37.0071],[138.502,36.9964],[138.4979,36.9904],[138.4931,36.9796]]]}},{"type":"Feature","properties":{"id":20057},"geometry":{"type":"Polygon","coordinates":[[[138.1282,36.4358],[138.1338,36.4326],[138.1418,36.4263],[138.1516,36.4222],[138.1642,36.4185],[138.1795,36.4163],[138.2,36.4162],[138.2086,36.417],[138.2307,36.4226],[138.2406,36.4266],[138.2505,36.4341],[138.2519,36.4374],[138.2503,36.4447],[138.2423,36.4563],[138.2406,36.4602],[138.2342,36.469],[138.2317,36.4748],[138.2253,36.4837],[138.2228,36.4894],[138.2165,36.4998],[138.2082,36.4981],[138.195,36.4921],[138.1817,36.487],[138.1762,36.4832],[138.1676,36.4756],[138.1522,36.4593],[138.137,36.4462],[138.1282,36.4358]]]}},{"type":"Feature","properties":{"id":20058},"geometry":{"type":"Polygon","coordinates":[[[138.6327,36.204],[138.6368,36.2113],[138.625,36.2118],[138.6152,36.2295],[138.614,36.2401],[138.6071,36.25],[138.6075,36.2614],[138.6034,36.2753],[138.602,36.2768],[138.5912,36.2737],[138.5808,36.273],[138.5355,36.2729],[138.5313,36.2743],[138.5282,36.279],[138.5196,36.288],[138.5149,36.2905],[138.5088,36.29],[138.5045,36.2881],[138.4991,36.2882],[138.4877,36.2917],[138.4805,36.2969],[138.4736,36.2937],[138.466,36.2877],[138.4535,36.281],[138.4473,36.2788],[138.4398,36.2728],[138.434,36.27],[138.4287,36.2703],[138.4251,36.2735],[138.4232,36.282],[138.4201,36.2859],[138.4144,36.2893],[138.4031,36.2918],[138.3948,36.2971],[138.384,36.2885],[138.3765,36.2881],[138.3662,36.2941],[138.3557,36.2959],[138.3406,36.2947],[138.3326,36.279],[138.3302,36.2689],[138.3239,36.257],[138.3217,36.2485],[138.3169,36.2406],[138.3103,36.2242],[138.3082,36.2175],[138.3048,36.1966],[138.2959,36.1735],[138.2933,36.1679],[138.2889,36.1535],[138.2899,36.1468],[138.2963,36.1382],[138.3027,36.1237],[138.3118,36.1083],[138.3269,36.1003],[138.3386,36.1062],[138.3448,36.1085],[138.3518,36.1136],[138.3579,36.1158],[138.3649,36.1209],[138.371,36.1232],[138.3781,36.1283],[138.3842,36.1306],[138.3912,36.1357],[138.3974,36.1379],[138.4211,36.1507],[138.4322,36.1551],[138.442,36.1581],[138.4529,36.1598],[138.4594,36.1622],[138.4699,36.1633],[138.4818,36.1625],[138.4892,36.16],[138.5037,36.1591],[138.5138,36.1598],[138.5212,36.1624],[138.5347,36.1644],[138.5454,36.1649],[138.5814,36.1651],[138.5891,36.1718],[138.6026,36.1625],[138.6125,36.1583],[138.625,36.1682],[138.635,36.178],[138.6287,36.1968],[138.6327,36.204]]]}},{"type":"Feature","properties":{"id":20059},"geometry":{"type":"Polygon","coordinates":[[[138.5814,36.1651],[138.5454,36.1649],[138.5347,36.1644],[138.5212,36.1624],[138.5138,36.1598],[138.5037,36.1591],[138.4892,36.16],[138.4818,36.1625],[138.4699,36.1633],[138.4594,36.1622],[138.4529,36.1598],[138.442,36.1581],[138.4322,36.1551],[138.4211,36.1507],[138.3974,36.1379],[138.3912,36.1357],[138.3842,36.1306],[138.3781,36.1283],[138.371,36.1232],[138.3649,36.1209],[138.3579,36.1158],[138.3518,36.1136],[138.3448,36.1085],[138.3386,36.1062],[138.3269,36.1003],[138.3322,36.0928],[138.3364,36.0849],[138.3391,36.0775],[138.3511,36.0581],[138.3539,36.0525],[138.3596,36.0553],[138.3768,36.0623],[138.3883,36.0644],[138.3928,36.0665],[138.4112,36.0721],[138.4421,36.0975],[138.4469,36.102],[138.453,36.1104],[138.4669,36.122],[138.4793,36.1287],[138.4868,36.1293],[138.504,36.1248],[138.5173,36.113],[138.5423,36.1015],[138.5594,36.0976],[138.5697,36.097],[138.5777,36.0944],[138.5935,36.0909],[138.6083,36.0913],[138.6161,36.0898],[138.6262,36.0857],[138.6326,36.0818],[138.6355,36.0841],[138.6335,36.0883],[138.6437,36.0941],[138.6505,36.1026],[138.6441,36.1144],[138.6361,36.1304],[138.625,36.129],[138.6033,36.1334],[138.5937,36.1523],[138.5814,36.1651]]]}},{"type":"Feature","properties":{"id":20060},"geometry":{"type":"Polygon","coordinates":[[[137.7245,35.4873],[137.7289,35.4914],[137.7379,35.506],[137.739,35.5117],[137.7376,35.5148],[137.7282,35.5214],[137.723,35.5233],[137.7189,35.5283],[137.7155,35.5418],[137.7127,35.5465],[137.7103,35.5544],[137.7026,35.5633],[137.6892,35.5463],[137.6825,35.5395],[137.6794,35.5347],[137.6739,35.5322],[137.6585,35.531],[137.6513,35.5287],[137.6421,35.521],[137.6387,35.5132],[137.6517,35.5051],[137.6675,35.4988],[137.6711,35.4956],[137.6725,35.4838],[137.6743,35.4799],[137.6789,35.4784],[137.7039,35.4808],[137.712,35.4828],[137.7245,35.4873]]]}},{"type":"Feature","properties":{"id":20061},"geometry":{"type":"Polygon","coordinates":[[[137.7475,35.3637],[137.7522,35.3594],[137.7641,35.3511],[137.772,35.3499],[137.7785,35.3515],[137.7959,35.3664],[137.8024,35.3753],[137.8118,35.3853],[137.8173,35.4073],[137.8213,35.419],[137.8113,35.4209],[137.8036,35.4234],[137.7755,35.4291],[137.7663,35.4222],[137.7583,35.4117],[137.7552,35.4061],[137.7507,35.4023],[137.7414,35.3976],[137.7313,35.3892],[137.7299,35.3859],[137.732,35.3771],[137.7475,35.3637]]]}},{"type":"Feature","properties":{"id":20062},"geometry":{"type":"Polygon","coordinates":[[[138.1072,36.1576],[138.1044,36.1518],[138.0996,36.1379],[138.0955,36.1244],[138.0941,36.1163],[138.0865,36.0964],[138.0841,36.0823],[138.0842,36.061],[138.079,36.0583],[138.0693,36.0499],[138.0682,36.0445],[138.0744,36.0375],[138.0849,36.0307],[138.0881,36.0304],[138.0963,36.0328],[138.1071,36.0337],[138.1176,36.0368],[138.1214,36.0397],[138.1221,36.0446],[138.1212,36.0554],[138.1194,36.0611],[138.1267,36.0791],[138.1314,36.0872],[138.1411,36.0948],[138.1531,36.0975],[138.1614,36.1005],[138.1654,36.1076],[138.1652,36.1171],[138.1643,36.1248],[138.1592,36.1385],[138.1532,36.1444],[138.1504,36.1494],[138.1416,36.157],[138.135,36.1604],[138.1267,36.1614],[138.1142,36.1607],[138.1072,36.1576]]]}},{"type":"Feature","properties":{"id":20063},"geometry":{"type":"Polygon","coordinates":[[[138.2756,36.84],[138.2747,36.8509],[138.268,36.8588],[138.2602,36.8655],[138.25,36.8618],[138.2378,36.8613],[138.2258,36.8621],[138.2169,36.8679],[138.207,36.8551],[138.1966,36.8506],[138.1861,36.8487],[138.1764,36.8439],[138.1657,36.8411],[138.1456,36.8445],[138.1351,36.8469],[138.1235,36.8454],[138.1027,36.8401],[138.0952,36.8332],[138.0883,36.8285],[138.098,36.8269],[138.108,36.8237],[138.1111,36.8206],[138.1131,36.8139],[138.1124,36.8019],[138.1097,36.7953],[138.1033,36.7868],[138.1047,36.7809],[138.1218,36.7727],[138.1259,36.7674],[138.128,36.7619],[138.1289,36.7502],[138.1409,36.7511],[138.1599,36.751],[138.1685,36.7501],[138.1785,36.7517],[138.1898,36.7574],[138.197,36.7595],[138.2075,36.7648],[138.2136,36.7666],[138.2202,36.7707],[138.2353,36.7837],[138.2509,36.7927],[138.2593,36.8004],[138.2659,36.8121],[138.2686,36.8155],[138.271,36.8218],[138.2724,36.8338],[138.2756,36.84]]]}},{"type":"Feature","properties":{"id":20064},"geometry":{"type":"Polygon","coordinates":[[[138.0587,36.5919],[138.0521,36.5901],[138.0324,36.5882],[137.9989,36.5905],[137.9936,36.5923],[137.9756,36.5966],[137.9629,36.5961],[137.9436,36.5906],[137.9423,36.5657],[137.9396,36.5567],[137.9324,36.5462],[137.9318,36.5415],[137.9346,36.5381],[137.9393,36.5365],[137.9681,36.5335],[137.9898,36.5376],[137.997,36.5369],[138.0031,36.5326],[138.0103,36.5315],[138.0189,36.5366],[138.024,36.5422],[138.0285,36.552],[138.0292,36.5612],[138.0321,36.5657],[138.0354,36.5672],[138.0523,36.5676],[138.0588,36.5687],[138.0623,36.5745],[138.0613,36.586],[138.0587,36.5919]]]}},{"type":"Feature","properties":{"id":20065},"geometry":{"type":"Polygon","coordinates":[[[137.8197,36.0556],[137.82,36.025],[137.8197,36.0184],[137.8174,36.0094],[137.8103,35.9951],[137.8092,35.9872],[137.8093,35.9721],[137.8084,35.9646],[137.8057,35.9591],[137.8031,35.9455],[137.8036,35.9248],[137.805,35.9158],[137.8062,35.8993],[137.809,35.8945],[137.811,35.8874],[137.8183,35.8767],[137.8196,35.8727],[137.8154,35.8586],[137.8138,35.8492],[137.8108,35.8384],[137.8119,35.8336],[137.8154,35.8285],[137.8214,35.8237],[137.831,35.8187],[137.8338,35.8223],[137.8492,35.8354],[137.8542,35.8427],[137.8584,35.8541],[137.8589,35.8664],[137.8614,35.8783],[137.8605,35.9031],[137.8598,35.9112],[137.8413,35.9274],[137.8397,35.9322],[137.8412,35.9424],[137.8456,35.9499],[137.8502,35.9545],[137.8701,35.9708],[137.8742,35.9748],[137.8815,35.9878],[137.8861,35.9915],[137.9005,35.9967],[137.9093,36.0041],[137.9101,36.0105],[137.9055,36.0182],[137.9065,36.0236],[137.9203,36.035],[137.9264,36.0373],[137.9335,36.0424],[137.9396,36.0447],[137.9466,36.0498],[137.9565,36.0522],[137.9655,36.0504],[137.9767,36.0444],[137.9881,36.0432],[137.9983,36.0474],[138.0023,36.0548],[138.0101,36.0593],[138.0234,36.0705],[138.0282,36.077],[138.0322,36.0845],[138.0348,36.0947],[138.036,36.1029],[138.0392,36.1144],[138.0399,36.1272],[138.0412,36.1355],[138.0411,36.1421],[138.0306,36.1428],[138.0217,36.1456],[138.0139,36.1464],[137.9962,36.1465],[137.9804,36.1491],[137.9779,36.1524],[137.9751,36.1599],[137.9711,36.1619],[137.9622,36.161],[137.9502,36.1559],[137.9433,36.151],[137.9369,36.1513],[137.9326,36.1553],[137.9273,36.1571],[137.9233,36.1561],[137.9149,36.1486],[137.9123,36.1435],[137.9016,36.1301],[137.8976,36.1265],[137.8948,36.1214],[137.8881,36.1149],[137.8713,36.0935],[137.8691,36.089],[137.8629,36.0804],[137.86,36.0736],[137.8497,36.0603],[137.8477,36.0559],[137.8428,36.0515],[137.8376,36.0506],[137.8265,36.0528],[137.8197,36.0556]]]}},{"type":"Feature","properties":{"id":20066},"geometry":{"type":"Polygon","coordinates":[[[138.2008,36.0992],[138.2,36.1062],[138.1958,36.116],[138.1914,36.1189],[138.1854,36.1198],[138.1741,36.1191],[138.1652,36.1171],[138.1654,36.1076],[138.1614,36.1005],[138.1531,36.0975],[138.1411,36.0948],[138.1314,36.0872],[138.1267,36.0791],[138.1194,36.0611],[138.1212,36.0554],[138.1221,36.0446],[138.1214,36.0397],[138.1176,36.0368],[138.1071,36.0337],[138.0963,36.0328],[138.0881,36.0304],[138.0849,36.0307],[138.0776,36.0267],[138.0623,36.0213],[138.0546,36.0158],[138.0485,36.0135],[138.0356,36.0066],[138.047,35.9945],[138.0503,35.9896],[138.0525,35.9799],[138.0445,35.9594],[138.0558,35.9537],[138.0687,35.9493],[138.0749,35.9499],[138.088,35.9563],[138.0948,35.9608],[138.1026,35.9672],[138.1323,35.9921],[138.1455,35.9992],[138.1517,36.0015],[138.1588,36.0065],[138.1649,36.0087],[138.1689,36.0118],[138.1712,36.0177],[138.1662,36.0383],[138.1676,36.0476],[138.1781,36.0572],[138.1885,36.0756],[138.1911,36.0792],[138.1972,36.094],[138.2008,36.0992]]]}},{"type":"Feature","properties":{"id":20067},"geometry":{"type":"Polygon","coordinates":[[[138.4426,36.6004],[138.4191,36.6133],[138.4146,36.6164],[138.3935,36.6342],[138.387,36.6382],[138.3754,36.6418],[138.3604,36.643],[138.3514,36.6499],[138.3454,36.656],[138.34,36.6704],[138.3362,36.6756],[138.3225,36.6791],[138.3102,36.6785],[138.2994,36.6763],[138.2767,36.6695],[138.2668,36.6539],[138.2623,36.6405],[138.2632,36.6312],[138.2857,36.6137],[138.2918,36.6115],[138.2968,36.6072],[138.2991,36.6029],[138.3056,36.5962],[138.3105,36.5821],[138.3115,36.5602],[138.3153,36.5458],[138.3218,36.5452],[138.3438,36.545],[138.3515,36.5454],[138.3636,36.5487],[138.3711,36.5536],[138.3803,36.5544],[138.3858,36.5536],[138.4026,36.5458],[138.4157,36.5382],[138.4251,36.5449],[138.4316,36.5526],[138.4319,36.5639],[138.424,36.5704],[138.4296,36.5834],[138.4308,36.5933],[138.4415,36.5966],[138.4426,36.6004]]]}},{"type":"Feature","properties":{"id":20068},"geometry":{"type":"Polygon","coordinates":[[[137.9951,35.4941],[137.9787,35.5008],[137.9701,35.5023],[137.9557,35.5084],[137.9482,35.5089],[137.9185,35.5085],[137.9109,35.5101],[137.9071,35.5134],[137.9045,35.5185],[137.9005,35.5224],[137.8835,35.5362],[137.8769,35.5343],[137.8681,35.53],[137.8642,35.5236],[137.8643,35.5152],[137.8682,35.5053],[137.8788,35.4958],[137.8833,35.4884],[137.8866,35.4784],[137.8896,35.4724],[137.8949,35.4688],[137.9074,35.4664],[137.9132,35.4644],[137.9158,35.4609],[137.9143,35.4424],[137.9196,35.4389],[137.9391,35.4357],[137.9501,35.437],[137.981,35.4589],[137.9849,35.4632],[137.9869,35.4755],[137.9951,35.4941]]]}},{"type":"Feature","properties":{"id":20069},"geometry":{"type":"Polygon","coordinates":[[[137.8835,35.5362],[137.8885,35.5463],[137.8934,35.5518],[137.9167,35.5709],[137.9041,35.5845],[137.8951,35.5898],[137.8874,35.5924],[137.8677,35.5971],[137.8323,35.6116],[137.8237,35.6165],[137.8179,35.609],[137.8118,35.598],[137.8052,35.5894],[137.8008,35.5821],[137.7995,35.5761],[137.8009,35.5715],[137.8054,35.5678],[137.8114,35.5656],[137.8185,35.5606],[137.8249,35.5592],[137.8344,35.561],[137.8457,35.5609],[137.8508,35.5592],[137.8647,35.5515],[137.8777,35.5403],[137.8835,35.5362]]]}},{"type":"Feature","properties":{"id":20070},"geometry":{"type":"Polygon","coordinates":[[[138.5278,36.6671],[138.5092,36.6697],[138.4826,36.6729],[138.4736,36.6762],[138.4631,36.6817],[138.4534,36.6858],[138.4286,36.6927],[138.4194,36.6943],[138.4151,36.6963],[138.3949,36.694],[138.3795,36.6932],[138.3664,36.6904],[138.3545,36.6854],[138.3362,36.6756],[138.34,36.6704],[138.3454,36.656],[138.3514,36.6499],[138.3604,36.643],[138.3754,36.6418],[138.387,36.6382],[138.3935,36.6342],[138.4146,36.6164],[138.4191,36.6133],[138.4426,36.6004],[138.4447,36.6075],[138.455,36.609],[138.4607,36.6183],[138.4613,36.6286],[138.4707,36.6346],[138.4794,36.6417],[138.4901,36.6389],[138.5,36.6402],[138.5106,36.6448],[138.525,36.6475],[138.5282,36.6481],[138.532,36.6534],[138.5345,36.6568],[138.5278,36.6671]]]}},{"type":"Feature","properties":{"id":20071},"geometry":{"type":"Polygon","coordinates":[[[138.3118,36.1083],[138.3027,36.1237],[138.2963,36.1382],[138.2899,36.1468],[138.2889,36.1535],[138.2933,36.1679],[138.2959,36.1735],[138.3048,36.1966],[138.3082,36.2175],[138.3103,36.2242],[138.3169,36.2406],[138.3217,36.2485],[138.3239,36.257],[138.3302,36.2689],[138.3326,36.279],[138.3406,36.2947],[138.3404,36.3048],[138.3393,36.3102],[138.3343,36.3128],[138.3214,36.311],[138.3116,36.3111],[138.2955,36.315],[138.2958,36.2961],[138.2937,36.2791],[138.2946,36.2606],[138.2976,36.2446],[138.2953,36.2321],[138.2843,36.2131],[138.2818,36.2062],[138.2813,36.1996],[138.2815,36.1844],[138.2808,36.1751],[138.2789,36.1687],[138.2724,36.1589],[138.2632,36.1331],[138.2602,36.1222],[138.2549,36.1168],[138.2521,36.1118],[138.2412,36.1009],[138.2426,36.0903],[138.247,36.0854],[138.2546,36.0846],[138.2646,36.0857],[138.2727,36.0884],[138.2851,36.0901],[138.2999,36.0968],[138.3054,36.1009],[138.3118,36.1083]]]}},{"type":"Feature","properties":{"id":20072},"geometry":{"type":"Polygon","coordinates":[[[137.8909,35.9285],[137.9116,35.9327],[137.9195,35.9338],[137.9278,35.9381],[137.9386,35.9474],[137.9469,35.9495],[137.9547,35.9477],[137.9665,35.9437],[137.9738,35.9429],[137.9922,35.9429],[138.0011,35.9436],[138.01,35.9456],[138.0208,35.9495],[138.0445,35.9594],[138.0525,35.9799],[138.0503,35.9896],[138.047,35.9945],[138.0356,36.0066],[138.0137,36.0068],[138.0056,36.0077],[138.0022,36.0099],[138.0004,36.0148],[138.0014,36.0269],[138.0042,36.0361],[138.0049,36.0419],[137.9983,36.0474],[137.9881,36.0432],[137.9767,36.0444],[137.9655,36.0504],[137.9565,36.0522],[137.9466,36.0498],[137.9396,36.0447],[137.9335,36.0424],[137.9264,36.0373],[137.9203,36.035],[137.9065,36.0236],[137.9055,36.0182],[137.9101,36.0105],[137.9093,36.0041],[137.9005,35.9967],[137.8861,35.9915],[137.8815,35.9878],[137.8742,35.9748],[137.8701,35.9708],[137.8502,35.9545],[137.8456,35.9499],[137.8412,35.9424],[137.8397,35.9322],[137.8413,35.9274],[137.8598,35.9112],[137.8685,35.9175],[137.8834,35.9235],[137.8909,35.9285]]]}},{"type":"Feature","properties":{"id":20073},"geometry":{"type":"Polygon","coordinates":[[[137.8208,35.2113],[137.8401,35.2127],[137.8511,35.2182],[137.8632,35.2196],[137.875,35.2155],[137.8833,35.223],[137.8879,35.2329],[137.8859,35.2435],[137.8983,35.2546],[137.9049,35.2529],[137.8998,35.2596],[137.8986,35.2655],[137.8938,35.2732],[137.8874,35.279],[137.8851,35.2833],[137.8758,35.2915],[137.8658,35.2965],[137.8581,35.3024],[137.8482,35.3079],[137.8395,35.304],[137.8322,35.302],[137.822,35.2966],[137.8086,35.2915],[137.7905,35.278],[137.7854,35.272],[137.7791,35.2601],[137.775,35.2562],[137.7572,35.2418],[137.751,35.2395],[137.7431,35.2351],[137.7409,35.2315],[137.7343,35.2314],[137.7307,35.2285],[137.7249,35.2274],[137.7298,35.2182],[137.7413,35.2188],[137.7528,35.2166],[137.767,35.2165],[137.7696,35.206],[137.7781,35.2002],[137.7889,35.2023],[137.8011,35.2019],[137.8102,35.2067],[137.8208,35.2113]]]}},{"type":"Feature","properties":{"id":20074},"geometry":{"type":"Polygon","coordinates":[[[138.4094,36.4304],[138.4094,36.4274],[138.3977,36.428],[138.385,36.4279],[138.3723,36.4259],[138.3621,36.4215],[138.3445,36.4069],[138.34,36.4022],[138.3377,36.3978],[138.3273,36.3882],[138.3246,36.3831],[138.3186,36.3772],[138.3132,36.3684],[138.3121,36.3626],[138.3142,36.3573],[138.3227,36.3503],[138.3232,36.3472],[138.3204,36.342],[138.3058,36.3295],[138.3031,36.3244],[138.2955,36.315],[138.3116,36.3111],[138.3214,36.311],[138.3343,36.3128],[138.3393,36.3102],[138.3404,36.3048],[138.3406,36.2947],[138.3557,36.2959],[138.3662,36.2941],[138.3765,36.2881],[138.384,36.2885],[138.3948,36.2971],[138.3852,36.3025],[138.3718,36.3135],[138.3693,36.3215],[138.3754,36.343],[138.3805,36.3518],[138.3909,36.3614],[138.3936,36.3665],[138.4024,36.3738],[138.4085,36.3761],[138.4191,36.3836],[138.4301,36.4002],[138.4326,36.4062],[138.4356,36.41],[138.4409,36.42],[138.4248,36.4251],[138.4148,36.4291],[138.4094,36.4304]]]}},{"type":"Feature","properties":{"id":20075},"geometry":{"type":"Polygon","coordinates":[[[137.9167,35.5709],[137.8934,35.5518],[137.8885,35.5463],[137.8835,35.5362],[137.9005,35.5224],[137.9045,35.5185],[137.9071,35.5134],[137.9109,35.5101],[137.9185,35.5085],[137.9482,35.5089],[137.9557,35.5084],[137.9701,35.5023],[137.9787,35.5008],[137.9951,35.4941],[138.0025,35.5083],[138.0086,35.5294],[138.0112,35.5446],[138.0103,35.5544],[137.9934,35.5669],[137.9832,35.5708],[137.9767,35.5713],[137.9684,35.5701],[137.9541,35.564],[137.9493,35.5639],[137.9404,35.5664],[137.9224,35.5703],[137.9167,35.5709]]]}},{"type":"Feature","properties":{"id":20076},"geometry":{"type":"Polygon","coordinates":[[[138.4157,36.5382],[138.4026,36.5458],[138.3858,36.5536],[138.3803,36.5544],[138.3711,36.5536],[138.3636,36.5487],[138.3515,36.5454],[138.3438,36.545],[138.3218,36.5452],[138.3153,36.5458],[138.2886,36.5346],[138.2818,36.5311],[138.2772,36.5263],[138.2747,36.5186],[138.2681,36.5145],[138.2541,36.5105],[138.2472,36.5106],[138.2406,36.5126],[138.2303,36.5128],[138.2244,36.5088],[138.2165,36.4998],[138.2228,36.4894],[138.2253,36.4837],[138.2317,36.4748],[138.2342,36.469],[138.2406,36.4602],[138.2423,36.4563],[138.2503,36.4447],[138.2519,36.4374],[138.2505,36.4341],[138.2406,36.4266],[138.2307,36.4226],[138.2086,36.417],[138.2,36.4162],[138.1795,36.4163],[138.1642,36.4185],[138.1516,36.4222],[138.1418,36.4263],[138.1338,36.4326],[138.1282,36.4358],[138.1201,36.4259],[138.1163,36.415],[138.1171,36.3996],[138.1251,36.3927],[138.1428,36.3843],[138.1447,36.3821],[138.1456,36.3749],[138.1454,36.365],[138.1359,36.3427],[138.1268,36.3274],[138.1163,36.3156],[138.1095,36.3125],[138.1018,36.3114],[138.0858,36.3122],[138.0827,36.2962],[138.0766,36.2855],[138.0765,36.2802],[138.0836,36.2693],[138.0899,36.2547],[138.0993,36.2377],[138.1036,36.232],[138.1156,36.2212],[138.1327,36.2219],[138.1502,36.2217],[138.1651,36.2196],[138.1711,36.2173],[138.1796,36.2173],[138.1856,36.2196],[138.1992,36.221],[138.2148,36.2247],[138.2334,36.2325],[138.2425,36.2398],[138.247,36.2464],[138.2493,36.2519],[138.2516,36.2622],[138.2543,36.2796],[138.2565,36.2848],[138.2606,36.2878],[138.2646,36.2882],[138.2736,36.2867],[138.2881,36.2817],[138.2937,36.2791],[138.2958,36.2961],[138.2955,36.315],[138.3031,36.3244],[138.3058,36.3295],[138.3204,36.342],[138.3232,36.3472],[138.3227,36.3503],[138.3142,36.3573],[138.3121,36.3626],[138.3132,36.3684],[138.3186,36.3772],[138.3246,36.3831],[138.3273,36.3882],[138.3377,36.3978],[138.34,36.4022],[138.3445,36.4069],[138.3621,36.4215],[138.3723,36.4259],[138.385,36.4279],[138.3977,36.428],[138.4094,36.4274],[138.4094,36.4304],[138.4042,36.4316],[138.4035,36.4524],[138.4063,36.4633],[138.4041,36.4741],[138.401,36.4847],[138.4061,36.5],[138.4072,36.5113],[138.4157,36.5382]]]}},{"type":"Feature","properties":{"id":20077},"geometry":{"type":"Polygon","coordinates":[[[137.7249,35.2274],[137.7307,35.2285],[137.7343,35.2314],[137.7334,35.2386],[137.7364,35.2406],[137.7365,35.2532],[137.7379,35.2669],[137.7356,35.2782],[137.7314,35.2881],[137.7282,35.2914],[137.7159,35.296],[137.7056,35.3015],[137.6984,35.3035],[137.6893,35.3076],[137.6866,35.3008],[137.6818,35.2927],[137.6713,35.2796],[137.6688,35.2744],[137.6587,35.2635],[137.669,35.254],[137.6741,35.2451],[137.6749,35.235],[137.6742,35.2266],[137.6881,35.2289],[137.7106,35.229],[137.7249,35.2274]]]}},{"type":"Feature","properties":{"id":20078},"geometry":{"type":"Polygon","coordinates":[[[137.8942,36.1506],[137.9013,36.1661],[137.9045,36.1744],[137.9029,36.1785],[137.8981,36.1832],[137.892,36.1871],[137.8768,36.1762],[137.8706,36.1741],[137.8565,36.1642],[137.8364,36.1474],[137.8295,36.1394],[137.8484,36.1426],[137.8555,36.1452],[137.8743,36.1488],[137.8942,36.1506]]]}},{"type":"Feature","properties":{"id":20079},"geometry":{"type":"Polygon","coordinates":[[[138.6979,36.741],[138.6976,36.7419],[138.6873,36.7484],[138.6812,36.7508],[138.6686,36.7598],[138.6635,36.7605],[138.6464,36.7605],[138.6405,36.7625],[138.6369,36.7672],[138.6321,36.777],[138.6302,36.7894],[138.6259,36.8024],[138.6208,36.8087],[138.615,36.8125],[138.5995,36.8139],[138.5885,36.8157],[138.5805,36.8181],[138.5685,36.8197],[138.5502,36.8246],[138.5457,36.8161],[138.5352,36.8044],[138.5187,36.7972],[138.5066,36.7953],[138.4915,36.797],[138.4788,36.8008],[138.4703,36.8069],[138.463,36.8102],[138.4462,36.8121],[138.4372,36.8103],[138.4162,36.8016],[138.411,36.7989],[138.4031,36.7877],[138.3976,36.7776],[138.3953,36.764],[138.3956,36.7279],[138.3965,36.7213],[138.4001,36.7124],[138.4151,36.6963],[138.4194,36.6943],[138.4286,36.6927],[138.4534,36.6858],[138.4631,36.6817],[138.4736,36.6762],[138.4826,36.6729],[138.5092,36.6697],[138.5278,36.6671],[138.5211,36.6738],[138.5227,36.6842],[138.5287,36.6925],[138.5398,36.694],[138.5478,36.7007],[138.5587,36.7025],[138.5703,36.7028],[138.5811,36.7017],[138.5919,36.7037],[138.6005,36.7116],[138.6082,36.7052],[138.6192,36.7075],[138.625,36.7168],[138.6451,36.7207],[138.6653,36.7263],[138.6756,36.7276],[138.6855,36.732],[138.6979,36.741]]]}},{"type":"Feature","properties":{"id":20080},"geometry":{"type":"Polygon","coordinates":[[[137.8482,35.3079],[137.8564,35.3103],[137.8747,35.3173],[137.884,35.3187],[137.8985,35.3226],[137.9138,35.3292],[137.9196,35.3359],[137.9245,35.3477],[137.9242,35.3532],[137.9128,35.363],[137.8837,35.3866],[137.8784,35.3884],[137.8728,35.3921],[137.8572,35.4048],[137.8429,35.4102],[137.8298,35.4161],[137.8213,35.419],[137.8173,35.4073],[137.8118,35.3853],[137.8231,35.3746],[137.834,35.3561],[137.8363,35.3495],[137.8379,35.3402],[137.8451,35.3213],[137.8482,35.3079]]]}}]}