{"type":"FeatureCollection","features":[{"type":"Feature","properties":{"id":21001},"geometry":{"type":"Polygon","coordinates":[[[136.6644,35.3075],[136.6685,35.3121],[136.6924,35.3323],[136.6944,35.339],[136.6933,35.3435],[136.6878,35.3454],[136.6839,35.3488],[136.6822,35.3525],[136.6808,35.3615],[136.6767,35.3673],[136.6712,35.3712],[136.6636,35.374],[136.6586,35.3676],[136.6563,35.3608],[136.6556,35.346],[136.654,35.3406],[136.6404,35.3181],[136.6486,35.3132],[136.6644,35.3075]]]}},{"type":"Feature","properties":{"id":21002},"geometry":{"type":"Polygon","coordinates":[[[137.5651,35.2844],[137.5615,35.2969],[137.5647,35.3065],[137.577,35.3128],[137.5954,35.3263],[137.6071,35.3333],[137.6043,35.3433],[137.6044,35.3535],[137.6016,35.3656],[137.601,35.376],[137.594,35.3865],[137.6045,35.3889],[137.5903,35.3957],[137.5836,35.3978],[137.5713,35.3984],[137.563,35.3841],[137.547,35.3708],[137.5345,35.3687],[137.5217,35.3684],[137.512,35.3662],[137.4987,35.3597],[137.4885,35.3594],[137.4745,35.37],[137.4632,35.3844],[137.455,35.3911],[137.4499,35.3975],[137.4421,35.4044],[137.4405,35.4096],[137.4419,35.4135],[137.4484,35.4189],[137.4598,35.421],[137.4943,35.421],[137.5018,35.423],[137.504,35.4275],[137.5009,35.4331],[137.4914,35.4356],[137.4782,35.4374],[137.4709,35.4391],[137.4512,35.4546],[137.4431,35.4637],[137.4299,35.4742],[137.4217,35.4757],[137.4111,35.4794],[137.4045,35.4804],[137.4,35.483],[137.3985,35.4881],[137.3982,35.4989],[137.3947,35.5012],[137.3717,35.5013],[137.3623,35.5038],[137.357,35.5091],[137.3552,35.5157],[137.3546,35.5305],[137.3523,35.5378],[137.3477,35.5449],[137.3345,35.5399],[137.3287,35.5355],[137.3182,35.53],[137.3105,35.5286],[137.2956,35.5281],[137.272,35.5253],[137.278,35.5182],[137.2818,35.5117],[137.282,35.4943],[137.2782,35.4879],[137.2738,35.4836],[137.2625,35.469],[137.2486,35.4581],[137.2703,35.4544],[137.2754,35.452],[137.2807,35.4458],[137.2883,35.4455],[137.3001,35.4499],[137.3077,35.4495],[137.3112,35.4471],[137.3155,35.4412],[137.3184,35.4396],[137.3276,35.4391],[137.3336,35.4366],[137.3403,35.4305],[137.342,35.4244],[137.3508,35.4169],[137.3524,35.4121],[137.3525,35.4025],[137.3473,35.3801],[137.3374,35.3612],[137.3311,35.3532],[137.3234,35.3462],[137.3184,35.3397],[137.3039,35.3277],[137.3038,35.321],[137.3088,35.3181],[137.3235,35.3235],[137.3359,35.3219],[137.3428,35.3189],[137.3433,35.3142],[137.3413,35.3107],[137.3333,35.3039],[137.3299,35.2973],[137.3269,35.2944],[137.3101,35.2901],[137.3115,35.2876],[137.329,35.2768],[137.3389,35.2713],[137.349,35.2683],[137.3452,35.2584],[137.3639,35.2574],[137.375,35.2599],[137.3878,35.2564],[137.3869,35.2433],[137.3983,35.2378],[137.4243,35.2314],[137.4369,35.2226],[137.4464,35.2317],[137.466,35.238],[137.489,35.2542],[137.5,35.2608],[137.5112,35.2631],[137.5194,35.271],[137.5243,35.281],[137.5463,35.2777],[137.5651,35.2844]]]}},{"type":"Feature","properties":{"id":21003},"geometry":{"type":"Polygon","coordinates":[[[137.1459,35.6198],[137.1531,35.6259],[137.1637,35.6301],[137.1762,35.6325],[137.1819,35.6394],[137.1918,35.6471],[137.1975,35.6495],[137.2014,35.6576],[137.204,35.6679],[137.2083,35.6717],[137.2147,35.6743],[137.2272,35.6762],[137.2423,35.6753],[137.2449,35.6761],[137.2559,35.6848],[137.2673,35.6901],[137.2729,35.6911],[137.2966,35.6917],[137.3086,35.6944],[137.3215,35.7002],[137.3273,35.7042],[137.3362,35.7074],[137.3369,35.7165],[137.3367,35.7448],[137.3388,35.7538],[137.344,35.7619],[137.3601,35.7893],[137.3614,35.794],[137.3542,35.7982],[137.3436,35.795],[137.3356,35.8029],[137.3293,35.8109],[137.3304,35.8225],[137.3345,35.8333],[137.3433,35.8408],[137.3544,35.8398],[137.3645,35.8438],[137.3692,35.8543],[137.3708,35.8662],[137.3741,35.8803],[137.3822,35.8876],[137.4051,35.8941],[137.4172,35.8983],[137.4405,35.9019],[137.4484,35.8929],[137.4573,35.8882],[137.4678,35.8884],[137.474,35.89],[137.4785,35.8912],[137.4904,35.9131],[137.4806,35.9167],[137.4731,35.9211],[137.4667,35.9265],[137.4615,35.9355],[137.4555,35.943],[137.4473,35.9503],[137.442,35.9566],[137.4277,35.9622],[137.4208,35.9636],[137.4086,35.9631],[137.4042,35.9607],[137.4001,35.9552],[137.3879,35.9446],[137.3826,35.9435],[137.379,35.9448],[137.3769,35.9493],[137.3766,35.9556],[137.3713,35.9661],[137.3626,35.9738],[137.3546,35.985],[137.3485,35.9923],[137.3417,35.9934],[137.3294,35.9889],[137.3177,35.9859],[137.3067,35.9843],[137.2872,35.984],[137.2715,35.9853],[137.2598,35.9881],[137.2498,35.9937],[137.2415,36.0053],[137.2337,36.0148],[137.2285,36.0224],[137.2252,36.0246],[137.2175,36.0241],[137.2107,36.0221],[137.2074,36.0232],[137.2028,36.029],[137.1985,36.0305],[137.1897,36.0294],[137.1792,36.0238],[137.1736,36.0195],[137.1665,36.0157],[137.1608,36.0063],[137.1548,35.9988],[137.1481,35.9929],[137.1436,35.9913],[137.1308,35.9806],[137.1241,35.9668],[137.1234,35.9601],[137.1238,35.9374],[137.1234,35.933],[137.1199,35.9289],[137.1069,35.9187],[137.1191,35.9103],[137.1266,35.9059],[137.1413,35.8816],[137.1543,35.8712],[137.1588,35.8696],[137.1627,35.8659],[137.1652,35.8587],[137.1697,35.8494],[137.1702,35.8435],[137.1664,35.8411],[137.161,35.8412],[137.1551,35.8433],[137.1482,35.8439],[137.1415,35.843],[137.1313,35.8367],[137.1312,35.8294],[137.1377,35.8147],[137.1383,35.7533],[137.1377,35.7478],[137.1307,35.7398],[137.1291,35.7337],[137.1251,35.7307],[137.0974,35.7261],[137.0924,35.7238],[137.0859,35.7144],[137.0763,35.7106],[137.0744,35.7086],[137.0739,35.695],[137.0726,35.6926],[137.0648,35.6863],[137.0753,35.6798],[137.0851,35.6747],[137.0949,35.6727],[137.0997,35.67],[137.1034,35.6626],[137.104,35.6588],[137.101,35.6491],[137.1012,35.6443],[137.1041,35.635],[137.1025,35.6317],[137.0954,35.6266],[137.1058,35.6214],[137.1197,35.6196],[137.1459,35.6198]]]}},{"type":"Feature","properties":{"id":21004},"geometry":{"type":"Polygon","coordinates":[[[136.8188,35.3838],[136.8184,35.41],[136.8194,35.4166],[136.8268,35.4251],[136.831,35.4258],[136.8527,35.4223],[136.8582,35.4207],[136.8633,35.4214],[136.8757,35.4316],[136.8802,35.4377],[136.8882,35.4444],[136.8856,35.4514],[136.8821,35.4572],[136.876,35.4601],[136.8586,35.4618],[136.8453,35.4653],[136.8429,35.4678],[136.8443,35.4744],[136.8483,35.4826],[136.8491,35.4902],[136.8543,35.5028],[136.8514,35.5072],[136.8315,35.5163],[136.8178,35.5247],[136.8177,35.512],[136.8165,35.5071],[136.8053,35.4999],[136.8048,35.4852],[136.8028,35.4821],[136.7943,35.4801],[136.786,35.4817],[136.7652,35.4983],[136.7535,35.5022],[136.7416,35.5072],[136.7233,35.522],[136.7153,35.526],[136.7028,35.534],[136.695,35.5248],[136.6933,35.5173],[136.6938,35.5035],[136.6957,35.4954],[136.6998,35.4865],[136.7,35.4818],[136.6972,35.479],[136.6908,35.4782],[136.6853,35.4755],[136.6855,35.4724],[136.6978,35.4633],[136.7003,35.4592],[136.702,35.4525],[136.7021,35.4302],[136.7028,35.4115],[136.7052,35.4064],[136.7071,35.3973],[136.7073,35.3826],[136.7058,35.3769],[136.6961,35.3635],[136.6953,35.3571],[136.6964,35.3515],[136.7363,35.352],[136.7483,35.3533],[136.7575,35.3563],[136.7632,35.3592],[136.769,35.3649],[136.7672,35.3714],[136.7683,35.3764],[136.773,35.3792],[136.786,35.3844],[136.802,35.3865],[136.8188,35.3838]]]}},{"type":"Feature","properties":{"id":21005},"geometry":{"type":"Polygon","coordinates":[[[136.769,35.3649],[136.7816,35.3674],[136.809,35.3637],[136.8195,35.3599],[136.8243,35.365],[136.8243,35.369],[136.8189,35.3757],[136.8188,35.3838],[136.802,35.3865],[136.786,35.3844],[136.773,35.3792],[136.7683,35.3764],[136.7672,35.3714],[136.769,35.3649]]]}},{"type":"Feature","properties":{"id":21006},"geometry":{"type":"Polygon","coordinates":[[[136.5826,35.405],[136.5937,35.395],[136.6041,35.3913],[136.6112,35.3927],[136.6187,35.3973],[136.625,35.3975],[136.6276,35.3957],[136.6301,35.3885],[136.6364,35.3855],[136.6444,35.3855],[136.644,35.3964],[136.6389,35.4126],[136.6257,35.4165],[136.6127,35.4271],[136.6038,35.4386],[136.5998,35.4364],[136.5926,35.429],[136.589,35.4148],[136.5826,35.405]]]}},{"type":"Feature","properties":{"id":21007},"geometry":{"type":"Polygon","coordinates":[[[136.7827,35.7959],[136.7885,35.7928],[136.7982,35.7831],[136.8047,35.7804],[136.8244,35.7754],[136.8359,35.7752],[136.8406,35.7737],[136.8436,35.7692],[136.8456,35.7605],[136.8441,35.7532],[136.8421,35.7501],[136.8427,35.7463],[136.8495,35.7429],[136.8569,35.7375],[136.8594,35.7309],[136.8595,35.7234],[136.8577,35.7142],[136.8524,35.7068],[136.8504,35.7022],[136.8499,35.6943],[136.8517,35.6877],[136.856,35.682],[136.8639,35.6739],[136.8705,35.6655],[136.8771,35.6549],[136.8813,35.6453],[136.895,35.6459],[136.8998,35.6443],[136.9109,35.626],[136.9157,35.6213],[136.9249,35.6072],[136.9274,35.6018],[136.9315,35.5988],[136.9404,35.5979],[136.944,35.5986],[136.9564,35.6085],[136.9645,35.6106],[136.9846,35.6099],[136.9905,35.6186],[136.9913,35.6225],[136.9903,35.6319],[136.9913,35.6372],[136.9948,35.6431],[136.9987,35.6464],[137.007,35.649],[137.0139,35.6491],[137.022,35.6459],[137.0278,35.6418],[137.0322,35.6406],[137.0432,35.6417],[137.0478,35.6439],[137.0515,35.6484],[137.0548,35.6568],[137.0557,35.6627],[137.0603,35.6825],[137.0648,35.6863],[137.0726,35.6926],[137.0739,35.695],[137.0744,35.7086],[137.0763,35.7106],[137.0859,35.7144],[137.0924,35.7238],[137.0974,35.7261],[137.1251,35.7307],[137.1291,35.7337],[137.1307,35.7398],[137.1377,35.7478],[137.1383,35.7533],[137.1377,35.8147],[137.1312,35.8294],[137.1313,35.8367],[137.1415,35.843],[137.1482,35.8439],[137.1551,35.8433],[137.161,35.8412],[137.1664,35.8411],[137.1702,35.8435],[137.1697,35.8494],[137.1652,35.8587],[137.1627,35.8659],[137.1588,35.8696],[137.1543,35.8712],[137.1413,35.8816],[137.1266,35.9059],[137.1191,35.9103],[137.1069,35.9187],[137.0985,35.9166],[137.0937,35.9116],[137.093,35.9057],[137.0892,35.9037],[137.0854,35.9051],[137.0765,35.9155],[137.0728,35.9214],[137.0721,35.926],[137.0721,35.9395],[137.0707,35.9435],[137.0672,35.9461],[137.0482,35.9539],[137.0362,35.9565],[137.0276,35.956],[137.0185,35.9511],[137.0117,35.9453],[137.0081,35.9371],[137.0059,35.9269],[137.0034,35.923],[136.9971,35.9201],[136.9866,35.9194],[136.9828,35.9242],[136.9775,35.9367],[136.9764,35.9541],[136.9745,35.9604],[136.9709,35.9662],[136.9638,35.9744],[136.9541,35.9797],[136.9452,35.983],[136.9417,35.9877],[136.9344,36.0007],[136.9292,36.0031],[136.9232,36.0038],[136.9179,36.0066],[136.9166,36.0098],[136.9166,36.0179],[136.9135,36.0239],[136.9043,36.0257],[136.889,36.0241],[136.8851,36.0211],[136.8806,36.0126],[136.877,36.0094],[136.8589,36.0052],[136.8492,36.0024],[136.8396,35.9981],[136.8214,36.0033],[136.8178,36.0059],[136.8026,36.0311],[136.7681,36.059],[136.765,36.0645],[136.7578,36.0618],[136.7427,36.0504],[136.7387,36.041],[136.7383,36.03],[136.7344,36.009],[136.7301,35.9931],[136.7416,35.9899],[136.7554,35.978],[136.7557,35.9664],[136.7529,35.956],[136.7621,35.9517],[136.7718,35.9484],[136.7832,35.9474],[136.7929,35.9445],[136.7924,35.9339],[136.7865,35.9244],[136.7947,35.9175],[136.8116,35.9097],[136.8192,35.9026],[136.8251,35.8932],[136.8252,35.8818],[136.8288,35.8715],[136.8331,35.8622],[136.8345,35.8523],[136.8219,35.8407],[136.811,35.8399],[136.8027,35.8333],[136.7997,35.8108],[136.794,35.8011],[136.7827,35.7959]]]}},{"type":"Feature","properties":{"id":21008},"geometry":{"type":"Polygon","coordinates":[[[136.7557,35.3418],[136.7458,35.346],[136.7363,35.352],[136.6964,35.3515],[136.6933,35.3435],[136.6944,35.339],[136.6924,35.3323],[136.6685,35.3121],[136.6644,35.3075],[136.6638,35.2937],[136.662,35.29],[136.6739,35.2885],[136.6773,35.2853],[136.677,35.276],[136.672,35.2691],[136.6686,35.2615],[136.6676,35.2512],[136.6703,35.2466],[136.6844,35.2393],[136.6942,35.2506],[136.7026,35.2621],[136.708,35.2731],[136.7155,35.2821],[136.7285,35.2922],[136.7339,35.3015],[136.7494,35.3334],[136.7557,35.3418]]]}},{"type":"Feature","properties":{"id":21009},"geometry":{"type":"Polygon","coordinates":[[[137.0954,35.6266],[137.0835,35.6284],[137.0785,35.6271],[137.0743,35.6163],[137.0708,35.6108],[137.0654,35.6057],[137.0639,35.5997],[137.0683,35.5889],[137.0697,35.5817],[137.0776,35.5697],[137.078,35.5668],[137.0712,35.5603],[137.0586,35.5534],[137.0508,35.5476],[137.0611,35.546],[137.0673,35.5439],[137.0763,35.5451],[137.0897,35.5448],[137.094,35.5434],[137.1003,35.5379],[137.1014,35.5332],[137.1013,35.5213],[137.1044,35.516],[137.1082,35.5148],[137.1196,35.5151],[137.1358,35.5155],[137.1421,35.5182],[137.1485,35.5232],[137.1561,35.5258],[137.1638,35.5262],[137.1716,35.5293],[137.1843,35.5401],[137.1924,35.5488],[137.1822,35.5591],[137.1697,35.5745],[137.1649,35.5829],[137.1615,35.5863],[137.1497,35.5924],[137.1497,35.597],[137.1561,35.6011],[137.1551,35.6064],[137.1476,35.6084],[137.1442,35.6143],[137.1459,35.6198],[137.1197,35.6196],[137.1058,35.6214],[137.0954,35.6266]]]}},{"type":"Feature","properties":{"id":21010},"geometry":{"type":"Polygon","coordinates":[[[136.955,36.2043],[136.9676,36.1902],[136.9747,36.1894],[137.004,36.1898],[137.0139,36.1894],[137.0238,36.1869],[137.0388,36.1897],[137.0503,36.1896],[137.0651,36.1872],[137.0793,36.1909],[137.0852,36.1936],[137.0887,36.197],[137.0965,36.2108],[137.1012,36.2123],[137.1081,36.2108],[137.1178,36.2028],[137.1287,36.1809],[137.1356,36.1803],[137.1483,36.1901],[137.1528,36.1917],[137.1653,36.1994],[137.1675,36.2061],[137.1702,36.2086],[137.1796,36.2119],[137.1988,36.2149],[137.2083,36.2106],[137.2118,36.2151],[137.2117,36.2345],[137.2159,36.2376],[137.2238,36.2402],[137.2293,36.25],[137.2394,36.2532],[137.2554,36.2614],[137.2683,36.2693],[137.2767,36.2758],[137.2964,36.2868],[137.3019,36.2865],[137.3103,36.2841],[137.3319,36.2883],[137.3451,36.2939],[137.3613,36.2945],[137.3709,36.2962],[137.3774,36.3015],[137.3782,36.3042],[137.3758,36.3092],[137.3715,36.333],[137.3694,36.3398],[137.3759,36.3456],[137.3844,36.3453],[137.3921,36.3392],[137.4001,36.3386],[137.4127,36.3416],[137.4189,36.3442],[137.4228,36.3474],[137.4258,36.3523],[137.4276,36.3591],[137.4337,36.3646],[137.4372,36.3656],[137.447,36.3632],[137.4529,36.3637],[137.4724,36.3727],[137.4772,36.3727],[137.4827,36.3687],[137.4892,36.367],[137.4947,36.3673],[137.5003,36.3694],[137.5085,36.3759],[137.5127,36.3757],[137.5177,36.3719],[137.524,36.3703],[137.5278,36.3713],[137.5385,36.3801],[137.5451,36.3888],[137.5429,36.3894],[137.5347,36.3983],[137.5237,36.4028],[137.5154,36.4161],[137.5,36.4231],[137.4901,36.4207],[137.4776,36.4223],[137.4639,36.4095],[137.4525,36.4135],[137.4174,36.4222],[137.4068,36.4239],[137.4,36.4314],[137.398,36.4414],[137.3925,36.4556],[137.3827,36.4516],[137.369,36.4477],[137.3609,36.4406],[137.3559,36.4316],[137.3446,36.43],[137.3332,36.4272],[137.3242,36.4227],[137.3132,36.4245],[137.3099,36.4343],[137.3165,36.443],[137.3196,36.4533],[137.3115,36.4605],[137.3011,36.4553],[137.2905,36.4582],[137.2814,36.4626],[137.2581,36.4513],[137.2509,36.4585],[137.2421,36.448],[137.225,36.4398],[137.207,36.4343],[137.1994,36.4429],[137.1945,36.4522],[137.1769,36.4488],[137.1668,36.4514],[137.158,36.4465],[137.1471,36.4424],[137.1395,36.4344],[137.1263,36.4166],[137.1111,36.4065],[137.1048,36.3964],[137.0957,36.3914],[137.0977,36.3808],[137.0791,36.3801],[137.0709,36.3739],[137.0611,36.3678],[137.0592,36.3517],[137.0521,36.3429],[137.0551,36.3333],[137.0484,36.3213],[137.0408,36.3143],[137.0306,36.3141],[137.0168,36.2977],[137.0108,36.2873],[137,36.2847],[136.9861,36.2778],[136.9788,36.2719],[136.9782,36.2639],[136.9636,36.2465],[136.9604,36.2411],[136.9572,36.2316],[136.9539,36.2149],[136.955,36.2043]]]}},{"type":"Feature","properties":{"id":21011},"geometry":{"type":"Polygon","coordinates":[[[137.3524,35.6914],[137.3411,35.6843],[137.3271,35.6764],[137.3039,35.6571],[137.2976,35.6503],[137.2935,35.6396],[137.2903,35.6366],[137.2763,35.6324],[137.2718,35.629],[137.2687,35.6239],[137.2685,35.6195],[137.2741,35.6087],[137.276,35.6033],[137.2814,35.5948],[137.2878,35.5936],[137.2973,35.5965],[137.3192,35.6048],[137.3267,35.6089],[137.3361,35.612],[137.3516,35.613],[137.3641,35.612],[137.3809,35.6088],[137.3978,35.6065],[137.4049,35.6103],[137.4082,35.6145],[137.4159,35.6214],[137.4162,35.63],[137.4112,35.6373],[137.407,35.6484],[137.406,35.6573],[137.4032,35.6599],[137.3916,35.6637],[137.3831,35.6699],[137.3753,35.6741],[137.3704,35.6806],[137.3632,35.6861],[137.3524,35.6914]]]}},{"type":"Feature","properties":{"id":21012},"geometry":{"type":"Polygon","coordinates":[[[136.3644,35.7839],[136.3513,35.7767],[136.3296,35.7693],[136.3246,35.7592],[136.3281,35.7399],[136.329,35.729],[136.3239,35.7201],[136.3192,35.71],[136.3124,35.7004],[136.2964,35.6881],[136.2977,35.6774],[136.292,35.6666],[136.2789,35.6611],[136.2825,35.646],[136.282,35.6351],[136.2886,35.6268],[136.2924,35.6171],[136.3063,35.6161],[136.3158,35.6198],[136.3257,35.6142],[136.3205,35.6044],[136.3244,35.595],[136.3256,35.5736],[136.3208,35.5581],[136.3197,35.5477],[136.3237,35.5477],[136.333,35.5476],[136.3425,35.5443],[136.3462,35.5343],[136.3594,35.5359],[136.3622,35.5457],[136.375,35.5563],[136.3804,35.5464],[136.3841,35.5353],[136.393,35.5288],[136.4032,35.5272],[136.4049,35.516],[136.3999,35.5045],[136.391,35.4903],[136.3962,35.4816],[136.4029,35.4724],[136.4116,35.4655],[136.4229,35.4636],[136.4262,35.4416],[136.4209,35.4315],[136.4182,35.4219],[136.423,35.4099],[136.4286,35.3995],[136.438,35.3943],[136.4448,35.3875],[136.4651,35.3912],[136.4726,35.3995],[136.4834,35.4136],[136.494,35.425],[136.5083,35.4302],[136.511,35.4384],[136.5121,35.4537],[136.5176,35.4619],[136.5253,35.4673],[136.5331,35.4686],[136.5475,35.4674],[136.5526,35.465],[136.5584,35.4596],[136.5621,35.458],[136.5733,35.4567],[136.5852,35.4565],[136.5907,35.455],[136.5947,35.4519],[136.6038,35.4386],[136.6167,35.4427],[136.6229,35.4455],[136.6272,35.4516],[136.6288,35.4609],[136.6273,35.4714],[136.6244,35.4785],[136.6242,35.4884],[136.6255,35.4924],[136.6314,35.4974],[136.6355,35.4985],[136.6472,35.4964],[136.6538,35.4943],[136.6545,35.5109],[136.6526,35.5154],[136.6481,35.5197],[136.6465,35.5247],[136.646,35.535],[136.6435,35.5407],[136.6439,35.5444],[136.6473,35.5524],[136.646,35.5571],[136.6423,35.5612],[136.6329,35.5683],[136.6298,35.5694],[136.6135,35.5711],[136.6046,35.573],[136.5903,35.5748],[136.5831,35.5774],[136.5728,35.583],[136.5685,35.5893],[136.5685,35.6108],[136.5669,35.6164],[136.5629,35.6202],[136.5548,35.6313],[136.5496,35.636],[136.54,35.6465],[136.538,35.6502],[136.5267,35.6595],[136.5237,35.6637],[136.5236,35.6713],[136.5302,35.6792],[136.5395,35.683],[136.543,35.6894],[136.5415,35.6941],[136.5376,35.7002],[136.5368,35.7059],[136.5374,35.721],[136.5395,35.7275],[136.5412,35.7379],[136.5401,35.7408],[136.5334,35.7458],[136.5295,35.7471],[136.521,35.7534],[136.5149,35.7554],[136.516,35.7587],[136.5036,35.7511],[136.5,35.7623],[136.4883,35.7723],[136.4775,35.7698],[136.4673,35.7725],[136.4568,35.7735],[136.4467,35.7709],[136.4344,35.7717],[136.4176,35.7793],[136.4159,35.7794],[136.4073,35.7804],[136.3957,35.785],[136.385,35.791],[136.375,35.7891],[136.3644,35.7839]]]}},{"type":"Feature","properties":{"id":21013},"geometry":{"type":"Polygon","coordinates":[[[136.6038,35.4386],[136.5947,35.4519],[136.5907,35.455],[136.5852,35.4565],[136.5733,35.4567],[136.5621,35.458],[136.5584,35.4596],[136.5526,35.465],[136.5475,35.4674],[136.5331,35.4686],[136.5253,35.4673],[136.5176,35.4619],[136.5121,35.4537],[136.511,35.4384],[136.5083,35.4302],[136.5187,35.4311],[136.5232,35.4305],[136.5264,35.4267],[136.5292,35.4187],[136.5388,35.4134],[136.5526,35.4069],[136.5694,35.405],[136.5826,35.405],[136.589,35.4148],[136.5926,35.429],[136.5998,35.4364],[136.6038,35.4386]]]}},{"type":"Feature","properties":{"id":21014},"geometry":{"type":"Polygon","coordinates":[[[136.6821,35.2325],[136.6821,35.2368],[136.6844,35.2393],[136.6703,35.2466],[136.6676,35.2512],[136.6686,35.2615],[136.672,35.2691],[136.677,35.276],[136.6773,35.2853],[136.6739,35.2885],[136.662,35.29],[136.6573,35.2846],[136.6552,35.2714],[136.654,35.2686],[136.6494,35.2658],[136.6314,35.2616],[136.6252,35.2532],[136.6208,35.2481],[136.6172,35.2416],[136.6164,35.2376],[136.6095,35.2302],[136.6045,35.2308],[136.5983,35.2362],[136.5932,35.2465],[136.5886,35.2517],[136.5797,35.2509],[136.5755,35.2521],[136.564,35.2637],[136.5588,35.2654],[136.5499,35.2641],[136.5353,35.258],[136.5284,35.2545],[136.5291,35.2539],[136.5303,35.2543],[136.5396,35.2465],[136.5441,35.2352],[136.552,35.2277],[136.5507,35.217],[136.5606,35.2146],[136.563,35.2035],[136.5734,35.1995],[136.5826,35.1934],[136.5886,35.1853],[136.6009,35.1738],[136.6084,35.1662],[136.6163,35.1506],[136.625,35.1446],[136.6382,35.1447],[136.6486,35.1486],[136.6492,35.1626],[136.6594,35.1558],[136.6709,35.1455],[136.6763,35.1701],[136.6792,35.1807],[136.6821,35.2126],[136.6821,35.2325]]]}},{"type":"Feature","properties":{"id":21015},"geometry":{"type":"Polygon","coordinates":[[[136.9229,35.3768],[136.9284,35.3786],[136.9382,35.3872],[136.9582,35.3934],[136.9633,35.4095],[136.9607,35.4087],[136.9597,35.4156],[136.9558,35.4241],[136.9438,35.4282],[136.9089,35.4372],[136.8882,35.4444],[136.8802,35.4377],[136.8757,35.4316],[136.8633,35.4214],[136.8582,35.4207],[136.8527,35.4223],[136.831,35.4258],[136.8268,35.4251],[136.8194,35.4166],[136.8184,35.41],[136.8188,35.3838],[136.8189,35.3757],[136.8243,35.369],[136.8243,35.365],[136.8195,35.3599],[136.8245,35.3553],[136.8323,35.3541],[136.841,35.3562],[136.8471,35.3577],[136.875,35.3699],[136.8957,35.3748],[136.9017,35.3749],[136.9167,35.3749],[136.9229,35.3768]]]}},{"type":"Feature","properties":{"id":21016},"geometry":{"type":"Polygon","coordinates":[[[137.0423,35.3642],[137.0507,35.3872],[137.0515,35.3943],[137.0544,35.4014],[137.0583,35.4058],[137.0634,35.4084],[137.0667,35.4077],[137.0726,35.4027],[137.076,35.3968],[137.0775,35.3916],[137.0937,35.3668],[137.098,35.3652],[137.11,35.3652],[137.118,35.3673],[137.123,35.3713],[137.1293,35.3744],[137.1404,35.3745],[137.1534,35.3713],[137.1639,35.3937],[137.1363,35.4097],[137.1269,35.4156],[137.119,35.4224],[137.1179,35.4268],[137.1264,35.4429],[137.1295,35.4458],[137.1273,35.4506],[137.1204,35.456],[137.1073,35.4589],[137.0988,35.4592],[137.0939,35.4632],[137.0889,35.4529],[137.0793,35.4391],[137.0747,35.4357],[137.0701,35.4351],[137.0535,35.4351],[137.0444,35.4345],[137.0288,35.4314],[137.0149,35.4343],[137.0081,35.4338],[136.9987,35.43],[136.9928,35.4288],[136.9876,35.4209],[136.9919,35.4218],[136.9851,35.4065],[136.9977,35.39],[137.0117,35.3782],[137.0213,35.3733],[137.032,35.3693],[137.0423,35.3642]]]}},{"type":"Feature","properties":{"id":21017},"geometry":{"type":"Polygon","coordinates":[[[136.8245,35.3553],[136.8195,35.3599],[136.809,35.3637],[136.7816,35.3674],[136.769,35.3649],[136.7632,35.3592],[136.7575,35.3563],[136.7483,35.3533],[136.7363,35.352],[136.7458,35.346],[136.7557,35.3418],[136.7677,35.3605],[136.7775,35.3664],[136.7952,35.3651],[136.8107,35.3571],[136.8245,35.3553]]]}},{"type":"Feature","properties":{"id":21018},"geometry":{"type":"Polygon","coordinates":[[[137.0673,35.5439],[137.074,35.5382],[137.0749,35.5333],[137.072,35.5262],[137.0684,35.5206],[137.054,35.5085],[137.0477,35.4991],[137.0475,35.4945],[137.0558,35.4873],[137.0596,35.4812],[137.0615,35.4742],[137.0642,35.4697],[137.0688,35.4687],[137.0752,35.4703],[137.0848,35.4756],[137.0942,35.482],[137.1055,35.484],[137.1119,35.4867],[137.1221,35.493],[137.1305,35.4948],[137.1315,35.499],[137.1196,35.5151],[137.1082,35.5148],[137.1044,35.516],[137.1013,35.5213],[137.1014,35.5332],[137.1003,35.5379],[137.094,35.5434],[137.0897,35.5448],[137.0763,35.5451],[137.0673,35.5439]]]}},{"type":"Feature","properties":{"id":21019},"geometry":{"type":"Polygon","coordinates":[[[136.7021,35.4302],[136.6932,35.4342],[136.687,35.4339],[136.6858,35.4299],[136.6863,35.4121],[136.6932,35.4111],[136.7028,35.4115],[136.7021,35.4302]]]}},{"type":"Feature","properties":{"id":21020},"geometry":{"type":"Polygon","coordinates":[[[136.8813,35.6453],[136.8768,35.6358],[136.8634,35.6294],[136.8596,35.6261],[136.8559,35.6168],[136.852,35.6025],[136.8495,35.5983],[136.8482,35.592],[136.8497,35.5795],[136.8521,35.5722],[136.8512,35.5655],[136.8515,35.5522],[136.8533,35.5457],[136.8633,35.5303],[136.8681,35.5255],[136.8757,35.5148],[136.8831,35.5107],[136.8921,35.5083],[136.8986,35.5083],[136.9115,35.5154],[136.9301,35.5189],[136.933,35.5206],[136.9363,35.5297],[136.9388,35.5403],[136.9422,35.5434],[136.9529,35.5443],[136.9607,35.5471],[136.9646,35.553],[136.9695,35.5656],[136.9841,35.5921],[136.9847,35.5965],[136.9846,35.6099],[136.9645,35.6106],[136.9564,35.6085],[136.944,35.5986],[136.9404,35.5979],[136.9315,35.5988],[136.9274,35.6018],[136.9249,35.6072],[136.9157,35.6213],[136.9109,35.626],[136.8998,35.6443],[136.895,35.6459],[136.8813,35.6453]]]}},{"type":"Feature","properties":{"id":21021},"geometry":{"type":"Polygon","coordinates":[[[137.0508,35.5476],[137.0383,35.543],[137.0326,35.539],[137.0217,35.5346],[137.0185,35.5305],[137.0158,35.5206],[137.0124,35.5169],[137.0057,35.5135],[136.9942,35.5044],[137.0034,35.5005],[137.0073,35.4961],[137.0111,35.485],[137.0103,35.4806],[137.0035,35.4774],[136.9899,35.474],[136.9814,35.4764],[136.9776,35.4763],[136.9706,35.4733],[136.9634,35.4674],[136.9574,35.4518],[136.9557,35.4451],[136.9558,35.4241],[136.9778,35.4258],[136.9928,35.4288],[136.9987,35.43],[137.0081,35.4338],[137.0149,35.4343],[137.0288,35.4314],[137.0444,35.4345],[137.0535,35.4351],[137.0701,35.4351],[137.0747,35.4357],[137.0793,35.4391],[137.0889,35.4529],[137.0939,35.4632],[137.0942,35.482],[137.0848,35.4756],[137.0752,35.4703],[137.0688,35.4687],[137.0642,35.4697],[137.0615,35.4742],[137.0596,35.4812],[137.0558,35.4873],[137.0475,35.4945],[137.0477,35.4991],[137.054,35.5085],[137.0684,35.5206],[137.072,35.5262],[137.0749,35.5333],[137.074,35.5382],[137.0673,35.5439],[137.0611,35.546],[137.0508,35.5476]]]}},{"type":"Feature","properties":{"id":21022},"geometry":{"type":"Polygon","coordinates":[[[137.1639,35.3937],[137.1783,35.3907],[137.1949,35.3958],[137.1983,35.4008],[137.2049,35.414],[137.2097,35.4298],[137.2103,35.4357],[137.2101,35.456],[137.2106,35.4639],[137.1879,35.4677],[137.1802,35.4671],[137.1734,35.4605],[137.172,35.4553],[137.1664,35.4501],[137.1621,35.4491],[137.1552,35.4516],[137.1508,35.4511],[137.1359,35.4463],[137.1295,35.4458],[137.1264,35.4429],[137.1179,35.4268],[137.119,35.4224],[137.1269,35.4156],[137.1363,35.4097],[137.1639,35.3937]]]}},{"type":"Feature","properties":{"id":21023},"geometry":{"type":"Polygon","coordinates":[[[136.6808,35.3615],[136.6875,35.3631],[136.6961,35.3635],[136.7058,35.3769],[136.7073,35.3826],[136.7071,35.3973],[136.7052,35.4064],[136.7028,35.4115],[136.6932,35.4111],[136.6863,35.4121],[136.6632,35.4151],[136.658,35.4168],[136.6463,35.4271],[136.6377,35.4279],[136.6368,35.4236],[136.6389,35.4126],[136.644,35.3964],[136.6444,35.3855],[136.6565,35.3809],[136.6636,35.374],[136.6712,35.3712],[136.6767,35.3673],[136.6808,35.3615]]]}},{"type":"Feature","properties":{"id":21024},"geometry":{"type":"Polygon","coordinates":[[[137.3115,35.2876],[137.3101,35.2901],[137.3269,35.2944],[137.3299,35.2973],[137.3333,35.3039],[137.3413,35.3107],[137.3433,35.3142],[137.3428,35.3189],[137.3359,35.3219],[137.3235,35.3235],[137.3088,35.3181],[137.3038,35.321],[137.3039,35.3277],[137.3184,35.3397],[137.3234,35.3462],[137.3311,35.3532],[137.3374,35.3612],[137.3473,35.3801],[137.3525,35.4025],[137.3524,35.4121],[137.3508,35.4169],[137.342,35.4244],[137.3403,35.4305],[137.3336,35.4366],[137.3276,35.4391],[137.3184,35.4396],[137.3155,35.4412],[137.3112,35.4471],[137.3077,35.4495],[137.3001,35.4499],[137.2883,35.4455],[137.2807,35.4458],[137.2754,35.452],[137.2703,35.4544],[137.2486,35.4581],[137.2422,35.4608],[137.2359,35.4651],[137.2301,35.4674],[137.224,35.4676],[137.2106,35.4639],[137.2101,35.456],[137.2103,35.4357],[137.2097,35.4298],[137.2049,35.414],[137.1983,35.4008],[137.1949,35.3958],[137.2049,35.393],[137.2128,35.3877],[137.2179,35.3826],[137.2198,35.3788],[137.2247,35.3742],[137.2325,35.3555],[137.2361,35.3498],[137.2489,35.338],[137.2702,35.3207],[137.287,35.3099],[137.2867,35.3046],[137.2793,35.2924],[137.2777,35.2869],[137.2901,35.2857],[137.3003,35.2862],[137.3115,35.2876]]]}},{"type":"Feature","properties":{"id":21025},"geometry":{"type":"Polygon","coordinates":[[[136.516,35.7587],[136.5149,35.7554],[136.521,35.7534],[136.5295,35.7471],[136.5334,35.7458],[136.5401,35.7408],[136.5412,35.7379],[136.5395,35.7275],[136.5374,35.721],[136.5368,35.7059],[136.5376,35.7002],[136.5415,35.6941],[136.543,35.6894],[136.5395,35.683],[136.5302,35.6792],[136.5236,35.6713],[136.5237,35.6637],[136.5267,35.6595],[136.538,35.6502],[136.54,35.6465],[136.5496,35.636],[136.5548,35.6313],[136.5629,35.6202],[136.5669,35.6164],[136.5685,35.6108],[136.5685,35.5893],[136.5728,35.583],[136.5831,35.5774],[136.5903,35.5748],[136.6046,35.573],[136.6135,35.5711],[136.6298,35.5694],[136.6329,35.5683],[136.6423,35.5612],[136.646,35.5571],[136.6473,35.5524],[136.6439,35.5444],[136.6435,35.5407],[136.646,35.535],[136.6465,35.5247],[136.6481,35.5197],[136.6526,35.5154],[136.6545,35.5109],[136.6538,35.4943],[136.655,35.483],[136.6546,35.4794],[136.6445,35.4596],[136.6402,35.4447],[136.6363,35.4339],[136.6377,35.4279],[136.6463,35.4271],[136.658,35.4168],[136.6632,35.4151],[136.6863,35.4121],[136.6858,35.4299],[136.687,35.4339],[136.6932,35.4342],[136.7021,35.4302],[136.702,35.4525],[136.7003,35.4592],[136.6978,35.4633],[136.6855,35.4724],[136.6853,35.4755],[136.6908,35.4782],[136.6972,35.479],[136.7,35.4818],[136.6998,35.4865],[136.6957,35.4954],[136.6938,35.5035],[136.6933,35.5173],[136.695,35.5248],[136.7028,35.534],[136.6954,35.5449],[136.6886,35.5587],[136.6842,35.5713],[136.6776,35.5844],[136.6722,35.5905],[136.6716,35.5944],[136.6715,35.6134],[136.6723,35.62],[136.6772,35.6269],[136.6794,35.6355],[136.6794,35.6455],[136.681,35.6507],[136.6837,35.6539],[136.6968,35.663],[136.6968,35.685],[136.6985,35.7021],[136.7003,35.7098],[136.703,35.7141],[136.6909,35.719],[136.6871,35.7248],[136.6898,35.7331],[136.6911,35.7451],[136.6897,35.7566],[136.6861,35.7642],[136.6743,35.772],[136.6688,35.7819],[136.6567,35.7854],[136.6553,35.7954],[136.6475,35.8032],[136.6411,35.7943],[136.6312,35.7925],[136.6242,35.7848],[136.6083,35.7904],[136.5981,35.7921],[136.5885,35.7869],[136.5831,35.7782],[136.5734,35.7741],[136.5633,35.776],[136.541,35.7777],[136.532,35.7829],[136.5231,35.7783],[136.5158,35.7693],[136.516,35.7587]]]}},{"type":"Feature","properties":{"id":21026},"geometry":{"type":"Polygon","coordinates":[[[137.6045,35.3889],[137.6106,35.3903],[137.6242,35.3906],[137.6364,35.3975],[137.638,35.3984],[137.6303,35.4075],[137.6214,35.4161],[137.6188,35.4271],[137.6113,35.4345],[137.602,35.4389],[137.6036,35.4489],[137.625,35.4643],[137.6349,35.4679],[137.6328,35.4793],[137.6286,35.4898],[137.6348,35.5058],[137.6338,35.507],[137.625,35.5175],[137.6162,35.5259],[137.606,35.5281],[137.5928,35.5259],[137.5819,35.5231],[137.5718,35.5172],[137.562,35.5134],[137.552,35.5151],[137.5525,35.5253],[137.5363,35.538],[137.5446,35.5525],[137.5352,35.5632],[137.5414,35.5725],[137.5396,35.5833],[137.5325,35.5907],[137.52,35.6021],[137.5195,35.6141],[137.5263,35.6218],[137.5302,35.6318],[137.5399,35.6348],[137.5451,35.6451],[137.5417,35.6552],[137.532,35.6665],[137.5235,35.6734],[137.5157,35.6776],[137.502,35.6841],[137.5005,35.695],[137.4913,35.7017],[137.4905,35.7112],[137.4904,35.7136],[137.4832,35.7233],[137.4754,35.7318],[137.4678,35.75],[137.4615,35.758],[137.4505,35.7554],[137.4408,35.7593],[137.4355,35.768],[137.4107,35.7737],[137.3988,35.7734],[137.3992,35.7843],[137.3966,35.7946],[137.3861,35.7973],[137.375,35.7967],[137.3634,35.7928],[137.3614,35.794],[137.3601,35.7893],[137.344,35.7619],[137.3388,35.7538],[137.3367,35.7448],[137.3369,35.7165],[137.3362,35.7074],[137.3478,35.6983],[137.3524,35.6914],[137.3632,35.6861],[137.3704,35.6806],[137.3753,35.6741],[137.3831,35.6699],[137.3916,35.6637],[137.4032,35.6599],[137.406,35.6573],[137.407,35.6484],[137.4112,35.6373],[137.4162,35.63],[137.4159,35.6214],[137.4082,35.6145],[137.4049,35.6103],[137.3978,35.6065],[137.3981,35.5923],[137.4098,35.5749],[137.4098,35.5709],[137.4004,35.5629],[137.3943,35.5602],[137.3777,35.5583],[137.3579,35.5575],[137.3531,35.5555],[137.3498,35.5517],[137.3477,35.5449],[137.3523,35.5378],[137.3546,35.5305],[137.3552,35.5157],[137.357,35.5091],[137.3623,35.5038],[137.3717,35.5013],[137.3947,35.5012],[137.3982,35.4989],[137.3985,35.4881],[137.4,35.483],[137.4045,35.4804],[137.4111,35.4794],[137.4217,35.4757],[137.4299,35.4742],[137.4431,35.4637],[137.4512,35.4546],[137.4709,35.4391],[137.4782,35.4374],[137.4914,35.4356],[137.5009,35.4331],[137.504,35.4275],[137.5018,35.423],[137.4943,35.421],[137.4598,35.421],[137.4484,35.4189],[137.4419,35.4135],[137.4405,35.4096],[137.4421,35.4044],[137.4499,35.3975],[137.455,35.3911],[137.4632,35.3844],[137.4745,35.37],[137.4885,35.3594],[137.4987,35.3597],[137.512,35.3662],[137.5217,35.3684],[137.5345,35.3687],[137.547,35.3708],[137.563,35.3841],[137.5713,35.3984],[137.5836,35.3978],[137.5903,35.3957],[137.6045,35.3889]]]}},{"type":"Feature","properties":{"id":21027},"geometry":{"type":"MultiPolygon","coordinates":[[[[136.5291,35.2539],[136.5284,35.2545],[136.5277,35.2763],[136.5257,35.2885],[136.5217,35.2951],[136.5157,35.3025],[136.511,35.3067],[136.507,35.3129],[136.5036,35.3208],[136.5047,35.3271],[136.515,35.3306],[136.5279,35.3272],[136.5338,35.3282],[136.5414,35.3324],[136.5306,35.3406],[136.5135,35.3469],[136.5073,35.3517],[136.4985,35.3526],[136.4854,35.3521],[136.4818,35.3506],[136.4747,35.3424],[136.4683,35.3322],[136.4637,35.3231],[136.4476,35.3091],[136.4436,35.3063],[136.4339,35.3026],[136.4302,35.3],[136.4251,35.2906],[136.4219,35.2877],[136.4139,35.2877],[136.4043,35.2967],[136.3994,35.2916],[136.3986,35.2732],[136.397,35.2626],[136.3981,35.2524],[136.3818,35.2436],[136.3876,35.2347],[136.3961,35.2271],[136.418,35.2147],[136.427,35.2209],[136.4369,35.2188],[136.4465,35.2157],[136.4624,35.2299],[136.4832,35.2316],[136.5,35.2348],[136.5135,35.2364],[136.5182,35.25],[136.5291,35.2539]]],[[[136.6404,35.3181],[136.654,35.3406],[136.6556,35.346],[136.6563,35.3608],[136.6586,35.3676],[136.6636,35.374],[136.6565,35.3809],[136.6444,35.3855],[136.6364,35.3855],[136.6301,35.3885],[136.6276,35.3957],[136.625,35.3975],[136.6187,35.3973],[136.6112,35.3927],[136.6041,35.3913],[136.5937,35.395],[136.5826,35.405],[136.5694,35.405],[136.5526,35.4069],[136.5525,35.3846],[136.5529,35.3779],[136.555,35.3718],[136.5605,35.3647],[136.5603,35.3599],[136.5569,35.3467],[136.5518,35.3379],[136.5712,35.3314],[136.5801,35.33],[136.5859,35.3261],[136.5893,35.3221],[136.5915,35.3152],[136.592,35.3083],[136.5944,35.3024],[136.6089,35.29],[136.6146,35.2933],[136.625,35.2973],[136.6284,35.3],[136.6345,35.308],[136.6404,35.3181]]],[[[136.6808,35.3615],[136.6822,35.3525],[136.6839,35.3488],[136.6878,35.3454],[136.6933,35.3435],[136.6964,35.3515],[136.6953,35.3571],[136.6961,35.3635],[136.6875,35.3631],[136.6808,35.3615]]]]}},{"type":"Feature","properties":{"id":21028},"geometry":{"type":"Polygon","coordinates":[[[136.6389,35.4126],[136.6368,35.4236],[136.6377,35.4279],[136.6363,35.4339],[136.6402,35.4447],[136.6445,35.4596],[136.6546,35.4794],[136.655,35.483],[136.6538,35.4943],[136.6472,35.4964],[136.6355,35.4985],[136.6314,35.4974],[136.6255,35.4924],[136.6242,35.4884],[136.6244,35.4785],[136.6273,35.4714],[136.6288,35.4609],[136.6272,35.4516],[136.6229,35.4455],[136.6167,35.4427],[136.6038,35.4386],[136.6127,35.4271],[136.6257,35.4165],[136.6389,35.4126]]]}},{"type":"Feature","properties":{"id":21029},"geometry":{"type":"Polygon","coordinates":[[[136.9876,35.4209],[136.9928,35.4288],[136.9778,35.4258],[136.9558,35.4241],[136.9597,35.4156],[136.9607,35.4087],[136.9633,35.4095],[136.9641,35.4121],[136.9784,35.419],[136.9876,35.4209]]]}},{"type":"Feature","properties":{"id":21030},"geometry":{"type":"Polygon","coordinates":[[[136.6688,35.7819],[136.6743,35.772],[136.6861,35.7642],[136.6897,35.7566],[136.6911,35.7451],[136.6898,35.7331],[136.6871,35.7248],[136.6909,35.719],[136.703,35.7141],[136.7135,35.7181],[136.7303,35.7103],[136.7327,35.7061],[136.7287,35.6927],[136.7307,35.6895],[136.7377,35.6862],[136.7464,35.6775],[136.7508,35.6764],[136.7685,35.6763],[136.7759,35.6735],[136.7793,35.6697],[136.7821,35.6607],[136.7855,35.6585],[136.8042,35.6556],[136.8079,35.6531],[136.8086,35.6482],[136.8086,35.6085],[136.8063,35.6034],[136.7985,35.5966],[136.7982,35.5882],[136.8048,35.575],[136.8113,35.5644],[136.819,35.5575],[136.8212,35.5506],[136.8203,35.5419],[136.8176,35.5359],[136.8178,35.5247],[136.8315,35.5163],[136.8514,35.5072],[136.8543,35.5028],[136.8491,35.4902],[136.8483,35.4826],[136.8443,35.4744],[136.8429,35.4678],[136.8453,35.4653],[136.8586,35.4618],[136.876,35.4601],[136.8821,35.4572],[136.8856,35.4514],[136.8882,35.4444],[136.9089,35.4372],[136.9438,35.4282],[136.9558,35.4241],[136.9557,35.4451],[136.9574,35.4518],[136.9634,35.4674],[136.9588,35.4759],[136.9509,35.4826],[136.9472,35.489],[136.9505,35.499],[136.9587,35.503],[136.9765,35.5046],[136.9942,35.5044],[137.0057,35.5135],[137.0124,35.5169],[137.0158,35.5206],[137.0185,35.5305],[137.0217,35.5346],[137.0326,35.539],[137.0383,35.543],[137.0508,35.5476],[137.0586,35.5534],[137.0712,35.5603],[137.078,35.5668],[137.0776,35.5697],[137.0697,35.5817],[137.0683,35.5889],[137.0639,35.5997],[137.0654,35.6057],[137.0708,35.6108],[137.0743,35.6163],[137.0785,35.6271],[137.0835,35.6284],[137.0954,35.6266],[137.1025,35.6317],[137.1041,35.635],[137.1012,35.6443],[137.101,35.6491],[137.104,35.6588],[137.1034,35.6626],[137.0997,35.67],[137.0949,35.6727],[137.0851,35.6747],[137.0753,35.6798],[137.0648,35.6863],[137.0603,35.6825],[137.0557,35.6627],[137.0548,35.6568],[137.0515,35.6484],[137.0478,35.6439],[137.0432,35.6417],[137.0322,35.6406],[137.0278,35.6418],[137.022,35.6459],[137.0139,35.6491],[137.007,35.649],[136.9987,35.6464],[136.9948,35.6431],[136.9913,35.6372],[136.9903,35.6319],[136.9913,35.6225],[136.9905,35.6186],[136.9846,35.6099],[136.9847,35.5965],[136.9841,35.5921],[136.9695,35.5656],[136.9646,35.553],[136.9607,35.5471],[136.9529,35.5443],[136.9422,35.5434],[136.9388,35.5403],[136.9363,35.5297],[136.933,35.5206],[136.9301,35.5189],[136.9115,35.5154],[136.8986,35.5083],[136.8921,35.5083],[136.8831,35.5107],[136.8757,35.5148],[136.8681,35.5255],[136.8633,35.5303],[136.8533,35.5457],[136.8515,35.5522],[136.8512,35.5655],[136.8521,35.5722],[136.8497,35.5795],[136.8482,35.592],[136.8495,35.5983],[136.852,35.6025],[136.8559,35.6168],[136.8596,35.6261],[136.8634,35.6294],[136.8768,35.6358],[136.8813,35.6453],[136.8771,35.6549],[136.8705,35.6655],[136.8639,35.6739],[136.856,35.682],[136.8517,35.6877],[136.8499,35.6943],[136.8504,35.7022],[136.8524,35.7068],[136.8577,35.7142],[136.8595,35.7234],[136.8594,35.7309],[136.8569,35.7375],[136.8495,35.7429],[136.8427,35.7463],[136.8421,35.7501],[136.8441,35.7532],[136.8456,35.7605],[136.8436,35.7692],[136.8406,35.7737],[136.8359,35.7752],[136.8244,35.7754],[136.8047,35.7804],[136.7982,35.7831],[136.7885,35.7928],[136.7827,35.7959],[136.7747,35.8037],[136.7639,35.8073],[136.7543,35.804],[136.7372,35.8022],[136.7259,35.8021],[136.7191,35.793],[136.7091,35.7883],[136.6981,35.7885],[136.6878,35.7862],[136.6766,35.7882],[136.6688,35.7819]]]}},{"type":"Feature","properties":{"id":21031},"geometry":{"type":"Polygon","coordinates":[[[136.4448,35.3875],[136.4394,35.3758],[136.4276,35.3704],[136.4171,35.3686],[136.4162,35.3575],[136.424,35.3506],[136.4154,35.3233],[136.4154,35.3126],[136.4098,35.3022],[136.4043,35.2967],[136.4139,35.2877],[136.4219,35.2877],[136.4251,35.2906],[136.4302,35.3],[136.4339,35.3026],[136.4436,35.3063],[136.4476,35.3091],[136.4637,35.3231],[136.4683,35.3322],[136.4747,35.3424],[136.4818,35.3506],[136.4854,35.3521],[136.4985,35.3526],[136.5073,35.3517],[136.503,35.3655],[136.497,35.3695],[136.4865,35.369],[136.4834,35.3709],[136.476,35.3821],[136.4651,35.3912],[136.4448,35.3875]]]}},{"type":"Feature","properties":{"id":21032},"geometry":{"type":"Polygon","coordinates":[[[137.3477,35.5449],[137.3498,35.5517],[137.3531,35.5555],[137.3579,35.5575],[137.3777,35.5583],[137.3943,35.5602],[137.4004,35.5629],[137.4098,35.5709],[137.4098,35.5749],[137.3981,35.5923],[137.3978,35.6065],[137.3809,35.6088],[137.3641,35.612],[137.3516,35.613],[137.3361,35.612],[137.3267,35.6089],[137.3192,35.6048],[137.2973,35.5965],[137.2878,35.5936],[137.2814,35.5948],[137.276,35.6033],[137.2741,35.6087],[137.2685,35.6195],[137.2687,35.6239],[137.2718,35.629],[137.2763,35.6324],[137.2903,35.6366],[137.2935,35.6396],[137.2976,35.6503],[137.3039,35.6571],[137.3271,35.6764],[137.3411,35.6843],[137.3524,35.6914],[137.3478,35.6983],[137.3362,35.7074],[137.3273,35.7042],[137.3215,35.7002],[137.3086,35.6944],[137.2966,35.6917],[137.2729,35.6911],[137.2673,35.6901],[137.2559,35.6848],[137.2449,35.6761],[137.2423,35.6753],[137.2272,35.6762],[137.2147,35.6743],[137.2083,35.6717],[137.204,35.6679],[137.2014,35.6576],[137.1975,35.6495],[137.1918,35.6471],[137.1819,35.6394],[137.1762,35.6325],[137.1637,35.6301],[137.1531,35.6259],[137.1459,35.6198],[137.1442,35.6143],[137.1476,35.6084],[137.1551,35.6064],[137.1561,35.6011],[137.1497,35.597],[137.1497,35.5924],[137.1615,35.5863],[137.1649,35.5829],[137.1697,35.5745],[137.1822,35.5591],[137.1924,35.5488],[137.2041,35.5467],[137.2172,35.5427],[137.2262,35.5453],[137.2423,35.5417],[137.2491,35.536],[137.2565,35.5252],[137.2604,35.5222],[137.2658,35.522],[137.272,35.5253],[137.2956,35.5281],[137.3105,35.5286],[137.3182,35.53],[137.3287,35.5355],[137.3345,35.5399],[137.3477,35.5449]]]}},{"type":"Feature","properties":{"id":21033},"geometry":{"type":"Polygon","coordinates":[[[136.9788,36.2719],[136.9782,36.2714],[136.9608,36.2745],[136.9636,36.2846],[136.9706,36.2951],[136.974,36.3047],[136.9707,36.3146],[136.9566,36.3361],[136.9407,36.3458],[136.9305,36.3488],[136.9101,36.3574],[136.8998,36.3495],[136.8922,36.3424],[136.8833,36.3472],[136.8793,36.3667],[136.8689,36.3544],[136.8602,36.3467],[136.8496,36.3477],[136.8404,36.3437],[136.844,36.3333],[136.8391,36.3176],[136.8337,36.3072],[136.8258,36.3001],[136.815,36.2997],[136.7961,36.2969],[136.8021,36.2876],[136.8088,36.2729],[136.8174,36.2669],[136.8383,36.2594],[136.8476,36.2554],[136.8496,36.2394],[136.8352,36.2204],[136.8299,36.212],[136.8226,36.2031],[136.8037,36.1817],[136.8017,36.1705],[136.7812,36.1633],[136.7711,36.161],[136.7753,36.1513],[136.7825,36.1307],[136.776,36.1231],[136.7724,36.1128],[136.7839,36.1017],[136.7921,36.101],[136.8064,36.1056],[136.8147,36.1051],[136.8199,36.099],[136.824,36.0978],[136.8405,36.0987],[136.8572,36.1022],[136.8674,36.1038],[136.8948,36.1041],[136.9091,36.101],[136.9138,36.0988],[136.9198,36.0916],[136.9271,36.0883],[136.932,36.0902],[136.9357,36.1033],[136.9444,36.111],[136.9521,36.122],[136.9507,36.1273],[136.9468,36.1329],[136.9421,36.137],[136.9388,36.1417],[136.9387,36.1466],[136.942,36.1572],[136.9482,36.1695],[136.9529,36.1768],[136.9539,36.1819],[136.9538,36.1967],[136.955,36.2043],[136.9539,36.2149],[136.9572,36.2316],[136.9604,36.2411],[136.9636,36.2465],[136.9782,36.2639],[136.9788,36.2719]]]}},{"type":"Feature","properties":{"id":21034},"geometry":{"type":"Polygon","coordinates":[[[137.0502,35.3352],[137.0663,35.3333],[137.0745,35.3266],[137.0683,35.3181],[137.0698,35.3066],[137.0795,35.3032],[137.0833,35.2934],[137.0996,35.2871],[137.1002,35.2886],[137.1034,35.2965],[137.115,35.2956],[137.125,35.2928],[137.1511,35.2778],[137.1628,35.2794],[137.1725,35.2748],[137.1757,35.2711],[137.1858,35.2748],[137.1869,35.2786],[137.182,35.2831],[137.1808,35.2887],[137.1809,35.2985],[137.1794,35.3032],[137.1721,35.307],[137.1618,35.3151],[137.16,35.3189],[137.1594,35.326],[137.1574,35.3314],[137.1521,35.339],[137.1524,35.3424],[137.1583,35.3498],[137.1575,35.3555],[137.1534,35.3713],[137.1404,35.3745],[137.1293,35.3744],[137.123,35.3713],[137.118,35.3673],[137.11,35.3652],[137.098,35.3652],[137.0937,35.3668],[137.0775,35.3916],[137.076,35.3968],[137.0726,35.4027],[137.0667,35.4077],[137.0634,35.4084],[137.0583,35.4058],[137.0544,35.4014],[137.0515,35.3943],[137.0507,35.3872],[137.0423,35.3642],[137.0509,35.3622],[137.0487,35.3456],[137.0502,35.3352]]]}},{"type":"Feature","properties":{"id":21035},"geometry":{"type":"Polygon","coordinates":[[[136.765,36.0645],[136.7681,36.059],[136.8026,36.0311],[136.8178,36.0059],[136.8214,36.0033],[136.8396,35.9981],[136.8492,36.0024],[136.8589,36.0052],[136.877,36.0094],[136.8806,36.0126],[136.8851,36.0211],[136.889,36.0241],[136.9043,36.0257],[136.9135,36.0239],[136.9166,36.0179],[136.9166,36.0098],[136.9179,36.0066],[136.9232,36.0038],[136.9292,36.0031],[136.9344,36.0007],[136.9417,35.9877],[136.9452,35.983],[136.9541,35.9797],[136.9638,35.9744],[136.9709,35.9662],[136.9745,35.9604],[136.9764,35.9541],[136.9775,35.9367],[136.9828,35.9242],[136.9866,35.9194],[136.9971,35.9201],[137.0034,35.923],[137.0059,35.9269],[137.0081,35.9371],[137.0117,35.9453],[137.0185,35.9511],[137.0276,35.956],[137.0362,35.9565],[137.0482,35.9539],[137.0672,35.9461],[137.0707,35.9435],[137.0721,35.9395],[137.0721,35.926],[137.0728,35.9214],[137.0765,35.9155],[137.0854,35.9051],[137.0892,35.9037],[137.093,35.9057],[137.0937,35.9116],[137.0985,35.9166],[137.1069,35.9187],[137.1199,35.9289],[137.1234,35.933],[137.1238,35.9374],[137.1234,35.9601],[137.1241,35.9668],[137.1308,35.9806],[137.1436,35.9913],[137.1481,35.9929],[137.1548,35.9988],[137.1608,36.0063],[137.1665,36.0157],[137.1736,36.0195],[137.1792,36.0238],[137.1897,36.0294],[137.1985,36.0305],[137.2028,36.029],[137.2074,36.0232],[137.2107,36.0221],[137.2175,36.0241],[137.2252,36.0246],[137.2285,36.0224],[137.2337,36.0148],[137.2415,36.0053],[137.2498,35.9937],[137.2598,35.9881],[137.2715,35.9853],[137.2872,35.984],[137.3067,35.9843],[137.3177,35.9859],[137.3294,35.9889],[137.3417,35.9934],[137.3485,35.9923],[137.3546,35.985],[137.3626,35.9738],[137.3713,35.9661],[137.3766,35.9556],[137.3769,35.9493],[137.379,35.9448],[137.3826,35.9435],[137.3879,35.9446],[137.4001,35.9552],[137.4042,35.9607],[137.4086,35.9631],[137.4208,35.9636],[137.4277,35.9622],[137.442,35.9566],[137.4473,35.9503],[137.4555,35.943],[137.4615,35.9355],[137.4667,35.9265],[137.4731,35.9211],[137.4806,35.9167],[137.4904,35.9131],[137.4921,35.9166],[137.5,35.925],[137.5053,35.9349],[137.5154,35.9377],[137.5274,35.9392],[137.532,35.9503],[137.537,35.9594],[137.5446,35.9668],[137.5464,35.9769],[137.5566,35.9843],[137.5666,35.9881],[137.5762,35.9926],[137.5872,35.9998],[137.5968,36.0084],[137.5993,36.0151],[137.6023,36.0231],[137.6012,36.0333],[137.6041,36.0433],[137.6103,36.0514],[137.6179,36.0589],[137.6169,36.0731],[137.6053,36.0733],[137.5962,36.0776],[137.5802,36.0833],[137.557,36.1038],[137.563,36.1254],[137.5575,36.1371],[137.5684,36.1429],[137.5737,36.1522],[137.5849,36.1567],[137.5956,36.1666],[137.595,36.1783],[137.5978,36.1879],[137.5874,36.1908],[137.5797,36.1996],[137.5784,36.2104],[137.5873,36.2195],[137.5937,36.2291],[137.5989,36.239],[137.6101,36.2498],[137.625,36.2649],[137.6313,36.2739],[137.6403,36.2804],[137.6493,36.285],[137.6511,36.2952],[137.6538,36.3171],[137.6501,36.3268],[137.6492,36.3378],[137.6387,36.3393],[137.6315,36.3466],[137.6253,36.3565],[137.617,36.3635],[137.6068,36.3655],[137.5967,36.3656],[137.5892,36.3724],[137.5902,36.3866],[137.5783,36.3897],[137.5681,36.3854],[137.5563,36.3855],[137.5451,36.3888],[137.5385,36.3801],[137.5278,36.3713],[137.524,36.3703],[137.5177,36.3719],[137.5127,36.3757],[137.5085,36.3759],[137.5003,36.3694],[137.4947,36.3673],[137.4892,36.367],[137.4827,36.3687],[137.4772,36.3727],[137.4724,36.3727],[137.4529,36.3637],[137.447,36.3632],[137.4372,36.3656],[137.4337,36.3646],[137.4276,36.3591],[137.4258,36.3523],[137.4228,36.3474],[137.4189,36.3442],[137.4127,36.3416],[137.4001,36.3386],[137.3921,36.3392],[137.3844,36.3453],[137.3759,36.3456],[137.3694,36.3398],[137.3715,36.333],[137.3758,36.3092],[137.3782,36.3042],[137.3774,36.3015],[137.3709,36.2962],[137.3613,36.2945],[137.3451,36.2939],[137.3319,36.2883],[137.3103,36.2841],[137.3019,36.2865],[137.2964,36.2868],[137.2767,36.2758],[137.2683,36.2693],[137.2554,36.2614],[137.2394,36.2532],[137.2293,36.25],[137.2238,36.2402],[137.2159,36.2376],[137.2117,36.2345],[137.2118,36.2151],[137.2083,36.2106],[137.1988,36.2149],[137.1796,36.2119],[137.1702,36.2086],[137.1675,36.2061],[137.1653,36.1994],[137.1528,36.1917],[137.1483,36.1901],[137.1356,36.1803],[137.1287,36.1809],[137.1178,36.2028],[137.1081,36.2108],[137.1012,36.2123],[137.0965,36.2108],[137.0887,36.197],[137.0852,36.1936],[137.0793,36.1909],[137.0651,36.1872],[137.0503,36.1896],[137.0388,36.1897],[137.0238,36.1869],[137.0139,36.1894],[137.004,36.1898],[136.9747,36.1894],[136.9676,36.1902],[136.955,36.2043],[136.9538,36.1967],[136.9539,36.1819],[136.9529,36.1768],[136.9482,36.1695],[136.942,36.1572],[136.9387,36.1466],[136.9388,36.1417],[136.9421,36.137],[136.9468,36.1329],[136.9507,36.1273],[136.9521,36.122],[136.9444,36.111],[136.9357,36.1033],[136.932,36.0902],[136.9271,36.0883],[136.9198,36.0916],[136.9138,36.0988],[136.9091,36.101],[136.8948,36.1041],[136.8674,36.1038],[136.8572,36.1022],[136.8405,36.0987],[136.824,36.0978],[136.8199,36.099],[136.8147,36.1051],[136.8064,36.1056],[136.7921,36.101],[136.7839,36.1017],[136.7724,36.1128],[136.7682,36.1039],[136.7591,36.0962],[136.7571,36.0858],[136.7635,36.0751],[136.7678,36.0655],[136.765,36.0645]]]}},{"type":"Feature","properties":{"id":21036},"geometry":{"type":"Polygon","coordinates":[[[136.4651,35.3912],[136.476,35.3821],[136.4834,35.3709],[136.4865,35.369],[136.497,35.3695],[136.503,35.3655],[136.5073,35.3517],[136.5135,35.3469],[136.5306,35.3406],[136.5414,35.3324],[136.5518,35.3379],[136.5569,35.3467],[136.5603,35.3599],[136.5605,35.3647],[136.555,35.3718],[136.5529,35.3779],[136.5525,35.3846],[136.5526,35.4069],[136.5388,35.4134],[136.5292,35.4187],[136.5264,35.4267],[136.5232,35.4305],[136.5187,35.4311],[136.5083,35.4302],[136.494,35.425],[136.4834,35.4136],[136.4726,35.3995],[136.4651,35.3912]]]}},{"type":"Feature","properties":{"id":21037},"geometry":{"type":"Polygon","coordinates":[[[137.1859,35.2523],[137.1892,35.25],[137.2004,35.25],[137.2144,35.2565],[137.2324,35.257],[137.2414,35.2617],[137.2543,35.2667],[137.2635,35.274],[137.2684,35.2829],[137.2777,35.2869],[137.2793,35.2924],[137.2867,35.3046],[137.287,35.3099],[137.2702,35.3207],[137.2489,35.338],[137.2361,35.3498],[137.2325,35.3555],[137.2247,35.3742],[137.2198,35.3788],[137.2179,35.3826],[137.2128,35.3877],[137.2049,35.393],[137.1949,35.3958],[137.1783,35.3907],[137.1639,35.3937],[137.1534,35.3713],[137.1575,35.3555],[137.1583,35.3498],[137.1524,35.3424],[137.1521,35.339],[137.1574,35.3314],[137.1594,35.326],[137.16,35.3189],[137.1618,35.3151],[137.1721,35.307],[137.1794,35.3032],[137.1809,35.2985],[137.1808,35.2887],[137.182,35.2831],[137.1869,35.2786],[137.1858,35.2748],[137.1757,35.2711],[137.1793,35.2671],[137.1809,35.2558],[137.1859,35.2523]]]}},{"type":"Feature","properties":{"id":21038},"geometry":{"type":"Polygon","coordinates":[[[136.9942,35.5044],[136.9765,35.5046],[136.9587,35.503],[136.9505,35.499],[136.9472,35.489],[136.9509,35.4826],[136.9588,35.4759],[136.9634,35.4674],[136.9706,35.4733],[136.9776,35.4763],[136.9814,35.4764],[136.9899,35.474],[137.0035,35.4774],[137.0103,35.4806],[137.0111,35.485],[137.0073,35.4961],[137.0034,35.5005],[136.9942,35.5044]]]}},{"type":"Feature","properties":{"id":21039},"geometry":{"type":"Polygon","coordinates":[[[136.6404,35.3181],[136.6345,35.308],[136.6284,35.3],[136.625,35.2973],[136.6146,35.2933],[136.6089,35.29],[136.6129,35.2761],[136.6139,35.2688],[136.618,35.2611],[136.6252,35.2532],[136.6314,35.2616],[136.6494,35.2658],[136.654,35.2686],[136.6552,35.2714],[136.6573,35.2846],[136.662,35.29],[136.6638,35.2937],[136.6644,35.3075],[136.6486,35.3132],[136.6404,35.3181]]]}},{"type":"Feature","properties":{"id":21040},"geometry":{"type":"Polygon","coordinates":[[[136.8178,35.5247],[136.8176,35.5359],[136.8203,35.5419],[136.8212,35.5506],[136.819,35.5575],[136.8113,35.5644],[136.8048,35.575],[136.7982,35.5882],[136.7985,35.5966],[136.8063,35.6034],[136.8086,35.6085],[136.8086,35.6482],[136.8079,35.6531],[136.8042,35.6556],[136.7855,35.6585],[136.7821,35.6607],[136.7793,35.6697],[136.7759,35.6735],[136.7685,35.6763],[136.7508,35.6764],[136.7464,35.6775],[136.7377,35.6862],[136.7307,35.6895],[136.7287,35.6927],[136.7327,35.7061],[136.7303,35.7103],[136.7135,35.7181],[136.703,35.7141],[136.7003,35.7098],[136.6985,35.7021],[136.6968,35.685],[136.6968,35.663],[136.6837,35.6539],[136.681,35.6507],[136.6794,35.6455],[136.6794,35.6355],[136.6772,35.6269],[136.6723,35.62],[136.6715,35.6134],[136.6716,35.5944],[136.6722,35.5905],[136.6776,35.5844],[136.6842,35.5713],[136.6886,35.5587],[136.6954,35.5449],[136.7028,35.534],[136.7153,35.526],[136.7233,35.522],[136.7416,35.5072],[136.7535,35.5022],[136.7652,35.4983],[136.786,35.4817],[136.7943,35.4801],[136.8028,35.4821],[136.8048,35.4852],[136.8053,35.4999],[136.8165,35.5071],[136.8177,35.512],[136.8178,35.5247]]]}},{"type":"Feature","properties":{"id":21041},"geometry":{"type":"Polygon","coordinates":[[[137.272,35.5253],[137.2658,35.522],[137.2604,35.5222],[137.2565,35.5252],[137.2491,35.536],[137.2423,35.5417],[137.2262,35.5453],[137.2172,35.5427],[137.2041,35.5467],[137.1924,35.5488],[137.1843,35.5401],[137.1716,35.5293],[137.1638,35.5262],[137.1561,35.5258],[137.1485,35.5232],[137.1421,35.5182],[137.1358,35.5155],[137.1196,35.5151],[137.1315,35.499],[137.1305,35.4948],[137.1221,35.493],[137.1119,35.4867],[137.1055,35.484],[137.0942,35.482],[137.0939,35.4632],[137.0988,35.4592],[137.1073,35.4589],[137.1204,35.456],[137.1273,35.4506],[137.1295,35.4458],[137.1359,35.4463],[137.1508,35.4511],[137.1552,35.4516],[137.1621,35.4491],[137.1664,35.4501],[137.172,35.4553],[137.1734,35.4605],[137.1802,35.4671],[137.1879,35.4677],[137.2106,35.4639],[137.224,35.4676],[137.2301,35.4674],[137.2359,35.4651],[137.2422,35.4608],[137.2486,35.4581],[137.2625,35.469],[137.2738,35.4836],[137.2782,35.4879],[137.282,35.4943],[137.2818,35.5117],[137.278,35.5182],[137.272,35.5253]]]}},{"type":"Feature","properties":{"id":21042},"geometry":{"type":"Polygon","coordinates":[[[136.6252,35.2532],[136.618,35.2611],[136.6139,35.2688],[136.6129,35.2761],[136.6089,35.29],[136.5944,35.3024],[136.592,35.3083],[136.5915,35.3152],[136.5893,35.3221],[136.5859,35.3261],[136.5801,35.33],[136.5712,35.3314],[136.5518,35.3379],[136.5414,35.3324],[136.5338,35.3282],[136.5279,35.3272],[136.515,35.3306],[136.5047,35.3271],[136.5036,35.3208],[136.507,35.3129],[136.511,35.3067],[136.5157,35.3025],[136.5217,35.2951],[136.5257,35.2885],[136.5277,35.2763],[136.5284,35.2545],[136.5353,35.258],[136.5499,35.2641],[136.5588,35.2654],[136.564,35.2637],[136.5755,35.2521],[136.5797,35.2509],[136.5886,35.2517],[136.5932,35.2465],[136.5983,35.2362],[136.6045,35.2308],[136.6095,35.2302],[136.6164,35.2376],[136.6172,35.2416],[136.6208,35.2481],[136.6252,35.2532]]]}}]}