{"type":"FeatureCollection","features":[{"type":"Feature","properties":{"id":22001},"geometry":{"type":"Polygon","coordinates":[[[137.5641,34.6978],[137.5476,34.6977],[137.5406,34.6953],[137.537,34.6913],[137.5348,34.6783],[137.5485,34.6793],[137.5773,34.6802],[137.5846,34.6801],[137.5945,34.6778],[137.5956,34.6802],[137.5881,34.6828],[137.5743,34.6947],[137.5638,34.695],[137.5641,34.6978]]]}},{"type":"Feature","properties":{"id":22002},"geometry":{"type":"MultiPolygon","coordinates":[[[[139.1676,35.0433],[139.1642,35.0417],[139.169,35.0359],[139.1772,35.0392],[139.1739,35.0425],[139.1676,35.0433]]],[[[139.1099,35.1379],[139.0962,35.1374],[139.0859,35.1381],[139.0756,35.1418],[139.065,35.1424],[139.0541,35.1443],[139.0439,35.1473],[139.0329,35.1467],[139.0314,35.1447],[139.0322,35.1267],[139.03,35.1191],[139.0293,35.0989],[139.0231,35.0823],[139.0245,35.0723],[139.029,35.0613],[139.0296,35.0556],[139.0299,35.0368],[139.0388,35.0286],[139.045,35.0263],[139.0659,35.0255],[139.0759,35.034],[139.0849,35.0349],[139.099,35.0302],[139.0983,35.0336],[139.1011,35.0447],[139.0944,35.0497],[139.0918,35.05],[139.0861,35.0454],[139.0796,35.0479],[139.0741,35.0473],[139.0689,35.0546],[139.0711,35.0589],[139.0741,35.06],[139.0767,35.0666],[139.0788,35.068],[139.078,35.0733],[139.0747,35.0803],[139.0802,35.0837],[139.0814,35.0875],[139.0797,35.0928],[139.0753,35.0914],[139.0766,35.0978],[139.0828,35.1012],[139.0871,35.107],[139.0867,35.1105],[139.0919,35.1155],[139.0971,35.1168],[139.102,35.1237],[139.1096,35.1311],[139.1099,35.1379]]]]}},{"type":"Feature","properties":{"id":22003},"geometry":{"type":"Polygon","coordinates":[[[138.6315,35.1291],[138.6321,35.1186],[138.63,35.1158],[138.6407,35.1177],[138.6442,35.1162],[138.6488,35.1197],[138.6611,35.1238],[138.6702,35.1259],[138.6817,35.1322],[138.6973,35.1353],[138.6895,35.141],[138.6946,35.1424],[138.6966,35.1381],[138.7016,35.135],[138.7095,35.1363],[138.7395,35.1336],[138.751,35.1314],[138.7561,35.1377],[138.7656,35.143],[138.7732,35.1513],[138.7765,35.1582],[138.7783,35.1652],[138.7762,35.1705],[138.7686,35.1711],[138.7647,35.1741],[138.7721,35.1931],[138.7836,35.2026],[138.7942,35.2055],[138.7984,35.2081],[138.8087,35.2178],[138.8065,35.2229],[138.7969,35.2309],[138.7901,35.2406],[138.7772,35.261],[138.7706,35.2723],[138.7664,35.2764],[138.7617,35.2846],[138.7614,35.3019],[138.7594,35.3097],[138.7489,35.3289],[138.7455,35.336],[138.7372,35.3488],[138.7322,35.353],[138.7336,35.3428],[138.7336,35.3193],[138.7318,35.3061],[138.7291,35.2979],[138.7262,35.2927],[138.7108,35.2795],[138.7066,35.274],[138.7009,35.2695],[138.6832,35.2612],[138.6746,35.256],[138.6635,35.2427],[138.6578,35.2316],[138.6629,35.219],[138.6623,35.2101],[138.6595,35.2078],[138.6526,35.2079],[138.6472,35.211],[138.6416,35.2118],[138.6388,35.2098],[138.6366,35.1978],[138.6345,35.1919],[138.6158,35.1765],[138.6234,35.1679],[138.627,35.1589],[138.6272,35.1428],[138.6315,35.1291]]]}},{"type":"Feature","properties":{"id":22004},"geometry":{"type":"Polygon","coordinates":[[[138.1882,34.9888],[138.1822,34.9772],[138.1673,34.9645],[138.1643,34.9582],[138.1625,34.9466],[138.1624,34.9298],[138.1646,34.918],[138.1675,34.9102],[138.1758,34.8989],[138.1879,34.8918],[138.2018,34.8804],[138.2143,34.8594],[138.2184,34.8541],[138.2219,34.8462],[138.222,34.841],[138.2251,34.838],[138.2366,34.8377],[138.2387,34.8361],[138.2379,34.8294],[138.2251,34.823],[138.225,34.8206],[138.2337,34.8166],[138.2443,34.8093],[138.2535,34.8167],[138.2607,34.8184],[138.2783,34.8186],[138.2863,34.8181],[138.286,34.8304],[138.2885,34.8442],[138.2893,34.8572],[138.2946,34.8758],[138.3011,34.8912],[138.2963,34.8966],[138.2906,34.9011],[138.27,34.9091],[138.2615,34.9159],[138.2585,34.9207],[138.2574,34.9287],[138.2522,34.9371],[138.2311,34.9545],[138.2284,34.9581],[138.2252,34.9677],[138.2243,34.9758],[138.2224,34.9814],[138.2214,35.0032],[138.2189,35.0112],[138.2143,35.0135],[138.1958,35.013],[138.1923,35.0077],[138.1891,34.9984],[138.1882,34.9888]]]}},{"type":"Feature","properties":{"id":22005},"geometry":{"type":"Polygon","coordinates":[[[138.6158,35.1765],[138.6125,35.1879],[138.6081,35.1933],[138.5932,35.1934],[138.5884,35.1944],[138.5828,35.1999],[138.5722,35.195],[138.5633,35.1895],[138.5626,35.1868],[138.5644,35.1756],[138.5643,35.1681],[138.5617,35.1618],[138.5577,35.1582],[138.5672,35.1506],[138.571,35.1489],[138.5918,35.1373],[138.6011,35.1336],[138.6077,35.1298],[138.6153,35.1287],[138.6315,35.1291],[138.6272,35.1428],[138.627,35.1589],[138.6234,35.1679],[138.6158,35.1765]]]}},{"type":"Feature","properties":{"id":22006},"geometry":{"type":"Polygon","coordinates":[[[138.7322,35.353],[138.732,35.3614],[138.7318,35.3614],[138.7198,35.3615],[138.7097,35.3601],[138.6999,35.3563],[138.6892,35.3548],[138.6815,35.3626],[138.675,35.387],[138.6666,35.3951],[138.6454,35.3951],[138.6422,35.3951],[138.6145,35.3901],[138.6084,35.403],[138.6009,35.4284],[138.5912,35.4338],[138.584,35.4418],[138.5662,35.4313],[138.5593,35.424],[138.5513,35.4167],[138.5352,35.4047],[138.5357,35.3943],[138.5381,35.3838],[138.5318,35.3764],[138.5336,35.3649],[138.5334,35.3438],[138.5379,35.3334],[138.532,35.325],[138.5426,35.3156],[138.5469,35.3099],[138.5562,35.3024],[138.5574,35.2986],[138.5577,35.2859],[138.5599,35.2801],[138.5636,35.2642],[138.5691,35.2514],[138.5788,35.2406],[138.5802,35.2351],[138.5786,35.2189],[138.5801,35.2057],[138.5828,35.1999],[138.5884,35.1944],[138.5932,35.1934],[138.6081,35.1933],[138.6125,35.1879],[138.6158,35.1765],[138.6345,35.1919],[138.6366,35.1978],[138.6388,35.2098],[138.6416,35.2118],[138.6472,35.211],[138.6526,35.2079],[138.6595,35.2078],[138.6623,35.2101],[138.6629,35.219],[138.6578,35.2316],[138.6635,35.2427],[138.6746,35.256],[138.6832,35.2612],[138.7009,35.2695],[138.7066,35.274],[138.7108,35.2795],[138.7262,35.2927],[138.7291,35.2979],[138.7318,35.3061],[138.7336,35.3193],[138.7336,35.3428],[138.7322,35.353]]]}},{"type":"Feature","properties":{"id":22007},"geometry":{"type":"Polygon","coordinates":[[[137.9823,34.6641],[137.9706,34.6765],[137.9653,34.684],[137.9647,34.6884],[137.9733,34.6956],[137.9779,34.6978],[137.9842,34.7089],[137.9882,34.7143],[137.9927,34.723],[138.0009,34.73],[138.0075,34.7334],[138.0076,34.7368],[137.9904,34.7437],[137.9788,34.747],[137.9703,34.7538],[137.9673,34.7579],[137.9483,34.7892],[137.9473,34.7938],[137.9473,34.8127],[137.9468,34.8204],[137.9384,34.8106],[137.9259,34.8026],[137.9205,34.7979],[137.9189,34.7947],[137.9133,34.7918],[137.9053,34.7918],[137.8954,34.787],[137.8926,34.7891],[137.8917,34.7941],[137.892,34.8104],[137.8877,34.8164],[137.8746,34.8194],[137.859,34.8065],[137.8588,34.8024],[137.8623,34.7936],[137.8706,34.78],[137.876,34.7764],[137.886,34.7732],[137.8892,34.7684],[137.8892,34.7582],[137.8926,34.7514],[137.8977,34.7467],[137.9055,34.7435],[137.9224,34.7306],[137.9248,34.7245],[137.9094,34.7115],[137.9051,34.7045],[137.9063,34.6986],[137.9109,34.6928],[137.9164,34.6838],[137.9224,34.668],[137.928,34.6674],[137.9492,34.6675],[137.9823,34.6641]]]}},{"type":"Feature","properties":{"id":22008},"geometry":{"type":"Polygon","coordinates":[[[138.9939,35.279],[138.9713,35.2999],[138.9672,35.3077],[138.9665,35.3128],[138.964,35.3167],[138.9575,35.3198],[138.9546,35.3232],[138.9535,35.3281],[138.9466,35.3327],[138.9338,35.3349],[138.9246,35.3356],[138.9167,35.3379],[138.9055,35.3423],[138.8923,35.3524],[138.8867,35.348],[138.8764,35.3378],[138.8724,35.3354],[138.8669,35.3346],[138.8564,35.3436],[138.8481,35.3464],[138.8415,35.3468],[138.82,35.3506],[138.809,35.3511],[138.7962,35.3531],[138.7879,35.3527],[138.7819,35.3513],[138.772,35.3511],[138.7609,35.3534],[138.7353,35.3605],[138.7334,35.3614],[138.732,35.3614],[138.7322,35.353],[138.7372,35.3488],[138.7455,35.336],[138.7489,35.3289],[138.7607,35.3279],[138.765,35.3233],[138.7689,35.3133],[138.773,35.3092],[138.7825,35.295],[138.7946,35.2836],[138.8026,35.2733],[138.8158,35.2672],[138.8253,35.2663],[138.832,35.2671],[138.854,35.2724],[138.858,35.2752],[138.8642,35.2756],[138.8703,35.273],[138.8761,35.268],[138.8844,35.2567],[138.8884,35.2466],[138.8941,35.2357],[138.897,35.2324],[138.9169,35.2195],[138.9254,35.2196],[138.9297,35.2267],[138.9369,35.2304],[138.9425,35.231],[138.9554,35.2287],[138.9619,35.2312],[138.9784,35.2421],[138.978,35.25],[138.9787,35.2605],[138.9853,35.2696],[138.9939,35.279]]]}},{"type":"Feature","properties":{"id":22009},"geometry":{"type":"MultiPolygon","coordinates":[[[[137.6053,34.6877],[137.6076,34.6947],[137.6033,34.6967],[137.5998,34.6907],[137.6053,34.6877]]],[[[137.5981,34.6989],[137.5947,34.6954],[137.5989,34.6918],[137.6006,34.6983],[137.5981,34.6989]]],[[[137.7132,35.0188],[137.708,35.0125],[137.704,35],[137.7083,34.9882],[137.7066,34.9682],[137.6851,34.95],[137.6785,34.9421],[137.6676,34.9437],[137.6596,34.9369],[137.6519,34.9167],[137.6434,34.898],[137.6416,34.8876],[137.6336,34.8813],[137.6245,34.8764],[137.6087,34.8711],[137.5995,34.8654],[137.5967,34.8541],[137.5899,34.8466],[137.5683,34.8488],[137.5521,34.8452],[137.5434,34.8389],[137.5314,34.8385],[137.5221,34.8333],[137.5097,34.8313],[137.5019,34.8236],[137.5002,34.8203],[137.4925,34.8037],[137.4956,34.7934],[137.4961,34.7849],[137.4984,34.7825],[137.5129,34.7709],[137.5191,34.7685],[137.5323,34.7663],[137.5418,34.7697],[137.5475,34.7692],[137.5475,34.7744],[137.5447,34.7761],[137.5436,34.7825],[137.5483,34.7836],[137.5467,34.7875],[137.5494,34.7906],[137.5492,34.7997],[137.5531,34.8017],[137.5548,34.7973],[137.5586,34.7964],[137.5608,34.7928],[137.566,34.7962],[137.5711,34.7954],[137.5703,34.7892],[137.5634,34.7795],[137.564,34.7766],[137.5584,34.7717],[137.5528,34.7718],[137.5488,34.7682],[137.5556,34.7665],[137.5584,34.7607],[137.5684,34.7677],[137.571,34.7799],[137.5787,34.7812],[137.5843,34.7852],[137.5942,34.784],[137.5982,34.7884],[137.6036,34.7874],[137.6076,34.7807],[137.6141,34.7812],[137.6154,34.7927],[137.619,34.7932],[137.6241,34.801],[137.6295,34.8001],[137.6315,34.7973],[137.6452,34.7932],[137.6448,34.79],[137.6401,34.7885],[137.6421,34.7837],[137.6334,34.7832],[137.6275,34.7802],[137.6208,34.7743],[137.6171,34.769],[137.6275,34.765],[137.6208,34.7628],[137.6142,34.7673],[137.607,34.7578],[137.6014,34.755],[137.5914,34.7397],[137.5878,34.7286],[137.5883,34.7272],[137.5833,34.7138],[137.5834,34.7106],[137.5958,34.7111],[137.605,34.7129],[137.6081,34.7183],[137.5992,34.7169],[137.5979,34.7208],[137.6014,34.7242],[137.6064,34.7265],[137.6076,34.7306],[137.6069,34.7385],[137.6111,34.7391],[137.6216,34.7322],[137.6241,34.7346],[137.6262,34.7437],[137.6298,34.75],[137.6335,34.753],[137.6383,34.754],[137.6485,34.7609],[137.6514,34.758],[137.6475,34.7558],[137.6419,34.7489],[137.6391,34.7476],[137.6349,34.7419],[137.64,34.739],[137.6419,34.736],[137.6386,34.7322],[137.6293,34.7291],[137.6219,34.7204],[137.623,34.7174],[137.6171,34.7139],[137.6139,34.7083],[137.614,34.7006],[137.6215,34.6979],[137.6276,34.6937],[137.6243,34.6923],[137.6127,34.6971],[137.6068,34.6863],[137.6084,34.6822],[137.5987,34.6792],[137.6038,34.676],[137.6182,34.6765],[137.6355,34.6746],[137.6483,34.6741],[137.6594,34.6729],[137.6745,34.6702],[137.6869,34.6688],[137.7031,34.6653],[137.7206,34.6635],[137.7346,34.6601],[137.7455,34.6584],[137.7501,34.6556],[137.7683,34.6522],[137.7817,34.6483],[137.7881,34.6494],[137.7876,34.6578],[137.7879,34.6735],[137.7898,34.6834],[137.7967,34.6922],[137.8053,34.7063],[137.8109,34.7223],[137.812,34.7345],[137.8147,34.7451],[137.8192,34.756],[137.823,34.7725],[137.8277,34.7833],[137.8289,34.7897],[137.8229,34.8028],[137.8247,34.8071],[137.8276,34.8198],[137.8292,34.8346],[137.8295,34.848],[137.8312,34.8541],[137.8368,34.8615],[137.8434,34.8654],[137.8523,34.8658],[137.8576,34.8673],[137.8638,34.8732],[137.8687,34.8757],[137.8942,34.8816],[137.9039,34.887],[137.9176,34.8866],[137.9272,34.8946],[137.927,34.8983],[137.9226,34.8994],[137.9144,34.9066],[137.9112,34.9145],[137.9107,34.9232],[137.9126,34.9257],[137.9232,34.926],[137.9276,34.9277],[137.9311,34.934],[137.9452,34.9458],[137.9652,34.9516],[137.9706,34.9553],[137.9886,34.9647],[138.0041,34.9675],[138.0125,34.9722],[138.0214,34.9792],[138.0252,34.9844],[138.0404,34.9965],[138.0352,35.003],[138.0253,35.0114],[138.0216,35.018],[138.0227,35.0256],[138.0274,35.0286],[138.0419,35.0316],[138.0492,35.036],[138.0509,35.0396],[138.0495,35.0475],[138.045,35.0521],[138.0417,35.0576],[138.0417,35.0678],[138.0547,35.0844],[138.0604,35.0977],[138.06,35.1064],[138.0563,35.1105],[138.0489,35.1131],[138.0434,35.1189],[138.0344,35.126],[138.0255,35.1294],[138.0111,35.141],[138.0069,35.1488],[138.007,35.1661],[138.0091,35.1716],[138.0126,35.1749],[138.0171,35.1826],[138.0266,35.1908],[138.0308,35.1963],[138.0401,35.204],[138.0345,35.2285],[138.026,35.2338],[138.0225,35.2375],[138.0163,35.247],[138.0161,35.2509],[138.0161,35.2924],[138.0169,35.2992],[138.0118,35.3006],[138,35.2993],[137.9847,35.2892],[137.9743,35.2861],[137.9654,35.2807],[137.9535,35.2786],[137.9451,35.2727],[137.9347,35.2727],[137.9292,35.2641],[137.9243,35.2547],[137.9141,35.2505],[137.9049,35.2529],[137.8983,35.2546],[137.8859,35.2435],[137.8879,35.2329],[137.8833,35.223],[137.875,35.2155],[137.8632,35.2196],[137.8511,35.2182],[137.8401,35.2127],[137.8208,35.2113],[137.8228,35.1933],[137.8058,35.1811],[137.8049,35.1703],[137.8171,35.162],[137.8276,35.1592],[137.831,35.1493],[137.8171,35.1463],[137.8188,35.1358],[137.8018,35.1255],[137.8059,35.1057],[137.7979,35.0995],[137.7822,35.0958],[137.7812,35.0935],[137.7768,35.0833],[137.7684,35.0694],[137.7594,35.0622],[137.75,35.0571],[137.7411,35.0508],[137.7347,35.0422],[137.726,35.0355],[137.7132,35.0188]]]]}},{"type":"Feature","properties":{"id":22010},"geometry":{"type":"Polygon","coordinates":[[[139.0822,34.8478],[139.071,34.8516],[139.0606,34.8571],[139.0543,34.868],[139.0478,34.8718],[139.0397,34.8778],[139.0318,34.8818],[139.0193,34.8688],[139.0141,34.8669],[138.9958,34.8641],[138.9901,34.8623],[138.9733,34.8598],[138.9694,34.8572],[138.9674,34.8427],[138.9695,34.84],[138.9791,34.8319],[138.9863,34.8196],[138.9997,34.804],[139.0042,34.8001],[139.0096,34.792],[139.0109,34.7834],[139.0136,34.775],[139.0198,34.7672],[139.0277,34.7666],[139.0311,34.7678],[139.0375,34.7653],[139.0464,34.7661],[139.0489,34.77],[139.0426,34.7746],[139.0592,34.7853],[139.0622,34.79],[139.0622,34.7992],[139.0658,34.8064],[139.0714,34.8115],[139.0716,34.8143],[139.0786,34.82],[139.0789,34.8267],[139.0756,34.8294],[139.0785,34.8379],[139.0775,34.8422],[139.0822,34.8478]]]}},{"type":"Feature","properties":{"id":22011},"geometry":{"type":"Polygon","coordinates":[[[139.045,35.0263],[139.0367,35.0183],[139.0384,35.0071],[139.037,34.9968],[139.0379,34.985],[139.0411,34.9809],[139.0456,34.9805],[139.0543,34.9851],[139.0593,34.9844],[139.0605,34.9815],[139.0601,34.9737],[139.0552,34.9658],[139.0513,34.9566],[139.0465,34.9486],[139.0463,34.9316],[139.0469,34.9261],[139.0496,34.9152],[139.046,34.9049],[139.0318,34.8818],[139.0397,34.8778],[139.0478,34.8718],[139.0543,34.868],[139.0606,34.8571],[139.071,34.8516],[139.0822,34.8478],[139.0831,34.8533],[139.0875,34.8581],[139.0949,34.8558],[139.0989,34.8583],[139.0989,34.8622],[139.1036,34.87],[139.1181,34.8717],[139.1317,34.8789],[139.1328,34.8839],[139.1403,34.8939],[139.1333,34.8953],[139.1321,34.8984],[139.14,34.9092],[139.1408,34.9208],[139.1467,34.9294],[139.1461,34.9336],[139.1483,34.9361],[139.1442,34.9392],[139.1472,34.9456],[139.1444,34.9569],[139.1405,34.9536],[139.1331,34.9522],[139.1286,34.9589],[139.1311,34.9622],[139.1283,34.9644],[139.1247,34.9714],[139.1194,34.9733],[139.1095,34.9733],[139.1061,34.9703],[139.0967,34.9744],[139.0943,34.9779],[139.0953,34.9825],[139.0942,34.99],[139.0883,34.9936],[139.0831,35],[139.0837,35.005],[139.0894,35.0083],[139.0957,35.0068],[139.1,35.009],[139.0977,35.0135],[139.0977,35.0208],[139.099,35.0302],[139.0849,35.0349],[139.0759,35.034],[139.0659,35.0255],[139.045,35.0263]]]}},{"type":"Feature","properties":{"id":22012},"geometry":{"type":"Polygon","coordinates":[[[137.8746,34.8194],[137.884,34.8429],[137.8923,34.8566],[137.8965,34.8607],[137.906,34.8749],[137.9133,34.8811],[137.9176,34.8866],[137.9039,34.887],[137.8942,34.8816],[137.8687,34.8757],[137.8638,34.8732],[137.8576,34.8673],[137.8523,34.8658],[137.8434,34.8654],[137.8368,34.8615],[137.8312,34.8541],[137.8295,34.848],[137.8292,34.8346],[137.8276,34.8198],[137.8247,34.8071],[137.8229,34.8028],[137.8289,34.7897],[137.8277,34.7833],[137.823,34.7725],[137.8192,34.756],[137.8147,34.7451],[137.812,34.7345],[137.8109,34.7223],[137.8053,34.7063],[137.7967,34.6922],[137.7898,34.6834],[137.7879,34.6735],[137.7876,34.6578],[137.7917,34.6567],[137.7953,34.6511],[137.8,34.6472],[137.8042,34.646],[137.8133,34.6496],[137.8364,34.6552],[137.8569,34.6593],[137.8735,34.6612],[137.8861,34.6636],[137.8974,34.6649],[137.8944,34.6676],[137.8969,34.6711],[137.9044,34.6652],[137.9142,34.6677],[137.9224,34.668],[137.9164,34.6838],[137.9109,34.6928],[137.9063,34.6986],[137.9051,34.7045],[137.9094,34.7115],[137.9248,34.7245],[137.9224,34.7306],[137.9055,34.7435],[137.8977,34.7467],[137.8926,34.7514],[137.8892,34.7582],[137.8892,34.7684],[137.886,34.7732],[137.876,34.7764],[137.8706,34.78],[137.8623,34.7936],[137.8588,34.8024],[137.859,34.8065],[137.8746,34.8194]]]}},{"type":"Feature","properties":{"id":22013},"geometry":{"type":"Polygon","coordinates":[[[139.0318,34.8818],[139.046,34.9049],[139.0496,34.9152],[139.0469,34.9261],[139.0463,34.9316],[139.0465,34.9486],[139.0513,34.9566],[139.0552,34.9658],[139.0601,34.9737],[139.0605,34.9815],[139.0593,34.9844],[139.0543,34.9851],[139.0456,34.9805],[139.0411,34.9809],[139.0379,34.985],[139.037,34.9968],[139.0384,35.0071],[139.0367,35.0183],[139.0317,35.013],[139.0177,35.0016],[139.0027,34.9957],[138.9968,34.9921],[138.9854,34.9829],[138.9734,34.9742],[138.9619,34.9701],[138.9521,34.9699],[138.9489,34.9709],[138.9492,34.9842],[138.947,34.987],[138.9361,34.9901],[138.9294,34.9954],[138.9234,34.9967],[138.9139,34.9913],[138.9107,34.9928],[138.9026,35.0062],[138.894,35.0043],[138.8861,35],[138.8806,34.9954],[138.8766,34.988],[138.8706,34.9831],[138.8562,34.9761],[138.8451,34.973],[138.84,34.9689],[138.8409,34.9579],[138.8399,34.9547],[138.836,34.9508],[138.8295,34.9477],[138.8117,34.947],[138.8004,34.9455],[138.7759,34.9384],[138.7777,34.9273],[138.7856,34.9195],[138.7848,34.9166],[138.7895,34.9112],[138.7878,34.9057],[138.7809,34.9044],[138.7788,34.8985],[138.7726,34.8952],[138.7664,34.8966],[138.7642,34.8926],[138.7567,34.8861],[138.7558,34.8831],[138.758,34.8736],[138.7571,34.8697],[138.7539,34.8682],[138.7594,34.8606],[138.7633,34.8619],[138.7702,34.8578],[138.7752,34.8633],[138.7839,34.8706],[138.7901,34.8729],[138.8171,34.8774],[138.8345,34.8783],[138.8383,34.8763],[138.8418,34.8716],[138.8584,34.8578],[138.8697,34.8512],[138.8885,34.8442],[138.8932,34.8431],[138.9091,34.8351],[138.9157,34.8338],[138.9341,34.8335],[138.9394,34.8341],[138.9674,34.8427],[138.9694,34.8572],[138.9733,34.8598],[138.9901,34.8623],[138.9958,34.8641],[139.0141,34.8669],[139.0193,34.8688],[139.0318,34.8818]]]}},{"type":"Feature","properties":{"id":22014},"geometry":{"type":"Polygon","coordinates":[[[139.0231,35.0823],[139.0026,35.0817],[138.9855,35.0836],[138.9723,35.0825],[138.9631,35.0801],[138.9532,35.0757],[138.9457,35.0673],[138.94,35.0628],[138.9326,35.061],[138.9229,35.061],[138.9111,35.063],[138.9078,35.0499],[138.9074,35.0362],[138.9107,35.0228],[138.9098,35.0178],[138.9026,35.0062],[138.9107,34.9928],[138.9139,34.9913],[138.9234,34.9967],[138.9294,34.9954],[138.9361,34.9901],[138.947,34.987],[138.9492,34.9842],[138.9489,34.9709],[138.9521,34.9699],[138.9619,34.9701],[138.9734,34.9742],[138.9854,34.9829],[138.9968,34.9921],[139.0027,34.9957],[139.0177,35.0016],[139.0317,35.013],[139.0367,35.0183],[139.045,35.0263],[139.0388,35.0286],[139.0299,35.0368],[139.0296,35.0556],[139.029,35.0613],[139.0245,35.0723],[139.0231,35.0823]]]}},{"type":"Feature","properties":{"id":22015},"geometry":{"type":"Polygon","coordinates":[[[137.9823,34.6641],[138.0157,34.659],[138.0452,34.6524],[138.0556,34.6488],[138.0773,34.6434],[138.0828,34.6495],[138.0869,34.659],[138.0905,34.6639],[138.0783,34.6822],[138.077,34.6864],[138.0763,34.6992],[138.0746,34.7045],[138.0632,34.7231],[138.0512,34.7331],[138.0509,34.7369],[138.0597,34.7424],[138.0612,34.7455],[138.059,34.752],[138.0586,34.7624],[138.062,34.7687],[138.0731,34.7778],[138.0796,34.7814],[138.0856,34.7886],[138.0935,34.8012],[138.1066,34.8089],[138.1053,34.8209],[138.1021,34.8279],[138.0938,34.8348],[138.0869,34.8383],[138.0781,34.8454],[138.0714,34.8551],[138.0681,34.8577],[138.0591,34.8609],[138.0532,34.8659],[138.0495,34.8746],[138.0504,34.8797],[138.0551,34.887],[138.0582,34.904],[138.0574,34.9074],[138.0536,34.9111],[138.0485,34.9183],[138.0429,34.9153],[138.0341,34.9128],[138.0184,34.9101],[138.0132,34.904],[138.0047,34.8973],[137.9974,34.8939],[137.9948,34.8912],[137.9911,34.8817],[137.9881,34.8767],[137.9645,34.8567],[137.9579,34.8384],[137.9468,34.8204],[137.9473,34.8127],[137.9473,34.7938],[137.9483,34.7892],[137.9673,34.7579],[137.9703,34.7538],[137.9788,34.747],[137.9904,34.7437],[138.0076,34.7368],[138.0075,34.7334],[138.0009,34.73],[137.9927,34.723],[137.9882,34.7143],[137.9842,34.7089],[137.9779,34.6978],[137.9733,34.6956],[137.9647,34.6884],[137.9653,34.684],[137.9706,34.6765],[137.9823,34.6641]]]}},{"type":"Feature","properties":{"id":22016},"geometry":{"type":"Polygon","coordinates":[[[139.0073,35.1846],[138.9983,35.1703],[138.9942,35.1663],[138.9832,35.1491],[138.9817,35.1453],[138.9731,35.1335],[138.966,35.1264],[138.9552,35.1174],[138.9495,35.1112],[138.9371,35.0902],[138.9316,35.0834],[138.9241,35.0766],[138.9213,35.0755],[138.9175,35.0675],[138.9111,35.063],[138.9229,35.061],[138.9326,35.061],[138.94,35.0628],[138.9457,35.0673],[138.9532,35.0757],[138.9631,35.0801],[138.9723,35.0825],[138.9855,35.0836],[139.0026,35.0817],[139.0231,35.0823],[139.0293,35.0989],[139.03,35.1191],[139.0322,35.1267],[139.0314,35.1447],[139.0329,35.1467],[139.0302,35.1566],[139.0266,35.1741],[139.0128,35.1797],[139.0073,35.1846]]]}},{"type":"Feature","properties":{"id":22017},"geometry":{"type":"Polygon","coordinates":[[[138.1958,35.013],[138.1976,35.0207],[138.2019,35.0291],[138.2035,35.0378],[138.2036,35.0477],[138.2027,35.0515],[138.1878,35.0602],[138.1811,35.06],[138.1747,35.0508],[138.1693,35.0502],[138.16,35.0578],[138.1532,35.0579],[138.1477,35.0554],[138.1445,35.0514],[138.1413,35.0412],[138.1411,35.0235],[138.1347,35.0064],[138.1212,34.9953],[138.1085,34.9913],[138.1054,34.9851],[138.1048,34.9789],[138.0999,34.9741],[138.0922,34.9747],[138.0837,34.9798],[138.0769,34.9894],[138.074,34.9917],[138.0664,34.9944],[138.046,34.9965],[138.0404,34.9965],[138.0252,34.9844],[138.0214,34.9792],[138.0125,34.9722],[138.016,34.9639],[138.0173,34.9583],[138.0216,34.948],[138.0222,34.94],[138.0247,34.9357],[138.0379,34.9323],[138.0485,34.9251],[138.0719,34.9212],[138.0874,34.9154],[138.0941,34.9154],[138.1092,34.9197],[138.1132,34.9221],[138.1172,34.9303],[138.1229,34.9348],[138.1268,34.9362],[138.1329,34.9407],[138.1408,34.9539],[138.1423,34.969],[138.1517,34.9748],[138.1642,34.9851],[138.169,34.9879],[138.1758,34.989],[138.1882,34.9888],[138.1891,34.9984],[138.1923,35.0077],[138.1958,35.013]]]}},{"type":"Feature","properties":{"id":22018},"geometry":{"type":"Polygon","coordinates":[[[138.0169,35.2992],[138.0161,35.2924],[138.0161,35.2509],[138.0163,35.247],[138.0225,35.2375],[138.026,35.2338],[138.0345,35.2285],[138.0401,35.204],[138.0308,35.1963],[138.0266,35.1908],[138.0171,35.1826],[138.0126,35.1749],[138.0091,35.1716],[138.007,35.1661],[138.0069,35.1488],[138.0111,35.141],[138.0255,35.1294],[138.0344,35.126],[138.0434,35.1189],[138.0489,35.1131],[138.0563,35.1105],[138.06,35.1064],[138.0604,35.0977],[138.0547,35.0844],[138.0417,35.0678],[138.0417,35.0576],[138.045,35.0521],[138.0495,35.0475],[138.0509,35.0396],[138.0492,35.036],[138.0419,35.0316],[138.0274,35.0286],[138.0227,35.0256],[138.0216,35.018],[138.0253,35.0114],[138.0352,35.003],[138.0404,34.9965],[138.046,34.9965],[138.0664,34.9944],[138.074,34.9917],[138.0769,34.9894],[138.0837,34.9798],[138.0922,34.9747],[138.0999,34.9741],[138.1048,34.9789],[138.1054,34.9851],[138.1085,34.9913],[138.1212,34.9953],[138.1347,35.0064],[138.1411,35.0235],[138.1413,35.0412],[138.1445,35.0514],[138.1477,35.0554],[138.1532,35.0579],[138.16,35.0578],[138.1693,35.0502],[138.1747,35.0508],[138.1811,35.06],[138.1878,35.0602],[138.2027,35.0515],[138.2074,35.0574],[138.2132,35.0669],[138.2148,35.0725],[138.2148,35.0787],[138.2131,35.0826],[138.2058,35.0887],[138.203,35.0928],[138.2005,35.1118],[138.1951,35.118],[138.1913,35.1245],[138.1915,35.1344],[138.2031,35.142],[138.207,35.1434],[138.2292,35.1569],[138.2454,35.168],[138.2472,35.1713],[138.2377,35.194],[138.232,35.2012],[138.2286,35.2038],[138.2188,35.2041],[138.2158,35.2023],[138.2075,35.1915],[138.2001,35.191],[138.1917,35.1978],[138.1892,35.2014],[138.1878,35.2115],[138.189,35.2149],[138.1986,35.2206],[138.2071,35.2273],[138.2104,35.2314],[138.2105,35.2376],[138.209,35.2401],[138.1964,35.2468],[138.1696,35.2502],[138.1591,35.2556],[138.153,35.2616],[138.1479,35.2691],[138.146,35.2779],[138.1433,35.2813],[138.1346,35.2875],[138.1141,35.2956],[138.1082,35.3006],[138.103,35.307],[138.096,35.3188],[138.0928,35.3257],[138.0936,35.3366],[138.0905,35.3347],[138.0818,35.3405],[138.0714,35.3437],[138.0613,35.3416],[138.0552,35.3334],[138.045,35.3316],[138.039,35.3221],[138.0289,35.3167],[138.0295,35.3064],[138.0218,35.2979],[138.0169,35.2992]]]}},{"type":"Feature","properties":{"id":22019},"geometry":{"type":"Polygon","coordinates":[[[138.9674,34.8427],[138.9394,34.8341],[138.9341,34.8335],[138.9157,34.8338],[138.9091,34.8351],[138.8932,34.8431],[138.8904,34.8336],[138.8859,34.826],[138.8818,34.8098],[138.8802,34.7989],[138.8808,34.7943],[138.8875,34.7848],[138.8978,34.7756],[138.9092,34.7714],[138.9364,34.7663],[138.9431,34.7613],[138.9503,34.749],[138.9594,34.7434],[138.9617,34.7374],[138.9646,34.7259],[138.9729,34.7191],[138.9845,34.7168],[138.9892,34.7147],[138.9933,34.7178],[138.9897,34.7212],[138.9926,34.7272],[138.9967,34.7286],[139.0008,34.7377],[138.9968,34.7425],[139.0021,34.7469],[139.0053,34.7525],[139.0139,34.7517],[139.02,34.7536],[139.0239,34.7592],[139.0235,34.7616],[139.0277,34.7666],[139.0198,34.7672],[139.0136,34.775],[139.0109,34.7834],[139.0096,34.792],[139.0042,34.8001],[138.9997,34.804],[138.9863,34.8196],[138.9791,34.8319],[138.9695,34.84],[138.9674,34.8427]]]}},{"type":"Feature","properties":{"id":22020},"geometry":{"type":"Polygon","coordinates":[[[138.0905,34.6639],[138.1082,34.6675],[138.1133,34.6722],[138.1149,34.6755],[138.1217,34.6824],[138.1492,34.7053],[138.1487,34.7113],[138.1488,34.7316],[138.1466,34.7397],[138.1407,34.7456],[138.1398,34.7507],[138.1467,34.7628],[138.1481,34.7683],[138.1469,34.7776],[138.1418,34.7947],[138.1341,34.7918],[138.1281,34.7931],[138.1175,34.7995],[138.1066,34.8089],[138.0935,34.8012],[138.0856,34.7886],[138.0796,34.7814],[138.0731,34.7778],[138.062,34.7687],[138.0586,34.7624],[138.059,34.752],[138.0612,34.7455],[138.0597,34.7424],[138.0509,34.7369],[138.0512,34.7331],[138.0632,34.7231],[138.0746,34.7045],[138.0763,34.6992],[138.077,34.6864],[138.0783,34.6822],[138.0905,34.6639]]]}},{"type":"Feature","properties":{"id":22021},"geometry":{"type":"MultiPolygon","coordinates":[[[[137.5726,34.7009],[137.5677,34.7014],[137.5655,34.6959],[137.5718,34.6956],[137.5726,34.7009]]],[[[137.4961,34.7849],[137.4962,34.7832],[137.4801,34.7719],[137.4802,34.7617],[137.4781,34.75],[137.4818,34.7311],[137.4851,34.7209],[137.4912,34.712],[137.493,34.702],[137.4936,34.6915],[137.4891,34.682],[137.4883,34.6749],[137.5068,34.6763],[137.5238,34.6782],[137.5348,34.6783],[137.537,34.6913],[137.5406,34.6953],[137.5476,34.6977],[137.5641,34.6978],[137.566,34.7011],[137.564,34.7068],[137.5591,34.7093],[137.5532,34.7227],[137.548,34.7236],[137.5433,34.7199],[137.5366,34.7249],[137.5298,34.7247],[137.5288,34.7314],[137.5418,34.7332],[137.5418,34.7359],[137.5371,34.7467],[137.5294,34.7506],[137.5371,34.7578],[137.5314,34.758],[137.5298,34.755],[137.5193,34.7559],[137.5142,34.7544],[137.5143,34.7585],[137.5177,34.7592],[137.5235,34.7632],[137.5304,34.7641],[137.5323,34.7663],[137.5191,34.7685],[137.5129,34.7709],[137.4984,34.7825],[137.4961,34.7849]]]]}},{"type":"Feature","properties":{"id":22022},"geometry":{"type":"Polygon","coordinates":[[[138.1492,34.7053],[138.1536,34.6996],[138.1605,34.6937],[138.1647,34.6883],[138.1799,34.6756],[138.1833,34.6641],[138.1827,34.6587],[138.1767,34.6488],[138.1752,34.6415],[138.1742,34.6285],[138.1772,34.6241],[138.1937,34.6196],[138.211,34.6195],[138.2148,34.6195],[138.2166,34.6187],[138.2216,34.6225],[138.218,34.6266],[138.2071,34.6204],[138.1952,34.6351],[138.1935,34.6396],[138.1925,34.6483],[138.1946,34.6575],[138.1947,34.6649],[138.2001,34.6769],[138.2094,34.6881],[138.2078,34.6897],[138.2136,34.6981],[138.2141,34.7105],[138.216,34.7146],[138.2221,34.7225],[138.2326,34.7325],[138.2358,34.7337],[138.2426,34.7395],[138.2474,34.7419],[138.2455,34.7586],[138.2431,34.7649],[138.2342,34.7726],[138.2283,34.7797],[138.204,34.7896],[138.1914,34.7941],[138.1786,34.7967],[138.1661,34.7978],[138.1492,34.7967],[138.1418,34.7947],[138.1469,34.7776],[138.1481,34.7683],[138.1467,34.7628],[138.1398,34.7507],[138.1407,34.7456],[138.1466,34.7397],[138.1488,34.7316],[138.1487,34.7113],[138.1492,34.7053]]]}},{"type":"Feature","properties":{"id":22023},"geometry":{"type":"Polygon","coordinates":[[[138.8875,34.7848],[138.8779,34.7772],[138.8709,34.7693],[138.8576,34.7644],[138.8529,34.7639],[138.848,34.7655],[138.8468,34.7709],[138.8522,34.782],[138.852,34.7867],[138.8487,34.7928],[138.8456,34.7934],[138.8379,34.7907],[138.8315,34.7872],[138.8226,34.7838],[138.8181,34.7806],[138.7954,34.7689],[138.7837,34.7655],[138.7773,34.761],[138.7754,34.7618],[138.7765,34.7569],[138.7663,34.7509],[138.7642,34.7514],[138.7545,34.7461],[138.7614,34.7397],[138.7566,34.7364],[138.7511,34.7364],[138.7465,34.7319],[138.7466,34.7293],[138.7417,34.724],[138.7433,34.7179],[138.7407,34.7073],[138.7537,34.7058],[138.7619,34.7062],[138.7727,34.7109],[138.7771,34.7116],[138.785,34.7109],[138.796,34.7064],[138.8028,34.7012],[138.8077,34.7002],[138.8216,34.7008],[138.8288,34.703],[138.8472,34.7123],[138.8453,34.719],[138.846,34.7217],[138.8598,34.7329],[138.8648,34.7386],[138.8732,34.7418],[138.8821,34.7488],[138.8932,34.7598],[138.8978,34.7756],[138.8875,34.7848]]]}},{"type":"Feature","properties":{"id":22024},"geometry":{"type":"Polygon","coordinates":[[[138.8472,34.7123],[138.8288,34.703],[138.8216,34.7008],[138.8077,34.7002],[138.8028,34.7012],[138.796,34.7064],[138.785,34.7109],[138.7771,34.7116],[138.7727,34.7109],[138.7619,34.7062],[138.7537,34.7058],[138.7407,34.7073],[138.7392,34.705],[138.7428,34.694],[138.7389,34.6911],[138.7441,34.6875],[138.7563,34.6913],[138.7656,34.6863],[138.7689,34.6813],[138.7758,34.6767],[138.7767,34.669],[138.7807,34.6661],[138.7884,34.6702],[138.7908,34.6642],[138.7897,34.6599],[138.7853,34.6613],[138.7802,34.6596],[138.779,34.6549],[138.7728,34.6539],[138.7711,34.6493],[138.7752,34.6423],[138.7834,34.6383],[138.7865,34.6404],[138.7938,34.6333],[138.7931,34.6242],[138.7948,34.6223],[138.8093,34.6282],[138.8095,34.6252],[138.8134,34.6227],[138.8151,34.6192],[138.8144,34.6144],[138.8186,34.6133],[138.8222,34.6147],[138.8256,34.6066],[138.8364,34.6039],[138.8425,34.6003],[138.8453,34.6006],[138.8458,34.6053],[138.8494,34.61],[138.8592,34.6149],[138.8636,34.6158],[138.8664,34.6197],[138.8696,34.6176],[138.8746,34.6224],[138.8789,34.6244],[138.8858,34.6231],[138.8917,34.6283],[138.8872,34.6297],[138.8909,34.6349],[138.8943,34.6326],[138.8992,34.6327],[138.9052,34.6294],[138.9002,34.6406],[138.8992,34.645],[138.8947,34.6551],[138.8947,34.6584],[138.8991,34.6665],[138.8986,34.6723],[138.8943,34.6746],[138.8893,34.6806],[138.8887,34.6867],[138.8911,34.6944],[138.8889,34.6975],[138.8794,34.702],[138.8641,34.7027],[138.8559,34.7054],[138.8472,34.7123]]]}},{"type":"Feature","properties":{"id":22025},"geometry":{"type":"Polygon","coordinates":[[[138.9973,35.193],[138.9847,35.188],[138.9686,35.185],[138.9554,35.1798],[138.9508,35.1767],[138.9437,35.1751],[138.9239,35.1736],[138.9175,35.1711],[138.9109,35.1639],[138.9036,35.154],[138.9072,35.1418],[138.9073,35.1271],[138.9062,35.1217],[138.9111,35.1018],[138.9114,35.089],[138.9094,35.0831],[138.9213,35.0755],[138.9241,35.0766],[138.9316,35.0834],[138.9371,35.0902],[138.9495,35.1112],[138.9552,35.1174],[138.966,35.1264],[138.9731,35.1335],[138.9817,35.1453],[138.9832,35.1491],[138.9942,35.1663],[138.9983,35.1703],[139.0073,35.1846],[138.9973,35.193]]]}},{"type":"Feature","properties":{"id":22026},"geometry":{"type":"Polygon","coordinates":[[[137.9468,34.8204],[137.9579,34.8384],[137.9645,34.8567],[137.9881,34.8767],[137.9911,34.8817],[137.9948,34.8912],[137.9974,34.8939],[138.0047,34.8973],[138.0132,34.904],[138.0184,34.9101],[138.0341,34.9128],[138.0429,34.9153],[138.0485,34.9183],[138.0485,34.9251],[138.0379,34.9323],[138.0247,34.9357],[138.0222,34.94],[138.0216,34.948],[138.0173,34.9583],[138.016,34.9639],[138.0125,34.9722],[138.0041,34.9675],[137.9886,34.9647],[137.9706,34.9553],[137.9652,34.9516],[137.9452,34.9458],[137.9311,34.934],[137.9276,34.9277],[137.9232,34.926],[137.9126,34.9257],[137.9107,34.9232],[137.9112,34.9145],[137.9144,34.9066],[137.9226,34.8994],[137.927,34.8983],[137.9272,34.8946],[137.9176,34.8866],[137.9133,34.8811],[137.906,34.8749],[137.8965,34.8607],[137.8923,34.8566],[137.884,34.8429],[137.8746,34.8194],[137.8877,34.8164],[137.892,34.8104],[137.8917,34.7941],[137.8926,34.7891],[137.8954,34.787],[137.9053,34.7918],[137.9133,34.7918],[137.9189,34.7947],[137.9205,34.7979],[137.9259,34.8026],[137.9384,34.8106],[137.9468,34.8204]]]}},{"type":"Feature","properties":{"id":22027},"geometry":{"type":"Polygon","coordinates":[[[138.9036,35.154],[138.8989,35.1609],[138.8676,35.1866],[138.8529,35.1943],[138.8448,35.2004],[138.8415,35.2015],[138.8343,35.2071],[138.822,35.2142],[138.8156,35.2155],[138.8161,35.2087],[138.8192,35.2037],[138.8345,35.1912],[138.8409,35.1834],[138.8542,35.1726],[138.8573,35.1662],[138.8589,35.1571],[138.8634,35.1496],[138.8846,35.1302],[138.8865,35.1249],[138.886,35.1159],[138.896,35.1173],[138.9062,35.1217],[138.9073,35.1271],[138.9072,35.1418],[138.9036,35.154]]]}},{"type":"Feature","properties":{"id":22028},"geometry":{"type":"Polygon","coordinates":[[[138.8932,34.8431],[138.8885,34.8442],[138.8697,34.8512],[138.8584,34.8578],[138.8418,34.8716],[138.8383,34.8763],[138.8345,34.8783],[138.8171,34.8774],[138.7901,34.8729],[138.7839,34.8706],[138.7752,34.8633],[138.7702,34.8578],[138.776,34.8549],[138.774,34.8493],[138.7652,34.8458],[138.7596,34.8423],[138.7632,34.8329],[138.7671,34.8288],[138.765,34.8253],[138.7603,34.8293],[138.753,34.8247],[138.7512,34.8191],[138.7533,34.814],[138.7616,34.8129],[138.7649,34.8111],[138.765,34.8076],[138.7563,34.8038],[138.7523,34.8004],[138.7558,34.7978],[138.7607,34.79],[138.761,34.7865],[138.7646,34.7848],[138.7683,34.7789],[138.7651,34.7763],[138.7703,34.7737],[138.7662,34.7712],[138.7754,34.7673],[138.7754,34.7618],[138.7773,34.761],[138.7837,34.7655],[138.7954,34.7689],[138.8181,34.7806],[138.8226,34.7838],[138.8315,34.7872],[138.8379,34.7907],[138.8456,34.7934],[138.8487,34.7928],[138.852,34.7867],[138.8522,34.782],[138.8468,34.7709],[138.848,34.7655],[138.8529,34.7639],[138.8576,34.7644],[138.8709,34.7693],[138.8779,34.7772],[138.8875,34.7848],[138.8808,34.7943],[138.8802,34.7989],[138.8818,34.8098],[138.8859,34.826],[138.8904,34.8336],[138.8932,34.8431]]]}},{"type":"Feature","properties":{"id":22029},"geometry":{"type":"Polygon","coordinates":[[[138.8087,35.2178],[138.7984,35.2081],[138.7942,35.2055],[138.7836,35.2026],[138.7721,35.1931],[138.7647,35.1741],[138.7686,35.1711],[138.7762,35.1705],[138.7783,35.1652],[138.7765,35.1582],[138.7732,35.1513],[138.7656,35.143],[138.7561,35.1377],[138.751,35.1314],[138.7565,35.131],[138.779,35.1254],[138.7931,35.1215],[138.8207,35.1107],[138.8344,35.1031],[138.8411,35.0986],[138.8501,35.0878],[138.852,35.0837],[138.8603,35.0739],[138.8701,35.0722],[138.8745,35.0676],[138.8767,35.0616],[138.8824,35.0555],[138.8863,35.0462],[138.8901,35.0463],[138.8902,35.0507],[138.8957,35.0514],[138.9016,35.0502],[138.9047,35.0466],[138.898,35.0428],[138.8984,35.0385],[138.8923,35.032],[138.8926,35.0283],[138.8969,35.0236],[138.8965,35.0211],[138.8914,35.0175],[138.885,35.0191],[138.8862,35.0226],[138.8826,35.0255],[138.8795,35.0202],[138.8729,35.0248],[138.8682,35.0221],[138.8545,35.0197],[138.8457,35.0142],[138.8418,35.0187],[138.8367,35.0181],[138.8309,35.0208],[138.8287,35.0235],[138.8139,35.0231],[138.8114,35.0195],[138.8073,35.0212],[138.7998,35.0217],[138.7974,35.0241],[138.7834,35.0256],[138.783,35.0197],[138.7793,35.0174],[138.7782,35.0084],[138.7795,35.0024],[138.7747,34.9978],[138.7726,34.989],[138.769,34.9817],[138.7748,34.976],[138.7771,34.9721],[138.774,34.9697],[138.7639,34.9736],[138.762,34.9707],[138.7631,34.9623],[138.7654,34.9581],[138.7657,34.9521],[138.7676,34.9488],[138.7752,34.9436],[138.7759,34.9384],[138.8004,34.9455],[138.8117,34.947],[138.8295,34.9477],[138.836,34.9508],[138.8399,34.9547],[138.8409,34.9579],[138.84,34.9689],[138.8451,34.973],[138.8562,34.9761],[138.8706,34.9831],[138.8766,34.988],[138.8806,34.9954],[138.8861,35],[138.894,35.0043],[138.9026,35.0062],[138.9098,35.0178],[138.9107,35.0228],[138.9074,35.0362],[138.9078,35.0499],[138.9111,35.063],[138.9175,35.0675],[138.9213,35.0755],[138.9094,35.0831],[138.8976,35.0784],[138.8918,35.0779],[138.8858,35.0806],[138.8839,35.0869],[138.8839,35.0995],[138.886,35.1159],[138.8865,35.1249],[138.8846,35.1302],[138.8634,35.1496],[138.8589,35.1571],[138.8573,35.1662],[138.8542,35.1726],[138.8409,35.1834],[138.8345,35.1912],[138.8192,35.2037],[138.8161,35.2087],[138.8156,35.2155],[138.8087,35.2178]]]}},{"type":"Feature","properties":{"id":22030},"geometry":{"type":"Polygon","coordinates":[[[138.2443,34.8093],[138.2597,34.797],[138.2634,34.796],[138.2812,34.7816],[138.2952,34.7726],[138.2997,34.7717],[138.3024,34.7762],[138.3006,34.7787],[138.3045,34.7864],[138.3073,34.7886],[138.3118,34.7962],[138.3148,34.7975],[138.3192,34.8052],[138.3254,34.8125],[138.3099,34.815],[138.3019,34.8156],[138.2952,34.8172],[138.2863,34.8181],[138.2783,34.8186],[138.2607,34.8184],[138.2535,34.8167],[138.2443,34.8093]]]}},{"type":"Feature","properties":{"id":22031},"geometry":{"type":"Polygon","coordinates":[[[138.3011,34.8912],[138.306,34.8966],[138.3132,34.901],[138.3234,34.9044],[138.3296,34.9092],[138.3338,34.9145],[138.3171,34.9251],[138.2974,34.9415],[138.2905,34.9556],[138.2855,34.9615],[138.2755,34.9683],[138.2711,34.9784],[138.2655,34.9829],[138.2558,34.9847],[138.2462,35.0011],[138.2414,35.0039],[138.2318,35.0047],[138.2214,35.0032],[138.2224,34.9814],[138.2243,34.9758],[138.2252,34.9677],[138.2284,34.9581],[138.2311,34.9545],[138.2522,34.9371],[138.2574,34.9287],[138.2585,34.9207],[138.2615,34.9159],[138.27,34.9091],[138.2906,34.9011],[138.2963,34.8966],[138.3011,34.8912]]]}},{"type":"Feature","properties":{"id":22032},"geometry":{"type":"Polygon","coordinates":[[[138.0905,34.6639],[138.0869,34.659],[138.0828,34.6495],[138.0773,34.6434],[138.0895,34.6387],[138.0961,34.6373],[138.1094,34.6328],[138.1137,34.6302],[138.1208,34.6285],[138.138,34.6213],[138.1446,34.6177],[138.1521,34.6162],[138.1791,34.6075],[138.1926,34.6007],[138.2036,34.601],[138.2156,34.5985],[138.2195,34.5964],[138.2263,34.5952],[138.2301,34.5965],[138.2336,34.6008],[138.2334,34.6052],[138.2243,34.608],[138.2217,34.6074],[138.2189,34.6155],[138.211,34.6195],[138.1937,34.6196],[138.1772,34.6241],[138.1742,34.6285],[138.1752,34.6415],[138.1767,34.6488],[138.1827,34.6587],[138.1833,34.6641],[138.1799,34.6756],[138.1647,34.6883],[138.1605,34.6937],[138.1536,34.6996],[138.1492,34.7053],[138.1217,34.6824],[138.1149,34.6755],[138.1133,34.6722],[138.1082,34.6675],[138.0905,34.6639]]]}},{"type":"Feature","properties":{"id":22033},"geometry":{"type":"Polygon","coordinates":[[[139.0082,35.2884],[139.0104,35.2973],[139.017,35.3169],[139.0216,35.3266],[139.0206,35.3282],[139.0136,35.3391],[139.0131,35.3505],[139.0089,35.3722],[139.0024,35.3799],[139.0042,35.3901],[138.9966,35.4002],[138.9852,35.4006],[138.975,35.4018],[138.9631,35.3989],[138.9527,35.3981],[138.9414,35.3959],[138.9196,35.3987],[138.9059,35.393],[138.896,35.3872],[138.886,35.3825],[138.8737,35.3806],[138.8656,35.3869],[138.851,35.3857],[138.8404,35.3816],[138.8313,35.3744],[138.8178,35.3731],[138.8061,35.3732],[138.7829,35.3704],[138.7724,35.3702],[138.7599,35.3679],[138.7334,35.3614],[138.7353,35.3605],[138.7609,35.3534],[138.772,35.3511],[138.7819,35.3513],[138.7879,35.3527],[138.7962,35.3531],[138.809,35.3511],[138.82,35.3506],[138.8415,35.3468],[138.8481,35.3464],[138.8564,35.3436],[138.8669,35.3346],[138.8724,35.3354],[138.8764,35.3378],[138.8867,35.348],[138.8923,35.3524],[138.9055,35.3423],[138.9167,35.3379],[138.9246,35.3356],[138.9338,35.3349],[138.9466,35.3327],[138.9535,35.3281],[138.9546,35.3232],[138.9575,35.3198],[138.964,35.3167],[138.9665,35.3128],[138.9672,35.3077],[138.9713,35.2999],[138.9939,35.279],[138.9963,35.2816],[139.0078,35.2866],[139.0082,35.2884]]]}},{"type":"Feature","properties":{"id":22034},"geometry":{"type":"Polygon","coordinates":[[[138.5828,35.1999],[138.5801,35.2057],[138.5786,35.2189],[138.5802,35.2351],[138.5788,35.2406],[138.5691,35.2514],[138.5636,35.2642],[138.5599,35.2801],[138.5577,35.2859],[138.5574,35.2986],[138.5562,35.3024],[138.5469,35.3099],[138.5426,35.3156],[138.532,35.325],[138.5236,35.3158],[138.5157,35.308],[138.5177,35.298],[138.5237,35.2781],[138.5232,35.2673],[138.5183,35.2584],[138.5245,35.25],[138.5297,35.2308],[138.5354,35.2206],[138.5346,35.2072],[138.5361,35.1973],[138.5257,35.1957],[138.5242,35.1943],[138.5258,35.1846],[138.5295,35.175],[138.5297,35.1636],[138.531,35.1595],[138.5359,35.1552],[138.5442,35.1508],[138.5577,35.1582],[138.5617,35.1618],[138.5643,35.1681],[138.5644,35.1756],[138.5626,35.1868],[138.5633,35.1895],[138.5722,35.195],[138.5828,35.1999]]]}},{"type":"Feature","properties":{"id":22035},"geometry":{"type":"Polygon","coordinates":[[[138.1882,34.9888],[138.1758,34.989],[138.169,34.9879],[138.1642,34.9851],[138.1517,34.9748],[138.1423,34.969],[138.1408,34.9539],[138.1329,34.9407],[138.1268,34.9362],[138.1229,34.9348],[138.1172,34.9303],[138.1132,34.9221],[138.1092,34.9197],[138.0941,34.9154],[138.0874,34.9154],[138.0719,34.9212],[138.0485,34.9251],[138.0485,34.9183],[138.0536,34.9111],[138.0574,34.9074],[138.0582,34.904],[138.0551,34.887],[138.0504,34.8797],[138.0495,34.8746],[138.0532,34.8659],[138.0591,34.8609],[138.0681,34.8577],[138.0714,34.8551],[138.0781,34.8454],[138.0869,34.8383],[138.0938,34.8348],[138.1021,34.8279],[138.1053,34.8209],[138.1066,34.8089],[138.1175,34.7995],[138.1281,34.7931],[138.1341,34.7918],[138.1418,34.7947],[138.1492,34.7967],[138.1661,34.7978],[138.1786,34.7967],[138.1914,34.7941],[138.204,34.7896],[138.2283,34.7797],[138.234,34.7895],[138.2374,34.7934],[138.2426,34.7966],[138.2597,34.797],[138.2443,34.8093],[138.2337,34.8166],[138.225,34.8206],[138.2251,34.823],[138.2379,34.8294],[138.2387,34.8361],[138.2366,34.8377],[138.2251,34.838],[138.222,34.841],[138.2219,34.8462],[138.2184,34.8541],[138.2143,34.8594],[138.2018,34.8804],[138.1879,34.8918],[138.1758,34.8989],[138.1675,34.9102],[138.1646,34.918],[138.1624,34.9298],[138.1625,34.9466],[138.1643,34.9582],[138.1673,34.9645],[138.1822,34.9772],[138.1882,34.9888]]]}},{"type":"Feature","properties":{"id":22036},"geometry":{"type":"Polygon","coordinates":[[[138.9062,35.1217],[138.896,35.1173],[138.886,35.1159],[138.8839,35.0995],[138.8839,35.0869],[138.8858,35.0806],[138.8918,35.0779],[138.8976,35.0784],[138.9094,35.0831],[138.9114,35.089],[138.9111,35.1018],[138.9062,35.1217]]]}},{"type":"Feature","properties":{"id":22037},"geometry":{"type":"Polygon","coordinates":[[[138.9892,34.7147],[138.9845,34.7168],[138.9729,34.7191],[138.9646,34.7259],[138.9617,34.7374],[138.9594,34.7434],[138.9503,34.749],[138.9431,34.7613],[138.9364,34.7663],[138.9092,34.7714],[138.8978,34.7756],[138.8932,34.7598],[138.8821,34.7488],[138.8732,34.7418],[138.8648,34.7386],[138.8598,34.7329],[138.846,34.7217],[138.8453,34.719],[138.8472,34.7123],[138.8559,34.7054],[138.8641,34.7027],[138.8794,34.702],[138.8889,34.6975],[138.8911,34.6944],[138.8887,34.6867],[138.8893,34.6806],[138.8943,34.6746],[138.8986,34.6723],[138.8991,34.6665],[138.8947,34.6584],[138.8947,34.6551],[138.8992,34.645],[138.9002,34.6406],[138.9052,34.6294],[138.9126,34.6354],[138.9129,34.6395],[138.9177,34.6461],[138.9168,34.6493],[138.9208,34.6548],[138.9241,34.655],[138.9268,34.6589],[138.9336,34.6608],[138.9397,34.6612],[138.938,34.6644],[138.9491,34.6669],[138.9498,34.6728],[138.9574,34.6766],[138.963,34.6734],[138.9572,34.6646],[138.9584,34.6607],[138.9553,34.655],[138.9641,34.6531],[138.9725,34.6544],[138.9776,34.6532],[138.9854,34.6624],[138.9874,34.6661],[138.9849,34.6691],[138.9813,34.667],[138.9787,34.6724],[138.9723,34.6742],[138.9805,34.6818],[138.9724,34.6899],[138.9751,34.7005],[138.98,34.7091],[138.9892,34.7147]]]}},{"type":"Feature","properties":{"id":22038},"geometry":{"type":"MultiPolygon","coordinates":[[[[138.63,35.1158],[138.6321,35.1186],[138.6315,35.1291],[138.6153,35.1287],[138.6077,35.1298],[138.6011,35.1336],[138.5918,35.1373],[138.571,35.1489],[138.5715,35.1413],[138.5709,35.1322],[138.5681,35.1244],[138.5689,35.117],[138.5714,35.1077],[138.576,35.1107],[138.5902,35.1123],[138.6028,35.1153],[138.6138,35.1143],[138.63,35.1158]]],[[[138.1249,35.4522],[138.125,35.4253],[138.1418,35.4167],[138.1415,35.4031],[138.152,35.3977],[138.154,35.3867],[138.1483,35.3783],[138.145,35.3677],[138.1356,35.3629],[138.125,35.3641],[138.109,35.3549],[138.0997,35.3508],[138.099,35.34],[138.0936,35.3366],[138.0928,35.3257],[138.096,35.3188],[138.103,35.307],[138.1082,35.3006],[138.1141,35.2956],[138.1346,35.2875],[138.1433,35.2813],[138.146,35.2779],[138.1479,35.2691],[138.153,35.2616],[138.1591,35.2556],[138.1696,35.2502],[138.1964,35.2468],[138.209,35.2401],[138.2105,35.2376],[138.2104,35.2314],[138.2071,35.2273],[138.1986,35.2206],[138.189,35.2149],[138.1878,35.2115],[138.1892,35.2014],[138.1917,35.1978],[138.2001,35.191],[138.2075,35.1915],[138.2158,35.2023],[138.2188,35.2041],[138.2286,35.2038],[138.232,35.2012],[138.2377,35.194],[138.2472,35.1713],[138.2454,35.168],[138.2292,35.1569],[138.207,35.1434],[138.2031,35.142],[138.1915,35.1344],[138.1913,35.1245],[138.1951,35.118],[138.2005,35.1118],[138.203,35.0928],[138.2058,35.0887],[138.2131,35.0826],[138.2148,35.0787],[138.2148,35.0725],[138.2132,35.0669],[138.2074,35.0574],[138.2027,35.0515],[138.2036,35.0477],[138.2035,35.0378],[138.2019,35.0291],[138.1976,35.0207],[138.1958,35.013],[138.2143,35.0135],[138.2189,35.0112],[138.2214,35.0032],[138.2318,35.0047],[138.2414,35.0039],[138.2462,35.0011],[138.2558,34.9847],[138.2655,34.9829],[138.2711,34.9784],[138.2755,34.9683],[138.2855,34.9615],[138.2905,34.9556],[138.2974,34.9415],[138.3171,34.9251],[138.3338,34.9145],[138.3407,34.908],[138.3484,34.8991],[138.3504,34.9041],[138.355,34.9081],[138.3545,34.9115],[138.3578,34.9148],[138.3642,34.9178],[138.3724,34.9236],[138.3749,34.9229],[138.3889,34.9276],[138.3904,34.9301],[138.4009,34.9304],[138.4073,34.9391],[138.4146,34.9424],[138.4276,34.9459],[138.439,34.9504],[138.4442,34.9504],[138.4509,34.954],[138.4651,34.9574],[138.4963,34.9713],[138.5114,34.9811],[138.5186,34.988],[138.5215,34.9893],[138.5286,35.0047],[138.5331,35.0128],[138.5295,35.0168],[138.5212,35.0206],[138.5144,35.0128],[138.5108,35.0119],[138.5067,35.0136],[138.5016,35.0117],[138.5003,35.0027],[138.5089,34.9969],[138.5114,34.9928],[138.5047,34.9847],[138.5014,34.9894],[138.5012,34.9935],[138.4983,34.9969],[138.4968,35.0024],[138.4984,35.0068],[138.4965,35.0189],[138.5004,35.0298],[138.5088,35.0327],[138.5163,35.0392],[138.5165,35.0446],[138.5194,35.048],[138.5321,35.055],[138.5395,35.0626],[138.5394,35.0746],[138.5378,35.0833],[138.5329,35.0958],[138.5326,35.1113],[138.5377,35.126],[138.5442,35.1508],[138.5359,35.1552],[138.531,35.1595],[138.5297,35.1636],[138.5295,35.175],[138.5258,35.1846],[138.5242,35.1943],[138.5069,35.1788],[138.4994,35.1713],[138.4817,35.1723],[138.4712,35.1743],[138.4369,35.1763],[138.4294,35.1836],[138.4236,35.1926],[138.4135,35.199],[138.4017,35.1971],[138.3973,35.2067],[138.3939,35.2175],[138.392,35.2342],[138.3835,35.25],[138.3753,35.2617],[138.3714,35.2717],[138.3708,35.2829],[138.3735,35.2986],[138.3738,35.3003],[138.3667,35.3088],[138.3574,35.3132],[138.3463,35.315],[138.3387,35.3231],[138.3372,35.3232],[138.3282,35.3241],[138.3182,35.3198],[138.2974,35.3092],[138.2894,35.3023],[138.2794,35.3044],[138.2704,35.3113],[138.2599,35.3149],[138.2551,35.3237],[138.2581,35.3334],[138.2578,35.3446],[138.2543,35.3545],[138.25,35.3639],[138.2391,35.3669],[138.2386,35.3775],[138.2461,35.3861],[138.2496,35.3968],[138.2582,35.4025],[138.2615,35.4164],[138.2622,35.4277],[138.2581,35.4377],[138.2503,35.4462],[138.25,35.4605],[138.2584,35.4672],[138.2613,35.4776],[138.262,35.4901],[138.2633,35.5],[138.2695,35.5094],[138.2662,35.5206],[138.2608,35.5308],[138.2631,35.541],[138.2607,35.5508],[138.2504,35.5571],[138.2479,35.5673],[138.2425,35.5833],[138.2455,35.593],[138.2396,35.6027],[138.238,35.6131],[138.2321,35.6219],[138.2335,35.632],[138.2216,35.6413],[138.2059,35.6228],[138.2071,35.6125],[138.2067,35.6024],[138.2003,35.5934],[138.192,35.5734],[138.1812,35.5719],[138.174,35.5792],[138.1636,35.5744],[138.1537,35.5657],[138.1454,35.5523],[138.1566,35.5503],[138.1623,35.5416],[138.1483,35.5255],[138.1414,35.5182],[138.1492,35.51],[138.1429,35.4996],[138.1567,35.4929],[138.1632,35.4852],[138.1595,35.4738],[138.1628,35.464],[138.156,35.4558],[138.1449,35.456],[138.1352,35.4505],[138.1249,35.4522]]]]}},{"type":"Feature","properties":{"id":22039},"geometry":{"type":"Polygon","coordinates":[[[138.9784,35.2421],[138.9619,35.2312],[138.9554,35.2287],[138.9425,35.231],[138.9369,35.2304],[138.9297,35.2267],[138.9254,35.2196],[138.9169,35.2195],[138.897,35.2324],[138.8941,35.2357],[138.8884,35.2466],[138.8844,35.2567],[138.8761,35.268],[138.8703,35.273],[138.8642,35.2756],[138.858,35.2752],[138.854,35.2724],[138.832,35.2671],[138.8253,35.2663],[138.8158,35.2672],[138.8026,35.2733],[138.7946,35.2836],[138.7825,35.295],[138.773,35.3092],[138.7689,35.3133],[138.765,35.3233],[138.7607,35.3279],[138.7489,35.3289],[138.7594,35.3097],[138.7614,35.3019],[138.7617,35.2846],[138.7664,35.2764],[138.7706,35.2723],[138.7772,35.261],[138.7901,35.2406],[138.7969,35.2309],[138.8065,35.2229],[138.8087,35.2178],[138.8156,35.2155],[138.822,35.2142],[138.8343,35.2071],[138.8415,35.2015],[138.8448,35.2004],[138.8529,35.1943],[138.8676,35.1866],[138.8989,35.1609],[138.9036,35.154],[138.9109,35.1639],[138.9175,35.1711],[138.9239,35.1736],[138.9437,35.1751],[138.9508,35.1767],[138.9554,35.1798],[138.9686,35.185],[138.9847,35.188],[138.9973,35.193],[138.991,35.1975],[138.9912,35.2084],[138.9789,35.2322],[138.9784,35.2421]]]}},{"type":"Feature","properties":{"id":22040},"geometry":{"type":"Polygon","coordinates":[[[138.2863,34.8181],[138.2952,34.8172],[138.3019,34.8156],[138.3099,34.815],[138.3254,34.8125],[138.328,34.8175],[138.3342,34.8219],[138.3389,34.8339],[138.3357,34.8442],[138.3312,34.8497],[138.3246,34.854],[138.3247,34.8612],[138.328,34.8676],[138.3312,34.8711],[138.33,34.8744],[138.3382,34.8811],[138.3398,34.8884],[138.3483,34.896],[138.3484,34.8991],[138.3407,34.908],[138.3338,34.9145],[138.3296,34.9092],[138.3234,34.9044],[138.3132,34.901],[138.306,34.8966],[138.3011,34.8912],[138.2946,34.8758],[138.2893,34.8572],[138.2885,34.8442],[138.286,34.8304],[138.2863,34.8181]]]}},{"type":"Feature","properties":{"id":22041},"geometry":{"type":"Polygon","coordinates":[[[138.2474,34.7419],[138.2552,34.7461],[138.2617,34.7513],[138.2716,34.7537],[138.276,34.7572],[138.2865,34.7619],[138.2933,34.766],[138.2997,34.7717],[138.2952,34.7726],[138.2812,34.7816],[138.2634,34.796],[138.2597,34.797],[138.2426,34.7966],[138.2374,34.7934],[138.234,34.7895],[138.2283,34.7797],[138.2342,34.7726],[138.2431,34.7649],[138.2455,34.7586],[138.2474,34.7419]]]}},{"type":"Feature","properties":{"id":22042},"geometry":{"type":"Polygon","coordinates":[[[138.5577,35.1582],[138.5442,35.1508],[138.5377,35.126],[138.5326,35.1113],[138.5329,35.0958],[138.5378,35.0833],[138.5394,35.0746],[138.5395,35.0626],[138.546,35.0746],[138.5512,35.0923],[138.5551,35.0979],[138.5593,35.1017],[138.5714,35.1077],[138.5689,35.117],[138.5681,35.1244],[138.5709,35.1322],[138.5715,35.1413],[138.571,35.1489],[138.5672,35.1506],[138.5577,35.1582]]]}}]}