{"type":"FeatureCollection","features":[{"type":"Feature","properties":{"id":23001},"geometry":{"type":"Polygon","coordinates":[[[136.8802,34.944],[136.8847,34.9393],[136.8894,34.9314],[136.8868,34.9251],[136.8803,34.9198],[136.891,34.9112],[136.8934,34.9106],[136.9122,34.912],[136.9316,34.9118],[136.9367,34.9137],[136.9363,34.9265],[136.9374,34.9307],[136.9475,34.9439],[136.9414,34.9452],[136.9335,34.9485],[136.9194,34.9627],[136.9121,34.9534],[136.906,34.9547],[136.8941,34.9549],[136.8802,34.944]]]}},{"type":"Feature","properties":{"id":23002},"geometry":{"type":"Polygon","coordinates":[[[136.6821,35.2325],[136.6821,35.2126],[136.6792,35.1807],[136.6763,35.1701],[136.6709,35.1455],[136.673,35.134],[136.6802,35.1287],[136.6906,35.1259],[136.7044,35.12],[136.7069,35.1275],[136.712,35.1292],[136.7257,35.1289],[136.7373,35.126],[136.7417,35.1223],[136.7483,35.1105],[136.754,35.1085],[136.7624,35.1137],[136.7625,35.1354],[136.7559,35.1412],[136.7526,35.1423],[136.7424,35.1425],[136.7256,35.1454],[136.7207,35.1493],[136.7231,35.1555],[136.721,35.1605],[136.7155,35.169],[136.7144,35.1727],[136.7217,35.1849],[136.7291,35.188],[136.7359,35.1878],[136.7466,35.179],[136.7519,35.1772],[136.7573,35.1771],[136.7674,35.1848],[136.7759,35.1873],[136.776,35.2035],[136.7607,35.2018],[136.7423,35.1972],[136.7383,35.2002],[136.7372,35.2137],[136.7347,35.2154],[136.726,35.2168],[136.7233,35.22],[136.7212,35.2303],[136.717,35.2326],[136.6821,35.2325]]]}},{"type":"Feature","properties":{"id":23003},"geometry":{"type":"Polygon","coordinates":[[[137.06,34.9768],[137.0654,34.9699],[137.0628,34.9636],[137.0587,34.9602],[137.0505,34.9579],[137.0455,34.955],[137.0399,34.95],[137.0224,34.9464],[137.0174,34.9463],[137.017,34.9361],[137.0211,34.9281],[137.0319,34.9275],[137.0336,34.9247],[137.0323,34.9201],[137.0201,34.9009],[137.0204,34.8978],[137.0249,34.8881],[137.0357,34.8856],[137.0443,34.8931],[137.0513,34.9018],[137.0551,34.9023],[137.0653,34.8986],[137.0703,34.8897],[137.0745,34.8875],[137.0839,34.8874],[137.0977,34.8912],[137.1107,34.8969],[137.1087,34.9082],[137.1097,34.9122],[137.115,34.9189],[137.1108,34.9407],[137.1208,34.9568],[137.1208,34.9593],[137.1126,34.971],[137.1074,34.9753],[137.1068,34.9786],[137.1134,34.9859],[137.1247,34.9905],[137.1083,35.0029],[137.0921,35.0088],[137.0855,34.9972],[137.0795,34.9904],[137.0691,34.982],[137.06,34.9768]]]}},{"type":"Feature","properties":{"id":23004},"geometry":{"type":"Polygon","coordinates":[[[137.0921,35.0088],[137.0819,35.0085],[137.0781,35.0103],[137.0754,35.0143],[137.0609,35.0128],[137.0559,35.0138],[137.0461,35.0194],[137.0387,35.0146],[137.034,35.0041],[137.0296,35.0007],[137.0248,35],[137.0219,34.9974],[137.0225,34.9905],[137.0333,34.982],[137.0437,34.9769],[137.06,34.9768],[137.0691,34.982],[137.0795,34.9904],[137.0855,34.9972],[137.0921,35.0088]]]}},{"type":"Feature","properties":{"id":23005},"geometry":{"type":"Polygon","coordinates":[[[136.9194,34.9627],[136.9237,34.968],[136.9089,34.9736],[136.9024,34.9806],[136.8981,34.9877],[136.8929,34.9981],[136.8711,35.0122],[136.8697,35.0078],[136.8489,35.0103],[136.8442,35.0072],[136.8445,35.0039],[136.8539,35.0028],[136.8518,34.9983],[136.8469,34.9989],[136.8436,34.9958],[136.8342,34.9819],[136.8379,34.98],[136.8358,34.9765],[136.8308,34.9783],[136.8201,34.9653],[136.8286,34.9614],[136.8286,34.9575],[136.8261,34.9528],[136.8267,34.9425],[136.8256,34.94],[136.8383,34.9366],[136.8515,34.9347],[136.8564,34.9332],[136.8632,34.9338],[136.8693,34.9393],[136.8802,34.944],[136.8941,34.9549],[136.906,34.9547],[136.9121,34.9534],[136.9194,34.9627]]]}},{"type":"Feature","properties":{"id":23006},"geometry":{"type":"Polygon","coordinates":[[[136.9229,35.3768],[136.9167,35.3749],[136.9017,35.3749],[136.9031,35.3666],[136.9034,35.3497],[136.9062,35.3435],[136.9092,35.34],[136.9303,35.3462],[136.947,35.3463],[136.9454,35.3585],[136.943,35.3639],[136.9377,35.368],[136.9286,35.3722],[136.9229,35.3768]]]}},{"type":"Feature","properties":{"id":23007},"geometry":{"type":"Polygon","coordinates":[[[137.1669,34.7847],[137.1706,34.7874],[137.1757,34.7845],[137.1773,34.7783],[137.174,34.7753],[137.1741,34.7706],[137.1703,34.7708],[137.1693,34.7654],[137.1774,34.7651],[137.1899,34.7761],[137.1876,34.7803],[137.1908,34.7904],[137.1864,34.7929],[137.1905,34.8002],[137.1913,34.8053],[137.1954,34.809],[137.201,34.8083],[137.2105,34.8033],[137.2155,34.8073],[137.2246,34.8192],[137.2307,34.8185],[137.2318,34.8155],[137.2425,34.8123],[137.2469,34.8132],[137.2518,34.8051],[137.2545,34.8061],[137.2615,34.8047],[137.2646,34.8073],[137.2748,34.8111],[137.2889,34.8126],[137.2895,34.8241],[137.2843,34.8298],[137.2707,34.8336],[137.2594,34.8438],[137.2596,34.8571],[137.2513,34.8602],[137.2367,34.8635],[137.2263,34.865],[137.2146,34.8679],[137.2121,34.8626],[137.1966,34.8452],[137.1963,34.8262],[137.1915,34.8206],[137.1821,34.8178],[137.1657,34.8163],[137.1709,34.8032],[137.1709,34.8001],[137.1676,34.7909],[137.1669,34.7847]]]}},{"type":"Feature","properties":{"id":23008},"geometry":{"type":"Polygon","coordinates":[[[136.8803,34.9198],[136.8785,34.9151],[136.8733,34.9104],[136.871,34.9047],[136.8712,34.9013],[136.8756,34.8879],[136.8823,34.8734],[136.8851,34.8739],[136.9101,34.8705],[136.9184,34.8687],[136.9281,34.8645],[136.94,34.8614],[136.9458,34.8686],[136.9456,34.8736],[136.9404,34.8769],[136.9433,34.8806],[136.9631,34.8739],[136.9642,34.8767],[136.9578,34.8811],[136.9592,34.8856],[136.9631,34.8886],[136.968,34.8969],[136.9692,34.9031],[136.9727,34.9126],[136.9689,34.9156],[136.9736,34.9192],[136.9754,34.9375],[136.9629,34.941],[136.9559,34.9417],[136.9475,34.9439],[136.9374,34.9307],[136.9363,34.9265],[136.9367,34.9137],[136.9316,34.9118],[136.9122,34.912],[136.8934,34.9106],[136.891,34.9112],[136.8803,34.9198]]]}},{"type":"Feature","properties":{"id":23009},"geometry":{"type":"Polygon","coordinates":[[[136.8449,35.2221],[136.8512,35.22],[136.8554,35.2224],[136.8576,35.2285],[136.853,35.2352],[136.8438,35.2429],[136.8399,35.2482],[136.837,35.2426],[136.8372,35.2323],[136.8398,35.2278],[136.8449,35.2221]]]}},{"type":"Feature","properties":{"id":23010},"geometry":{"type":"Polygon","coordinates":[[[137.1669,34.7847],[137.1676,34.7909],[137.1709,34.8001],[137.1709,34.8032],[137.1657,34.8163],[137.1579,34.8188],[137.1542,34.8213],[137.1435,34.8248],[137.1394,34.8221],[137.1281,34.8183],[137.1162,34.8201],[137.1018,34.815],[137.097,34.8106],[137.0944,34.8043],[137.0965,34.7966],[137.097,34.782],[137.1036,34.7842],[137.1075,34.7881],[137.1147,34.7908],[137.1226,34.7864],[137.1242,34.7831],[137.1325,34.7817],[137.1353,34.7886],[137.1458,34.7878],[137.151,34.7815],[137.1584,34.7829],[137.1628,34.7866],[137.1669,34.7847]]]}},{"type":"Feature","properties":{"id":23011},"geometry":{"type":"Polygon","coordinates":[[[137.0211,34.9281],[137.0066,34.918],[136.9929,34.9115],[136.9896,34.9106],[136.9775,34.9041],[136.9769,34.8981],[136.9822,34.8969],[136.9822,34.8933],[136.9767,34.8928],[136.9717,34.8808],[136.9711,34.8769],[136.9678,34.8744],[136.968,34.8708],[136.9575,34.8581],[136.9569,34.8531],[136.9647,34.8528],[136.9642,34.85],[136.9567,34.85],[136.9539,34.8483],[136.9547,34.8404],[136.9572,34.8369],[136.9578,34.8325],[136.9722,34.8281],[136.9772,34.8353],[136.9846,34.848],[136.9897,34.8527],[136.9908,34.856],[136.9975,34.8639],[137,34.8694],[137.0103,34.8758],[137.0239,34.8811],[137.0252,34.88],[137.0282,34.8799],[137.0357,34.8856],[137.0249,34.8881],[137.0204,34.8978],[137.0201,34.9009],[137.0323,34.9201],[137.0336,34.9247],[137.0319,34.9275],[137.0211,34.9281]]]}},{"type":"Feature","properties":{"id":23012},"geometry":{"type":"Polygon","coordinates":[[[136.9475,34.9439],[136.9559,34.9417],[136.9629,34.941],[136.9754,34.9375],[136.9783,34.9441],[136.981,34.9542],[136.9814,34.9719],[136.9836,34.9739],[136.9836,34.9873],[136.9827,34.9945],[136.965,34.9989],[136.9586,34.9967],[136.9454,34.9891],[136.9385,34.9806],[136.9279,34.974],[136.9237,34.968],[136.9194,34.9627],[136.9335,34.9485],[136.9414,34.9452],[136.9475,34.9439]]]}},{"type":"Feature","properties":{"id":23013},"geometry":{"type":"Polygon","coordinates":[[[136.8399,35.2482],[136.8438,35.252],[136.8533,35.2592],[136.8495,35.2686],[136.8501,35.2755],[136.8547,35.2807],[136.8656,35.2853],[136.8728,35.2923],[136.8826,35.2962],[136.8817,35.2993],[136.8775,35.3027],[136.8692,35.3062],[136.8654,35.3142],[136.8578,35.3196],[136.8499,35.3217],[136.8487,35.324],[136.8499,35.3318],[136.8489,35.339],[136.8448,35.3552],[136.841,35.3562],[136.8323,35.3541],[136.8245,35.3553],[136.8107,35.3571],[136.7952,35.3651],[136.7775,35.3664],[136.7677,35.3605],[136.7557,35.3418],[136.7494,35.3334],[136.7339,35.3015],[136.7285,35.2922],[136.7155,35.2821],[136.708,35.2731],[136.7242,35.2691],[136.7366,35.2641],[136.7462,35.2561],[136.7548,35.2605],[136.7611,35.2609],[136.7744,35.2593],[136.792,35.2595],[136.8054,35.2648],[136.8151,35.2726],[136.821,35.2741],[136.8302,35.2638],[136.8399,35.2482]]]}},{"type":"Feature","properties":{"id":23014},"geometry":{"type":"Polygon","coordinates":[[[136.776,35.2035],[136.7872,35.2059],[136.7993,35.2095],[136.8189,35.214],[136.8237,35.2166],[136.8369,35.2193],[136.8449,35.2221],[136.8398,35.2278],[136.8372,35.2323],[136.837,35.2426],[136.8399,35.2482],[136.8302,35.2638],[136.821,35.2741],[136.8151,35.2726],[136.8054,35.2648],[136.792,35.2595],[136.7744,35.2593],[136.7611,35.2609],[136.7548,35.2605],[136.7462,35.2561],[136.7366,35.2641],[136.7242,35.2691],[136.708,35.2731],[136.7026,35.2621],[136.6942,35.2506],[136.6844,35.2393],[136.6821,35.2368],[136.6821,35.2325],[136.717,35.2326],[136.7212,35.2303],[136.7233,35.22],[136.726,35.2168],[136.7347,35.2154],[136.7372,35.2137],[136.7383,35.2002],[136.7423,35.1972],[136.7607,35.2018],[136.776,35.2035]]]}},{"type":"Feature","properties":{"id":23015},"geometry":{"type":"Polygon","coordinates":[[[136.947,35.3463],[136.9421,35.3323],[136.9321,35.3166],[136.9445,35.316],[136.9567,35.3114],[136.9656,35.3105],[136.9706,35.3123],[136.9795,35.3211],[136.9834,35.3216],[136.9918,35.3201],[137.0013,35.3245],[137.0115,35.3265],[137.0359,35.3327],[137.0502,35.3345],[137.0502,35.3352],[137.0487,35.3456],[137.0509,35.3622],[137.0423,35.3642],[137.032,35.3693],[137.0213,35.3733],[137.0117,35.3782],[136.9977,35.39],[136.9851,35.4065],[136.9919,35.4218],[136.9876,35.4209],[136.9784,35.419],[136.9641,35.4121],[136.9633,35.4095],[136.9582,35.3934],[136.9382,35.3872],[136.9284,35.3786],[136.9229,35.3768],[136.9286,35.3722],[136.9377,35.368],[136.943,35.3639],[136.9454,35.3585],[136.947,35.3463]]]}},{"type":"Feature","properties":{"id":23016},"geometry":{"type":"MultiPolygon","coordinates":[[[[137.0397,34.7331],[137.0367,34.7291],[137.031,34.7272],[137.0369,34.7217],[137.0386,34.725],[137.0442,34.7264],[137.0464,34.7191],[137.0533,34.7197],[137.0519,34.7287],[137.0472,34.7292],[137.0397,34.7331]]],[[[137.0471,34.7966],[137.0499,34.8131],[137.0392,34.8197],[137.0307,34.8207],[137.0239,34.8256],[137.0181,34.8271],[137.0047,34.8264],[136.9964,34.8239],[136.9975,34.81],[136.9997,34.8047],[137.0047,34.7994],[137.011,34.7954],[137.0182,34.794],[137.0151,34.7871],[137.0217,34.7833],[137.0278,34.7783],[137.0432,34.775],[137.0487,34.7774],[137.0488,34.7844],[137.0469,34.7918],[137.0471,34.7966]]]]}},{"type":"Feature","properties":{"id":23017},"geometry":{"type":"Polygon","coordinates":[[[136.8533,35.2592],[136.872,35.2592],[136.88,35.2613],[136.8859,35.267],[136.8888,35.2771],[136.8875,35.2879],[136.8857,35.2953],[136.8826,35.2962],[136.8728,35.2923],[136.8656,35.2853],[136.8547,35.2807],[136.8501,35.2755],[136.8495,35.2686],[136.8533,35.2592]]]}},{"type":"Feature","properties":{"id":23018},"geometry":{"type":"Polygon","coordinates":[[[136.7993,35.2095],[136.8033,35.2049],[136.8068,35.1944],[136.8071,35.1895],[136.813,35.1836],[136.8187,35.1806],[136.8349,35.1748],[136.8445,35.1701],[136.8496,35.1735],[136.8465,35.176],[136.8474,35.1886],[136.842,35.1969],[136.8317,35.2026],[136.8237,35.2166],[136.8189,35.214],[136.7993,35.2095]]]}},{"type":"Feature","properties":{"id":23019},"geometry":{"type":"Polygon","coordinates":[[[136.7625,35.1354],[136.7624,35.1137],[136.774,35.1139],[136.7804,35.1128],[136.789,35.1091],[136.7941,35.1058],[136.7887,35.1124],[136.7961,35.1081],[136.7983,35.1034],[136.8012,35.1017],[136.801,35.1143],[136.8053,35.1195],[136.8159,35.122],[136.8203,35.1252],[136.8252,35.1322],[136.8138,35.1477],[136.8036,35.1497],[136.7896,35.1493],[136.7739,35.1448],[136.7625,35.1354]]]}},{"type":"Feature","properties":{"id":23020},"geometry":{"type":"Polygon","coordinates":[[[137.06,34.9768],[137.0437,34.9769],[137.0333,34.982],[137.0225,34.9905],[137.0219,34.9974],[137.0248,35],[137.0296,35.0007],[137.034,35.0041],[137.0387,35.0146],[137.0461,35.0194],[137.0511,35.0343],[137.0596,35.0451],[137.0717,35.0555],[137.0595,35.0627],[137.05,35.0705],[137.0379,35.051],[137.0208,35.0375],[137.0104,35.0319],[137.0014,35.0261],[137.0006,35.0222],[136.9902,35.0041],[136.9827,34.9945],[136.9836,34.9873],[136.9836,34.9739],[136.9847,34.9642],[136.9845,34.9556],[136.9961,34.9529],[137.0023,34.9466],[137.0065,34.9455],[137.0174,34.9463],[137.0224,34.9464],[137.0399,34.95],[137.0455,34.955],[137.0505,34.9579],[137.0587,34.9602],[137.0628,34.9636],[137.0654,34.9699],[137.06,34.9768]]]}},{"type":"Feature","properties":{"id":23021},"geometry":{"type":"Polygon","coordinates":[[[137.0502,35.3345],[137.0479,35.3304],[137.0434,35.3267],[137.0281,35.3192],[137.0238,35.316],[137.0196,35.3086],[137.0175,35.3026],[137.0168,35.2928],[137.015,35.2871],[137.0098,35.2818],[136.9938,35.2776],[136.9807,35.2796],[136.9761,35.282],[136.9706,35.2823],[136.9649,35.2798],[136.9534,35.2817],[136.947,35.2796],[136.9464,35.2734],[136.9412,35.2704],[136.9318,35.2612],[136.9252,35.2585],[136.9382,35.2482],[136.9383,35.2441],[136.9341,35.2347],[136.927,35.2292],[136.9349,35.2225],[136.9423,35.2184],[136.9492,35.2127],[136.953,35.2124],[136.9607,35.2152],[136.9781,35.2171],[136.9857,35.2208],[137.0203,35.2487],[137.0332,35.2555],[137.0389,35.2562],[137.0471,35.2552],[137.0569,35.2562],[137.0625,35.2584],[137.0779,35.2592],[137.0797,35.2603],[137.0862,35.2719],[137.0936,35.2799],[137.1015,35.2886],[137.1002,35.2886],[137.0996,35.2871],[137.0833,35.2934],[137.0795,35.3032],[137.0698,35.3066],[137.0683,35.3181],[137.0745,35.3266],[137.0663,35.3333],[137.0502,35.3352],[137.0502,35.3345]]]}},{"type":"Feature","properties":{"id":23022},"geometry":{"type":"Polygon","coordinates":[[[137.097,34.782],[137.0965,34.7966],[137.0944,34.8043],[137.097,34.8106],[137.1018,34.815],[137.1162,34.8201],[137.1281,34.8183],[137.1394,34.8221],[137.1435,34.8248],[137.1346,34.8324],[137.1309,34.8367],[137.1239,34.8379],[137.1152,34.8378],[137.1104,34.839],[137.1071,34.845],[137.0876,34.8444],[137.0767,34.8399],[137.0642,34.8316],[137.0599,34.8279],[137.0499,34.8131],[137.0471,34.7966],[137.0521,34.7802],[137.0609,34.7816],[137.0666,34.7856],[137.0775,34.7858],[137.0819,34.7833],[137.0869,34.7756],[137.0942,34.7792],[137.097,34.782]]]}},{"type":"Feature","properties":{"id":23023},"geometry":{"type":"Polygon","coordinates":[[[136.7546,35.0298],[136.7558,35.037],[136.7548,35.0483],[136.7525,35.0527],[136.752,35.0591],[136.746,35.0694],[136.7393,35.0784],[136.7339,35.0823],[136.7208,35.0828],[136.7173,35.0842],[136.7198,35.0761],[136.7216,35.0658],[136.7272,35.0532],[136.7312,35.0363],[136.7365,35.0294],[136.7397,35.0333],[136.7495,35.0353],[136.7546,35.0298]]]}},{"type":"Feature","properties":{"id":23024},"geometry":{"type":"Polygon","coordinates":[[[136.8576,35.2285],[136.8671,35.2242],[136.886,35.2188],[136.8965,35.2244],[136.9051,35.2298],[136.9054,35.2445],[136.9086,35.2566],[136.8934,35.2601],[136.8859,35.267],[136.88,35.2613],[136.872,35.2592],[136.8533,35.2592],[136.8438,35.252],[136.8399,35.2482],[136.8438,35.2429],[136.853,35.2352],[136.8576,35.2285]]]}},{"type":"Feature","properties":{"id":23025},"geometry":{"type":"Polygon","coordinates":[[[136.8449,35.2221],[136.8369,35.2193],[136.8237,35.2166],[136.8317,35.2026],[136.842,35.1969],[136.8474,35.1886],[136.8465,35.176],[136.8496,35.1735],[136.8533,35.1755],[136.8749,35.1932],[136.8802,35.1962],[136.8821,35.1991],[136.886,35.2188],[136.8671,35.2242],[136.8576,35.2285],[136.8554,35.2224],[136.8512,35.22],[136.8449,35.2221]]]}},{"type":"Feature","properties":{"id":23026},"geometry":{"type":"Polygon","coordinates":[[[136.9321,35.3166],[136.9238,35.316],[136.9167,35.32],[136.9137,35.3188],[136.9092,35.3103],[136.9036,35.3067],[136.8891,35.3007],[136.8857,35.2953],[136.8875,35.2879],[136.8888,35.2771],[136.8859,35.267],[136.8934,35.2601],[136.9086,35.2566],[136.9159,35.2589],[136.9252,35.2585],[136.9318,35.2612],[136.9412,35.2704],[136.9464,35.2734],[136.947,35.2796],[136.9534,35.2817],[136.9649,35.2798],[136.9706,35.2823],[136.9761,35.282],[136.9807,35.2796],[136.9938,35.2776],[137.0098,35.2818],[137.015,35.2871],[137.0168,35.2928],[137.0175,35.3026],[137.0196,35.3086],[137.0238,35.316],[137.0281,35.3192],[137.0434,35.3267],[137.0479,35.3304],[137.0502,35.3345],[137.0359,35.3327],[137.0115,35.3265],[137.0013,35.3245],[136.9918,35.3201],[136.9834,35.3216],[136.9795,35.3211],[136.9706,35.3123],[136.9656,35.3105],[136.9567,35.3114],[136.9445,35.316],[136.9321,35.3166]]]}},{"type":"Feature","properties":{"id":23027},"geometry":{"type":"Polygon","coordinates":[[[136.9017,35.3749],[136.8957,35.3748],[136.875,35.3699],[136.8471,35.3577],[136.841,35.3562],[136.8448,35.3552],[136.8489,35.339],[136.8499,35.3318],[136.8487,35.324],[136.8499,35.3217],[136.8578,35.3196],[136.8654,35.3142],[136.8692,35.3062],[136.8775,35.3027],[136.8817,35.2993],[136.8826,35.2962],[136.8857,35.2953],[136.8891,35.3007],[136.8888,35.307],[136.8933,35.3172],[136.8995,35.3273],[136.9025,35.3303],[136.9092,35.34],[136.9062,35.3435],[136.9034,35.3497],[136.9031,35.3666],[136.9017,35.3749]]]}},{"type":"Feature","properties":{"id":23028},"geometry":{"type":"Polygon","coordinates":[[[137.2146,34.8679],[137.2071,34.8778],[137.2052,34.891],[137.202,34.8972],[137.1918,34.9021],[137.1832,34.9047],[137.1709,34.9037],[137.1675,34.9017],[137.1623,34.893],[137.1566,34.8875],[137.1404,34.8869],[137.1364,34.8816],[137.1316,34.8697],[137.1243,34.8667],[137.1182,34.8621],[137.1182,34.8594],[137.1246,34.8569],[137.1256,34.8527],[137.1232,34.8476],[137.1199,34.845],[137.1071,34.845],[137.1104,34.839],[137.1152,34.8378],[137.1239,34.8379],[137.1309,34.8367],[137.1346,34.8324],[137.1435,34.8248],[137.1542,34.8213],[137.1579,34.8188],[137.1657,34.8163],[137.1821,34.8178],[137.1915,34.8206],[137.1963,34.8262],[137.1966,34.8452],[137.2121,34.8626],[137.2146,34.8679]]]}},{"type":"Feature","properties":{"id":23029},"geometry":{"type":"Polygon","coordinates":[[[137.3756,34.7933],[137.3593,34.806],[137.3493,34.8095],[137.3408,34.8106],[137.3366,34.8054],[137.3263,34.7952],[137.321,34.7913],[137.3256,34.7894],[137.3297,34.7811],[137.3347,34.78],[137.349,34.7833],[137.3756,34.7933]]]}},{"type":"Feature","properties":{"id":23030},"geometry":{"type":"Polygon","coordinates":[[[136.8617,34.8129],[136.8595,34.8092],[136.8585,34.8021],[136.8553,34.7919],[136.8527,34.7885],[136.8508,34.7822],[136.8456,34.7708],[136.8414,34.7653],[136.8445,34.7564],[136.8483,34.7533],[136.8506,34.7492],[136.8558,34.7461],[136.8614,34.7378],[136.8654,34.7372],[136.8579,34.7457],[136.8676,34.7544],[136.8784,34.7596],[136.886,34.7616],[136.8911,34.7614],[136.8978,34.7593],[136.8999,34.757],[136.9026,34.7489],[136.9111,34.7384],[136.9214,34.733],[136.9282,34.7332],[136.9359,34.741],[136.9431,34.7458],[136.937,34.7503],[136.9364,34.7525],[136.9272,34.7581],[136.9261,34.7642],[136.9208,34.765],[136.9158,34.7692],[136.915,34.7744],[136.9161,34.7839],[136.9211,34.7933],[136.9197,34.7989],[136.9225,34.8044],[136.92,34.8108],[136.922,34.8136],[136.9006,34.8147],[136.8898,34.8167],[136.8617,34.8129]]]}},{"type":"Feature","properties":{"id":23031},"geometry":{"type":"MultiPolygon","coordinates":[[[[137.0103,34.6792],[137.0106,34.6833],[137.0018,34.6818],[137.0043,34.678],[137.0003,34.6769],[137.0024,34.6666],[137.0065,34.6685],[137.0047,34.6717],[137.0061,34.6758],[137.0103,34.6792]]],[[[137.0111,34.7075],[137.0084,34.7085],[136.9967,34.7064],[136.9992,34.7003],[137.0106,34.7033],[137.0111,34.7075]]],[[[136.9431,34.7458],[136.9359,34.741],[136.9282,34.7332],[136.9214,34.733],[136.9111,34.7384],[136.9026,34.7489],[136.8999,34.757],[136.8978,34.7593],[136.8911,34.7614],[136.886,34.7616],[136.8784,34.7596],[136.8676,34.7544],[136.8579,34.7457],[136.8654,34.7372],[136.8724,34.7306],[136.8794,34.7278],[136.8883,34.7211],[136.9003,34.7186],[136.9014,34.7167],[136.9083,34.715],[136.9122,34.7111],[136.915,34.7119],[136.9233,34.7067],[136.9278,34.7064],[136.9392,34.7033],[136.9436,34.7003],[136.955,34.6994],[136.96,34.7008],[136.9672,34.7003],[136.9742,34.6967],[136.9744,34.7056],[136.9703,34.71],[136.9725,34.7161],[136.9644,34.721],[136.9683,34.7264],[136.9656,34.7336],[136.9572,34.7378],[136.95,34.7392],[136.9431,34.7458]]]]}},{"type":"Feature","properties":{"id":23032},"geometry":{"type":"MultiPolygon","coordinates":[[[[137.3226,34.7903],[137.3194,34.7909],[137.316,34.795],[137.3122,34.7958],[137.3041,34.7933],[137.3044,34.7903],[137.3087,34.7866],[137.313,34.7868],[137.315,34.7801],[137.3197,34.7806],[137.3263,34.7864],[137.3226,34.7903]]],[[[137.2594,34.8438],[137.2707,34.8336],[137.2843,34.8298],[137.2895,34.8241],[137.2889,34.8126],[137.3014,34.8101],[137.3107,34.8048],[137.3153,34.7997],[137.3186,34.7925],[137.321,34.7913],[137.3263,34.7952],[137.3366,34.8054],[137.3408,34.8106],[137.3225,34.811],[137.3189,34.8137],[137.3147,34.8209],[137.3116,34.8313],[137.297,34.8429],[137.2903,34.8439],[137.2797,34.8468],[137.2739,34.8468],[137.2594,34.8438]]]]}},{"type":"Feature","properties":{"id":23033},"geometry":{"type":"Polygon","coordinates":[[[136.7759,35.1873],[136.7831,35.1796],[136.7865,35.1746],[136.7931,35.1774],[136.8015,35.184],[136.8071,35.1895],[136.8068,35.1944],[136.8033,35.2049],[136.7993,35.2095],[136.7872,35.2059],[136.776,35.2035],[136.7759,35.1873]]]}},{"type":"Feature","properties":{"id":23034},"geometry":{"type":"Polygon","coordinates":[[[137.0717,35.0555],[137.0925,35.0566],[137.1007,35.0579],[137.1025,35.0596],[137.1072,35.0722],[137.1145,35.0776],[137.116,35.0822],[137.1163,35.0932],[137.127,35.1077],[137.1294,35.1128],[137.1269,35.1191],[137.1031,35.1317],[137.0963,35.1359],[137.0896,35.1236],[137.0859,35.1198],[137.091,35.109],[137.0908,35.1002],[137.0853,35.0947],[137.0658,35.0871],[137.0595,35.082],[137.05,35.0705],[137.0595,35.0627],[137.0717,35.0555]]]}},{"type":"Feature","properties":{"id":23035},"geometry":{"type":"Polygon","coordinates":[[[137.0343,35.1874],[137.0275,35.1845],[137.0258,35.1789],[137.0295,35.1681],[137.0297,35.1622],[137.026,35.1504],[137.0401,35.1534],[137.0459,35.1552],[137.0512,35.1593],[137.0571,35.1593],[137.0715,35.1535],[137.0804,35.1516],[137.0857,35.1516],[137.0993,35.1545],[137.0988,35.1751],[137.0934,35.1795],[137.0827,35.1847],[137.0721,35.1883],[137.065,35.1892],[137.0482,35.189],[137.0343,35.1874]]]}},{"type":"Feature","properties":{"id":23036},"geometry":{"type":"MultiPolygon","coordinates":[[[[136.8447,35.0767],[136.8417,35.09],[136.8386,35.0919],[136.8433,35.0766],[136.8447,35.0767]]],[[[136.8496,35.1735],[136.8445,35.1701],[136.8409,35.1626],[136.8295,35.1447],[136.8252,35.1322],[136.8203,35.1252],[136.8159,35.122],[136.8053,35.1195],[136.801,35.1143],[136.8012,35.1017],[136.7983,35.1034],[136.8008,35.0964],[136.8083,35.0961],[136.8139,35.0919],[136.8256,35.0853],[136.8221,35.0783],[136.8225,35.0778],[136.8272,35.0822],[136.8317,35.0811],[136.8389,35.0817],[136.8337,35.1125],[136.8369,35.11],[136.8375,35.1047],[136.8436,35.0875],[136.8489,35.0776],[136.8461,35.0661],[136.8428,35.0592],[136.8378,35.0517],[136.843,35.0402],[136.8449,35.0337],[136.8481,35.0372],[136.8442,35.0414],[136.8483,35.0461],[136.8525,35.0452],[136.8553,35.055],[136.8578,35.0579],[136.8603,35.0675],[136.8622,35.0698],[136.8692,35.0822],[136.8672,35.0844],[136.8692,35.0894],[136.8726,35.0874],[136.8769,35.0894],[136.8844,35.0886],[136.8895,35.095],[136.8903,35.0889],[136.8897,35.0717],[136.8825,35.0706],[136.8786,35.0722],[136.8733,35.0719],[136.8686,35.0669],[136.8697,35.0623],[136.8646,35.0502],[136.8731,35.0497],[136.8757,35.0532],[136.8828,35.0689],[136.9081,35.0692],[136.8933,35.0664],[136.8929,35.0612],[136.9001,35.0654],[136.9068,35.0662],[136.9114,35.0654],[136.9238,35.0603],[136.9339,35.0529],[136.9463,35.0476],[136.9595,35.0455],[136.9682,35.0433],[136.9765,35.0462],[136.9828,35.0498],[136.995,35.0667],[136.9972,35.0684],[137.0062,35.0694],[137.0109,35.0729],[137.0206,35.0877],[137.0251,35.0998],[137.0182,35.1083],[137.0138,35.1154],[137.0105,35.1238],[137.0132,35.1311],[137.0235,35.1355],[137.0265,35.1406],[137.026,35.1504],[137.0297,35.1622],[137.0295,35.1681],[137.0258,35.1789],[137.0275,35.1845],[137.0343,35.1874],[137.0336,35.1926],[137.0311,35.1938],[137.0235,35.1921],[137.0179,35.194],[137.0101,35.2065],[137.0102,35.2117],[137.0138,35.2182],[137.0244,35.2269],[137.0374,35.2326],[137.0498,35.2393],[137.0602,35.2458],[137.0471,35.2552],[137.0389,35.2562],[137.0332,35.2555],[137.0203,35.2487],[136.9857,35.2208],[136.9781,35.2171],[136.9607,35.2152],[136.953,35.2124],[136.9492,35.2127],[136.9423,35.2184],[136.9349,35.2225],[136.927,35.2292],[136.916,35.232],[136.9051,35.2298],[136.8965,35.2244],[136.886,35.2188],[136.8821,35.1991],[136.8802,35.1962],[136.8749,35.1932],[136.8533,35.1755],[136.8496,35.1735]]]]}},{"type":"Feature","properties":{"id":23037},"geometry":{"type":"Polygon","coordinates":[[[137.0357,34.8856],[137.0282,34.8799],[137.0252,34.88],[137.0178,34.8746],[137.0088,34.8719],[137.0048,34.8695],[136.9974,34.8575],[136.9938,34.8506],[136.9906,34.8469],[136.9828,34.8331],[136.98,34.8297],[136.9787,34.824],[136.9847,34.8221],[136.9843,34.8167],[136.9908,34.8162],[136.995,34.8283],[136.9992,34.8319],[137,34.8261],[137.0047,34.8264],[137.0181,34.8271],[137.0239,34.8256],[137.0307,34.8207],[137.0392,34.8197],[137.0499,34.8131],[137.0599,34.8279],[137.0642,34.8316],[137.0767,34.8399],[137.0876,34.8444],[137.1071,34.845],[137.1199,34.845],[137.1232,34.8476],[137.1256,34.8527],[137.1246,34.8569],[137.1182,34.8594],[137.1182,34.8621],[137.1243,34.8667],[137.1316,34.8697],[137.1364,34.8816],[137.1404,34.8869],[137.1289,34.8863],[137.1191,34.8838],[137.1152,34.8815],[137.1099,34.884],[137.1107,34.8969],[137.0977,34.8912],[137.0839,34.8874],[137.0745,34.8875],[137.0703,34.8897],[137.0653,34.8986],[137.0551,34.9023],[137.0513,34.9018],[137.0443,34.8931],[137.0357,34.8856]]]}},{"type":"Feature","properties":{"id":23038},"geometry":{"type":"Polygon","coordinates":[[[137.0963,35.1359],[137.0965,35.1406],[137.0993,35.1545],[137.0857,35.1516],[137.0804,35.1516],[137.0715,35.1535],[137.0571,35.1593],[137.0512,35.1593],[137.0459,35.1552],[137.0401,35.1534],[137.026,35.1504],[137.0265,35.1406],[137.0235,35.1355],[137.0132,35.1311],[137.0105,35.1238],[137.0138,35.1154],[137.0182,35.1083],[137.0251,35.0998],[137.0336,35.1025],[137.0529,35.1061],[137.0604,35.1099],[137.0661,35.1142],[137.0801,35.1163],[137.0859,35.1198],[137.0896,35.1236],[137.0963,35.1359]]]}},{"type":"Feature","properties":{"id":23039},"geometry":{"type":"Polygon","coordinates":[[[136.9827,34.9945],[136.9902,35.0041],[137.0006,35.0222],[137.0014,35.0261],[137,35.0354],[136.9957,35.0362],[136.9828,35.0498],[136.9765,35.0462],[136.9682,35.0433],[136.9595,35.0455],[136.9463,35.0476],[136.9339,35.0529],[136.9356,35.0417],[136.9345,35.0317],[136.9353,35.028],[136.9413,35.0179],[136.9341,35.0038],[136.9229,34.9993],[136.9224,34.9918],[136.9263,34.9812],[136.9279,34.974],[136.9385,34.9806],[136.9454,34.9891],[136.9586,34.9967],[136.965,34.9989],[136.9827,34.9945]]]}},{"type":"Feature","properties":{"id":23040},"geometry":{"type":"Polygon","coordinates":[[[136.9092,35.34],[136.9025,35.3303],[136.8995,35.3273],[136.8933,35.3172],[136.8888,35.307],[136.8891,35.3007],[136.9036,35.3067],[136.9092,35.3103],[136.9137,35.3188],[136.9167,35.32],[136.9238,35.316],[136.9321,35.3166],[136.9421,35.3323],[136.947,35.3463],[136.9303,35.3462],[136.9092,35.34]]]}},{"type":"Feature","properties":{"id":23041},"geometry":{"type":"Polygon","coordinates":[[[136.813,35.1836],[136.808,35.1598],[136.8036,35.1497],[136.8138,35.1477],[136.8252,35.1322],[136.8295,35.1447],[136.8409,35.1626],[136.8445,35.1701],[136.8349,35.1748],[136.8187,35.1806],[136.813,35.1836]]]}},{"type":"Feature","properties":{"id":23042},"geometry":{"type":"Polygon","coordinates":[[[137.1107,34.8969],[137.1099,34.884],[137.1152,34.8815],[137.1191,34.8838],[137.1289,34.8863],[137.1404,34.8869],[137.1566,34.8875],[137.1623,34.893],[137.1675,34.9017],[137.1709,34.9037],[137.1832,34.9047],[137.1918,34.9021],[137.202,34.8972],[137.2052,34.891],[137.2071,34.8778],[137.2146,34.8679],[137.2263,34.865],[137.2367,34.8635],[137.2513,34.8602],[137.2596,34.8571],[137.2608,34.8679],[137.263,34.8758],[137.2661,34.8804],[137.2725,34.8806],[137.2811,34.879],[137.2898,34.8834],[137.2933,34.8835],[137.2993,34.8795],[137.3037,34.8791],[137.3197,34.8825],[137.3326,34.8859],[137.3463,34.8926],[137.3507,34.8912],[137.3589,34.8844],[137.3709,34.8871],[137.3757,34.8872],[137.3816,34.8852],[137.3894,34.8785],[137.392,34.8791],[137.4008,34.8914],[137.4056,34.8998],[137.4215,34.9057],[137.4184,34.9095],[137.4108,34.9218],[137.4101,34.9388],[137.4068,34.9436],[137.4072,34.9488],[137.4048,34.954],[137.3956,34.9567],[137.3938,34.9603],[137.4028,34.9729],[137.4014,34.9779],[137.3924,34.9798],[137.3888,34.9827],[137.3887,34.9868],[137.3826,34.992],[137.3777,35.0027],[137.3714,35.0078],[137.3639,35.01],[137.3405,35.0099],[137.3352,35.0105],[137.3233,35.0164],[137.3181,35.0167],[137.2919,35.0166],[137.2856,35.0186],[137.2761,35.027],[137.273,35.0247],[137.2657,35.0139],[137.2583,35.0142],[137.2552,35.0199],[137.2461,35.0256],[137.2433,35.0329],[137.2411,35.0349],[137.2284,35.0355],[137.2181,35.0404],[137.2093,35.0339],[137.2026,35.0336],[137.1956,35.0353],[137.1768,35.0354],[137.1712,35.0329],[137.166,35.0255],[137.1677,35.0035],[137.1642,34.9972],[137.1556,34.9903],[137.1382,34.9924],[137.1247,34.9905],[137.1134,34.9859],[137.1068,34.9786],[137.1074,34.9753],[137.1126,34.971],[137.1208,34.9593],[137.1208,34.9568],[137.1108,34.9407],[137.115,34.9189],[137.1097,34.9122],[137.1087,34.9082],[137.1107,34.8969]]]}},{"type":"Feature","properties":{"id":23043},"geometry":{"type":"Polygon","coordinates":[[[137.2594,34.8438],[137.2739,34.8468],[137.2797,34.8468],[137.2903,34.8439],[137.297,34.8429],[137.3065,34.8498],[137.3219,34.8541],[137.3269,34.8608],[137.3309,34.8634],[137.3468,34.8691],[137.3574,34.8778],[137.3589,34.8844],[137.3507,34.8912],[137.3463,34.8926],[137.3326,34.8859],[137.3197,34.8825],[137.3037,34.8791],[137.2993,34.8795],[137.2933,34.8835],[137.2898,34.8834],[137.2811,34.879],[137.2725,34.8806],[137.2661,34.8804],[137.263,34.8758],[137.2608,34.8679],[137.2596,34.8571],[137.2594,34.8438]]]}},{"type":"Feature","properties":{"id":23044},"geometry":{"type":"Polygon","coordinates":[[[137.0482,35.189],[137.0538,35.1954],[137.0583,35.2037],[137.0627,35.2176],[137.0632,35.2291],[137.0662,35.2332],[137.0664,35.239],[137.0602,35.2458],[137.0498,35.2393],[137.0374,35.2326],[137.0244,35.2269],[137.0138,35.2182],[137.0102,35.2117],[137.0101,35.2065],[137.0179,35.194],[137.0235,35.1921],[137.0311,35.1938],[137.0336,35.1926],[137.0343,35.1874],[137.0482,35.189]]]}},{"type":"Feature","properties":{"id":23045},"geometry":{"type":"Polygon","coordinates":[[[137.0471,35.2552],[137.0602,35.2458],[137.0664,35.239],[137.0662,35.2332],[137.0632,35.2291],[137.0627,35.2176],[137.0583,35.2037],[137.0538,35.1954],[137.0482,35.189],[137.065,35.1892],[137.0721,35.1883],[137.0827,35.1847],[137.0934,35.1795],[137.0988,35.1751],[137.1046,35.1778],[137.1162,35.1802],[137.1252,35.1785],[137.1287,35.1789],[137.1323,35.183],[137.1369,35.1854],[137.1485,35.1946],[137.1568,35.1996],[137.1631,35.2014],[137.1698,35.202],[137.174,35.2053],[137.1773,35.216],[137.1827,35.2226],[137.1828,35.2303],[137.1814,35.2328],[137.1859,35.2523],[137.1809,35.2558],[137.1793,35.2671],[137.1757,35.2711],[137.1725,35.2748],[137.1628,35.2794],[137.1511,35.2778],[137.125,35.2928],[137.115,35.2956],[137.1034,35.2965],[137.1002,35.2886],[137.1015,35.2886],[137.0936,35.2799],[137.0862,35.2719],[137.0797,35.2603],[137.0779,35.2592],[137.0625,35.2584],[137.0569,35.2562],[137.0471,35.2552]]]}},{"type":"Feature","properties":{"id":23046},"geometry":{"type":"Polygon","coordinates":[[[137.4215,34.9057],[137.4242,34.8978],[137.4272,34.8947],[137.4381,34.8898],[137.4525,34.8749],[137.4549,34.8705],[137.4525,34.8608],[137.4564,34.8514],[137.4631,34.8531],[137.4743,34.8518],[137.4774,34.8498],[137.4801,34.8385],[137.4825,34.8353],[137.4961,34.8244],[137.5002,34.8203],[137.5019,34.8236],[137.5097,34.8313],[137.5221,34.8333],[137.5314,34.8385],[137.5434,34.8389],[137.5521,34.8452],[137.5683,34.8488],[137.5899,34.8466],[137.5967,34.8541],[137.5995,34.8654],[137.6087,34.8711],[137.6245,34.8764],[137.6336,34.8813],[137.6416,34.8876],[137.6434,34.898],[137.6519,34.9167],[137.6596,34.9369],[137.6676,34.9437],[137.6785,34.9421],[137.6851,34.95],[137.7066,34.9682],[137.7083,34.9882],[137.704,35],[137.708,35.0125],[137.7132,35.0188],[137.7144,35.0217],[137.7033,35.0214],[137.696,35.0249],[137.6841,35.0326],[137.6726,35.0372],[137.6633,35.0461],[137.6583,35.0471],[137.648,35.0521],[137.6369,35.0592],[137.6322,35.0471],[137.6227,35.0382],[137.6203,35.027],[137.6177,35.0179],[137.6151,35.0164],[137.606,35.0149],[137.6007,35.0178],[137.5997,35.0266],[137.595,35.0344],[137.5857,35.042],[137.578,35.0506],[137.5732,35.0529],[137.5573,35.055],[137.5423,35.0496],[137.535,35.0421],[137.5304,35.0403],[137.5242,35.0398],[137.5183,35.0419],[137.5126,35.0385],[137.5068,35.0386],[137.5046,35.0429],[137.5068,35.053],[137.5016,35.063],[137.4926,35.0631],[137.4744,35.0488],[137.4706,35.0485],[137.4574,35.0501],[137.4546,35.0529],[137.4548,35.0638],[137.4518,35.0685],[137.4433,35.0691],[137.4433,35.0601],[137.4396,35.0524],[137.4347,35.048],[137.4301,35.0401],[137.4323,35.0312],[137.4317,35.0273],[137.4272,35.0156],[137.4269,35.0078],[137.425,35.005],[137.4172,35.0031],[137.4036,35.0027],[137.3933,34.9926],[137.3887,34.9868],[137.3888,34.9827],[137.3924,34.9798],[137.4014,34.9779],[137.4028,34.9729],[137.3938,34.9603],[137.3956,34.9567],[137.4048,34.954],[137.4072,34.9488],[137.4068,34.9436],[137.4101,34.9388],[137.4108,34.9218],[137.4184,34.9095],[137.4215,34.9057]]]}},{"type":"Feature","properties":{"id":23047},"geometry":{"type":"Polygon","coordinates":[[[136.8071,35.1895],[136.8015,35.184],[136.7931,35.1774],[136.7865,35.1746],[136.7894,35.1623],[136.7896,35.1493],[136.8036,35.1497],[136.808,35.1598],[136.813,35.1836],[136.8071,35.1895]]]}},{"type":"Feature","properties":{"id":23048},"geometry":{"type":"Polygon","coordinates":[[[137.6369,35.0592],[137.635,35.0639],[137.6351,35.0723],[137.6491,35.0847],[137.648,35.0881],[137.6434,35.0928],[137.6384,35.0999],[137.635,35.1021],[137.6227,35.1045],[137.6147,35.111],[137.614,35.1143],[137.6141,35.1323],[137.6189,35.1357],[137.6347,35.1373],[137.6533,35.1361],[137.6688,35.1351],[137.675,35.1368],[137.678,35.1397],[137.6778,35.1499],[137.6724,35.1586],[137.6747,35.168],[137.6693,35.1755],[137.6631,35.1822],[137.6557,35.1886],[137.6581,35.2026],[137.6573,35.2068],[137.6521,35.2112],[137.6448,35.2058],[137.632,35.2082],[137.6203,35.2062],[137.6027,35.1999],[137.5932,35.196],[137.5841,35.1951],[137.5849,35.1941],[137.5762,35.1816],[137.5732,35.1807],[137.5558,35.1822],[137.5448,35.1844],[137.5379,35.1841],[137.5197,35.1762],[137.5115,35.1782],[137.5069,35.1807],[137.496,35.1914],[137.4918,35.1922],[137.488,35.1872],[137.481,35.1747],[137.4726,35.1615],[137.4656,35.1559],[137.4662,35.151],[137.4705,35.1489],[137.4726,35.1447],[137.4664,35.1364],[137.4585,35.133],[137.4508,35.1309],[137.4476,35.1227],[137.4464,35.11],[137.4449,35.1073],[137.4325,35.0995],[137.4304,35.0972],[137.4343,35.0827],[137.4388,35.0742],[137.4433,35.0691],[137.4518,35.0685],[137.4548,35.0638],[137.4546,35.0529],[137.4574,35.0501],[137.4706,35.0485],[137.4744,35.0488],[137.4926,35.0631],[137.5016,35.063],[137.5068,35.053],[137.5046,35.0429],[137.5068,35.0386],[137.5126,35.0385],[137.5183,35.0419],[137.5242,35.0398],[137.5304,35.0403],[137.535,35.0421],[137.5423,35.0496],[137.5573,35.055],[137.5732,35.0529],[137.578,35.0506],[137.5857,35.042],[137.595,35.0344],[137.5997,35.0266],[137.6007,35.0178],[137.606,35.0149],[137.6151,35.0164],[137.6177,35.0179],[137.6203,35.027],[137.6227,35.0382],[137.6322,35.0471],[137.6369,35.0592]]]}},{"type":"Feature","properties":{"id":23049},"geometry":{"type":"MultiPolygon","coordinates":[[[[137.1418,34.6506],[137.1426,34.6527],[137.1345,34.656],[137.1301,34.6517],[137.1418,34.6506]]],[[[137.3334,34.6456],[137.3329,34.6477],[137.3183,34.6599],[137.313,34.6629],[137.3065,34.675],[137.3053,34.6811],[137.2958,34.6833],[137.289,34.6808],[137.2875,34.685],[137.2916,34.6931],[137.3011,34.694],[137.3006,34.7042],[137.3012,34.7097],[137.3005,34.7283],[137.284,34.7308],[137.2627,34.7168],[137.2619,34.7149],[137.2659,34.7091],[137.264,34.7034],[137.2668,34.7015],[137.2654,34.6969],[137.2573,34.6968],[137.2542,34.7018],[137.2477,34.6981],[137.2526,34.6905],[137.246,34.6883],[137.236,34.6878],[137.2302,34.6797],[137.2225,34.6753],[137.2119,34.6791],[137.2066,34.6781],[137.1979,34.6685],[137.1943,34.6677],[137.1879,34.6701],[137.1798,34.6621],[137.1688,34.6562],[137.1498,34.6539],[137.1457,34.6447],[137.1409,34.6456],[137.1367,34.641],[137.127,34.6382],[137.1197,34.6348],[137.1116,34.6367],[137.1024,34.6375],[137.1063,34.6431],[137.1004,34.6461],[137.0913,34.6472],[137.0854,34.651],[137.0853,34.6546],[137.0907,34.6568],[137.0811,34.6622],[137.0717,34.662],[137.0649,34.6588],[137.0564,34.648],[137.0451,34.6265],[137.0357,34.6113],[137.0323,34.6041],[137.0293,34.5945],[137.0249,34.5869],[137.0178,34.5826],[137.0172,34.5787],[137.0308,34.581],[137.0383,34.5784],[137.0578,34.5838],[137.0762,34.5875],[137.0853,34.5898],[137.0969,34.5911],[137.1026,34.5894],[137.1185,34.5875],[137.1235,34.5875],[137.1415,34.5897],[137.1666,34.5975],[137.1837,34.6043],[137.1883,34.6046],[137.1971,34.6075],[137.2019,34.6103],[137.2174,34.6142],[137.2233,34.6138],[137.2353,34.6185],[137.2619,34.6269],[137.3063,34.6391],[137.3192,34.6417],[137.3334,34.6456]]]]}},{"type":"Feature","properties":{"id":23050},"geometry":{"type":"Polygon","coordinates":[[[137.0174,34.9463],[137.0065,34.9455],[137.0023,34.9466],[136.9961,34.9529],[136.9845,34.9556],[136.9833,34.9464],[136.9804,34.9408],[136.9792,34.9325],[136.9808,34.9267],[136.9781,34.9242],[136.9789,34.9172],[136.9774,34.9126],[136.9775,34.9041],[136.9896,34.9106],[136.9929,34.9115],[137.0066,34.918],[137.0211,34.9281],[137.017,34.9361],[137.0174,34.9463]]]}},{"type":"Feature","properties":{"id":23051},"geometry":{"type":"Polygon","coordinates":[[[136.8823,34.8734],[136.8911,34.8603],[136.8913,34.8566],[136.8881,34.8522],[136.8858,34.8461],[136.8846,34.8292],[136.8862,34.8209],[136.8898,34.8167],[136.9006,34.8147],[136.922,34.8136],[136.9256,34.8139],[136.9266,34.8272],[136.93,34.8308],[136.9297,34.8386],[136.9311,34.8453],[136.9353,34.8486],[136.9353,34.857],[136.9285,34.859],[136.9281,34.8645],[136.9184,34.8687],[136.9101,34.8705],[136.8851,34.8739],[136.8823,34.8734]]]}},{"type":"Feature","properties":{"id":23052},"geometry":{"type":"MultiPolygon","coordinates":[[[[136.815,35.0006],[136.8213,35.007],[136.8217,35.0167],[136.8158,35.0164],[136.8092,35.0131],[136.804,35.0074],[136.815,35.0006]]],[[[136.8094,35.0502],[136.8108,35.0264],[136.8164,35.0247],[136.8186,35.0264],[136.8264,35.0281],[136.8395,35.0297],[136.8392,35.0358],[136.8305,35.0511],[136.8311,35.0556],[136.8344,35.06],[136.8322,35.0658],[136.8259,35.0682],[136.8191,35.0663],[136.8195,35.0697],[136.8236,35.0717],[136.8236,35.0756],[136.8197,35.08],[136.8153,35.0819],[136.808,35.0924],[136.801,35.0906],[136.7863,35.0896],[136.7679,35.0894],[136.7669,35.0865],[136.7758,35.0798],[136.7933,35.0705],[136.808,35.0575],[136.8094,35.0502]]]]}},{"type":"Feature","properties":{"id":23053},"geometry":{"type":"Polygon","coordinates":[[[137.7132,35.0188],[137.726,35.0355],[137.7347,35.0422],[137.7411,35.0508],[137.75,35.0571],[137.7594,35.0622],[137.7684,35.0694],[137.7768,35.0833],[137.7812,35.0935],[137.7774,35.0934],[137.7734,35.0995],[137.7677,35.1031],[137.7593,35.1057],[137.7533,35.1091],[137.7419,35.1183],[137.7356,35.1202],[137.7175,35.1236],[137.7117,35.1232],[137.7087,35.121],[137.6987,35.1198],[137.6913,35.1226],[137.6848,35.1267],[137.6785,35.1287],[137.667,35.1242],[137.6582,35.1277],[137.6533,35.1361],[137.6347,35.1373],[137.6189,35.1357],[137.6141,35.1323],[137.614,35.1143],[137.6147,35.111],[137.6227,35.1045],[137.635,35.1021],[137.6384,35.0999],[137.6434,35.0928],[137.648,35.0881],[137.6491,35.0847],[137.6351,35.0723],[137.635,35.0639],[137.6369,35.0592],[137.648,35.0521],[137.6583,35.0471],[137.6633,35.0461],[137.6726,35.0372],[137.6841,35.0326],[137.696,35.0249],[137.7033,35.0214],[137.7144,35.0217],[137.7132,35.0188]]]}},{"type":"Feature","properties":{"id":23054},"geometry":{"type":"Polygon","coordinates":[[[137.0859,35.1198],[137.0801,35.1163],[137.0661,35.1142],[137.0604,35.1099],[137.0529,35.1061],[137.0336,35.1025],[137.0251,35.0998],[137.0206,35.0877],[137.0304,35.0871],[137.0357,35.0837],[137.0388,35.0795],[137.05,35.0705],[137.0595,35.082],[137.0658,35.0871],[137.0853,35.0947],[137.0908,35.1002],[137.091,35.109],[137.0859,35.1198]]]}},{"type":"Feature","properties":{"id":23055},"geometry":{"type":"Polygon","coordinates":[[[136.9237,34.968],[136.9279,34.974],[136.9263,34.9812],[136.9224,34.9918],[136.9229,34.9993],[136.9341,35.0038],[136.9413,35.0179],[136.9353,35.028],[136.9345,35.0317],[136.9356,35.0417],[136.9339,35.0529],[136.9238,35.0603],[136.9114,35.0654],[136.9068,35.0662],[136.9001,35.0654],[136.8929,35.0612],[136.8872,35.0594],[136.8862,35.0651],[136.8792,35.0472],[136.8847,35.0422],[136.875,35.0422],[136.8675,35.0405],[136.8653,35.0361],[136.8547,35.0214],[136.8524,35.0153],[136.8711,35.0122],[136.8929,34.9981],[136.8981,34.9877],[136.9024,34.9806],[136.9089,34.9736],[136.9237,34.968]]]}},{"type":"Feature","properties":{"id":23056},"geometry":{"type":"Polygon","coordinates":[[[136.8802,34.944],[136.8693,34.9393],[136.8632,34.9338],[136.8564,34.9332],[136.8515,34.9347],[136.8383,34.9366],[136.8256,34.94],[136.8225,34.9356],[136.8239,34.931],[136.8236,34.9215],[136.8217,34.9097],[136.8222,34.9011],[136.8247,34.8949],[136.8297,34.8903],[136.8303,34.8847],[136.8397,34.8803],[136.8378,34.8758],[136.8433,34.8717],[136.8486,34.8703],[136.8558,34.8647],[136.8575,34.8619],[136.8564,34.8561],[136.8631,34.8464],[136.8633,34.8431],[136.8669,34.8375],[136.865,34.8306],[136.8656,34.8253],[136.8633,34.8211],[136.8617,34.8129],[136.8898,34.8167],[136.8862,34.8209],[136.8846,34.8292],[136.8858,34.8461],[136.8881,34.8522],[136.8913,34.8566],[136.8911,34.8603],[136.8823,34.8734],[136.8756,34.8879],[136.8712,34.9013],[136.871,34.9047],[136.8733,34.9104],[136.8785,34.9151],[136.8803,34.9198],[136.8868,34.9251],[136.8894,34.9314],[136.8847,34.9393],[136.8802,34.944]]]}},{"type":"Feature","properties":{"id":23057},"geometry":{"type":"Polygon","coordinates":[[[137.05,35.0705],[137.0388,35.0795],[137.0357,35.0837],[137.0304,35.0871],[137.0206,35.0877],[137.0109,35.0729],[137.0062,35.0694],[136.9972,35.0684],[136.995,35.0667],[136.9828,35.0498],[136.9957,35.0362],[137,35.0354],[137.0014,35.0261],[137.0104,35.0319],[137.0208,35.0375],[137.0379,35.051],[137.05,35.0705]]]}},{"type":"Feature","properties":{"id":23058},"geometry":{"type":"MultiPolygon","coordinates":[[[[137.3182,34.7414],[137.3139,34.7406],[137.3138,34.7333],[137.3183,34.7331],[137.3182,34.7414]]],[[[137.3756,34.7933],[137.349,34.7833],[137.3382,34.7792],[137.3397,34.7739],[137.3286,34.7747],[137.3222,34.7711],[137.3224,34.7638],[137.3214,34.7514],[137.3239,34.7485],[137.32,34.7331],[137.3266,34.7318],[137.3315,34.7294],[137.3385,34.7284],[137.3457,34.7309],[137.3525,34.727],[137.3429,34.7271],[137.3383,34.7247],[137.3367,34.7214],[137.3306,34.7214],[137.3294,34.7247],[137.3101,34.725],[137.308,34.7231],[137.3074,34.718],[137.3085,34.7118],[137.3074,34.7079],[137.3085,34.7018],[137.315,34.6986],[137.3181,34.7025],[137.3253,34.7014],[137.3211,34.6956],[137.3144,34.6952],[137.3113,34.6902],[137.3145,34.6882],[137.3114,34.6831],[137.3053,34.6811],[137.3065,34.675],[137.313,34.6629],[137.3183,34.6599],[137.3329,34.6477],[137.3334,34.6456],[137.3507,34.6498],[137.3587,34.6511],[137.4057,34.6613],[137.4265,34.6648],[137.4403,34.668],[137.4614,34.6715],[137.4883,34.6749],[137.4891,34.682],[137.4936,34.6915],[137.493,34.702],[137.4912,34.712],[137.4851,34.7209],[137.4818,34.7311],[137.4781,34.75],[137.4802,34.7617],[137.4801,34.7719],[137.4962,34.7832],[137.4961,34.7849],[137.4956,34.7934],[137.4925,34.8037],[137.5002,34.8203],[137.4961,34.8244],[137.4825,34.8353],[137.4801,34.8385],[137.4774,34.8498],[137.4743,34.8518],[137.4631,34.8531],[137.4564,34.8514],[137.4463,34.8438],[137.443,34.8423],[137.4195,34.8366],[137.4184,34.8337],[137.4247,34.8271],[137.4315,34.8248],[137.4343,34.822],[137.4339,34.8145],[137.4296,34.8098],[137.4185,34.808],[137.4066,34.8028],[137.4055,34.7943],[137.4011,34.793],[137.3903,34.7985],[137.3849,34.7978],[137.3756,34.7933]]]]}},{"type":"Feature","properties":{"id":23059},"geometry":{"type":"Polygon","coordinates":[[[137.3756,34.7933],[137.3849,34.7978],[137.3903,34.7985],[137.4011,34.793],[137.4055,34.7943],[137.4066,34.8028],[137.4185,34.808],[137.4296,34.8098],[137.4339,34.8145],[137.4343,34.822],[137.4315,34.8248],[137.4247,34.8271],[137.4184,34.8337],[137.4195,34.8366],[137.443,34.8423],[137.4463,34.8438],[137.4564,34.8514],[137.4525,34.8608],[137.4549,34.8705],[137.4525,34.8749],[137.4381,34.8898],[137.4272,34.8947],[137.4242,34.8978],[137.4215,34.9057],[137.4056,34.8998],[137.4008,34.8914],[137.392,34.8791],[137.3894,34.8785],[137.3816,34.8852],[137.3757,34.8872],[137.3709,34.8871],[137.3589,34.8844],[137.3574,34.8778],[137.3468,34.8691],[137.3309,34.8634],[137.3269,34.8608],[137.3219,34.8541],[137.3065,34.8498],[137.297,34.8429],[137.3116,34.8313],[137.3147,34.8209],[137.3189,34.8137],[137.3225,34.811],[137.3408,34.8106],[137.3493,34.8095],[137.3593,34.806],[137.3756,34.7933]]]}},{"type":"Feature","properties":{"id":23060},"geometry":{"type":"Polygon","coordinates":[[[137.6533,35.1361],[137.6582,35.1277],[137.667,35.1242],[137.6785,35.1287],[137.6848,35.1267],[137.6913,35.1226],[137.6987,35.1198],[137.7087,35.121],[137.7117,35.1232],[137.7175,35.1236],[137.7356,35.1202],[137.7419,35.1183],[137.7533,35.1091],[137.7593,35.1057],[137.7677,35.1031],[137.7734,35.0995],[137.7774,35.0934],[137.7812,35.0935],[137.7822,35.0958],[137.7979,35.0995],[137.8059,35.1057],[137.8018,35.1255],[137.8188,35.1358],[137.8171,35.1463],[137.831,35.1493],[137.8276,35.1592],[137.8171,35.162],[137.8049,35.1703],[137.8058,35.1811],[137.8228,35.1933],[137.8208,35.2113],[137.8102,35.2067],[137.8011,35.2019],[137.7889,35.2023],[137.7781,35.2002],[137.7696,35.206],[137.767,35.2165],[137.7528,35.2166],[137.7413,35.2188],[137.7298,35.2182],[137.7249,35.2274],[137.7106,35.229],[137.6881,35.2289],[137.6742,35.2266],[137.6667,35.2245],[137.656,35.2141],[137.6521,35.2112],[137.6573,35.2068],[137.6581,35.2026],[137.6557,35.1886],[137.6631,35.1822],[137.6693,35.1755],[137.6747,35.168],[137.6724,35.1586],[137.6778,35.1499],[137.678,35.1397],[137.675,35.1368],[137.6688,35.1351],[137.6533,35.1361]]]}},{"type":"Feature","properties":{"id":23061},"geometry":{"type":"Polygon","coordinates":[[[137.1247,34.9905],[137.1382,34.9924],[137.1556,34.9903],[137.1642,34.9972],[137.1677,35.0035],[137.166,35.0255],[137.1712,35.0329],[137.1768,35.0354],[137.1956,35.0353],[137.2026,35.0336],[137.2093,35.0339],[137.2181,35.0404],[137.2284,35.0355],[137.2411,35.0349],[137.2433,35.0329],[137.2461,35.0256],[137.2552,35.0199],[137.2583,35.0142],[137.2657,35.0139],[137.273,35.0247],[137.2761,35.027],[137.2856,35.0186],[137.2919,35.0166],[137.3181,35.0167],[137.3233,35.0164],[137.3352,35.0105],[137.3405,35.0099],[137.3639,35.01],[137.3714,35.0078],[137.3777,35.0027],[137.3826,34.992],[137.3887,34.9868],[137.3933,34.9926],[137.4036,35.0027],[137.4172,35.0031],[137.425,35.005],[137.4269,35.0078],[137.4272,35.0156],[137.4317,35.0273],[137.4323,35.0312],[137.4301,35.0401],[137.4347,35.048],[137.4396,35.0524],[137.4433,35.0601],[137.4433,35.0691],[137.4388,35.0742],[137.4343,35.0827],[137.4304,35.0972],[137.4325,35.0995],[137.4449,35.1073],[137.4464,35.11],[137.4476,35.1227],[137.4508,35.1309],[137.4585,35.133],[137.4664,35.1364],[137.4726,35.1447],[137.4705,35.1489],[137.4662,35.151],[137.4656,35.1559],[137.4726,35.1615],[137.481,35.1747],[137.488,35.1872],[137.4918,35.1922],[137.496,35.1914],[137.5069,35.1807],[137.5115,35.1782],[137.5197,35.1762],[137.5379,35.1841],[137.5448,35.1844],[137.5558,35.1822],[137.5732,35.1807],[137.5762,35.1816],[137.5849,35.1941],[137.5841,35.1951],[137.5811,35.1948],[137.5808,35.2058],[137.5814,35.2163],[137.5715,35.2248],[137.5648,35.2325],[137.5549,35.2383],[137.5491,35.25],[137.5564,35.258],[137.5604,35.2676],[137.5651,35.2844],[137.5463,35.2777],[137.5243,35.281],[137.5194,35.271],[137.5112,35.2631],[137.5,35.2608],[137.489,35.2542],[137.466,35.238],[137.4464,35.2317],[137.4369,35.2226],[137.4243,35.2314],[137.3983,35.2378],[137.3869,35.2433],[137.3878,35.2564],[137.375,35.2599],[137.3639,35.2574],[137.3452,35.2584],[137.349,35.2683],[137.3389,35.2713],[137.329,35.2768],[137.3115,35.2876],[137.3003,35.2862],[137.2901,35.2857],[137.2777,35.2869],[137.2684,35.2829],[137.2635,35.274],[137.2543,35.2667],[137.2414,35.2617],[137.2324,35.257],[137.2144,35.2565],[137.2004,35.25],[137.1892,35.25],[137.1859,35.2523],[137.1814,35.2328],[137.1828,35.2303],[137.1827,35.2226],[137.1773,35.216],[137.174,35.2053],[137.1698,35.202],[137.1631,35.2014],[137.1568,35.1996],[137.1485,35.1946],[137.1369,35.1854],[137.1323,35.183],[137.1287,35.1789],[137.1252,35.1785],[137.1162,35.1802],[137.1046,35.1778],[137.0988,35.1751],[137.0993,35.1545],[137.0965,35.1406],[137.0963,35.1359],[137.1031,35.1317],[137.1269,35.1191],[137.1294,35.1128],[137.127,35.1077],[137.1163,35.0932],[137.116,35.0822],[137.1145,35.0776],[137.1072,35.0722],[137.1025,35.0596],[137.1007,35.0579],[137.0925,35.0566],[137.0717,35.0555],[137.0596,35.0451],[137.0511,35.0343],[137.0461,35.0194],[137.0559,35.0138],[137.0609,35.0128],[137.0754,35.0143],[137.0781,35.0103],[137.0819,35.0085],[137.0921,35.0088],[137.1083,35.0029],[137.1247,34.9905]]]}},{"type":"Feature","properties":{"id":23062},"geometry":{"type":"Polygon","coordinates":[[[136.9252,35.2585],[136.9159,35.2589],[136.9086,35.2566],[136.9054,35.2445],[136.9051,35.2298],[136.916,35.232],[136.927,35.2292],[136.9341,35.2347],[136.9383,35.2441],[136.9382,35.2482],[136.9252,35.2585]]]}},{"type":"Feature","properties":{"id":23063},"geometry":{"type":"Polygon","coordinates":[[[136.7625,35.1354],[136.7739,35.1448],[136.7896,35.1493],[136.7894,35.1623],[136.7865,35.1746],[136.7831,35.1796],[136.7759,35.1873],[136.7674,35.1848],[136.7573,35.1771],[136.7519,35.1772],[136.7466,35.179],[136.7359,35.1878],[136.7291,35.188],[136.7217,35.1849],[136.7144,35.1727],[136.7155,35.169],[136.721,35.1605],[136.7231,35.1555],[136.7207,35.1493],[136.7256,35.1454],[136.7424,35.1425],[136.7526,35.1423],[136.7559,35.1412],[136.7625,35.1354]]]}},{"type":"Feature","properties":{"id":23064},"geometry":{"type":"Polygon","coordinates":[[[136.7044,35.12],[136.7079,35.1121],[136.71,35.0946],[136.7121,35.0885],[136.7173,35.0842],[136.7208,35.0828],[136.7339,35.0823],[136.7393,35.0784],[136.746,35.0694],[136.752,35.0591],[136.7525,35.0527],[136.7548,35.0483],[136.7558,35.037],[136.7546,35.0298],[136.7641,35.0206],[136.7747,35.0231],[136.7814,35.0175],[136.7864,35.0189],[136.7944,35.0148],[136.797,35.0219],[136.7808,35.0333],[136.7869,35.035],[136.8006,35.0286],[136.8017,35.0482],[136.8094,35.0502],[136.808,35.0575],[136.7933,35.0705],[136.7758,35.0798],[136.7669,35.0865],[136.7679,35.0894],[136.7863,35.0896],[136.801,35.0906],[136.808,35.0924],[136.8008,35.0931],[136.7951,35.0978],[136.7969,35.1035],[136.7949,35.1053],[136.7941,35.1058],[136.789,35.1091],[136.7804,35.1128],[136.774,35.1139],[136.7624,35.1137],[136.754,35.1085],[136.7483,35.1105],[136.7417,35.1223],[136.7373,35.126],[136.7257,35.1289],[136.712,35.1292],[136.7069,35.1275],[136.7044,35.12]]]}}]}