{"type":"FeatureCollection","features":[{"type":"Feature","properties":{"id":24001},"geometry":{"type":"Polygon","coordinates":[[[136.6754,35.0379],[136.6633,35.0382],[136.6282,35.0355],[136.6363,35.028],[136.6456,35.021],[136.6487,35.0149],[136.6581,35.0221],[136.6622,35.0239],[136.6701,35.031],[136.6754,35.0379]]]}},{"type":"Feature","properties":{"id":24002},"geometry":{"type":"Polygon","coordinates":[[[136.0482,34.7379],[136.0661,34.7232],[136.0717,34.7142],[136.0671,34.7051],[136.0694,34.7025],[136.0784,34.6925],[136.0825,34.681],[136.0889,34.6722],[136.0814,34.6594],[136.0852,34.6613],[136.0908,34.6676],[136.0938,34.6728],[136.0978,34.6712],[136.108,34.6697],[136.12,34.6715],[136.1257,34.6774],[136.1296,34.6786],[136.1321,34.6763],[136.1348,34.6678],[136.1388,34.665],[136.1528,34.6628],[136.155,34.6595],[136.157,34.6501],[136.1612,34.6465],[136.1661,34.6451],[136.1784,34.6367],[136.1823,34.6314],[136.185,34.6242],[136.1895,34.6076],[136.1955,34.5943],[136.1989,34.5665],[136.2162,34.5642],[136.2237,34.5651],[136.2357,34.5765],[136.2422,34.5784],[136.2472,34.5821],[136.2569,34.5912],[136.2595,34.5951],[136.2594,34.6001],[136.2513,34.6164],[136.2496,34.6241],[136.2501,34.6285],[136.253,34.6342],[136.261,34.643],[136.2627,34.6472],[136.2675,34.6528],[136.2726,34.6634],[136.2754,34.6847],[136.2777,34.6931],[136.2816,34.6971],[136.2922,34.7018],[136.3061,34.7092],[136.3112,34.7137],[136.3159,34.7159],[136.3225,34.7219],[136.3231,34.7257],[136.3175,34.7362],[136.3184,34.7413],[136.3325,34.7559],[136.3383,34.7676],[136.3375,34.7726],[136.3301,34.7803],[136.3237,34.7856],[136.3224,34.7894],[136.3212,34.8086],[136.311,34.8068],[136.2976,34.8059],[136.2912,34.8072],[136.2869,34.8115],[136.286,34.82],[136.2872,34.8275],[136.2915,34.8421],[136.2908,34.8518],[136.2846,34.8662],[136.2887,34.8687],[136.2788,34.8691],[136.2715,34.8619],[136.2614,34.8578],[136.25,34.8556],[136.24,34.8571],[136.2095,34.8654],[136.1988,34.8689],[136.1889,34.875],[136.1821,34.8833],[136.172,34.8839],[136.1498,34.8797],[136.1406,34.8849],[136.1304,34.8826],[136.1187,34.889],[136.114,34.8986],[136.1007,34.886],[136.0901,34.8823],[136.0937,34.8717],[136.1034,34.8673],[136.1149,34.8666],[136.125,34.8696],[136.1291,34.8591],[136.1135,34.8523],[136.1098,34.842],[136.1016,34.8364],[136.0902,34.8329],[136.0939,34.822],[136.0935,34.8114],[136.0851,34.805],[136.0753,34.8021],[136.066,34.7975],[136.045,34.7957],[136.0356,34.7904],[136.0253,34.7883],[136.0277,34.7783],[136.0364,34.7725],[136.0328,34.7632],[136.0343,34.7527],[136.0482,34.7379]]]}},{"type":"Feature","properties":{"id":24003},"geometry":{"type":"Polygon","coordinates":[[[136.5291,35.2539],[136.5182,35.25],[136.5135,35.2364],[136.5,35.2348],[136.4832,35.2316],[136.4624,35.2299],[136.4465,35.2157],[136.4369,35.2188],[136.427,35.2209],[136.418,35.2147],[136.4189,35.2034],[136.4155,35.1924],[136.4187,35.186],[136.422,35.1795],[136.4327,35.178],[136.4399,35.17],[136.4572,35.1598],[136.4577,35.1492],[136.4477,35.1465],[136.446,35.1359],[136.4387,35.128],[136.4481,35.1229],[136.4429,35.1137],[136.4447,35.1021],[136.4422,35.0917],[136.4393,35.0758],[136.4399,35.0745],[136.4421,35.0793],[136.4623,35.0811],[136.479,35.0814],[136.4976,35.085],[136.5061,35.0842],[136.5187,35.0778],[136.5236,35.0764],[136.5342,35.0695],[136.5454,35.0657],[136.5562,35.0596],[136.5729,35.0527],[136.5703,35.0759],[136.5708,35.0804],[136.583,35.0927],[136.5982,35.1042],[136.5933,35.1141],[136.5876,35.1192],[136.5829,35.1254],[136.5772,35.1408],[136.5799,35.1492],[136.5882,35.1578],[136.5942,35.1661],[136.6009,35.1738],[136.5886,35.1853],[136.5826,35.1934],[136.5734,35.1995],[136.563,35.2035],[136.5606,35.2146],[136.5507,35.217],[136.552,35.2277],[136.5441,35.2352],[136.5396,35.2465],[136.5303,35.2543],[136.5291,35.2539]]]}},{"type":"Feature","properties":{"id":24004},"geometry":{"type":"MultiPolygon","coordinates":[[[[136.7827,34.4328],[136.7866,34.443],[136.7908,34.4504],[136.7921,34.4554],[136.7978,34.465],[136.8015,34.4687],[136.8061,34.4709],[136.8145,34.4781],[136.82,34.4848],[136.8149,34.4922],[136.8161,34.4961],[136.8122,34.4983],[136.8106,34.5083],[136.7953,34.5067],[136.7858,34.5083],[136.7781,34.5083],[136.77,34.5114],[136.7589,34.5181],[136.7547,34.5233],[136.7481,34.5219],[136.7486,34.5153],[136.7553,34.5094],[136.7547,34.5025],[136.7511,34.5047],[136.7503,34.5103],[136.7414,34.5131],[136.7431,34.5186],[136.7428,34.5281],[136.7397,34.5328],[136.7361,34.5336],[136.7317,34.5311],[136.7267,34.5256],[136.7153,34.5228],[136.7117,34.5208],[136.7086,34.515],[136.6989,34.5114],[136.6956,34.5131],[136.7047,34.5189],[136.71,34.5267],[136.7164,34.5294],[136.7206,34.5344],[136.7233,34.54],[136.7228,34.5428],[136.718,34.5436],[136.7153,34.5417],[136.7106,34.5422],[136.6956,34.5467],[136.6879,34.5514],[136.67,34.5567],[136.6614,34.5633],[136.6579,34.5629],[136.6565,34.5572],[136.6506,34.5443],[136.6467,34.5375],[136.6433,34.527],[136.6437,34.5129],[136.6488,34.5048],[136.6504,34.4997],[136.6583,34.4863],[136.6594,34.4755],[136.6572,34.4704],[136.6566,34.4638],[136.653,34.4562],[136.6483,34.4509],[136.6317,34.4343],[136.6369,34.4238],[136.6403,34.4052],[136.6442,34.3976],[136.6602,34.3945],[136.6775,34.3933],[136.6856,34.3906],[136.6924,34.3865],[136.6982,34.3844],[136.7289,34.3794],[136.7428,34.376],[136.7434,34.3868],[136.7453,34.3921],[136.746,34.3999],[136.7486,34.4079],[136.7551,34.4143],[136.7598,34.4164],[136.7691,34.4226],[136.7827,34.4328]]],[[[136.7197,34.5261],[136.7253,34.5275],[136.7281,34.5344],[136.7247,34.535],[136.7195,34.5286],[136.7197,34.5261]]]]}},{"type":"Feature","properties":{"id":24005},"geometry":{"type":"Polygon","coordinates":[[[136.3212,34.8086],[136.3294,34.8122],[136.337,34.8197],[136.3449,34.8213],[136.3552,34.819],[136.3602,34.8206],[136.3712,34.8319],[136.3773,34.8345],[136.3861,34.8367],[136.4036,34.8384],[136.4127,34.8403],[136.4252,34.8394],[136.439,34.8344],[136.4431,34.8318],[136.4528,34.8223],[136.4643,34.8143],[136.4838,34.8059],[136.5015,34.7967],[136.506,34.7964],[136.5062,34.8032],[136.5014,34.8218],[136.4998,34.8345],[136.5001,34.8486],[136.5017,34.862],[136.498,34.896],[136.4943,34.9045],[136.4829,34.9125],[136.4783,34.9133],[136.4595,34.9088],[136.4536,34.9089],[136.4495,34.9111],[136.4306,34.9245],[136.4272,34.9275],[136.4116,34.9563],[136.4055,34.9628],[136.3997,34.9544],[136.3873,34.9478],[136.379,34.9414],[136.3748,34.9312],[136.3743,34.9206],[136.3684,34.9028],[136.3598,34.8974],[136.3335,34.889],[136.3236,34.8865],[136.3162,34.8778],[136.3073,34.8718],[136.2969,34.8683],[136.2887,34.8687],[136.2846,34.8662],[136.2908,34.8518],[136.2915,34.8421],[136.2872,34.8275],[136.286,34.82],[136.2869,34.8115],[136.2912,34.8072],[136.2976,34.8059],[136.311,34.8068],[136.3212,34.8086]]]}},{"type":"Feature","properties":{"id":24006},"geometry":{"type":"Polygon","coordinates":[[[136.6487,35.0149],[136.6657,35.005],[136.6672,35.0031],[136.6769,35.0064],[136.6861,35.0036],[136.6986,35.0061],[136.7,35.0083],[136.6975,35.0157],[136.6975,35.0206],[136.6999,35.0217],[136.6933,35.0255],[136.679,35.0359],[136.6754,35.0379],[136.6701,35.031],[136.6622,35.0239],[136.6581,35.0221],[136.6487,35.0149]]]}},{"type":"Feature","properties":{"id":24007},"geometry":{"type":"Polygon","coordinates":[[[136.0324,33.7741],[136.0286,33.7757],[136.0151,33.785],[136.0099,33.7879],[136.0054,33.7923],[135.999,33.8027],[135.9953,33.8071],[135.9906,33.81],[135.9832,33.8123],[135.9762,33.8129],[135.9688,33.8152],[135.9613,33.8194],[135.9549,33.8141],[135.9369,33.8056],[135.9304,33.8002],[135.9265,33.7915],[135.9241,33.7901],[135.9009,33.7824],[135.9098,33.7636],[135.9209,33.762],[135.9346,33.751],[135.9451,33.7335],[135.9587,33.7252],[135.9789,33.734],[135.9912,33.7318],[136.0103,33.722],[136.0092,33.7247],[136.0042,33.7258],[135.9949,33.7301],[135.9959,33.7328],[136.0164,33.7294],[136.021,33.736],[136.0247,33.7539],[136.0324,33.7741]]]}},{"type":"Feature","properties":{"id":24008},"geometry":{"type":"MultiPolygon","coordinates":[[[[136.3061,34.1631],[136.3,34.1622],[136.3003,34.1564],[136.3078,34.1592],[136.3061,34.1631]]],[[[136.3062,34.1073],[136.3092,34.1114],[136.3152,34.1137],[136.3127,34.1185],[136.3042,34.1169],[136.2989,34.1183],[136.2961,34.1167],[136.2948,34.1121],[136.29,34.1158],[136.2847,34.1178],[136.2836,34.1225],[136.2936,34.1269],[136.2894,34.1294],[136.2803,34.1314],[136.2803,34.1356],[136.2769,34.1378],[136.2778,34.1417],[136.2839,34.1447],[136.2867,34.1481],[136.2809,34.152],[136.2783,34.1614],[136.2827,34.1626],[136.2853,34.1592],[136.2917,34.1656],[136.2973,34.1658],[136.2991,34.1681],[136.2956,34.1717],[136.305,34.1806],[136.3168,34.1787],[136.3188,34.183],[136.3238,34.1864],[136.3339,34.1803],[136.3356,34.1836],[136.3324,34.187],[136.3339,34.1903],[136.3386,34.1914],[136.34,34.2011],[136.3453,34.2072],[136.3517,34.2056],[136.3497,34.1983],[136.35,34.1939],[136.3603,34.1967],[136.3622,34.1897],[136.3708,34.1936],[136.3717,34.1967],[136.3737,34.2113],[136.3731,34.2158],[136.3693,34.2212],[136.3555,34.2348],[136.3476,34.2385],[136.3344,34.2402],[136.3221,34.2401],[136.3114,34.2414],[136.3068,34.2435],[136.3049,34.2489],[136.3027,34.2634],[136.3002,34.2665],[136.2903,34.269],[136.2809,34.2702],[136.2773,34.2702],[136.2713,34.2675],[136.2656,34.2626],[136.261,34.2604],[136.247,34.2452],[136.236,34.2423],[136.225,34.2367],[136.2125,34.2237],[136.2084,34.2166],[136.1799,34.1869],[136.1756,34.1853],[136.1617,34.1851],[136.1534,34.1833],[136.1346,34.1759],[136.1274,34.172],[136.1149,34.1614],[136.1141,34.1527],[136.1096,34.1431],[136.1074,34.1325],[136.1103,34.1223],[136.1093,34.1185],[136.1095,34.1159],[136.1254,34.1151],[136.1467,34.1146],[136.1554,34.1134],[136.1593,34.1114],[136.1663,34.1054],[136.1778,34.0974],[136.1833,34.0952],[136.192,34.0936],[136.2104,34.0935],[136.2306,34.0957],[136.2308,34.097],[136.2281,34.0986],[136.2308,34.1025],[136.2436,34.1056],[136.2425,34.1089],[136.2528,34.1114],[136.2586,34.1197],[136.2686,34.1286],[136.2761,34.1217],[136.2653,34.1164],[136.2642,34.1111],[136.2542,34.1044],[136.2488,34.1042],[136.2511,34.0983],[136.2497,34.0939],[136.2581,34.0875],[136.2614,34.09],[136.26,34.0928],[136.2625,34.1008],[136.2671,34.1],[136.2705,34.0948],[136.2876,34.1048],[136.2935,34.1063],[136.3062,34.1073]]]]}},{"type":"Feature","properties":{"id":24009},"geometry":{"type":"Polygon","coordinates":[[[136.4399,35.0745],[136.4438,35.0667],[136.4373,35.0588],[136.4274,35.0536],[136.4209,35.0448],[136.4194,35.0335],[136.4254,35.0246],[136.421,35.0149],[136.4213,35.0121],[136.4229,35],[136.4205,34.9927],[136.4352,34.9941],[136.4609,34.9919],[136.4906,34.9943],[136.5061,34.9973],[136.5173,35.0013],[136.5273,35.0067],[136.5404,35.0159],[136.5538,35.0232],[136.5563,35.0271],[136.5548,35.0309],[136.544,35.0351],[136.54,35.0382],[136.5357,35.0463],[136.5388,35.0551],[136.5454,35.0657],[136.5342,35.0695],[136.5236,35.0764],[136.5187,35.0778],[136.5061,35.0842],[136.4976,35.085],[136.479,35.0814],[136.4623,35.0811],[136.4421,35.0793],[136.4399,35.0745]]]}},{"type":"Feature","properties":{"id":24010},"geometry":{"type":"Polygon","coordinates":[[[135.9613,33.8194],[135.958,33.8293],[135.9544,33.8352],[135.9537,33.8449],[135.956,33.8484],[135.9648,33.8534],[135.9684,33.8572],[135.9742,33.8701],[135.9798,33.8905],[135.9854,33.893],[135.9987,33.8896],[136.0078,33.8866],[136.0134,33.8861],[136.0243,33.8823],[136.0358,33.8796],[136.0394,33.8773],[136.0426,33.8669],[136.048,33.8588],[136.055,33.8524],[136.0694,33.8455],[136.078,33.8594],[136.0878,33.8711],[136.0889,33.8736],[136.0989,33.8833],[136.1003,33.8861],[136.1078,33.8911],[136.1129,33.8886],[136.1173,33.8902],[136.1158,33.8939],[136.1175,33.8978],[136.1251,33.897],[136.1286,33.8861],[136.1371,33.888],[136.1394,33.8919],[136.1394,33.8971],[136.1438,33.896],[136.1489,33.8978],[136.1481,33.9028],[136.1419,33.9044],[136.1395,33.9081],[136.1439,33.9114],[136.1491,33.9109],[136.152,33.9127],[136.1517,33.9189],[136.1531,33.9236],[136.1483,33.925],[136.1481,33.9286],[136.1507,33.931],[136.1591,33.9311],[136.1644,33.9297],[136.1669,33.9269],[136.1716,33.9121],[136.1782,33.9127],[136.1854,33.915],[136.1858,33.9173],[136.1908,33.9192],[136.1947,33.9178],[136.1961,33.9231],[136.1953,33.9275],[136.1994,33.9322],[136.1967,33.9361],[136.193,33.9337],[136.1842,33.9358],[136.1867,33.9386],[136.2017,33.9436],[136.1864,33.9467],[136.1787,33.9502],[136.1741,33.951],[136.1656,33.9476],[136.1592,33.9476],[136.1555,33.9505],[136.1474,33.9618],[136.1461,33.9667],[136.1427,33.9962],[136.1431,34.0037],[136.1486,34.012],[136.1469,34.0184],[136.1425,34.0216],[136.1366,34.0214],[136.1285,34.0186],[136.1202,34.0184],[136.1038,34.0225],[136.0902,34.0242],[136.0735,34.0291],[136.0691,34.0303],[136.0497,34.0313],[136.0404,34.0379],[136.032,34.0294],[136.0217,34.0331],[136.0183,34.0234],[136.0104,34.016],[136.0061,34.0065],[135.9934,34],[135.9797,33.9858],[135.9698,33.9823],[135.9595,33.9776],[135.9484,33.9765],[135.9378,33.9768],[135.9274,33.9759],[135.921,33.9713],[135.9185,33.9695],[135.9101,33.9577],[135.8957,33.9422],[135.8996,33.932],[135.9024,33.9221],[135.8875,33.92],[135.8722,33.9168],[135.8675,33.906],[135.8624,33.8969],[135.856,33.8741],[135.8568,33.8595],[135.863,33.8422],[135.8613,33.8276],[135.859,33.8158],[135.8659,33.8079],[135.8876,33.7981],[135.8994,33.7856],[135.9009,33.7824],[135.9241,33.7901],[135.9265,33.7915],[135.9304,33.8002],[135.9369,33.8056],[135.9549,33.8141],[135.9613,33.8194]]]}},{"type":"Feature","properties":{"id":24011},"geometry":{"type":"Polygon","coordinates":[[[136.6709,35.1455],[136.6594,35.1558],[136.6492,35.1626],[136.6486,35.1486],[136.6382,35.1447],[136.625,35.1446],[136.6163,35.1506],[136.6084,35.1662],[136.6009,35.1738],[136.5942,35.1661],[136.5882,35.1578],[136.5799,35.1492],[136.5772,35.1408],[136.5829,35.1254],[136.5876,35.1192],[136.5933,35.1141],[136.5982,35.1042],[136.6086,35.1015],[136.6161,35.0961],[136.6167,35.0916],[136.6122,35.0832],[136.6038,35.0646],[136.6001,35.0553],[136.5944,35.0472],[136.6282,35.0355],[136.6633,35.0382],[136.6754,35.0379],[136.679,35.0359],[136.6933,35.0255],[136.6999,35.0217],[136.7022,35.021],[136.722,35.0293],[136.7269,35.0251],[136.7342,35.0271],[136.7365,35.0294],[136.7312,35.0363],[136.7272,35.0532],[136.7216,35.0658],[136.7198,35.0761],[136.7173,35.0842],[136.7121,35.0885],[136.71,35.0946],[136.7079,35.1121],[136.7044,35.12],[136.6906,35.1259],[136.6802,35.1287],[136.673,35.134],[136.6709,35.1455]]]}},{"type":"Feature","properties":{"id":24012},"geometry":{"type":"Polygon","coordinates":[[[136.537,34.6607],[136.537,34.6679],[136.524,34.6599],[136.5189,34.6554],[136.5077,34.6479],[136.5018,34.647],[136.477,34.6451],[136.4671,34.6436],[136.461,34.641],[136.4512,34.639],[136.4456,34.6352],[136.4391,34.6225],[136.4339,34.6201],[136.4205,34.626],[136.4117,34.6242],[136.4038,34.6191],[136.3932,34.6138],[136.3822,34.5935],[136.3777,34.5878],[136.3648,34.5623],[136.3605,34.5572],[136.3544,34.5455],[136.3514,34.5367],[136.3507,34.5203],[136.3475,34.502],[136.3415,34.489],[136.337,34.4831],[136.333,34.4734],[136.3289,34.4697],[136.313,34.4666],[136.2775,34.4613],[136.2723,34.4589],[136.2558,34.456],[136.2257,34.4554],[136.2168,34.4602],[136.2105,34.4564],[136.2092,34.4453],[136.1902,34.446],[136.1787,34.4422],[136.1662,34.4452],[136.1559,34.4414],[136.1453,34.4385],[136.1354,34.4409],[136.125,34.4399],[136.1089,34.4322],[136.0987,34.4317],[136.093,34.4167],[136.0881,34.4074],[136.0793,34.4018],[136.0732,34.3916],[136.08,34.3831],[136.089,34.3762],[136.0946,34.3656],[136.0976,34.3575],[136.1045,34.3393],[136.1117,34.3265],[136.1218,34.3229],[136.1318,34.3137],[136.1471,34.3128],[136.1738,34.315],[136.1849,34.3148],[136.1902,34.3166],[136.1943,34.3232],[136.2037,34.333],[136.2165,34.3389],[136.2321,34.3471],[136.2375,34.3492],[136.25,34.3576],[136.2678,34.3667],[136.2714,34.3708],[136.2749,34.3878],[136.2784,34.3921],[136.2864,34.3972],[136.2966,34.3995],[136.3395,34.4031],[136.3647,34.4035],[136.3754,34.4017],[136.3819,34.4027],[136.3994,34.4105],[136.4021,34.4127],[136.4124,34.4232],[136.4212,34.4359],[136.4222,34.4398],[136.4176,34.4509],[136.4143,34.472],[136.4145,34.4776],[136.4173,34.4805],[136.4227,34.4816],[136.4798,34.486],[136.4868,34.4869],[136.4928,34.4903],[136.4999,34.5029],[136.5059,34.5048],[136.526,34.5069],[136.5345,34.5095],[136.5474,34.5115],[136.5521,34.5137],[136.5729,34.5165],[136.5846,34.5202],[136.5895,34.5273],[136.5912,34.5329],[136.6003,34.5505],[136.6106,34.5552],[136.6145,34.5594],[136.6146,34.5645],[136.6109,34.5955],[136.6109,34.5998],[136.6022,34.6017],[136.5908,34.6019],[136.5822,34.605],[136.5739,34.6044],[136.5783,34.5983],[136.5764,34.5975],[136.5706,34.6022],[136.5678,34.6064],[136.5639,34.6064],[136.5616,34.5959],[136.5561,34.5942],[136.5575,34.6006],[136.5612,34.6066],[136.5603,34.61],[136.5531,34.6147],[136.5492,34.6083],[136.5436,34.6097],[136.5283,34.6094],[136.525,34.6117],[136.5328,34.6158],[136.5381,34.6161],[136.5383,34.6217],[136.5411,34.6256],[136.547,34.6267],[136.5489,34.6317],[136.5464,34.6369],[136.5497,34.64],[136.548,34.6428],[136.5475,34.6544],[136.5486,34.66],[136.5439,34.6619],[136.537,34.6607]]]}},{"type":"Feature","properties":{"id":24013},"geometry":{"type":"Polygon","coordinates":[[[136.6579,34.5629],[136.6589,34.5681],[136.6467,34.589],[136.6417,34.5919],[136.6339,34.5933],[136.6203,34.5992],[136.6109,34.5998],[136.6109,34.5955],[136.6146,34.5645],[136.6145,34.5594],[136.6106,34.5552],[136.6003,34.5505],[136.5912,34.5329],[136.5895,34.5273],[136.5846,34.5202],[136.5936,34.5098],[136.5991,34.5055],[136.6029,34.5008],[136.6071,34.5019],[136.6322,34.5116],[136.6437,34.5129],[136.6433,34.527],[136.6467,34.5375],[136.6506,34.5443],[136.6565,34.5572],[136.6579,34.5629]]]}},{"type":"Feature","properties":{"id":24014},"geometry":{"type":"Polygon","coordinates":[[[136.0324,33.7741],[136.0392,33.7872],[136.0417,33.7961],[136.0467,33.8067],[136.0531,33.8147],[136.0569,33.8256],[136.0608,33.8308],[136.0694,33.8455],[136.055,33.8524],[136.048,33.8588],[136.0426,33.8669],[136.0394,33.8773],[136.0358,33.8796],[136.0243,33.8823],[136.0134,33.8861],[136.0078,33.8866],[135.9987,33.8896],[135.9854,33.893],[135.9798,33.8905],[135.9742,33.8701],[135.9684,33.8572],[135.9648,33.8534],[135.956,33.8484],[135.9537,33.8449],[135.9544,33.8352],[135.958,33.8293],[135.9613,33.8194],[135.9688,33.8152],[135.9762,33.8129],[135.9832,33.8123],[135.9906,33.81],[135.9953,33.8071],[135.999,33.8027],[136.0054,33.7923],[136.0099,33.7879],[136.0151,33.785],[136.0286,33.7757],[136.0324,33.7741]]]}},{"type":"Feature","properties":{"id":24015},"geometry":{"type":"MultiPolygon","coordinates":[[[[136.5526,34.248],[136.5486,34.2492],[136.5472,34.2443],[136.55,34.2417],[136.5558,34.2453],[136.5526,34.248]]],[[[136.7428,34.376],[136.7289,34.3794],[136.6982,34.3844],[136.6924,34.3865],[136.6856,34.3906],[136.6775,34.3933],[136.6602,34.3945],[136.6442,34.3976],[136.6254,34.3829],[136.6223,34.3795],[136.6196,34.3734],[136.6192,34.3634],[136.6171,34.3523],[136.6112,34.3392],[136.6067,34.3335],[136.6021,34.3258],[136.5927,34.3162],[136.5852,34.3139],[136.5695,34.314],[136.5574,34.3158],[136.5313,34.3247],[136.5203,34.3279],[136.513,34.3317],[136.5016,34.3275],[136.493,34.3254],[136.4819,34.3238],[136.4641,34.319],[136.4612,34.316],[136.4599,34.3088],[136.4592,34.2936],[136.4574,34.2884],[136.4505,34.2844],[136.4413,34.2816],[136.4373,34.2784],[136.4301,34.2643],[136.4251,34.2585],[136.4224,34.2517],[136.4233,34.2465],[136.4321,34.2323],[136.4344,34.2295],[136.4382,34.2211],[136.4442,34.22],[136.4548,34.2213],[136.4594,34.2239],[136.4587,34.2263],[136.4536,34.2269],[136.4526,34.2322],[136.4558,34.2425],[136.4536,34.2453],[136.4489,34.2437],[136.4442,34.2447],[136.4428,34.2483],[136.4568,34.2471],[136.4622,34.2531],[136.4664,34.2514],[136.4597,34.24],[136.4633,34.2367],[136.4619,34.2342],[136.4719,34.2322],[136.4808,34.2239],[136.4817,34.2197],[136.4922,34.2247],[136.4975,34.2247],[136.4969,34.2286],[136.4997,34.2314],[136.5075,34.2308],[136.5069,34.2369],[136.5036,34.2383],[136.4956,34.2381],[136.4917,34.2367],[136.4892,34.2417],[136.4972,34.2436],[136.5036,34.2425],[136.5014,34.2469],[136.5032,34.2542],[136.5108,34.2478],[136.5103,34.2422],[136.5194,34.2403],[136.5196,34.2432],[136.5142,34.2442],[136.5094,34.2517],[136.5086,34.2556],[136.5097,34.2633],[136.5058,34.2647],[136.5067,34.2728],[136.5036,34.2744],[136.5058,34.2789],[136.5106,34.2786],[136.5155,34.2761],[136.5127,34.2697],[136.5228,34.2664],[136.5262,34.2708],[136.5311,34.27],[136.5256,34.2633],[136.5303,34.2631],[136.5308,34.2681],[136.5366,34.2751],[136.5411,34.2764],[136.5406,34.2647],[136.5378,34.2606],[136.5372,34.2553],[136.5431,34.2544],[136.5475,34.25],[136.5494,34.2575],[136.5533,34.2583],[136.5542,34.2628],[136.5586,34.2678],[136.5553,34.2708],[136.5535,34.278],[136.5603,34.275],[136.5597,34.2792],[136.5564,34.2822],[136.5575,34.2847],[136.5673,34.2849],[136.5703,34.2883],[136.5733,34.2867],[136.5744,34.2825],[136.5714,34.2786],[136.5745,34.2755],[136.5794,34.275],[136.5822,34.2639],[136.5873,34.2579],[136.5911,34.2572],[136.5983,34.2586],[136.6039,34.2578],[136.6075,34.2611],[136.6119,34.2678],[136.6225,34.2736],[136.6292,34.2719],[136.6358,34.2756],[136.6367,34.285],[136.6506,34.2867],[136.6597,34.2889],[136.6539,34.2969],[136.6589,34.3006],[136.665,34.2997],[136.6653,34.3052],[136.6747,34.3139],[136.6712,34.3168],[136.6658,34.3164],[136.6636,34.3128],[136.6572,34.3164],[136.6533,34.3164],[136.65,34.3125],[136.6407,34.3085],[136.6442,34.3142],[136.6494,34.3158],[136.6511,34.3194],[136.6581,34.3181],[136.6617,34.3236],[136.6686,34.3236],[136.6739,34.3256],[136.6703,34.3314],[136.6722,34.3336],[136.6689,34.3392],[136.6603,34.3389],[136.6589,34.3419],[136.665,34.3453],[136.6725,34.3433],[136.6728,34.3389],[136.6789,34.3381],[136.6853,34.332],[136.6806,34.3247],[136.6825,34.3233],[136.6933,34.3342],[136.6947,34.3406],[136.6972,34.3428],[136.6946,34.3472],[136.6989,34.3489],[136.7044,34.3442],[136.7064,34.3361],[136.71,34.3361],[136.7125,34.3417],[136.7168,34.3341],[136.7164,34.3297],[136.7044,34.3294],[136.7047,34.3244],[136.7,34.3258],[136.6931,34.315],[136.6883,34.3058],[136.6892,34.2947],[136.6853,34.2903],[136.6903,34.2836],[136.6931,34.2893],[136.6964,34.2886],[136.7014,34.2928],[136.7041,34.2903],[136.7049,34.292],[136.7051,34.2924],[136.7053,34.2927],[136.7057,34.2936],[136.7083,34.2995],[136.7143,34.3042],[136.7329,34.3105],[136.7416,34.3272],[136.7454,34.3363],[136.7461,34.3461],[136.7428,34.376]]]]}},{"type":"Feature","properties":{"id":24016},"geometry":{"type":"Polygon","coordinates":[[[136.0814,34.6594],[136.0793,34.6559],[136.0697,34.6505],[136.074,34.6356],[136.0723,34.6255],[136.0655,34.6168],[136.0551,34.6045],[136.0506,34.5941],[136.0502,34.5833],[136.0633,34.5662],[136.0741,34.5644],[136.0928,34.5555],[136.1025,34.553],[136.107,34.5503],[136.116,34.5448],[136.1365,34.5518],[136.1481,34.5533],[136.1571,34.5562],[136.1617,34.559],[136.1719,34.5607],[136.1989,34.5665],[136.1955,34.5943],[136.1895,34.6076],[136.185,34.6242],[136.1823,34.6314],[136.1784,34.6367],[136.1661,34.6451],[136.1612,34.6465],[136.157,34.6501],[136.155,34.6595],[136.1528,34.6628],[136.1388,34.665],[136.1348,34.6678],[136.1321,34.6763],[136.1296,34.6786],[136.1257,34.6774],[136.12,34.6715],[136.108,34.6697],[136.0978,34.6712],[136.0938,34.6728],[136.0908,34.6676],[136.0852,34.6613],[136.0814,34.6594]]]}},{"type":"Feature","properties":{"id":24017},"geometry":{"type":"Polygon","coordinates":[[[136.2809,34.2702],[136.2869,34.2775],[136.2949,34.2828],[136.3032,34.2906],[136.3112,34.2958],[136.3253,34.3103],[136.3298,34.3116],[136.3514,34.3132],[136.3572,34.3144],[136.3614,34.3178],[136.3783,34.3357],[136.3817,34.3388],[136.406,34.3482],[136.4164,34.3551],[136.4197,34.3585],[136.4238,34.3716],[136.4249,34.3826],[136.428,34.3852],[136.4336,34.3826],[136.4346,34.3772],[136.4374,34.3718],[136.4449,34.3664],[136.4508,34.3668],[136.4532,34.369],[136.4568,34.3832],[136.4659,34.3944],[136.4691,34.3967],[136.4807,34.3991],[136.5038,34.4116],[136.5093,34.4137],[136.5257,34.4224],[136.537,34.427],[136.5498,34.4392],[136.5576,34.4435],[136.5534,34.4482],[136.5455,34.4536],[136.5396,34.4551],[136.5225,34.4538],[136.5153,34.4513],[136.5003,34.4422],[136.4906,34.4384],[136.4821,34.4365],[136.4735,34.433],[136.4645,34.4248],[136.4547,34.418],[136.4455,34.414],[136.4325,34.4112],[136.4101,34.4107],[136.4021,34.4127],[136.3994,34.4105],[136.3819,34.4027],[136.3754,34.4017],[136.3647,34.4035],[136.3395,34.4031],[136.2966,34.3995],[136.2864,34.3972],[136.2784,34.3921],[136.2749,34.3878],[136.2714,34.3708],[136.2678,34.3667],[136.25,34.3576],[136.2375,34.3492],[136.2321,34.3471],[136.2165,34.3389],[136.2037,34.333],[136.1943,34.3232],[136.1902,34.3166],[136.1849,34.3148],[136.1738,34.315],[136.1471,34.3128],[136.1318,34.3137],[136.1242,34.3071],[136.098,34.2985],[136.1002,34.2885],[136.1078,34.2803],[136.1167,34.2741],[136.1237,34.2663],[136.125,34.256],[136.1331,34.2499],[136.125,34.2355],[136.116,34.2209],[136.1211,34.211],[136.1107,34.2071],[136.0963,34.1925],[136.1013,34.1834],[136.1113,34.1817],[136.1085,34.172],[136.1151,34.1639],[136.1149,34.1614],[136.1274,34.172],[136.1346,34.1759],[136.1534,34.1833],[136.1617,34.1851],[136.1756,34.1853],[136.1799,34.1869],[136.2084,34.2166],[136.2125,34.2237],[136.225,34.2367],[136.236,34.2423],[136.247,34.2452],[136.261,34.2604],[136.2656,34.2626],[136.2713,34.2675],[136.2773,34.2702],[136.2809,34.2702]]]}},{"type":"Feature","properties":{"id":24018},"geometry":{"type":"MultiPolygon","coordinates":[[[[136.2308,34.097],[136.2306,34.0957],[136.2104,34.0935],[136.192,34.0936],[136.1833,34.0952],[136.1778,34.0974],[136.1663,34.1054],[136.1593,34.1114],[136.1554,34.1134],[136.1467,34.1146],[136.1254,34.1151],[136.1095,34.1159],[136.1093,34.1185],[136.1075,34.1109],[136.1105,34.1],[136.1089,34.0899],[136.0967,34.0786],[136.0979,34.067],[136.0966,34.0536],[136.0981,34.0434],[136.1039,34.0337],[136.1038,34.0225],[136.1202,34.0184],[136.1285,34.0186],[136.1366,34.0214],[136.1425,34.0216],[136.1469,34.0184],[136.1486,34.012],[136.1431,34.0037],[136.1427,33.9962],[136.1461,33.9667],[136.1474,33.9618],[136.1555,33.9505],[136.1592,33.9476],[136.1656,33.9476],[136.1741,33.951],[136.1787,33.9502],[136.1864,33.9467],[136.2017,33.9436],[136.212,33.9387],[136.2089,33.9317],[136.2176,33.9342],[136.2153,33.9375],[136.2206,33.9411],[136.2172,33.9469],[136.2313,33.9462],[136.2286,33.9494],[136.2289,33.9558],[136.2261,33.9572],[136.2247,33.9619],[136.2278,33.9639],[136.2247,33.9672],[136.2197,33.9672],[136.2222,33.9744],[136.2175,33.9746],[136.2131,33.9696],[136.2082,33.969],[136.2028,33.9636],[136.1997,33.9642],[136.195,33.9683],[136.1933,33.9728],[136.2025,33.9711],[136.2075,33.9753],[136.2108,33.9817],[136.215,33.9825],[136.2117,34],[136.2167,34.0012],[136.2193,33.9944],[136.2263,33.9889],[136.2314,33.9871],[136.2489,33.985],[136.247,33.981],[136.24,33.9831],[136.2355,33.9815],[136.2366,33.9763],[136.2345,33.9733],[136.2388,33.9684],[136.2417,33.9702],[136.2498,33.9719],[136.2561,33.9678],[136.2636,33.9669],[136.2661,33.9708],[136.2722,33.9717],[136.2722,33.9783],[136.2703,33.9828],[136.2733,33.9881],[136.2655,33.9931],[136.2672,34],[136.27,34.0008],[136.276,34.008],[136.2658,34.0069],[136.265,34.005],[136.2569,34.0056],[136.2569,34.0111],[136.2642,34.0111],[136.2753,34.0172],[136.2817,34.0186],[136.2817,34.0228],[136.2742,34.0264],[136.2728,34.0292],[136.2667,34.0317],[136.2583,34.0328],[136.2519,34.0378],[136.245,34.0383],[136.2461,34.0419],[136.2442,34.0511],[136.2442,34.06],[136.2503,34.0597],[136.2489,34.0639],[136.2266,34.0658],[136.2261,34.0638],[136.2198,34.0632],[136.2175,34.0653],[136.2117,34.0656],[136.2047,34.0708],[136.2022,34.0769],[136.2169,34.0786],[136.2225,34.0814],[136.2267,34.0814],[136.2278,34.085],[136.2361,34.0858],[136.2378,34.0878],[136.2308,34.097]]],[[[136.3062,34.1073],[136.2935,34.1063],[136.2876,34.1048],[136.2705,34.0948],[136.2671,34.1],[136.2648,34.0973],[136.2656,34.0935],[136.2703,34.0911],[136.2723,34.0862],[136.2775,34.085],[136.2817,34.0889],[136.2811,34.0947],[136.2931,34.0928],[136.2953,34.0859],[136.3014,34.0925],[136.3041,34.1032],[136.3062,34.1073]]]]}},{"type":"Feature","properties":{"id":24019},"geometry":{"type":"MultiPolygon","coordinates":[[[[136.8275,34.2936],[136.8256,34.3],[136.8194,34.2972],[136.8197,34.2947],[136.8144,34.2931],[136.8083,34.2872],[136.8128,34.2864],[136.8175,34.2886],[136.8267,34.2875],[136.8322,34.2911],[136.8275,34.2936]]],[[[136.8783,34.3661],[136.8769,34.3675],[136.8697,34.3669],[136.8661,34.3647],[136.8739,34.3572],[136.8772,34.3594],[136.8783,34.3661]]],[[[136.7827,34.4328],[136.7691,34.4226],[136.7598,34.4164],[136.7551,34.4143],[136.7486,34.4079],[136.746,34.3999],[136.7453,34.3921],[136.7434,34.3868],[136.7428,34.376],[136.7461,34.3461],[136.7454,34.3363],[136.7416,34.3272],[136.7329,34.3105],[136.7143,34.3042],[136.7083,34.2995],[136.7057,34.2936],[136.7128,34.2933],[136.7128,34.2994],[136.7164,34.3025],[136.7253,34.3039],[136.7294,34.3011],[136.7394,34.3011],[136.7519,34.2928],[136.7564,34.2953],[136.7647,34.2925],[136.7606,34.3006],[136.7661,34.3044],[136.7669,34.3117],[136.7747,34.3056],[136.7725,34.3025],[136.7728,34.2958],[136.7811,34.295],[136.7803,34.2906],[136.7917,34.2883],[136.7981,34.2894],[136.8017,34.295],[136.8108,34.2967],[136.812,34.2989],[136.8047,34.3061],[136.8008,34.3083],[136.7994,34.3122],[136.8033,34.3161],[136.7989,34.3183],[136.8054,34.3207],[136.8047,34.3108],[136.81,34.3089],[136.8139,34.3039],[136.8225,34.3042],[136.8264,34.3078],[136.8358,34.3075],[136.8272,34.3033],[136.8272,34.3006],[136.8311,34.2964],[136.8411,34.2953],[136.845,34.2975],[136.8481,34.2908],[136.8514,34.2889],[136.8647,34.2908],[136.8636,34.2858],[136.8556,34.2858],[136.8478,34.2878],[136.8422,34.2914],[136.8367,34.2928],[136.8336,34.2906],[136.8342,34.2858],[136.8319,34.2839],[136.8304,34.2754],[136.8331,34.2703],[136.8389,34.2706],[136.8519,34.2786],[136.8553,34.2722],[136.8492,34.2728],[136.8433,34.2672],[136.8397,34.2689],[136.83,34.2664],[136.8275,34.2722],[136.8178,34.2739],[136.8183,34.2704],[136.8086,34.2739],[136.8039,34.2724],[136.7981,34.2767],[136.7844,34.2786],[136.7804,34.2762],[136.7756,34.2783],[136.7655,34.2786],[136.7606,34.2728],[136.7525,34.2727],[136.7522,34.2692],[136.7594,34.2692],[136.765,34.2636],[136.7748,34.2581],[136.7786,34.2603],[136.7903,34.2572],[136.7972,34.2544],[136.8067,34.2544],[136.8198,34.2503],[136.827,34.2508],[136.8328,34.2525],[136.8406,34.2522],[136.8475,34.2494],[136.8489,34.2586],[136.8553,34.2622],[136.8658,34.2631],[136.8692,34.2617],[136.8731,34.2656],[136.8689,34.27],[136.87,34.2731],[136.8781,34.2728],[136.8864,34.2736],[136.8883,34.2758],[136.8972,34.2764],[136.8999,34.2776],[136.8983,34.2839],[136.8953,34.2872],[136.895,34.2919],[136.89,34.2942],[136.8844,34.2994],[136.8881,34.3025],[136.8869,34.3061],[136.8925,34.3131],[136.8833,34.3203],[136.8788,34.3259],[136.8776,34.3303],[136.8782,34.3399],[136.8831,34.3456],[136.8856,34.3447],[136.8936,34.3522],[136.8964,34.3522],[136.9017,34.3558],[136.9025,34.3597],[136.9055,34.3611],[136.8921,34.3653],[136.8811,34.3592],[136.8722,34.3533],[136.8699,34.3452],[136.8656,34.3442],[136.8661,34.3513],[136.8708,34.3569],[136.8653,34.3617],[136.8525,34.3614],[136.8539,34.3669],[136.8492,34.3697],[136.84,34.3633],[136.8419,34.3606],[136.8364,34.3556],[136.8247,34.3528],[136.8194,34.3597],[136.8186,34.3639],[136.8286,34.3647],[136.8342,34.3614],[136.8406,34.3672],[136.8445,34.3675],[136.8475,34.3719],[136.8531,34.3706],[136.8564,34.3669],[136.8664,34.3678],[136.8719,34.3706],[136.8772,34.3714],[136.8747,34.3797],[136.8724,34.3834],[136.8612,34.3808],[136.8562,34.3887],[136.8526,34.3998],[136.8454,34.404],[136.8371,34.4036],[136.8324,34.4014],[136.8266,34.4011],[136.8201,34.4052],[136.8079,34.4113],[136.7964,34.4194],[136.7904,34.4261],[136.7827,34.4328]]]]}},{"type":"Feature","properties":{"id":24020},"geometry":{"type":"Polygon","coordinates":[[[136.506,34.7964],[136.5142,34.7995],[136.522,34.8009],[136.54,34.8012],[136.5527,34.8081],[136.5582,34.8095],[136.5751,34.8098],[136.585,34.8192],[136.5908,34.8258],[136.5964,34.8283],[136.5942,34.8314],[136.6047,34.8428],[136.6158,34.8529],[136.6144,34.8539],[136.6253,34.8697],[136.6344,34.8819],[136.6336,34.8867],[136.6382,34.8965],[136.6231,34.9037],[136.6057,34.9107],[136.5976,34.9122],[136.585,34.9114],[136.5751,34.9125],[136.5248,34.935],[136.5104,34.9419],[136.5026,34.9451],[136.4805,34.9551],[136.4739,34.9594],[136.465,34.9631],[136.4553,34.9698],[136.4395,34.9749],[136.4228,34.9764],[136.4146,34.9763],[136.4131,34.9724],[136.4055,34.9628],[136.4116,34.9563],[136.4272,34.9275],[136.4306,34.9245],[136.4495,34.9111],[136.4536,34.9089],[136.4595,34.9088],[136.4783,34.9133],[136.4829,34.9125],[136.4943,34.9045],[136.498,34.896],[136.5017,34.862],[136.5001,34.8486],[136.4998,34.8345],[136.5014,34.8218],[136.5062,34.8032],[136.506,34.7964]]]}},{"type":"Feature","properties":{"id":24021},"geometry":{"type":"Polygon","coordinates":[[[136.2809,34.2702],[136.2903,34.269],[136.3002,34.2665],[136.3027,34.2634],[136.3049,34.2489],[136.3068,34.2435],[136.3114,34.2414],[136.3221,34.2401],[136.3344,34.2402],[136.3476,34.2385],[136.3555,34.2348],[136.3693,34.2212],[136.3731,34.2158],[136.3737,34.2113],[136.3717,34.1967],[136.3769,34.2],[136.3783,34.2042],[136.3853,34.2075],[136.385,34.2114],[136.3897,34.2181],[136.3986,34.2153],[136.3922,34.2117],[136.396,34.2083],[136.3988,34.2029],[136.4026,34.206],[136.41,34.2067],[136.4164,34.2119],[136.422,34.2144],[136.4261,34.2139],[136.4269,34.2172],[136.4382,34.2211],[136.4344,34.2295],[136.4321,34.2323],[136.4233,34.2465],[136.4224,34.2517],[136.4251,34.2585],[136.4301,34.2643],[136.4373,34.2784],[136.4413,34.2816],[136.4505,34.2844],[136.4574,34.2884],[136.4592,34.2936],[136.4599,34.3088],[136.4612,34.316],[136.4641,34.319],[136.4819,34.3238],[136.493,34.3254],[136.5016,34.3275],[136.513,34.3317],[136.5171,34.3375],[136.5208,34.3465],[136.5252,34.3548],[136.5257,34.3796],[136.5279,34.3888],[136.5341,34.4011],[136.537,34.427],[136.5257,34.4224],[136.5093,34.4137],[136.5038,34.4116],[136.4807,34.3991],[136.4691,34.3967],[136.4659,34.3944],[136.4568,34.3832],[136.4532,34.369],[136.4508,34.3668],[136.4449,34.3664],[136.4374,34.3718],[136.4346,34.3772],[136.4336,34.3826],[136.428,34.3852],[136.4249,34.3826],[136.4238,34.3716],[136.4197,34.3585],[136.4164,34.3551],[136.406,34.3482],[136.3817,34.3388],[136.3783,34.3357],[136.3614,34.3178],[136.3572,34.3144],[136.3514,34.3132],[136.3298,34.3116],[136.3253,34.3103],[136.3112,34.2958],[136.3032,34.2906],[136.2949,34.2828],[136.2869,34.2775],[136.2809,34.2702]]]}},{"type":"Feature","properties":{"id":24022},"geometry":{"type":"Polygon","coordinates":[[[136.4021,34.4127],[136.4101,34.4107],[136.4325,34.4112],[136.4455,34.414],[136.4547,34.418],[136.4645,34.4248],[136.4735,34.433],[136.4821,34.4365],[136.4906,34.4384],[136.5003,34.4422],[136.5153,34.4513],[136.5225,34.4538],[136.5396,34.4551],[136.5455,34.4536],[136.5534,34.4482],[136.5576,34.4435],[136.5684,34.4485],[136.5746,34.4522],[136.5826,34.4679],[136.5862,34.4772],[136.5912,34.4828],[136.5957,34.4903],[136.6003,34.4955],[136.6029,34.5008],[136.5991,34.5055],[136.5936,34.5098],[136.5846,34.5202],[136.5729,34.5165],[136.5521,34.5137],[136.5474,34.5115],[136.5345,34.5095],[136.526,34.5069],[136.5059,34.5048],[136.4999,34.5029],[136.4928,34.4903],[136.4868,34.4869],[136.4798,34.486],[136.4227,34.4816],[136.4173,34.4805],[136.4145,34.4776],[136.4143,34.472],[136.4176,34.4509],[136.4222,34.4398],[136.4212,34.4359],[136.4124,34.4232],[136.4021,34.4127]]]}},{"type":"Feature","properties":{"id":24023},"geometry":{"type":"Polygon","coordinates":[[[136.6437,34.5129],[136.6322,34.5116],[136.6071,34.5019],[136.6029,34.5008],[136.6003,34.4955],[136.5957,34.4903],[136.5912,34.4828],[136.5862,34.4772],[136.5826,34.4679],[136.5746,34.4522],[136.5829,34.4495],[136.5879,34.449],[136.6093,34.449],[136.6162,34.4475],[136.6277,34.4394],[136.6317,34.4343],[136.6483,34.4509],[136.653,34.4562],[136.6566,34.4638],[136.6572,34.4704],[136.6594,34.4755],[136.6583,34.4863],[136.6504,34.4997],[136.6488,34.5048],[136.6437,34.5129]]]}},{"type":"Feature","properties":{"id":24024},"geometry":{"type":"MultiPolygon","coordinates":[[[[136.82,34.4848],[136.8145,34.4781],[136.8061,34.4709],[136.8015,34.4687],[136.7978,34.465],[136.7921,34.4554],[136.7908,34.4504],[136.7866,34.443],[136.7827,34.4328],[136.7904,34.4261],[136.7964,34.4194],[136.8079,34.4113],[136.8201,34.4052],[136.8266,34.4011],[136.8324,34.4014],[136.8371,34.4036],[136.8454,34.404],[136.8526,34.3998],[136.8562,34.3887],[136.8612,34.3808],[136.8724,34.3834],[136.8781,34.3828],[136.8944,34.3897],[136.8992,34.3864],[136.8989,34.3781],[136.907,34.3756],[136.9131,34.3758],[136.9142,34.3797],[136.9086,34.3834],[136.9103,34.3931],[136.9097,34.3981],[136.9144,34.4003],[136.9272,34.4142],[136.9247,34.42],[136.9197,34.4239],[136.9194,34.4269],[136.9236,34.43],[136.9233,34.44],[136.9253,34.4436],[136.9197,34.4456],[136.9128,34.4544],[136.9086,34.4515],[136.8964,34.4533],[136.8914,34.4481],[136.8867,34.445],[136.8844,34.45],[136.8753,34.4508],[136.8755,34.4536],[136.8694,34.455],[136.8703,34.4611],[136.8733,34.4628],[136.8714,34.4664],[136.8761,34.4753],[136.8692,34.4747],[136.8628,34.4808],[136.8583,34.4781],[136.8489,34.4806],[136.8456,34.4853],[136.8453,34.4894],[136.8383,34.4942],[136.8356,34.5011],[136.8389,34.5064],[136.8247,34.5053],[136.8244,34.5006],[136.828,34.4931],[136.8213,34.4874],[136.82,34.4848]]],[[[136.8639,34.4897],[136.8595,34.4911],[136.8517,34.4886],[136.8533,34.4842],[136.8569,34.4819],[136.8639,34.4853],[136.8639,34.4897]]],[[[136.8978,34.46],[136.8915,34.458],[136.8955,34.4553],[136.8978,34.46]]],[[[136.9089,34.4986],[136.9097,34.5033],[136.9033,34.5031],[136.9011,34.4997],[136.8922,34.4964],[136.8842,34.4956],[136.8769,34.4936],[136.8722,34.4861],[136.8806,34.4836],[136.8811,34.4808],[136.8856,34.4761],[136.8903,34.4825],[136.8961,34.4842],[136.8997,34.4892],[136.9067,34.4897],[136.9064,34.4928],[136.9089,34.4986]]],[[[136.8464,34.52],[136.8364,34.5181],[136.8406,34.5158],[136.8464,34.52]]],[[[136.9015,34.5344],[136.901,34.5376],[136.8886,34.5342],[136.8844,34.53],[136.8811,34.5311],[136.8721,34.5272],[136.8721,34.5196],[136.8696,34.5177],[136.8638,34.5189],[136.8533,34.5167],[136.8514,34.5125],[136.8481,34.5114],[136.8464,34.5077],[136.8534,34.506],[136.8633,34.5067],[136.8669,34.5103],[136.8736,34.511],[136.8786,34.515],[136.8839,34.5147],[136.8883,34.5175],[136.8931,34.5228],[136.8995,34.5217],[136.9061,34.5294],[136.9025,34.5308],[136.9015,34.5344]]],[[[136.9819,34.54],[136.9878,34.5464],[136.9875,34.5506],[136.9806,34.5514],[136.9758,34.5469],[136.9811,34.5433],[136.9819,34.54]]]]}},{"type":"Feature","properties":{"id":24025},"geometry":{"type":"Polygon","coordinates":[[[136.5729,35.0527],[136.582,35.05],[136.5944,35.0472],[136.6001,35.0553],[136.6038,35.0646],[136.6122,35.0832],[136.6167,35.0916],[136.6161,35.0961],[136.6086,35.1015],[136.5982,35.1042],[136.583,35.0927],[136.5708,35.0804],[136.5703,35.0759],[136.5729,35.0527]]]}},{"type":"Feature","properties":{"id":24026},"geometry":{"type":"Polygon","coordinates":[[[136.1989,34.5665],[136.1719,34.5607],[136.1617,34.559],[136.1571,34.5562],[136.1635,34.5461],[136.1716,34.5361],[136.1733,34.5259],[136.1795,34.5165],[136.1811,34.5141],[136.1908,34.5197],[136.2143,34.5251],[136.2214,34.5165],[136.2212,34.506],[136.2222,34.4935],[136.229,34.4848],[136.2188,34.478],[136.2105,34.4564],[136.2168,34.4602],[136.2257,34.4554],[136.2558,34.456],[136.2723,34.4589],[136.2775,34.4613],[136.313,34.4666],[136.3289,34.4697],[136.333,34.4734],[136.337,34.4831],[136.3415,34.489],[136.3475,34.502],[136.3507,34.5203],[136.3514,34.5367],[136.3544,34.5455],[136.3605,34.5572],[136.3648,34.5623],[136.3777,34.5878],[136.3822,34.5935],[136.3932,34.6138],[136.4038,34.6191],[136.4117,34.6242],[136.4205,34.626],[136.4339,34.6201],[136.4391,34.6225],[136.4456,34.6352],[136.4512,34.639],[136.461,34.641],[136.4671,34.6436],[136.477,34.6451],[136.5018,34.647],[136.5077,34.6479],[136.5189,34.6554],[136.524,34.6599],[136.537,34.6679],[136.537,34.6607],[136.5453,34.665],[136.5547,34.6672],[136.5572,34.6719],[136.5539,34.6761],[136.5496,34.6712],[136.5435,34.674],[136.547,34.6803],[136.5414,34.6831],[136.5372,34.6792],[136.5303,34.6839],[136.5256,34.6811],[136.5231,34.6842],[136.5211,34.6939],[136.522,34.7043],[136.5244,34.7094],[136.5256,34.7172],[136.5283,34.7228],[136.5272,34.7308],[136.5333,34.7511],[136.5408,34.7669],[136.5486,34.7797],[136.5556,34.7886],[136.5678,34.8011],[136.57,34.8058],[136.5751,34.8098],[136.5582,34.8095],[136.5527,34.8081],[136.54,34.8012],[136.522,34.8009],[136.5142,34.7995],[136.506,34.7964],[136.5015,34.7967],[136.4838,34.8059],[136.4643,34.8143],[136.4528,34.8223],[136.4431,34.8318],[136.439,34.8344],[136.4252,34.8394],[136.4127,34.8403],[136.4036,34.8384],[136.3861,34.8367],[136.3773,34.8345],[136.3712,34.8319],[136.3602,34.8206],[136.3552,34.819],[136.3449,34.8213],[136.337,34.8197],[136.3294,34.8122],[136.3212,34.8086],[136.3224,34.7894],[136.3237,34.7856],[136.3301,34.7803],[136.3375,34.7726],[136.3383,34.7676],[136.3325,34.7559],[136.3184,34.7413],[136.3175,34.7362],[136.3231,34.7257],[136.3225,34.7219],[136.3159,34.7159],[136.3112,34.7137],[136.3061,34.7092],[136.2922,34.7018],[136.2816,34.6971],[136.2777,34.6931],[136.2754,34.6847],[136.2726,34.6634],[136.2675,34.6528],[136.2627,34.6472],[136.261,34.643],[136.253,34.6342],[136.2501,34.6285],[136.2496,34.6241],[136.2513,34.6164],[136.2594,34.6001],[136.2595,34.5951],[136.2569,34.5912],[136.2472,34.5821],[136.2422,34.5784],[136.2357,34.5765],[136.2237,34.5651],[136.2162,34.5642],[136.1989,34.5665]]]}},{"type":"Feature","properties":{"id":24027},"geometry":{"type":"Polygon","coordinates":[[[136.6317,34.4343],[136.6277,34.4394],[136.6162,34.4475],[136.6093,34.449],[136.5879,34.449],[136.5829,34.4495],[136.5746,34.4522],[136.5684,34.4485],[136.5576,34.4435],[136.5498,34.4392],[136.537,34.427],[136.5341,34.4011],[136.5279,34.3888],[136.5257,34.3796],[136.5252,34.3548],[136.5208,34.3465],[136.5171,34.3375],[136.513,34.3317],[136.5203,34.3279],[136.5313,34.3247],[136.5574,34.3158],[136.5695,34.314],[136.5852,34.3139],[136.5927,34.3162],[136.6021,34.3258],[136.6067,34.3335],[136.6112,34.3392],[136.6171,34.3523],[136.6192,34.3634],[136.6196,34.3734],[136.6223,34.3795],[136.6254,34.3829],[136.6442,34.3976],[136.6403,34.4052],[136.6369,34.4238],[136.6317,34.4343]]]}},{"type":"Feature","properties":{"id":24028},"geometry":{"type":"MultiPolygon","coordinates":[[[[136.6487,35.0149],[136.6456,35.021],[136.6363,35.028],[136.6282,35.0355],[136.5944,35.0472],[136.582,35.05],[136.5729,35.0527],[136.5562,35.0596],[136.5454,35.0657],[136.5388,35.0551],[136.5357,35.0463],[136.54,35.0382],[136.544,35.0351],[136.5548,35.0309],[136.5563,35.0271],[136.5538,35.0232],[136.5404,35.0159],[136.5273,35.0067],[136.5173,35.0013],[136.5061,34.9973],[136.4906,34.9943],[136.4609,34.9919],[136.4352,34.9941],[136.4205,34.9927],[136.4146,34.9763],[136.4228,34.9764],[136.4395,34.9749],[136.4553,34.9698],[136.465,34.9631],[136.4739,34.9594],[136.4805,34.9551],[136.5026,34.9451],[136.5104,34.9419],[136.5248,34.935],[136.5751,34.9125],[136.585,34.9114],[136.5976,34.9122],[136.6057,34.9107],[136.6231,34.9037],[136.6382,34.8965],[136.6447,34.9025],[136.6478,34.9078],[136.6444,34.9156],[136.6461,34.9214],[136.6447,34.9256],[136.6458,34.9294],[136.6414,34.9336],[136.6531,34.9369],[136.6579,34.9456],[136.6492,34.9467],[136.6436,34.9428],[136.6386,34.9436],[136.6381,34.9483],[136.6414,34.9489],[136.6436,34.9531],[136.6431,34.9586],[136.6461,34.9586],[136.6473,34.965],[136.6508,34.9744],[136.6462,34.9777],[136.6504,34.9877],[136.6503,34.9903],[136.6558,34.9981],[136.6653,35.0031],[136.6657,35.005],[136.6487,35.0149]]],[[[136.6665,34.9908],[136.6572,34.9944],[136.6525,34.9925],[136.6507,34.9763],[136.6552,34.9744],[136.6656,34.9725],[136.6716,34.9813],[136.6779,34.9871],[136.6665,34.9908]]]]}}]}