{"type":"FeatureCollection","features":[{"type":"Feature","properties":{"id":25001},"geometry":{"type":"Polygon","coordinates":[[[136.3378,35.1441],[136.329,35.1506],[136.3219,35.1539],[136.3118,35.157],[136.3019,35.1612],[136.3005,35.1695],[136.2981,35.1753],[136.2938,35.1794],[136.2823,35.1774],[136.2797,35.1779],[136.2617,35.1859],[136.2594,35.1863],[136.2489,35.1885],[136.2383,35.1896],[136.2357,35.1877],[136.2365,35.1816],[136.2306,35.1801],[136.2216,35.1845],[136.2117,35.1956],[136.1963,35.191],[136.1915,35.1876],[136.1994,35.1745],[136.206,35.1542],[136.2138,35.1349],[136.2175,35.1347],[136.2292,35.1393],[136.2345,35.1444],[136.2364,35.1499],[136.2334,35.1531],[136.237,35.157],[136.2427,35.1575],[136.2549,35.1566],[136.265,35.1544],[136.2756,35.1502],[136.2943,35.1498],[136.3057,35.152],[136.3142,35.1511],[136.3184,35.1489],[136.3265,35.1423],[136.3328,35.1414],[136.3378,35.1441]]]}},{"type":"Feature","properties":{"id":25002},"geometry":{"type":"Polygon","coordinates":[[[136.1626,35.108],[136.1705,35.1088],[136.1743,35.1105],[136.1784,35.1189],[136.1841,35.1215],[136.1849,35.1245],[136.1604,35.1451],[136.1488,35.1552],[136.1458,35.1592],[136.1324,35.1706],[136.1285,35.1712],[136.1118,35.1698],[136.1203,35.163],[136.1199,35.16],[136.1152,35.1569],[136.1096,35.155],[136.114,35.1513],[136.1237,35.1414],[136.125,35.1384],[136.1325,35.1276],[136.1381,35.1212],[136.1561,35.111],[136.1626,35.108]]]}},{"type":"Feature","properties":{"id":25003},"geometry":{"type":"Polygon","coordinates":[[[136.4187,35.186],[136.4086,35.1906],[136.3967,35.1945],[136.3942,35.1939],[136.3778,35.1804],[136.3767,35.1769],[136.3768,35.166],[136.3793,35.1623],[136.3845,35.1598],[136.3907,35.1547],[136.3914,35.152],[136.388,35.1405],[136.3845,35.1376],[136.3607,35.1281],[136.3586,35.1279],[136.3411,35.1422],[136.3378,35.1441],[136.3328,35.1414],[136.3265,35.1423],[136.3184,35.1489],[136.3142,35.1511],[136.3057,35.152],[136.2943,35.1498],[136.2756,35.1502],[136.265,35.1544],[136.2549,35.1566],[136.2427,35.1575],[136.237,35.157],[136.2334,35.1531],[136.2364,35.1499],[136.2345,35.1444],[136.2292,35.1393],[136.2175,35.1347],[136.2138,35.1349],[136.206,35.1542],[136.1994,35.1745],[136.1915,35.1876],[136.1809,35.194],[136.1736,35.1999],[136.17,35.2014],[136.1579,35.2031],[136.148,35.2058],[136.1318,35.211],[136.1233,35.216],[136.1184,35.2139],[136.1165,35.2092],[136.1151,35.2006],[136.1093,35.1976],[136.1014,35.1985],[136.104,35.193],[136.1056,35.1823],[136.1118,35.1698],[136.1285,35.1712],[136.1324,35.1706],[136.1458,35.1592],[136.1488,35.1552],[136.1604,35.1451],[136.1849,35.1245],[136.1841,35.1215],[136.1784,35.1189],[136.1743,35.1105],[136.1705,35.1088],[136.1626,35.108],[136.1581,35.1066],[136.1413,35.1035],[136.134,35.0984],[136.1341,35.0958],[136.1436,35.0767],[136.1482,35.0716],[136.1524,35.0676],[136.1523,35.0635],[136.1485,35.0574],[136.1498,35.0552],[136.1574,35.0516],[136.1551,35.0423],[136.1628,35.0291],[136.1656,35.026],[136.1683,35.0211],[136.1764,35.0159],[136.1826,35.0152],[136.1927,35.0214],[136.2018,35.0217],[136.2068,35.0235],[136.2142,35.0292],[136.223,35.0313],[136.2259,35.0356],[136.2217,35.0414],[136.2225,35.0527],[136.2264,35.057],[136.2359,35.0618],[136.2416,35.0636],[136.2542,35.065],[136.2659,35.0557],[136.2695,35.0551],[136.2905,35.0548],[136.306,35.0513],[136.321,35.0386],[136.3338,35.0324],[136.3436,35.0178],[136.345,35.0144],[136.3564,35.0164],[136.3629,35.0168],[136.3743,35.0128],[136.3831,35.0169],[136.3934,35.0167],[136.4131,35.0128],[136.4213,35.0121],[136.421,35.0149],[136.4254,35.0246],[136.4194,35.0335],[136.4209,35.0448],[136.4274,35.0536],[136.4373,35.0588],[136.4438,35.0667],[136.4399,35.0745],[136.4393,35.0758],[136.4422,35.0917],[136.4447,35.1021],[136.4429,35.1137],[136.4481,35.1229],[136.4387,35.128],[136.446,35.1359],[136.4477,35.1465],[136.4577,35.1492],[136.4572,35.1598],[136.4399,35.17],[136.4327,35.178],[136.422,35.1795],[136.4187,35.186]]]}},{"type":"Feature","properties":{"id":25004},"geometry":{"type":"Polygon","coordinates":[[[136.2117,35.1956],[136.2174,35.2018],[136.2203,35.2071],[136.225,35.2117],[136.2285,35.2131],[136.2438,35.2073],[136.2535,35.2151],[136.256,35.2216],[136.2643,35.2261],[136.2777,35.2261],[136.2807,35.23],[136.2809,35.235],[136.2834,35.238],[136.301,35.2432],[136.305,35.2465],[136.3121,35.2566],[136.3238,35.2618],[136.3359,35.2643],[136.343,35.2645],[136.3503,35.267],[136.357,35.2724],[136.3517,35.278],[136.3369,35.2912],[136.3318,35.2916],[136.328,35.2894],[136.3236,35.2821],[136.318,35.283],[136.3117,35.2914],[136.3017,35.2986],[136.2837,35.2946],[136.2678,35.2959],[136.2608,35.2972],[136.2564,35.2899],[136.2383,35.2718],[136.2319,35.2667],[136.2182,35.259],[136.1944,35.2462],[136.1719,35.236],[136.1559,35.2257],[136.148,35.2215],[136.1422,35.2172],[136.1374,35.2154],[136.1233,35.216],[136.1318,35.211],[136.148,35.2058],[136.1579,35.2031],[136.17,35.2014],[136.1736,35.1999],[136.1809,35.194],[136.1915,35.1876],[136.1963,35.191],[136.2117,35.1956]]]}},{"type":"Feature","properties":{"id":25005},"geometry":{"type":"Polygon","coordinates":[[[136.1826,35.0152],[136.1859,35.0028],[136.188,34.9993],[136.204,34.9859],[136.2202,34.9816],[136.2231,34.9746],[136.227,34.9682],[136.2356,34.9593],[136.2506,34.9529],[136.2639,34.9524],[136.2772,34.9575],[136.2814,34.9606],[136.2908,34.9713],[136.3024,34.9775],[136.3102,34.9807],[136.3132,34.9806],[136.3201,34.9766],[136.3285,34.9779],[136.3426,34.9842],[136.3482,34.9963],[136.345,35.0144],[136.3436,35.0178],[136.3338,35.0324],[136.321,35.0386],[136.306,35.0513],[136.2905,35.0548],[136.2695,35.0551],[136.2659,35.0557],[136.2542,35.065],[136.2416,35.0636],[136.2359,35.0618],[136.2264,35.057],[136.2225,35.0527],[136.2217,35.0414],[136.2259,35.0356],[136.223,35.0313],[136.2142,35.0292],[136.2068,35.0235],[136.2018,35.0217],[136.1927,35.0214],[136.1826,35.0152]]]}},{"type":"Feature","properties":{"id":25006},"geometry":{"type":"Polygon","coordinates":[[[136.2924,35.6171],[136.2913,35.6101],[136.2836,35.6071],[136.2741,35.6014],[136.2657,35.5975],[136.2604,35.5906],[136.2589,35.5822],[136.2565,35.5788],[136.2451,35.5697],[136.2438,35.5648],[136.2438,35.555],[136.2463,35.546],[136.243,35.5432],[136.2348,35.5405],[136.2319,35.5379],[136.2315,35.5285],[136.2294,35.5242],[136.2241,35.521],[136.2202,35.5149],[136.2166,35.5129],[136.2051,35.5116],[136.1981,35.5062],[136.1865,35.5085],[136.1792,35.5054],[136.1765,35.503],[136.1779,35.5014],[136.19,35.4971],[136.1941,35.4935],[136.1993,35.4834],[136.2104,35.4777],[136.2129,35.479],[136.2131,35.4872],[136.2146,35.492],[136.2202,35.4933],[136.2265,35.4878],[136.2327,35.487],[136.2356,35.489],[136.2421,35.4993],[136.2489,35.4999],[136.2579,35.4909],[136.2742,35.4876],[136.2828,35.4919],[136.2865,35.495],[136.2875,35.4988],[136.2875,35.5176],[136.2859,35.521],[136.285,35.5326],[136.2863,35.5349],[136.2944,35.5383],[136.3109,35.5389],[136.3243,35.5435],[136.3237,35.5477],[136.3197,35.5477],[136.3208,35.5581],[136.3256,35.5736],[136.3244,35.595],[136.3205,35.6044],[136.3257,35.6142],[136.3158,35.6198],[136.3063,35.6161],[136.2924,35.6171]]]}},{"type":"Feature","properties":{"id":25007},"geometry":{"type":"Polygon","coordinates":[[[136.2021,35.4229],[136.2122,35.4256],[136.2159,35.4296],[136.2207,35.4297],[136.2289,35.4245],[136.2481,35.4243],[136.2495,35.4359],[136.2526,35.4394],[136.262,35.4424],[136.2686,35.443],[136.283,35.4465],[136.281,35.4545],[136.2815,35.4584],[136.2867,35.4665],[136.2889,35.4751],[136.2867,35.4781],[136.2742,35.4876],[136.2599,35.4799],[136.2558,35.4747],[136.2507,35.463],[136.2427,35.4566],[136.2345,35.4551],[136.228,35.4525],[136.223,35.4485],[136.2138,35.4486],[136.2043,35.4524],[136.1941,35.4481],[136.192,35.4411],[136.1979,35.4296],[136.2021,35.4229]]]}},{"type":"Feature","properties":{"id":25008},"geometry":{"type":"Polygon","coordinates":[[[136.0253,34.7883],[136.0356,34.7904],[136.045,34.7957],[136.066,34.7975],[136.0753,34.8021],[136.0851,34.805],[136.0935,34.8114],[136.0939,34.822],[136.0902,34.8329],[136.1016,34.8364],[136.1098,34.842],[136.1135,34.8523],[136.1291,34.8591],[136.125,34.8696],[136.1149,34.8666],[136.1034,34.8673],[136.0937,34.8717],[136.0901,34.8823],[136.1007,34.886],[136.114,34.8986],[136.1187,34.889],[136.1304,34.8826],[136.1406,34.8849],[136.1498,34.8797],[136.172,34.8839],[136.1821,34.8833],[136.1889,34.875],[136.1988,34.8689],[136.2095,34.8654],[136.24,34.8571],[136.25,34.8556],[136.2614,34.8578],[136.2715,34.8619],[136.2788,34.8691],[136.2887,34.8687],[136.2969,34.8683],[136.3073,34.8718],[136.3162,34.8778],[136.3236,34.8865],[136.3335,34.889],[136.3598,34.8974],[136.3684,34.9028],[136.3743,34.9206],[136.3748,34.9312],[136.379,34.9414],[136.3873,34.9478],[136.3997,34.9544],[136.4055,34.9628],[136.4131,34.9724],[136.4146,34.9763],[136.4205,34.9927],[136.4229,35],[136.4213,35.0121],[136.4131,35.0128],[136.3934,35.0167],[136.3831,35.0169],[136.3743,35.0128],[136.3629,35.0168],[136.3564,35.0164],[136.345,35.0144],[136.3482,34.9963],[136.3426,34.9842],[136.3285,34.9779],[136.3201,34.9766],[136.3132,34.9806],[136.3102,34.9807],[136.3024,34.9775],[136.2908,34.9713],[136.2814,34.9606],[136.2772,34.9575],[136.2639,34.9524],[136.2506,34.9529],[136.2356,34.9593],[136.227,34.9682],[136.2231,34.9746],[136.2202,34.9816],[136.204,34.9859],[136.188,34.9993],[136.1859,35.0028],[136.1826,35.0152],[136.1764,35.0159],[136.1683,35.0211],[136.1656,35.026],[136.1611,35.0197],[136.1572,35.0184],[136.1513,35.0219],[136.1448,35.0153],[136.1424,35.0108],[136.1427,35.0033],[136.1396,34.9998],[136.1298,34.9968],[136.1294,34.9858],[136.1324,34.9768],[136.1374,34.9651],[136.1351,34.9575],[136.121,34.9462],[136.1123,34.9428],[136.1036,34.9473],[136.0912,34.9519],[136.084,34.9592],[136.0715,34.9616],[136.067,34.959],[136.0515,34.9469],[136.0499,34.9393],[136.0439,34.9276],[136.0475,34.9232],[136.0483,34.9182],[136.0455,34.9155],[136.0191,34.9126],[136.0116,34.9103],[135.9989,34.9026],[135.9928,34.8948],[135.9905,34.89],[135.99,34.8836],[135.9871,34.8794],[135.9829,34.8784],[135.9752,34.8814],[135.969,34.88],[135.9634,34.8727],[135.9459,34.8707],[135.9454,34.858],[135.9476,34.8525],[135.9491,34.8486],[135.9645,34.8507],[135.9733,34.8437],[135.9797,34.8352],[136,34.8412],[136.0056,34.8303],[136.0127,34.8227],[136.0231,34.8227],[136.0313,34.8162],[136.0298,34.815],[136.018,34.8052],[136.0171,34.7941],[136.0253,34.7883]]]}},{"type":"Feature","properties":{"id":25009},"geometry":{"type":"Polygon","coordinates":[[[136.1513,35.0219],[136.1458,35.0251],[136.1301,35.0318],[136.1228,35.0325],[136.1215,35.0292],[136.1261,35.0253],[136.1265,35.0189],[136.1206,35.0187],[136.1162,35.0227],[136.1107,35.0226],[136.102,35.0207],[136.0949,35.0246],[136.0898,35.0292],[136.0865,35.0424],[136.0798,35.0485],[136.0731,35.0521],[136.0644,35.0538],[136.0617,35.0473],[136.0608,35.0349],[136.0463,35.0247],[136.0419,35.014],[136.0437,35.0063],[136.0487,34.9987],[136.051,34.9919],[136.0522,34.9839],[136.0554,34.9765],[136.0611,34.9698],[136.0715,34.9616],[136.084,34.9592],[136.0912,34.9519],[136.1036,34.9473],[136.1123,34.9428],[136.121,34.9462],[136.1351,34.9575],[136.1374,34.9651],[136.1324,34.9768],[136.1294,34.9858],[136.1298,34.9968],[136.1396,34.9998],[136.1427,35.0033],[136.1424,35.0108],[136.1448,35.0153],[136.1513,35.0219]]]}},{"type":"Feature","properties":{"id":25010},"geometry":{"type":"Polygon","coordinates":[[[136.2938,35.1794],[136.2949,35.1914],[136.2927,35.1964],[136.2809,35.21],[136.2721,35.2175],[136.2643,35.2261],[136.256,35.2216],[136.2535,35.2151],[136.2438,35.2073],[136.2498,35.1984],[136.257,35.1903],[136.2594,35.1863],[136.2617,35.1859],[136.2797,35.1779],[136.2823,35.1774],[136.2938,35.1794]]]}},{"type":"Feature","properties":{"id":25011},"geometry":{"type":"Polygon","coordinates":[[[135.9131,34.9905],[135.9315,34.9853],[135.9432,34.9802],[135.9496,34.9715],[135.9524,34.9645],[135.9577,34.9631],[135.9604,34.9667],[135.9704,34.9766],[135.9761,34.9776],[135.9817,34.9729],[135.9871,34.9722],[135.992,34.976],[135.9942,34.9815],[136.0011,34.9832],[136.0012,34.9884],[135.9928,34.9977],[135.9788,35.0051],[135.9669,35.0229],[135.963,35.0332],[135.963,35.043],[135.9639,35.048],[135.9498,35.0594],[135.9444,35.0662],[135.9384,35.0637],[135.935,35.0562],[135.922,35.0457],[135.9233,35.0393],[135.9212,35.0364],[135.9133,35.0349],[135.9113,35.0304],[135.9168,35.0179],[135.9169,35.0119],[135.9149,35.0064],[135.9147,34.9971],[135.9131,34.9905]]]}},{"type":"Feature","properties":{"id":25012},"geometry":{"type":"Polygon","coordinates":[[[136.3462,35.5343],[136.3458,35.5136],[136.3442,35.5041],[136.3403,35.495],[136.3351,35.4868],[136.3348,35.4812],[136.3385,35.4702],[136.3492,35.4535],[136.3553,35.4382],[136.3601,35.42],[136.3572,35.4068],[136.3534,35.4035],[136.3432,35.4031],[136.34,35.4012],[136.3364,35.3931],[136.3385,35.3802],[136.3346,35.3708],[136.331,35.365],[136.3298,35.3535],[136.3284,35.3488],[136.3238,35.3441],[136.3179,35.3442],[136.3112,35.3461],[136.2961,35.3526],[136.291,35.3522],[136.2816,35.3492],[136.2767,35.3338],[136.2634,35.3052],[136.2608,35.2972],[136.2678,35.2959],[136.2837,35.2946],[136.3017,35.2986],[136.3117,35.2914],[136.318,35.283],[136.3236,35.2821],[136.328,35.2894],[136.3318,35.2916],[136.3369,35.2912],[136.3517,35.278],[136.357,35.2724],[136.3623,35.2735],[136.3862,35.2845],[136.3927,35.2893],[136.3994,35.2916],[136.4043,35.2967],[136.4098,35.3022],[136.4154,35.3126],[136.4154,35.3233],[136.424,35.3506],[136.4162,35.3575],[136.4171,35.3686],[136.4276,35.3704],[136.4394,35.3758],[136.4448,35.3875],[136.438,35.3943],[136.4286,35.3995],[136.423,35.4099],[136.4182,35.4219],[136.4209,35.4315],[136.4262,35.4416],[136.4229,35.4636],[136.4116,35.4655],[136.4029,35.4724],[136.3962,35.4816],[136.391,35.4903],[136.3999,35.5045],[136.4049,35.516],[136.4032,35.5272],[136.393,35.5288],[136.3841,35.5353],[136.3804,35.5464],[136.375,35.5563],[136.3622,35.5457],[136.3594,35.5359],[136.3462,35.5343]]]}},{"type":"Feature","properties":{"id":25013},"geometry":{"type":"Polygon","coordinates":[[[135.9639,35.048],[135.9694,35.0428],[135.9842,35.0346],[135.9974,35.0342],[136.0053,35.0373],[136.0097,35.0407],[136.0157,35.0485],[136.0109,35.0521],[136.0067,35.0589],[136.0093,35.0649],[136.0154,35.0688],[136.0178,35.0737],[136.0177,35.0797],[136.0162,35.0855],[136.0069,35.0984],[135.9951,35.1116],[135.9818,35.1161],[135.9656,35.115],[135.9571,35.1228],[135.9543,35.1218],[135.9485,35.1128],[135.948,35.1068],[135.9507,35.0997],[135.9507,35.0903],[135.9521,35.0836],[135.9554,35.0784],[135.9551,35.0712],[135.9508,35.0676],[135.9444,35.0662],[135.9498,35.0594],[135.9639,35.048]]]}},{"type":"Feature","properties":{"id":25014},"geometry":{"type":"Polygon","coordinates":[[[136.3237,35.5477],[136.3243,35.5435],[136.3109,35.5389],[136.2944,35.5383],[136.2863,35.5349],[136.285,35.5326],[136.2859,35.521],[136.2875,35.5176],[136.2875,35.4988],[136.2865,35.495],[136.2828,35.4919],[136.2742,35.4876],[136.2867,35.4781],[136.2889,35.4751],[136.2867,35.4665],[136.2815,35.4584],[136.281,35.4545],[136.283,35.4465],[136.2781,35.4303],[136.279,35.4266],[136.283,35.4219],[136.2894,35.4196],[136.2908,35.4164],[136.2774,35.4128],[136.2687,35.4088],[136.2634,35.4079],[136.2551,35.409],[136.2495,35.4136],[136.2479,35.4166],[136.2481,35.4243],[136.2289,35.4245],[136.2207,35.4297],[136.2159,35.4296],[136.2122,35.4256],[136.2021,35.4229],[136.2089,35.418],[136.2187,35.3991],[136.2192,35.3927],[136.2216,35.389],[136.2267,35.3878],[136.2384,35.3873],[136.254,35.3836],[136.2654,35.3784],[136.2754,35.3715],[136.2822,35.3598],[136.2816,35.3492],[136.291,35.3522],[136.2961,35.3526],[136.3112,35.3461],[136.3179,35.3442],[136.3238,35.3441],[136.3284,35.3488],[136.3298,35.3535],[136.331,35.365],[136.3346,35.3708],[136.3385,35.3802],[136.3364,35.3931],[136.34,35.4012],[136.3432,35.4031],[136.3534,35.4035],[136.3572,35.4068],[136.3601,35.42],[136.3553,35.4382],[136.3492,35.4535],[136.3385,35.4702],[136.3348,35.4812],[136.3351,35.4868],[136.3403,35.495],[136.3442,35.5041],[136.3458,35.5136],[136.3462,35.5343],[136.3425,35.5443],[136.333,35.5476],[136.3237,35.5477]]]}},{"type":"Feature","properties":{"id":25015},"geometry":{"type":"Polygon","coordinates":[[[136.0988,35.5319],[136.1065,35.5282],[136.1068,35.5139],[136.1055,35.4966],[136.1037,35.4917],[136.1032,35.4818],[136.1006,35.4726],[136.1004,35.4625],[136.1036,35.4561],[136.1066,35.4534],[136.1096,35.4588],[136.1167,35.4681],[136.1172,35.4804],[136.1209,35.4821],[136.132,35.482],[136.1353,35.4804],[136.132,35.4707],[136.1274,35.4649],[136.1289,35.4586],[136.131,35.4564],[136.1376,35.4553],[136.1441,35.4516],[136.1433,35.4441],[136.1497,35.4416],[136.1562,35.4424],[136.1597,35.446],[136.1609,35.4525],[136.1599,35.4562],[136.1531,35.4674],[136.1532,35.4746],[136.1597,35.485],[136.1676,35.4882],[136.1682,35.4909],[136.1654,35.495],[136.1649,35.5079],[136.1671,35.511],[136.1728,35.5096],[136.1765,35.503],[136.1792,35.5054],[136.1865,35.5085],[136.1806,35.5245],[136.1758,35.5338],[136.1731,35.5483],[136.1671,35.5643],[136.1524,35.5681],[136.1423,35.572],[136.1317,35.5722],[136.1167,35.576],[136.1136,35.5588],[136.1107,35.5486],[136.0988,35.5319]]]}},{"type":"Feature","properties":{"id":25016},"geometry":{"type":"MultiPolygon","coordinates":[[[[136.1626,35.108],[136.1561,35.111],[136.1381,35.1212],[136.1325,35.1276],[136.125,35.1384],[136.1237,35.1414],[136.114,35.1513],[136.1096,35.155],[136.105,35.1545],[136.0955,35.1584],[136.0891,35.1586],[136.083,35.1571],[136.0715,35.1471],[136.0644,35.1391],[136.0551,35.1378],[136.0358,35.1415],[136.0298,35.1421],[136.0242,35.1356],[136.0345,35.1229],[136.0441,35.1077],[136.0489,35.1053],[136.0568,35.1041],[136.0694,35.0999],[136.0834,35.0874],[136.0922,35.0929],[136.1101,35.0874],[136.1194,35.0863],[136.1307,35.0808],[136.1374,35.0734],[136.1482,35.0716],[136.1436,35.0767],[136.1341,35.0958],[136.134,35.0984],[136.1413,35.1035],[136.1581,35.1066],[136.1626,35.108]]],[[[136.1118,35.1698],[136.1056,35.1823],[136.104,35.193],[136.1014,35.1985],[136.0971,35.2023],[136.0941,35.2022],[136.0916,35.198],[136.0971,35.1905],[136.0944,35.1863],[136.0784,35.1863],[136.072,35.1797],[136.064,35.1658],[136.0634,35.1589],[136.0685,35.1558],[136.0771,35.1555],[136.0837,35.1615],[136.098,35.1697],[136.1118,35.1698]]]]}},{"type":"Feature","properties":{"id":25017},"geometry":{"type":"Polygon","coordinates":[[[135.8668,34.9568],[135.875,34.9522],[135.8812,34.9338],[135.8757,34.9246],[135.8733,34.9124],[135.8688,34.9027],[135.8693,34.8931],[135.8695,34.8889],[135.8783,34.8835],[135.8887,34.8804],[135.895,34.8713],[135.9053,34.8695],[135.9128,34.8762],[135.9221,34.8813],[135.9316,34.8849],[135.9425,34.8851],[135.9461,34.8749],[135.9459,34.8707],[135.9634,34.8727],[135.969,34.88],[135.9752,34.8814],[135.9829,34.8784],[135.9871,34.8794],[135.99,34.8836],[135.9905,34.89],[135.9928,34.8948],[135.9989,34.9026],[136.0116,34.9103],[136.0191,34.9126],[136.0455,34.9155],[136.0483,34.9182],[136.0475,34.9232],[136.0439,34.9276],[136.0499,34.9393],[136.0515,34.9469],[136.0516,34.9575],[136.0469,34.9593],[136.045,34.9568],[136.0424,34.9445],[136.0386,34.9385],[136.0296,34.9406],[136.0211,34.9443],[136.0188,34.9499],[136.0216,34.9611],[136.0187,34.9678],[136.0131,34.9726],[136.0085,34.9731],[136.0019,34.9705],[135.992,34.976],[135.9871,34.9722],[135.9817,34.9729],[135.9761,34.9776],[135.9704,34.9766],[135.9604,34.9667],[135.9577,34.9631],[135.9524,34.9645],[135.9496,34.9715],[135.9432,34.9802],[135.9315,34.9853],[135.9131,34.9905],[135.9137,34.9836],[135.9124,34.9788],[135.906,34.9747],[135.9002,34.9822],[135.8925,34.9905],[135.8768,35.0038],[135.87,35.008],[135.8676,35.0123],[135.8682,35.017],[135.8735,35.0213],[135.8752,35.0248],[135.8719,35.0345],[135.8755,35.041],[135.9039,35.0864],[135.9067,35.0946],[135.909,35.0981],[135.9138,35.1],[135.9233,35.101],[135.9276,35.1038],[135.9293,35.1133],[135.9296,35.1364],[135.9315,35.1439],[135.9371,35.1518],[135.9362,35.1551],[135.9236,35.1692],[135.9212,35.1753],[135.9218,35.1927],[135.9261,35.1961],[135.9351,35.1999],[135.9425,35.21],[135.9501,35.2154],[135.9565,35.2178],[135.9646,35.2241],[135.9663,35.2285],[135.967,35.2409],[135.9701,35.2448],[135.9783,35.251],[135.9896,35.2582],[135.9811,35.2611],[135.9723,35.2614],[135.9637,35.2658],[135.9571,35.2678],[135.9487,35.2629],[135.9412,35.2572],[135.9283,35.2571],[135.9191,35.2609],[135.9062,35.2715],[135.892,35.2767],[135.8821,35.2793],[135.8655,35.2779],[135.8553,35.2779],[135.8519,35.2765],[135.8497,35.2624],[135.8404,35.2338],[135.8405,35.2236],[135.8325,35.2165],[135.8352,35.2066],[135.8447,35.187],[135.8434,35.1771],[135.8469,35.1666],[135.8524,35.1574],[135.8565,35.1483],[135.8516,35.1384],[135.8547,35.1284],[135.8524,35.1181],[135.8476,35.1089],[135.8452,35.0986],[135.8393,35.0894],[135.8405,35.0757],[135.8363,35.066],[135.8389,35.0562],[135.8305,35.0505],[135.8213,35.0458],[135.8222,35.0355],[135.8305,35.0271],[135.8371,35.019],[135.8341,35.0085],[135.8364,34.9968],[135.8519,34.983],[135.859,34.9755],[135.8591,34.9648],[135.8668,34.9568]]]}},{"type":"Feature","properties":{"id":25018},"geometry":{"type":"Polygon","coordinates":[[[136.0715,34.9616],[136.0611,34.9698],[136.0554,34.9765],[136.0522,34.9839],[136.051,34.9919],[136.0487,34.9987],[136.0437,35.0063],[136.0419,35.014],[136.0463,35.0247],[136.0323,35.032],[136.0277,35.0393],[136.0228,35.0422],[136.0157,35.0485],[136.0097,35.0407],[136.0053,35.0373],[135.9974,35.0342],[135.9842,35.0346],[135.9694,35.0428],[135.9639,35.048],[135.963,35.043],[135.963,35.0332],[135.9669,35.0229],[135.9788,35.0051],[135.9928,34.9977],[136.0012,34.9884],[136.0011,34.9832],[135.9942,34.9815],[135.992,34.976],[136.0019,34.9705],[136.0085,34.9731],[136.0131,34.9726],[136.0187,34.9678],[136.0216,34.9611],[136.0188,34.9499],[136.0211,34.9443],[136.0296,34.9406],[136.0386,34.9385],[136.0424,34.9445],[136.045,34.9568],[136.0469,34.9593],[136.0516,34.9575],[136.0515,34.9469],[136.067,34.959],[136.0715,34.9616]]]}},{"type":"Feature","properties":{"id":25019},"geometry":{"type":"Polygon","coordinates":[[[136.1482,35.0716],[136.1374,35.0734],[136.1307,35.0808],[136.1194,35.0863],[136.1101,35.0874],[136.0922,35.0929],[136.0834,35.0874],[136.0856,35.0763],[136.0854,35.0689],[136.0821,35.0589],[136.0798,35.0485],[136.0865,35.0424],[136.0898,35.0292],[136.0949,35.0246],[136.102,35.0207],[136.1107,35.0226],[136.1162,35.0227],[136.1206,35.0187],[136.1265,35.0189],[136.1261,35.0253],[136.1215,35.0292],[136.1228,35.0325],[136.1301,35.0318],[136.1458,35.0251],[136.1513,35.0219],[136.1572,35.0184],[136.1611,35.0197],[136.1656,35.026],[136.1628,35.0291],[136.1551,35.0423],[136.1574,35.0516],[136.1498,35.0552],[136.1485,35.0574],[136.1523,35.0635],[136.1524,35.0676],[136.1482,35.0716]]]}},{"type":"Feature","properties":{"id":25020},"geometry":{"type":"Polygon","coordinates":[[[136.3994,35.2916],[136.3927,35.2893],[136.3862,35.2845],[136.3623,35.2735],[136.357,35.2724],[136.3503,35.267],[136.343,35.2645],[136.3359,35.2643],[136.3238,35.2618],[136.3121,35.2566],[136.305,35.2465],[136.301,35.2432],[136.2834,35.238],[136.2809,35.235],[136.2807,35.23],[136.2777,35.2261],[136.2643,35.2261],[136.2721,35.2175],[136.2809,35.21],[136.2927,35.1964],[136.2949,35.1914],[136.2938,35.1794],[136.2981,35.1753],[136.3005,35.1695],[136.3019,35.1612],[136.3118,35.157],[136.3219,35.1539],[136.329,35.1506],[136.3378,35.1441],[136.3411,35.1422],[136.3586,35.1279],[136.3607,35.1281],[136.3845,35.1376],[136.388,35.1405],[136.3914,35.152],[136.3907,35.1547],[136.3845,35.1598],[136.3793,35.1623],[136.3768,35.166],[136.3767,35.1769],[136.3778,35.1804],[136.3942,35.1939],[136.3967,35.1945],[136.4086,35.1906],[136.4187,35.186],[136.4155,35.1924],[136.4189,35.2034],[136.418,35.2147],[136.3961,35.2271],[136.3876,35.2347],[136.3818,35.2436],[136.3981,35.2524],[136.397,35.2626],[136.3986,35.2732],[136.3994,35.2916]]]}},{"type":"Feature","properties":{"id":25021},"geometry":{"type":"Polygon","coordinates":[[[135.9493,35.5159],[135.9479,35.518],[135.9409,35.5097],[135.9326,35.489],[135.925,35.4822],[135.919,35.4589],[135.9141,35.4271],[135.904,35.4232],[135.896,35.4166],[135.895,35.4032],[135.8768,35.394],[135.8663,35.3916],[135.8574,35.3972],[135.8554,35.3997],[135.8486,35.4082],[135.8384,35.4086],[135.8272,35.4114],[135.8153,35.4084],[135.8128,35.3985],[135.8125,35.3875],[135.8038,35.3818],[135.8016,35.3821],[135.7936,35.3833],[135.7833,35.3709],[135.771,35.3526],[135.7769,35.3395],[135.7849,35.3333],[135.7924,35.3252],[135.8078,35.3138],[135.8141,35.3048],[135.8215,35.2965],[135.8248,35.2855],[135.8309,35.2759],[135.8406,35.2716],[135.8519,35.2765],[135.8553,35.2779],[135.8655,35.2779],[135.8821,35.2793],[135.892,35.2767],[135.9062,35.2715],[135.9191,35.2609],[135.9283,35.2571],[135.9412,35.2572],[135.9487,35.2629],[135.9571,35.2678],[135.9637,35.2658],[135.9723,35.2614],[135.9811,35.2611],[135.9896,35.2582],[136.0101,35.2687],[136.0178,35.2712],[136.023,35.2757],[136.0242,35.2931],[136.0325,35.2981],[136.0383,35.2999],[136.0468,35.3],[136.0587,35.3088],[136.0708,35.314],[136.0811,35.3163],[136.083,35.3181],[136.0832,35.3259],[136.0757,35.3314],[136.0738,35.3368],[136.0734,35.3451],[136.0711,35.3516],[136.0588,35.3622],[136.0483,35.3775],[136.0415,35.3853],[136.04,35.3896],[136.0399,35.3974],[136.0415,35.4035],[136.0488,35.4073],[136.0491,35.4225],[136.0454,35.4288],[136.046,35.4334],[136.0563,35.4401],[136.0666,35.4456],[136.07,35.4543],[136.0803,35.4626],[136.0848,35.4608],[136.0912,35.4492],[136.0991,35.4464],[136.1066,35.4534],[136.1036,35.4561],[136.1004,35.4625],[136.1006,35.4726],[136.1032,35.4818],[136.1037,35.4917],[136.1055,35.4966],[136.1068,35.5139],[136.1065,35.5282],[136.0988,35.5319],[136.0897,35.5361],[136.08,35.5319],[136.0739,35.5236],[136.064,35.5279],[136.0544,35.5308],[136.0337,35.5265],[136.0261,35.5156],[136.0186,35.5075],[136.0104,35.4902],[136,35.4889],[135.9872,35.486],[135.9789,35.4918],[135.9618,35.5012],[135.9543,35.5088],[135.9493,35.5159]]]}},{"type":"Feature","properties":{"id":25022},"geometry":{"type":"Polygon","coordinates":[[[136.1993,35.4834],[136.1963,35.474],[136.1965,35.4665],[136.2043,35.4524],[136.2138,35.4486],[136.223,35.4485],[136.228,35.4525],[136.2345,35.4551],[136.2427,35.4566],[136.2507,35.463],[136.2558,35.4747],[136.2599,35.4799],[136.2742,35.4876],[136.2579,35.4909],[136.2489,35.4999],[136.2421,35.4993],[136.2356,35.489],[136.2327,35.487],[136.2265,35.4878],[136.2202,35.4933],[136.2146,35.492],[136.2131,35.4872],[136.2129,35.479],[136.2104,35.4777],[136.1993,35.4834]]]}},{"type":"Feature","properties":{"id":25023},"geometry":{"type":"Polygon","coordinates":[[[136.2481,35.4243],[136.2479,35.4166],[136.2495,35.4136],[136.2551,35.409],[136.2634,35.4079],[136.2687,35.4088],[136.2774,35.4128],[136.2908,35.4164],[136.2894,35.4196],[136.283,35.4219],[136.279,35.4266],[136.2781,35.4303],[136.283,35.4465],[136.2686,35.443],[136.262,35.4424],[136.2526,35.4394],[136.2495,35.4359],[136.2481,35.4243]]]}},{"type":"Feature","properties":{"id":25024},"geometry":{"type":"Polygon","coordinates":[[[136.2594,35.1863],[136.257,35.1903],[136.2498,35.1984],[136.2438,35.2073],[136.2285,35.2131],[136.225,35.2117],[136.2203,35.2071],[136.2174,35.2018],[136.2117,35.1956],[136.2216,35.1845],[136.2306,35.1801],[136.2365,35.1816],[136.2357,35.1877],[136.2383,35.1896],[136.2489,35.1885],[136.2594,35.1863]]]}},{"type":"Feature","properties":{"id":25025},"geometry":{"type":"Polygon","coordinates":[[[136.0798,35.0485],[136.0821,35.0589],[136.0854,35.0689],[136.0856,35.0763],[136.0834,35.0874],[136.0694,35.0999],[136.0568,35.1041],[136.0489,35.1053],[136.0441,35.1077],[136.0345,35.1229],[136.0242,35.1356],[136.0212,35.1307],[136.0138,35.1308],[136.0106,35.1331],[135.9939,35.1401],[135.9871,35.1387],[135.984,35.1354],[135.9838,35.1297],[135.9819,35.1237],[135.9818,35.1161],[135.9951,35.1116],[136.0069,35.0984],[136.0162,35.0855],[136.0177,35.0797],[136.0178,35.0737],[136.0154,35.0688],[136.0093,35.0649],[136.0067,35.0589],[136.0109,35.0521],[136.0157,35.0485],[136.0228,35.0422],[136.0277,35.0393],[136.0323,35.032],[136.0463,35.0247],[136.0608,35.0349],[136.0617,35.0473],[136.0644,35.0538],[136.0731,35.0521],[136.0798,35.0485]]]}},{"type":"Feature","properties":{"id":25026},"geometry":{"type":"Polygon","coordinates":[[[136.1553,35.6944],[136.1534,35.6945],[136.1506,35.6839],[136.1431,35.6751],[136.1375,35.6666],[136.1459,35.6607],[136.1535,35.6538],[136.1557,35.6431],[136.1612,35.6337],[136.1629,35.6227],[136.1702,35.6139],[136.1796,35.5937],[136.1734,35.5833],[136.1727,35.5628],[136.1671,35.5643],[136.1731,35.5483],[136.1758,35.5338],[136.1806,35.5245],[136.1865,35.5085],[136.1981,35.5062],[136.2051,35.5116],[136.2166,35.5129],[136.2202,35.5149],[136.2241,35.521],[136.2294,35.5242],[136.2315,35.5285],[136.2319,35.5379],[136.2348,35.5405],[136.243,35.5432],[136.2463,35.546],[136.2438,35.555],[136.2438,35.5648],[136.2451,35.5697],[136.2565,35.5788],[136.2589,35.5822],[136.2604,35.5906],[136.2657,35.5975],[136.2741,35.6014],[136.2836,35.6071],[136.2913,35.6101],[136.2924,35.6171],[136.2886,35.6268],[136.282,35.6351],[136.2825,35.646],[136.2789,35.6611],[136.2605,35.6679],[136.247,35.6714],[136.2382,35.6782],[136.2268,35.6782],[136.2121,35.6838],[136.2023,35.6866],[136.1976,35.6957],[136.1872,35.7],[136.175,35.699],[136.1643,35.6939],[136.1553,35.6944]]]}}]}