{"type":"FeatureCollection","features":[{"type":"Feature","properties":{"id":26001},"geometry":{"type":"Polygon","coordinates":[[[135.4838,35.4445],[135.4707,35.4553],[135.4528,35.4395],[135.4424,35.4333],[135.4301,35.4289],[135.4203,35.4279],[135.4166,35.4262],[135.4129,35.4209],[135.4113,35.4131],[135.411,35.4016],[135.4096,35.3971],[135.4012,35.3879],[135.3916,35.3833],[135.3848,35.384],[135.3793,35.3904],[135.3746,35.3934],[135.3615,35.3981],[135.3544,35.3961],[135.337,35.388],[135.3267,35.3848],[135.3105,35.386],[135.3033,35.3883],[135.2913,35.394],[135.2746,35.3971],[135.2588,35.3984],[135.2488,35.3981],[135.2362,35.3955],[135.2259,35.3937],[135.214,35.3897],[135.2019,35.3756],[135.1827,35.3708],[135.1823,35.3655],[135.1871,35.3591],[135.1868,35.3519],[135.1812,35.3473],[135.1748,35.344],[135.175,35.3417],[135.1915,35.3315],[135.1975,35.3204],[135.2015,35.3063],[135.2033,35.2916],[135.2066,35.2871],[135.2124,35.2842],[135.2284,35.271],[135.2328,35.2664],[135.2366,35.2648],[135.2457,35.2655],[135.2503,35.267],[135.2633,35.2691],[135.2717,35.2691],[135.2835,35.2668],[135.288,35.2651],[135.2967,35.2643],[135.3038,35.2652],[135.3202,35.27],[135.3328,35.2739],[135.3435,35.2784],[135.3512,35.2826],[135.3604,35.29],[135.3743,35.2976],[135.4215,35.3373],[135.4251,35.3386],[135.4313,35.3435],[135.4462,35.3464],[135.4531,35.3462],[135.4656,35.3443],[135.4921,35.3442],[135.4995,35.3447],[135.5048,35.3523],[135.5057,35.356],[135.5105,35.3642],[135.5252,35.3714],[135.5359,35.3756],[135.5298,35.3817],[135.5337,35.3919],[135.528,35.4002],[135.5306,35.4104],[135.5202,35.4192],[135.51,35.4193],[135.4918,35.4356],[135.4838,35.4445]]]}},{"type":"Feature","properties":{"id":26002},"geometry":{"type":"Polygon","coordinates":[[[134.9435,35.3029],[134.9503,35.3008],[134.9603,35.2956],[134.9713,35.2928],[135,35.2873],[135.0112,35.2812],[135.0134,35.2708],[135.0218,35.2652],[135.0415,35.2576],[135.0519,35.2589],[135.0607,35.2532],[135.0673,35.2401],[135.0805,35.2415],[135.0884,35.25],[135.0962,35.2566],[135.106,35.2593],[135.1169,35.2606],[135.1363,35.2602],[135.1576,35.2583],[135.1646,35.2499],[135.1667,35.2322],[135.1588,35.2259],[135.165,35.2173],[135.1747,35.214],[135.1847,35.2127],[135.1983,35.2009],[135.2025,35.1916],[135.1921,35.1891],[135.192,35.1789],[135.1899,35.1687],[135.2006,35.1659],[135.2078,35.1586],[135.2181,35.1588],[135.226,35.1603],[135.2286,35.1608],[135.2398,35.1736],[135.2588,35.1739],[135.2808,35.1718],[135.2919,35.1693],[135.2929,35.161],[135.2944,35.164],[135.2932,35.1697],[135.2868,35.1745],[135.286,35.1888],[135.2886,35.1953],[135.2979,35.201],[135.3,35.2058],[135.2996,35.2221],[135.2926,35.2316],[135.2966,35.2364],[135.3054,35.2396],[135.3144,35.2471],[135.32,35.2502],[135.3223,35.2545],[135.3202,35.27],[135.3038,35.2652],[135.2967,35.2643],[135.288,35.2651],[135.2835,35.2668],[135.2717,35.2691],[135.2633,35.2691],[135.2503,35.267],[135.2457,35.2655],[135.2366,35.2648],[135.2328,35.2664],[135.2284,35.271],[135.2124,35.2842],[135.2066,35.2871],[135.2033,35.2916],[135.2015,35.3063],[135.1975,35.3204],[135.1915,35.3315],[135.175,35.3417],[135.1748,35.344],[135.1812,35.3473],[135.1868,35.3519],[135.1871,35.3591],[135.1823,35.3655],[135.1827,35.3708],[135.2019,35.3756],[135.214,35.3897],[135.2259,35.3937],[135.2362,35.3955],[135.2275,35.4024],[135.2109,35.4122],[135.2033,35.4209],[135.2014,35.4247],[135.1969,35.4276],[135.1912,35.4286],[135.1776,35.429],[135.1727,35.4313],[135.1715,35.4339],[135.1709,35.4428],[135.1657,35.449],[135.1631,35.452],[135.1475,35.4649],[135.138,35.4678],[135.1303,35.4714],[135.1245,35.4661],[135.1088,35.4551],[135.101,35.4509],[135.0871,35.4463],[135.0814,35.4455],[135.0711,35.447],[135.0601,35.451],[135.052,35.4552],[135.0516,35.449],[135.0524,35.4374],[135.0499,35.4266],[135.0526,35.4166],[135.0464,35.4055],[135.0358,35.4068],[135.0226,35.3914],[135.0091,35.388],[135,35.3838],[134.9898,35.3863],[134.9837,35.395],[134.9724,35.3967],[134.9635,35.4052],[134.953,35.4074],[134.9419,35.4068],[134.9371,35.4021],[134.9302,35.3953],[134.9276,35.3847],[134.9297,35.3746],[134.9234,35.3652],[134.9249,35.3544],[134.9216,35.3438],[134.9285,35.3333],[134.9277,35.3228],[134.9242,35.3126],[134.9345,35.3057],[134.9435,35.3029]]]}},{"type":"Feature","properties":{"id":26003},"geometry":{"type":"Polygon","coordinates":[[[135.7982,34.8154],[135.8054,34.8036],[135.8065,34.7993],[135.8035,34.7867],[135.8195,34.7894],[135.8296,34.7919],[135.8394,34.7928],[135.8557,34.7963],[135.869,34.7963],[135.8683,34.8103],[135.8669,34.8144],[135.8549,34.8259],[135.8506,34.8324],[135.8412,34.8231],[135.8355,34.8207],[135.8205,34.8163],[135.8141,34.8152],[135.7982,34.8154]]]}},{"type":"Feature","properties":{"id":26004},"geometry":{"type":"Polygon","coordinates":[[[135.2429,35.7603],[135.2373,35.7613],[135.2251,35.7394],[135.2221,35.7369],[135.2115,35.7321],[135.2089,35.7299],[135.2006,35.7157],[135.2003,35.7004],[135.201,35.6969],[135.2172,35.6878],[135.2435,35.6883],[135.2659,35.6938],[135.2713,35.6934],[135.2814,35.6905],[135.2827,35.6852],[135.2826,35.6698],[135.2867,35.6735],[135.2939,35.674],[135.2941,35.6707],[135.2901,35.6662],[135.2926,35.6609],[135.2988,35.6601],[135.3037,35.6636],[135.2999,35.6691],[135.2994,35.679],[135.3046,35.6868],[135.3048,35.6929],[135.3085,35.6941],[135.3067,35.6985],[135.2991,35.7007],[135.2871,35.7112],[135.2896,35.7191],[135.2875,35.7259],[135.2847,35.7294],[135.2791,35.7314],[135.2724,35.7311],[135.2749,35.7413],[135.2689,35.7415],[135.2664,35.745],[135.2603,35.7461],[135.2569,35.7444],[135.2518,35.7504],[135.2525,35.755],[135.2429,35.7603]]]}},{"type":"Feature","properties":{"id":26005},"geometry":{"type":"Polygon","coordinates":[[[135.8506,34.8324],[135.8475,34.8364],[135.8385,34.852],[135.8325,34.8583],[135.8205,34.86],[135.7932,34.8618],[135.7765,34.8654],[135.7673,34.8655],[135.7533,34.8652],[135.7539,34.8562],[135.7579,34.8477],[135.7682,34.8361],[135.7785,34.8274],[135.7848,34.8241],[135.7918,34.8185],[135.7982,34.8154],[135.8141,34.8152],[135.8205,34.8163],[135.8355,34.8207],[135.8412,34.8231],[135.8506,34.8324]]]}},{"type":"Feature","properties":{"id":26006},"geometry":{"type":"Polygon","coordinates":[[[135.3738,35.0422],[135.3849,35.0278],[135.3834,35.0115],[135.393,35.0071],[135.4029,35.0048],[135.4128,35.0081],[135.4208,35],[135.4325,35.0028],[135.4433,35.0044],[135.4531,35],[135.4642,34.9973],[135.4728,34.9921],[135.484,34.9917],[135.4929,34.9863],[135.4862,34.9785],[135.4899,34.9687],[135.4889,34.9565],[135.4887,34.9529],[135.4963,34.9379],[135.509,34.9424],[135.5175,34.9371],[135.5246,34.9287],[135.5298,34.9265],[135.5385,34.9227],[135.544,34.912],[135.5547,34.9137],[135.5681,34.9143],[135.5759,34.9135],[135.5842,34.9229],[135.5823,34.934],[135.565,34.9403],[135.5695,34.9497],[135.5753,34.9588],[135.578,34.9689],[135.5879,34.9713],[135.5964,34.9653],[135.6061,34.9679],[135.6161,34.9679],[135.6165,34.9659],[135.6356,34.9698],[135.6406,34.9746],[135.648,34.991],[135.6506,35.0005],[135.6516,35.009],[135.6497,35.0119],[135.6395,35.0148],[135.6357,35.0189],[135.6356,35.0268],[135.6333,35.0311],[135.6228,35.0363],[135.6203,35.0433],[135.6198,35.0534],[135.6173,35.062],[135.6142,35.0658],[135.6033,35.0644],[135.5976,35.069],[135.5968,35.0723],[135.5964,35.0912],[135.588,35.0939],[135.576,35.0961],[135.5706,35.0958],[135.5595,35.0898],[135.5579,35.0871],[135.5608,35.0772],[135.5606,35.0673],[135.5581,35.0631],[135.5539,35.0613],[135.5468,35.0626],[135.5398,35.0618],[135.527,35.0575],[135.5246,35.0578],[135.5106,35.065],[135.5068,35.0676],[135.4942,35.0704],[135.4879,35.0704],[135.4726,35.064],[135.4692,35.0612],[135.4565,35.0398],[135.4524,35.0289],[135.4502,35.0264],[135.4407,35.0238],[135.4325,35.0226],[135.4093,35.0225],[135.3983,35.0238],[135.3862,35.0271],[135.3824,35.0324],[135.3741,35.0463],[135.3738,35.0422]]]}},{"type":"Feature","properties":{"id":26007},"geometry":{"type":"Polygon","coordinates":[[[135.9164,34.7446],[135.9193,34.7505],[135.9305,34.7536],[135.9265,34.7383],[135.9358,34.7346],[135.9461,34.7351],[135.9538,34.7428],[135.9624,34.737],[135.9705,34.7374],[135.9751,34.7471],[135.9802,34.7599],[135.9806,34.7642],[135.9759,34.7742],[135.9726,34.7861],[135.9656,34.7914],[135.9565,34.7935],[135.9516,34.7832],[135.9467,34.7755],[135.9364,34.7669],[135.9267,34.7625],[135.9099,34.7586],[135.9123,34.7515],[135.9164,34.7446]]]}},{"type":"Feature","properties":{"id":26008},"geometry":{"type":"Polygon","coordinates":[[[135.8035,34.7867],[135.8081,34.7776],[135.8095,34.7698],[135.8083,34.7619],[135.8035,34.7538],[135.7975,34.7497],[135.7823,34.7448],[135.7797,34.7397],[135.7835,34.7356],[135.79,34.7345],[135.793,34.7321],[135.793,34.7284],[135.7845,34.7228],[135.7844,34.7205],[135.7962,34.7207],[135.8067,34.718],[135.8149,34.7122],[135.8355,34.7098],[135.8559,34.7026],[135.875,34.7081],[135.893,34.7061],[135.8998,34.7265],[135.9079,34.7335],[135.9146,34.741],[135.9164,34.7446],[135.9123,34.7515],[135.9099,34.7586],[135.8952,34.7704],[135.8897,34.7733],[135.8761,34.7838],[135.869,34.7963],[135.8557,34.7963],[135.8394,34.7928],[135.8296,34.7919],[135.8195,34.7894],[135.8035,34.7867]]]}},{"type":"Feature","properties":{"id":26009},"geometry":{"type":"Polygon","coordinates":[[[135.7673,34.8655],[135.7625,34.8816],[135.7616,34.8892],[135.758,34.9012],[135.7455,34.9011],[135.7315,34.8996],[135.7172,34.8935],[135.7112,34.8895],[135.7152,34.8845],[135.7193,34.8772],[135.7223,34.8746],[135.7324,34.8704],[135.7456,34.8662],[135.7533,34.8652],[135.7673,34.8655]]]}},{"type":"Feature","properties":{"id":26010},"geometry":{"type":"Polygon","coordinates":[[[135.394,35.1035],[135.4097,35.1033],[135.4199,35.1054],[135.4238,35.1089],[135.4262,35.1157],[135.4392,35.1183],[135.4446,35.1292],[135.4455,35.1341],[135.465,35.1667],[135.4659,35.1753],[135.4644,35.1804],[135.4595,35.1844],[135.452,35.1873],[135.4501,35.1894],[135.4502,35.1956],[135.4546,35.2116],[135.4556,35.2232],[135.4516,35.2331],[135.4523,35.2375],[135.4619,35.2457],[135.4642,35.2512],[135.4505,35.2627],[135.4497,35.2661],[135.4571,35.2848],[135.4641,35.2888],[135.4718,35.2949],[135.4745,35.3004],[135.4752,35.3054],[135.4795,35.3112],[135.4966,35.3186],[135.4996,35.3211],[135.5004,35.3259],[135.4995,35.3447],[135.4921,35.3442],[135.4656,35.3443],[135.4531,35.3462],[135.4462,35.3464],[135.4313,35.3435],[135.4251,35.3386],[135.4215,35.3373],[135.3743,35.2976],[135.3604,35.29],[135.3512,35.2826],[135.3435,35.2784],[135.3328,35.2739],[135.3202,35.27],[135.3223,35.2545],[135.32,35.2502],[135.3144,35.2471],[135.3054,35.2396],[135.2966,35.2364],[135.2926,35.2316],[135.2996,35.2221],[135.3,35.2058],[135.2979,35.201],[135.2886,35.1953],[135.286,35.1888],[135.2868,35.1745],[135.2932,35.1697],[135.2944,35.164],[135.2929,35.161],[135.2935,35.156],[135.2864,35.1479],[135.294,35.1388],[135.3262,35.1434],[135.3373,35.1464],[135.3422,35.1367],[135.3623,35.1291],[135.373,35.1288],[135.3867,35.1258],[135.3894,35.1148],[135.3961,35.1073],[135.394,35.1035]]]}},{"type":"Feature","properties":{"id":26011},"geometry":{"type":"Polygon","coordinates":[[[135.7982,34.8154],[135.7918,34.8185],[135.7848,34.8241],[135.7785,34.8274],[135.7682,34.8361],[135.7579,34.8477],[135.7531,34.8484],[135.7415,34.8478],[135.7324,34.8436],[135.7192,34.8334],[135.7161,34.8371],[135.726,34.8231],[135.7397,34.8103],[135.7467,34.8015],[135.7463,34.791],[135.7396,34.7827],[135.732,34.7755],[135.7346,34.7596],[135.7394,34.75],[135.7466,34.7451],[135.7511,34.7519],[135.7573,34.7586],[135.76,34.7631],[135.7633,34.772],[135.7687,34.7752],[135.7795,34.7752],[135.7844,34.7762],[135.7928,34.7801],[135.8035,34.7867],[135.8065,34.7993],[135.8054,34.8036],[135.7982,34.8154]]]}},{"type":"Feature","properties":{"id":26012},"geometry":{"type":"Polygon","coordinates":[[[135.0437,35.4971],[135.0477,35.5096],[135.0477,35.5165],[135.045,35.5264],[135.0405,35.5373],[135.054,35.5327],[135.0624,35.5321],[135.0772,35.5371],[135.085,35.5405],[135.09,35.5414],[135.0983,35.545],[135.1115,35.5482],[135.1226,35.5484],[135.1285,35.5508],[135.1345,35.5569],[135.1455,35.5743],[135.1495,35.5785],[135.1533,35.5854],[135.1622,35.5936],[135.1658,35.5985],[135.18,35.611],[135.172,35.6219],[135.1658,35.6276],[135.1639,35.6331],[135.1636,35.6424],[135.1658,35.6478],[135.1759,35.6542],[135.1794,35.6556],[135.1917,35.6655],[135.1967,35.6664],[135.2019,35.6653],[135.2116,35.6597],[135.2175,35.6593],[135.2212,35.6643],[135.2195,35.6788],[135.2172,35.6878],[135.201,35.6969],[135.2003,35.7004],[135.2006,35.7157],[135.2089,35.7299],[135.2115,35.7321],[135.2221,35.7369],[135.2251,35.7394],[135.2373,35.7613],[135.2429,35.7603],[135.2322,35.7702],[135.2298,35.7735],[135.2257,35.7749],[135.2225,35.7791],[135.2198,35.7753],[135.222,35.7718],[135.2068,35.7639],[135.1971,35.7648],[135.1926,35.7669],[135.1902,35.7632],[135.184,35.7606],[135.1744,35.7602],[135.1735,35.7578],[135.1671,35.7571],[135.1622,35.7539],[135.1564,35.7539],[135.1531,35.7517],[135.1451,35.7498],[135.1415,35.7516],[135.1393,35.7574],[135.135,35.7575],[135.1326,35.7545],[135.1337,35.7512],[135.1239,35.7456],[135.1138,35.7434],[135.1082,35.7435],[135.1019,35.7414],[135.0948,35.7425],[135.0925,35.7383],[135.0892,35.7401],[135.084,35.738],[135.0875,35.7304],[135.0852,35.7259],[135.0744,35.7183],[135.0685,35.7179],[135.06,35.7077],[135.0511,35.7032],[135.0462,35.7026],[135.0405,35.7],[135.0344,35.7013],[135.0301,35.6969],[135.0318,35.6952],[135.0292,35.6909],[135.0242,35.6894],[135.0156,35.6907],[135.0047,35.694],[134.992,35.6899],[134.9867,35.6919],[134.9824,35.6877],[134.9785,35.6816],[134.975,35.6831],[134.9722,35.6797],[134.9722,35.6761],[134.9667,35.6756],[134.9636,35.6719],[134.9672,35.6681],[134.9664,35.6642],[134.9586,35.6586],[134.9472,35.655],[134.9422,35.6511],[134.9328,35.6478],[134.9206,35.645],[134.9106,35.6447],[134.9047,35.6456],[134.9019,35.6478],[134.8961,35.6456],[134.8917,35.649],[134.8891,35.6472],[134.8829,35.6475],[134.8853,35.6561],[134.8803,35.6608],[134.8707,35.6592],[134.8699,35.6329],[134.8747,35.6231],[134.8673,35.595],[134.8718,35.5754],[134.8827,35.566],[134.8887,35.5579],[134.8987,35.5548],[134.9055,35.5474],[134.9155,35.5422],[134.9209,35.5333],[134.9259,35.5169],[134.9406,35.5095],[134.9518,35.5107],[134.9625,35.5096],[134.9697,35.517],[134.9911,35.5265],[135.0073,35.5325],[135.0193,35.5343],[135.03,35.5368],[135.04,35.5346],[135.0423,35.5243],[135.0465,35.5146],[135.0437,35.4971]]]}},{"type":"Feature","properties":{"id":26013},"geometry":{"type":"Polygon","coordinates":[[[135.7493,35.3543],[135.7631,35.3507],[135.7709,35.343],[135.7749,35.3377],[135.7865,35.328],[135.791,35.3198],[135.7828,35.313],[135.7798,35.3073],[135.778,35.2949],[135.7755,35.2899],[135.7661,35.2879],[135.7453,35.2873],[135.7347,35.2848],[135.7279,35.2733],[135.7198,35.2667],[135.7038,35.2601],[135.6894,35.258],[135.6792,35.2579],[135.6663,35.2597],[135.6554,35.2597],[135.6416,35.2577],[135.6321,35.253],[135.6268,35.2482],[135.6207,35.2366],[135.615,35.2324],[135.5989,35.226],[135.5939,35.225],[135.5903,35.2213],[135.5955,35.2039],[135.5952,35.1982],[135.5904,35.1901],[135.5863,35.1858],[135.5802,35.175],[135.5762,35.1707],[135.5637,35.1497],[135.5629,35.1392],[135.5654,35.1338],[135.5787,35.1293],[135.5888,35.1287],[135.5934,35.1263],[135.595,35.1204],[135.5965,35.1093],[135.5993,35.1069],[135.6074,35.1075],[135.6112,35.1064],[135.6129,35.0996],[135.6082,35.0946],[135.5964,35.0912],[135.5968,35.0723],[135.5976,35.069],[135.6033,35.0644],[135.6142,35.0658],[135.6173,35.062],[135.6198,35.0534],[135.6203,35.0433],[135.6228,35.0363],[135.6333,35.0311],[135.6356,35.0268],[135.6357,35.0189],[135.6395,35.0148],[135.6497,35.0119],[135.6516,35.009],[135.6506,35.0005],[135.648,34.991],[135.6406,34.9746],[135.6356,34.9698],[135.6165,34.9659],[135.6197,34.9523],[135.6159,34.9423],[135.6258,34.9308],[135.6295,34.931],[135.6358,34.9313],[135.6443,34.9273],[135.65,34.9297],[135.6546,34.9379],[135.6596,34.9392],[135.6822,34.939],[135.6898,34.9396],[135.698,34.9424],[135.6933,34.9483],[135.6879,34.9615],[135.6938,34.9636],[135.6986,34.9635],[135.7081,34.9598],[135.7122,34.9556],[135.7167,34.945],[135.7168,34.9373],[135.7154,34.9297],[135.7134,34.9257],[135.7101,34.9185],[135.7005,34.9023],[135.6997,34.8908],[135.7112,34.8895],[135.7172,34.8935],[135.7315,34.8996],[135.7455,34.9011],[135.758,34.9012],[135.7663,34.9051],[135.7704,34.9081],[135.7816,34.9137],[135.7892,34.9191],[135.7957,34.9275],[135.8009,34.9318],[135.8042,34.932],[135.8172,34.926],[135.8215,34.9254],[135.8303,34.9285],[135.8372,34.9341],[135.8415,34.9336],[135.8476,34.9297],[135.8536,34.9333],[135.8543,34.9463],[135.8568,34.9487],[135.8616,34.9494],[135.8719,34.9462],[135.8716,34.9493],[135.8668,34.9568],[135.8591,34.9648],[135.859,34.9755],[135.8519,34.983],[135.8364,34.9968],[135.8341,35.0085],[135.8371,35.019],[135.8305,35.0271],[135.8222,35.0355],[135.8213,35.0458],[135.8305,35.0505],[135.8389,35.0562],[135.8363,35.066],[135.8405,35.0757],[135.8393,35.0894],[135.8452,35.0986],[135.8476,35.1089],[135.8524,35.1181],[135.8547,35.1284],[135.8516,35.1384],[135.8565,35.1483],[135.8524,35.1574],[135.8469,35.1666],[135.8434,35.1771],[135.8447,35.187],[135.8352,35.2066],[135.8325,35.2165],[135.8405,35.2236],[135.8404,35.2338],[135.8497,35.2624],[135.8519,35.2765],[135.8406,35.2716],[135.8309,35.2759],[135.8248,35.2855],[135.8215,35.2965],[135.8141,35.3048],[135.8078,35.3138],[135.7924,35.3252],[135.7849,35.3333],[135.7769,35.3395],[135.771,35.3526],[135.75,35.3547],[135.7493,35.3543]]]}},{"type":"Feature","properties":{"id":26014},"geometry":{"type":"Polygon","coordinates":[[[135.4733,35.5571],[135.4697,35.5639],[135.466,35.5685],[135.4666,35.5711],[135.4581,35.5704],[135.4524,35.5676],[135.4501,35.5712],[135.4495,35.5774],[135.4519,35.5822],[135.4565,35.5848],[135.452,35.5908],[135.4573,35.5921],[135.4577,35.5955],[135.4641,35.6004],[135.4627,35.6028],[135.4567,35.601],[135.4546,35.5985],[135.45,35.5979],[135.45,35.5933],[135.4445,35.5906],[135.4355,35.5907],[135.4351,35.5821],[135.4289,35.5775],[135.4252,35.5711],[135.4268,35.5664],[135.4135,35.5699],[135.4055,35.564],[135.4038,35.5615],[135.3906,35.5565],[135.3853,35.5608],[135.3809,35.5619],[135.3668,35.5518],[135.3575,35.5493],[135.3501,35.5431],[135.3444,35.5441],[135.343,35.5519],[135.3399,35.549],[135.3394,35.544],[135.3367,35.5381],[135.3363,35.5318],[135.3383,35.5257],[135.3422,35.5212],[135.3491,35.5211],[135.3494,35.5175],[135.3438,35.5153],[135.3474,35.5115],[135.3439,35.5046],[135.3504,35.5049],[135.3558,35.5023],[135.3592,35.5051],[135.3641,35.5039],[135.3724,35.5059],[135.3803,35.5026],[135.3839,35.5046],[135.3851,35.5119],[135.389,35.5159],[135.3942,35.5171],[135.3961,35.5134],[135.3906,35.5074],[135.3947,35.4996],[135.3992,35.4992],[135.4002,35.4934],[135.3961,35.4899],[135.3928,35.4819],[135.3862,35.4792],[135.3818,35.4753],[135.3797,35.4776],[135.3721,35.4773],[135.3734,35.481],[135.3814,35.4828],[135.3827,35.4858],[135.3752,35.4916],[135.3701,35.4896],[135.3605,35.4877],[135.355,35.4884],[135.3491,35.4914],[135.349,35.4861],[135.3452,35.4835],[135.3474,35.4758],[135.3372,35.4729],[135.3264,35.4646],[135.3276,35.4602],[135.3216,35.4539],[135.3164,35.4558],[135.3173,35.4655],[135.3224,35.4763],[135.3182,35.4803],[135.3235,35.4813],[135.3247,35.4901],[135.3289,35.491],[135.3322,35.4947],[135.3335,35.5029],[135.3356,35.5042],[135.3317,35.5103],[135.3314,35.5168],[135.3274,35.5177],[135.3248,35.5246],[135.3201,35.5254],[135.3175,35.5206],[135.3108,35.5122],[135.2961,35.5154],[135.2901,35.5158],[135.2905,35.4915],[135.2894,35.4886],[135.2822,35.4881],[135.2763,35.491],[135.267,35.4985],[135.2529,35.5062],[135.2475,35.5069],[135.2353,35.5058],[135.2215,35.4931],[135.2144,35.4896],[135.2098,35.4889],[135.2023,35.4836],[135.1961,35.4725],[135.1824,35.457],[135.1695,35.452],[135.1657,35.449],[135.1709,35.4428],[135.1715,35.4339],[135.1727,35.4313],[135.1776,35.429],[135.1912,35.4286],[135.1969,35.4276],[135.2014,35.4247],[135.2033,35.4209],[135.2109,35.4122],[135.2275,35.4024],[135.2362,35.3955],[135.2488,35.3981],[135.2588,35.3984],[135.2746,35.3971],[135.2913,35.394],[135.3033,35.3883],[135.3105,35.386],[135.3267,35.3848],[135.337,35.388],[135.3544,35.3961],[135.3615,35.3981],[135.3746,35.3934],[135.3793,35.3904],[135.3848,35.384],[135.3916,35.3833],[135.4012,35.3879],[135.4096,35.3971],[135.411,35.4016],[135.4113,35.4131],[135.4129,35.4209],[135.4166,35.4262],[135.4203,35.4279],[135.4301,35.4289],[135.4424,35.4333],[135.4528,35.4395],[135.4707,35.4553],[135.4641,35.4607],[135.4622,35.4706],[135.4777,35.4898],[135.4789,35.5023],[135.4691,35.5073],[135.4604,35.513],[135.4524,35.5199],[135.4574,35.5309],[135.4622,35.5397],[135.4689,35.5484],[135.4733,35.5571]]]}},{"type":"Feature","properties":{"id":26015},"geometry":{"type":"Polygon","coordinates":[[[135.9705,34.7374],[135.9768,34.7378],[135.9853,34.7313],[135.9884,34.7218],[135.9897,34.7119],[136.0017,34.71],[136.0115,34.7133],[136.031,34.7064],[136.0373,34.7151],[136.0438,34.7226],[136.0482,34.7379],[136.0343,34.7527],[136.0328,34.7632],[136.0364,34.7725],[136.0277,34.7783],[136.0253,34.7883],[136.0171,34.7941],[136.018,34.8052],[136.0298,34.815],[136.0116,34.8147],[136.0002,34.8194],[135.9947,34.8191],[135.9812,34.8129],[135.9771,34.81],[135.9658,34.8045],[135.9607,34.8001],[135.9565,34.7935],[135.9656,34.7914],[135.9726,34.7861],[135.9759,34.7742],[135.9806,34.7642],[135.9802,34.7599],[135.9751,34.7471],[135.9705,34.7374]]]}},{"type":"Feature","properties":{"id":26016},"geometry":{"type":"Polygon","coordinates":[[[135.1657,35.449],[135.1695,35.452],[135.1824,35.457],[135.1961,35.4725],[135.2023,35.4836],[135.2098,35.4889],[135.2144,35.4896],[135.2215,35.4931],[135.2353,35.5058],[135.2475,35.5069],[135.2529,35.5062],[135.267,35.4985],[135.2763,35.491],[135.2822,35.4881],[135.2894,35.4886],[135.2905,35.4915],[135.2901,35.5158],[135.2722,35.5252],[135.2732,35.5289],[135.271,35.5328],[135.262,35.5335],[135.2585,35.5351],[135.254,35.534],[135.2489,35.5359],[135.245,35.5354],[135.2386,35.5425],[135.237,35.5462],[135.2376,35.5538],[135.242,35.5591],[135.2489,35.5616],[135.249,35.5569],[135.2522,35.5535],[135.2555,35.5556],[135.2604,35.5534],[135.2654,35.5564],[135.2748,35.5601],[135.27,35.564],[135.2686,35.5671],[135.2578,35.5672],[135.252,35.5695],[135.2501,35.5743],[135.2533,35.5767],[135.2481,35.5805],[135.2478,35.587],[135.2505,35.5888],[135.2553,35.5881],[135.2565,35.5921],[135.256,35.5986],[135.2515,35.5982],[135.2509,35.5954],[135.2409,35.5836],[135.2369,35.5812],[135.2281,35.583],[135.2299,35.5791],[135.2266,35.5692],[135.2155,35.5657],[135.2121,35.5628],[135.2072,35.5627],[135.2042,35.5597],[135.2039,35.5561],[135.2093,35.5522],[135.2105,35.5478],[135.2086,35.5428],[135.2016,35.5376],[135.1926,35.5407],[135.1885,35.5469],[135.1887,35.5531],[135.187,35.5578],[135.1892,35.565],[135.1937,35.5716],[135.2008,35.5793],[135.2039,35.5808],[135.2085,35.5905],[135.2121,35.5929],[135.2144,35.598],[135.2257,35.603],[135.2278,35.6073],[135.2334,35.6109],[135.2344,35.6149],[135.2412,35.6172],[135.2451,35.6209],[135.2461,35.6301],[135.2507,35.6407],[135.2513,35.6464],[135.254,35.6508],[135.2636,35.6601],[135.2642,35.6634],[135.2683,35.6672],[135.2735,35.6664],[135.2744,35.671],[135.2826,35.6698],[135.2827,35.6852],[135.2814,35.6905],[135.2713,35.6934],[135.2659,35.6938],[135.2435,35.6883],[135.2172,35.6878],[135.2195,35.6788],[135.2212,35.6643],[135.2175,35.6593],[135.2116,35.6597],[135.2019,35.6653],[135.1967,35.6664],[135.1917,35.6655],[135.1794,35.6556],[135.1759,35.6542],[135.1658,35.6478],[135.1636,35.6424],[135.1639,35.6331],[135.1658,35.6276],[135.172,35.6219],[135.18,35.611],[135.1805,35.5918],[135.1762,35.5751],[135.1559,35.5618],[135.1515,35.5538],[135.1487,35.5517],[135.1481,35.5469],[135.1535,35.535],[135.1594,35.5319],[135.1671,35.5322],[135.1694,35.5288],[135.1707,35.5229],[135.17,35.5189],[135.1559,35.5066],[135.1513,35.5014],[135.1422,35.4855],[135.1303,35.4714],[135.138,35.4678],[135.1475,35.4649],[135.1631,35.452],[135.1657,35.449]]]}},{"type":"Feature","properties":{"id":26017},"geometry":{"type":"Polygon","coordinates":[[[135.698,34.9424],[135.7003,34.9324],[135.7041,34.9286],[135.7134,34.9257],[135.7154,34.9297],[135.7168,34.9373],[135.7167,34.945],[135.7122,34.9556],[135.7081,34.9598],[135.6986,34.9635],[135.6938,34.9636],[135.6879,34.9615],[135.6933,34.9483],[135.698,34.9424]]]}},{"type":"Feature","properties":{"id":26018},"geometry":{"type":"Polygon","coordinates":[[[135.7134,34.9257],[135.7041,34.9286],[135.7003,34.9324],[135.698,34.9424],[135.6898,34.9396],[135.6822,34.939],[135.6596,34.9392],[135.6546,34.9379],[135.65,34.9297],[135.6443,34.9273],[135.6459,34.9265],[135.6539,34.9162],[135.6569,34.906],[135.674,34.8968],[135.672,34.8995],[135.6909,34.9005],[135.7005,34.9023],[135.7101,34.9185],[135.7134,34.9257]]]}},{"type":"Feature","properties":{"id":26019},"geometry":{"type":"Polygon","coordinates":[[[135.5359,35.3756],[135.5252,35.3714],[135.5105,35.3642],[135.5057,35.356],[135.5048,35.3523],[135.4995,35.3447],[135.5004,35.3259],[135.4996,35.3211],[135.4966,35.3186],[135.4795,35.3112],[135.4752,35.3054],[135.4745,35.3004],[135.4718,35.2949],[135.4641,35.2888],[135.4571,35.2848],[135.4497,35.2661],[135.4505,35.2627],[135.4642,35.2512],[135.4619,35.2457],[135.4523,35.2375],[135.4516,35.2331],[135.4556,35.2232],[135.4546,35.2116],[135.4502,35.1956],[135.4501,35.1894],[135.452,35.1873],[135.4595,35.1844],[135.4644,35.1804],[135.4659,35.1753],[135.465,35.1667],[135.4455,35.1341],[135.4446,35.1292],[135.4392,35.1183],[135.4262,35.1157],[135.4238,35.1089],[135.4199,35.1054],[135.4097,35.1033],[135.394,35.1035],[135.3912,35.0984],[135.403,35.0909],[135.4016,35.0731],[135.3824,35.0645],[135.375,35.056],[135.3741,35.0463],[135.3824,35.0324],[135.3862,35.0271],[135.3983,35.0238],[135.4093,35.0225],[135.4325,35.0226],[135.4407,35.0238],[135.4502,35.0264],[135.4524,35.0289],[135.4565,35.0398],[135.4692,35.0612],[135.4726,35.064],[135.4879,35.0704],[135.4942,35.0704],[135.5068,35.0676],[135.5106,35.065],[135.5246,35.0578],[135.527,35.0575],[135.5398,35.0618],[135.5468,35.0626],[135.5539,35.0613],[135.5581,35.0631],[135.5606,35.0673],[135.5608,35.0772],[135.5579,35.0871],[135.5595,35.0898],[135.5706,35.0958],[135.576,35.0961],[135.588,35.0939],[135.5964,35.0912],[135.6082,35.0946],[135.6129,35.0996],[135.6112,35.1064],[135.6074,35.1075],[135.5993,35.1069],[135.5965,35.1093],[135.595,35.1204],[135.5934,35.1263],[135.5888,35.1287],[135.5787,35.1293],[135.5654,35.1338],[135.5629,35.1392],[135.5637,35.1497],[135.5762,35.1707],[135.5802,35.175],[135.5863,35.1858],[135.5904,35.1901],[135.5952,35.1982],[135.5955,35.2039],[135.5903,35.2213],[135.5939,35.225],[135.5989,35.226],[135.615,35.2324],[135.6207,35.2366],[135.6268,35.2482],[135.6321,35.253],[135.6416,35.2577],[135.6554,35.2597],[135.6663,35.2597],[135.6792,35.2579],[135.6894,35.258],[135.7038,35.2601],[135.7198,35.2667],[135.7279,35.2733],[135.7347,35.2848],[135.7453,35.2873],[135.7661,35.2879],[135.7755,35.2899],[135.778,35.2949],[135.7798,35.3073],[135.7828,35.313],[135.791,35.3198],[135.7865,35.328],[135.7749,35.3377],[135.7709,35.343],[135.7631,35.3507],[135.7493,35.3543],[135.7411,35.349],[135.731,35.3492],[135.7203,35.3515],[135.7123,35.3442],[135.7015,35.3418],[135.6914,35.3448],[135.68,35.3465],[135.6714,35.3535],[135.6609,35.3559],[135.6511,35.3592],[135.6397,35.3605],[135.625,35.3664],[135.6141,35.3644],[135.6032,35.3679],[135.5926,35.3651],[135.5824,35.3716],[135.5617,35.3732],[135.5372,35.3742],[135.5359,35.3756]]]}},{"type":"Feature","properties":{"id":26020},"geometry":{"type":"Polygon","coordinates":[[[135.7005,34.9023],[135.6909,34.9005],[135.672,34.8995],[135.674,34.8968],[135.679,34.8942],[135.6841,34.8854],[135.6852,34.8802],[135.6853,34.8796],[135.6948,34.8857],[135.6997,34.8908],[135.7005,34.9023]]]}},{"type":"Feature","properties":{"id":26021},"geometry":{"type":"Polygon","coordinates":[[[135.8035,34.7867],[135.7928,34.7801],[135.7844,34.7762],[135.7795,34.7752],[135.7687,34.7752],[135.7633,34.772],[135.76,34.7631],[135.7573,34.7586],[135.7511,34.7519],[135.7466,34.7451],[135.7562,34.7351],[135.7585,34.7243],[135.7808,34.7204],[135.7844,34.7205],[135.7845,34.7228],[135.793,34.7284],[135.793,34.7321],[135.79,34.7345],[135.7835,34.7356],[135.7797,34.7397],[135.7823,34.7448],[135.7975,34.7497],[135.8035,34.7538],[135.8083,34.7619],[135.8095,34.7698],[135.8081,34.7776],[135.8035,34.7867]]]}},{"type":"Feature","properties":{"id":26022},"geometry":{"type":"Polygon","coordinates":[[[135.8669,34.8144],[135.8806,34.8138],[135.8911,34.8166],[135.9001,34.8209],[135.925,34.8349],[135.9361,34.8406],[135.9387,34.8448],[135.9423,34.8541],[135.9476,34.8525],[135.9454,34.858],[135.9459,34.8707],[135.9461,34.8749],[135.9425,34.8851],[135.9316,34.8849],[135.9221,34.8813],[135.9128,34.8762],[135.9053,34.8695],[135.895,34.8713],[135.8887,34.8804],[135.8783,34.8835],[135.8695,34.8889],[135.8693,34.8931],[135.8685,34.8891],[135.8654,34.8874],[135.8589,34.8811],[135.8446,34.8689],[135.8385,34.8617],[135.8325,34.8583],[135.8385,34.852],[135.8475,34.8364],[135.8506,34.8324],[135.8549,34.8259],[135.8669,34.8144]]]}},{"type":"Feature","properties":{"id":26023},"geometry":{"type":"Polygon","coordinates":[[[135.8325,34.8583],[135.8385,34.8617],[135.8446,34.8689],[135.8589,34.8811],[135.8654,34.8874],[135.8685,34.8891],[135.8693,34.8931],[135.8688,34.9027],[135.8733,34.9124],[135.8757,34.9246],[135.8812,34.9338],[135.875,34.9522],[135.8668,34.9568],[135.8716,34.9493],[135.8719,34.9462],[135.8616,34.9494],[135.8568,34.9487],[135.8543,34.9463],[135.8536,34.9333],[135.8476,34.9297],[135.8415,34.9336],[135.8372,34.9341],[135.8303,34.9285],[135.8215,34.9254],[135.8172,34.926],[135.8042,34.932],[135.8009,34.9318],[135.7957,34.9275],[135.7892,34.9191],[135.7816,34.9137],[135.7704,34.9081],[135.7663,34.9051],[135.758,34.9012],[135.7616,34.8892],[135.7625,34.8816],[135.7673,34.8655],[135.7765,34.8654],[135.7932,34.8618],[135.8205,34.86],[135.8325,34.8583]]]}},{"type":"Feature","properties":{"id":26024},"geometry":{"type":"Polygon","coordinates":[[[135.869,34.7963],[135.8761,34.7838],[135.8897,34.7733],[135.8952,34.7704],[135.9099,34.7586],[135.9267,34.7625],[135.9364,34.7669],[135.9467,34.7755],[135.9516,34.7832],[135.9565,34.7935],[135.9607,34.8001],[135.9658,34.8045],[135.9771,34.81],[135.9812,34.8129],[135.9947,34.8191],[136.0002,34.8194],[136.0116,34.8147],[136.0298,34.815],[136.0313,34.8162],[136.0231,34.8227],[136.0127,34.8227],[136.0056,34.8303],[136,34.8412],[135.9797,34.8352],[135.9733,34.8437],[135.9645,34.8507],[135.9491,34.8486],[135.9476,34.8525],[135.9423,34.8541],[135.9387,34.8448],[135.9361,34.8406],[135.925,34.8349],[135.9001,34.8209],[135.8911,34.8166],[135.8806,34.8138],[135.8669,34.8144],[135.8683,34.8103],[135.869,34.7963]]]}},{"type":"Feature","properties":{"id":26025},"geometry":{"type":"Polygon","coordinates":[[[135.7533,34.8652],[135.7456,34.8662],[135.7324,34.8704],[135.7223,34.8746],[135.7193,34.8772],[135.7152,34.8845],[135.7112,34.8895],[135.6997,34.8908],[135.6948,34.8857],[135.6853,34.8796],[135.6876,34.8678],[135.694,34.8601],[135.6944,34.8499],[135.7044,34.8478],[135.7129,34.842],[135.7161,34.8371],[135.7192,34.8334],[135.7324,34.8436],[135.7415,34.8478],[135.7531,34.8484],[135.7579,34.8477],[135.7539,34.8562],[135.7533,34.8652]]]}},{"type":"Feature","properties":{"id":26026},"geometry":{"type":"Polygon","coordinates":[[[135.0516,35.449],[135.052,35.4552],[135.0601,35.451],[135.0711,35.447],[135.0814,35.4455],[135.0871,35.4463],[135.101,35.4509],[135.1088,35.4551],[135.1245,35.4661],[135.1303,35.4714],[135.1422,35.4855],[135.1513,35.5014],[135.1559,35.5066],[135.17,35.5189],[135.1707,35.5229],[135.1694,35.5288],[135.1671,35.5322],[135.1594,35.5319],[135.1535,35.535],[135.1481,35.5469],[135.1487,35.5517],[135.1515,35.5538],[135.1559,35.5618],[135.1762,35.5751],[135.1805,35.5918],[135.18,35.611],[135.1658,35.5985],[135.1622,35.5936],[135.1533,35.5854],[135.1495,35.5785],[135.1455,35.5743],[135.1345,35.5569],[135.1285,35.5508],[135.1226,35.5484],[135.1115,35.5482],[135.0983,35.545],[135.09,35.5414],[135.085,35.5405],[135.0772,35.5371],[135.0624,35.5321],[135.054,35.5327],[135.0405,35.5373],[135.045,35.5264],[135.0477,35.5165],[135.0477,35.5096],[135.0437,35.4971],[135.0433,35.4942],[135.0436,35.4683],[135.0469,35.4574],[135.0516,35.449]]]}}]}