{"type":"FeatureCollection","features":[{"type":"Feature","properties":{"id":27001},"geometry":{"type":"Polygon","coordinates":[[[135.677,34.4003],[135.6773,34.4099],[135.6694,34.4166],[135.683,34.4326],[135.6844,34.4363],[135.6776,34.4411],[135.6711,34.4433],[135.6585,34.4499],[135.6491,34.4561],[135.6312,34.4714],[135.6171,34.4755],[135.6171,34.4532],[135.6133,34.4438],[135.6034,34.439],[135.6073,34.437],[135.6232,34.4235],[135.6362,34.4156],[135.6463,34.4115],[135.6563,34.4],[135.6661,34.3932],[135.6769,34.3958],[135.677,34.4003]]]}},{"type":"Feature","properties":{"id":27002},"geometry":{"type":"Polygon","coordinates":[[[135.677,34.7034],[135.6765,34.7115],[135.6707,34.7166],[135.6622,34.7194],[135.654,34.7246],[135.6425,34.7286],[135.629,34.7284],[135.6261,34.7227],[135.6224,34.7196],[135.6104,34.7158],[135.6025,34.7109],[135.5995,34.7028],[135.6109,34.6986],[135.6156,34.6948],[135.619,34.6947],[135.625,34.6997],[135.6365,34.7003],[135.644,34.7015],[135.6618,34.7002],[135.6722,34.703],[135.677,34.7034]]]}},{"type":"Feature","properties":{"id":27003},"geometry":{"type":"Polygon","coordinates":[[[135.6243,34.5602],[135.6282,34.574],[135.6284,34.5787],[135.6199,34.5834],[135.6079,34.5837],[135.5975,34.5849],[135.5921,34.5865],[135.5851,34.5907],[135.5848,34.5769],[135.5981,34.5654],[135.5999,34.5546],[135.6055,34.5553],[135.6073,34.561],[135.6099,34.5626],[135.6243,34.5602]]]}},{"type":"Feature","properties":{"id":27004},"geometry":{"type":"Polygon","coordinates":[[[135.6558,34.544],[135.6404,34.5417],[135.6347,34.5438],[135.6269,34.5502],[135.6247,34.5536],[135.6243,34.5602],[135.6099,34.5626],[135.6073,34.561],[135.6055,34.5553],[135.5999,34.5546],[135.5981,34.5654],[135.5848,34.5769],[135.5745,34.5756],[135.5725,34.573],[135.572,34.5644],[135.5692,34.5594],[135.5699,34.553],[135.5665,34.5427],[135.5716,34.5406],[135.581,34.5407],[135.5934,34.5269],[135.5999,34.5275],[135.6142,34.5271],[135.6184,34.526],[135.625,34.522],[135.646,34.5306],[135.6538,34.5329],[135.66,34.5365],[135.6558,34.544]]]}},{"type":"Feature","properties":{"id":27005},"geometry":{"type":"Polygon","coordinates":[[[135.1913,34.3373],[135.1955,34.3269],[135.1942,34.3155],[135.1974,34.3132],[135.204,34.3142],[135.2102,34.3085],[135.2101,34.3031],[135.2108,34.305],[135.232,34.2987],[135.2418,34.304],[135.25,34.31],[135.2599,34.3124],[135.2734,34.3094],[135.2847,34.3142],[135.2822,34.3161],[135.2821,34.3217],[135.2781,34.3294],[135.2719,34.338],[135.2713,34.3424],[135.2672,34.3512],[135.2581,34.3599],[135.2556,34.3663],[135.2556,34.3805],[135.2521,34.3773],[135.2467,34.3756],[135.2418,34.3678],[135.2348,34.3606],[135.2259,34.3493],[135.2159,34.3439],[135.2074,34.3433],[135.1913,34.3373]]]}},{"type":"Feature","properties":{"id":27006},"geometry":{"type":"Polygon","coordinates":[[[135.6729,34.6587],[135.6808,34.6773],[135.6758,34.6877],[135.6806,34.7027],[135.677,34.7034],[135.6722,34.703],[135.6618,34.7002],[135.644,34.7015],[135.6365,34.7003],[135.625,34.6997],[135.619,34.6947],[135.6156,34.6948],[135.6109,34.6986],[135.5995,34.7028],[135.5908,34.6989],[135.5829,34.6886],[135.5709,34.6852],[135.5684,34.6831],[135.5681,34.6716],[135.564,34.6622],[135.5674,34.6578],[135.5654,34.6467],[135.5659,34.6427],[135.5713,34.6328],[135.5801,34.6272],[135.5911,34.6289],[135.5943,34.6302],[135.5982,34.6381],[135.6007,34.6462],[135.6042,34.6476],[135.61,34.6473],[135.6189,34.6449],[135.6257,34.6395],[135.6414,34.6392],[135.648,34.6423],[135.657,34.6413],[135.6673,34.6415],[135.6691,34.6498],[135.6729,34.6587]]]}},{"type":"Feature","properties":{"id":27007},"geometry":{"type":"Polygon","coordinates":[[[135.7161,34.8371],[135.7129,34.842],[135.7044,34.8478],[135.6944,34.8499],[135.694,34.8601],[135.6876,34.8678],[135.6853,34.8796],[135.6852,34.8802],[135.674,34.8634],[135.6665,34.8503],[135.6589,34.8483],[135.6535,34.8439],[135.6513,34.8381],[135.6506,34.827],[135.6487,34.8214],[135.6429,34.8134],[135.6313,34.8081],[135.6233,34.803],[135.6199,34.7978],[135.617,34.7901],[135.6316,34.7878],[135.6443,34.7844],[135.6485,34.7811],[135.653,34.7745],[135.6614,34.7733],[135.6725,34.7727],[135.6753,34.7778],[135.6726,34.7824],[135.6678,34.7868],[135.6666,34.7902],[135.668,34.795],[135.6736,34.7977],[135.6957,34.7973],[135.7116,34.793],[135.7151,34.7901],[135.7157,34.7856],[135.7142,34.7779],[135.732,34.7755],[135.7396,34.7827],[135.7463,34.791],[135.7467,34.8015],[135.7397,34.8103],[135.726,34.8231],[135.7161,34.8371]]]}},{"type":"Feature","properties":{"id":27008},"geometry":{"type":"Polygon","coordinates":[[[135.5298,34.9265],[135.5272,34.9224],[135.5206,34.9043],[135.5103,34.8969],[135.5026,34.8853],[135.4987,34.8765],[135.506,34.8709],[135.5121,34.8718],[135.5167,34.8703],[135.5242,34.8655],[135.5307,34.86],[135.5429,34.8586],[135.5466,34.851],[135.5505,34.8348],[135.5496,34.8314],[135.543,34.8284],[135.5282,34.8237],[135.5538,34.8057],[135.5542,34.7985],[135.5525,34.7946],[135.5626,34.79],[135.5656,34.7847],[135.5698,34.7825],[135.5745,34.7829],[135.5864,34.7911],[135.589,34.792],[135.5995,34.8015],[135.6058,34.8105],[135.6033,34.8143],[135.5974,34.8169],[135.5938,34.8201],[135.5916,34.8249],[135.5911,34.8321],[135.5885,34.8393],[135.5851,34.8431],[135.5759,34.8456],[135.5729,34.8483],[135.5694,34.8629],[135.5687,34.8727],[135.574,34.878],[135.5744,34.8818],[135.5706,34.8865],[135.5732,34.8985],[135.5761,34.9018],[135.5761,34.9056],[135.5681,34.9143],[135.5547,34.9137],[135.544,34.912],[135.5385,34.9227],[135.5298,34.9265]]]}},{"type":"Feature","properties":{"id":27009},"geometry":{"type":"Polygon","coordinates":[[[135.4419,34.7895],[135.4544,34.802],[135.4579,34.804],[135.4541,34.8113],[135.454,34.8227],[135.4581,34.8407],[135.4611,34.8458],[135.4636,34.8551],[135.4627,34.8582],[135.4586,34.863],[135.4388,34.8725],[135.4356,34.8638],[135.4338,34.8534],[135.4249,34.8487],[135.4252,34.8387],[135.4218,34.8133],[135.4211,34.809],[135.4357,34.7948],[135.4419,34.7895]]]}},{"type":"Feature","properties":{"id":27010},"geometry":{"type":"Polygon","coordinates":[[[135.4237,34.4807],[135.4233,34.4774],[135.4198,34.4748],[135.4241,34.4691],[135.4372,34.4669],[135.4436,34.4636],[135.4458,34.4593],[135.4473,34.4467],[135.4493,34.4384],[135.4578,34.4172],[135.4609,34.4107],[135.457,34.3971],[135.4626,34.3844],[135.4637,34.3755],[135.4593,34.3657],[135.4581,34.3588],[135.4584,34.3522],[135.4556,34.3468],[135.466,34.345],[135.4756,34.3498],[135.4881,34.3594],[135.4908,34.3565],[135.4936,34.3573],[135.4945,34.367],[135.4965,34.3705],[135.5043,34.3753],[135.5143,34.3793],[135.5218,34.3854],[135.5232,34.3889],[135.5235,34.3982],[135.5273,34.4058],[135.5279,34.4099],[135.5283,34.4265],[135.5177,34.4261],[135.5025,34.4335],[135.5012,34.4352],[135.5008,34.4465],[135.4982,34.4556],[135.4948,34.4585],[135.4881,34.4609],[135.4854,34.4643],[135.4826,34.4741],[135.4696,34.4798],[135.4684,34.4822],[135.4673,34.4939],[135.4642,34.5065],[135.4606,34.5112],[135.4541,34.5118],[135.437,34.512],[135.4314,34.505],[135.4336,34.4952],[135.4327,34.4929],[135.4258,34.488],[135.4237,34.4807]]]}},{"type":"Feature","properties":{"id":27011},"geometry":{"type":"Polygon","coordinates":[[[135.437,34.512],[135.418,34.5203],[135.4095,34.5235],[135.4059,34.5144],[135.4012,34.5194],[135.4034,34.5251],[135.3976,34.5321],[135.3944,34.5324],[135.3885,34.5244],[135.3952,34.5176],[135.3995,34.5109],[135.3896,34.512],[135.3865,34.5169],[135.3786,34.5181],[135.3717,34.5233],[135.3672,34.5164],[135.3829,34.5052],[135.3855,34.5065],[135.3939,34.4997],[135.4061,34.4982],[135.4104,34.4954],[135.4132,34.49],[135.4237,34.4807],[135.4258,34.488],[135.4327,34.4929],[135.4336,34.4952],[135.4314,34.505],[135.437,34.512]]]}},{"type":"Feature","properties":{"id":27012},"geometry":{"type":"Polygon","coordinates":[[[135.3894,34.3525],[135.3839,34.3581],[135.3797,34.3603],[135.3685,34.3698],[135.3609,34.3815],[135.3519,34.3857],[135.3443,34.3919],[135.342,34.3956],[135.3421,34.401],[135.3485,34.4069],[135.36,34.4101],[135.3623,34.4172],[135.3508,34.4271],[135.3383,34.4318],[135.3346,34.4353],[135.3299,34.4343],[135.3252,34.4366],[135.3219,34.432],[135.3277,34.4294],[135.3236,34.4249],[135.3213,34.4298],[135.3181,34.4308],[135.3143,34.4263],[135.3196,34.4229],[135.3161,34.4176],[135.294,34.4152],[135.2673,34.4354],[135.2597,34.4439],[135.2547,34.4453],[135.2483,34.4422],[135.2414,34.4369],[135.2511,34.4292],[135.2641,34.4366],[135.2937,34.4138],[135.2935,34.4079],[135.2996,34.4006],[135.3103,34.3929],[135.3096,34.3891],[135.3002,34.3855],[135.2952,34.3802],[135.2995,34.3782],[135.3066,34.381],[135.3137,34.3805],[135.3231,34.3723],[135.3268,34.366],[135.3349,34.3471],[135.3389,34.3419],[135.3445,34.3384],[135.3436,34.3311],[135.3536,34.3282],[135.3616,34.3294],[135.3724,34.3271],[135.3862,34.326],[135.3962,34.3283],[135.4118,34.3389],[135.4147,34.3386],[135.4028,34.3466],[135.3894,34.3525]]]}},{"type":"Feature","properties":{"id":27013},"geometry":{"type":"Polygon","coordinates":[[[135.629,34.7284],[135.627,34.7386],[135.6217,34.74],[135.615,34.7453],[135.6056,34.741],[135.5972,34.744],[135.59,34.7441],[135.5833,34.7355],[135.5842,34.728],[135.5867,34.7189],[135.5921,34.715],[135.6025,34.7109],[135.6104,34.7158],[135.6224,34.7196],[135.6261,34.7227],[135.629,34.7284]]]}},{"type":"Feature","properties":{"id":27014},"geometry":{"type":"MultiPolygon","coordinates":[[[[135.3894,34.3525],[135.4028,34.3466],[135.4147,34.3386],[135.4293,34.3375],[135.4371,34.3449],[135.4445,34.3457],[135.4393,34.3491],[135.4353,34.3554],[135.4328,34.3644],[135.4291,34.3739],[135.4206,34.3803],[135.4168,34.387],[135.4093,34.4032],[135.413,34.4071],[135.4114,34.4116],[135.4006,34.4132],[135.3944,34.4168],[135.3853,34.4305],[135.3849,34.4424],[135.3824,34.4465],[135.3716,34.4514],[135.3643,34.4589],[135.3606,34.4602],[135.3559,34.4561],[135.3521,34.4574],[135.3505,34.4517],[135.3469,34.4482],[135.3436,34.4494],[135.3369,34.4453],[135.3346,34.4353],[135.3383,34.4318],[135.3508,34.4271],[135.3623,34.4172],[135.3731,34.4097],[135.3807,34.3998],[135.3918,34.3825],[135.3895,34.367],[135.3902,34.3617],[135.3894,34.3525]]],[[[135.3369,34.4475],[135.3433,34.4514],[135.348,34.4578],[135.3414,34.4664],[135.3286,34.4501],[135.3333,34.4467],[135.3369,34.4475]]]]}},{"type":"Feature","properties":{"id":27015},"geometry":{"type":"Polygon","coordinates":[[[135.6854,34.4703],[135.684,34.4769],[135.6826,34.4911],[135.6762,34.5],[135.6775,34.504],[135.6697,34.5021],[135.662,34.4972],[135.6534,34.4982],[135.6423,34.5031],[135.6348,34.509],[135.6245,34.5127],[135.621,34.5068],[135.62,34.497],[135.6215,34.4941],[135.6279,34.49],[135.6277,34.4862],[135.6178,34.4868],[135.6171,34.4755],[135.6312,34.4714],[135.6491,34.4561],[135.6585,34.4499],[135.6711,34.4433],[135.6776,34.4411],[135.6844,34.4363],[135.6867,34.4422],[135.6854,34.4525],[135.686,34.467],[135.6854,34.4703]]]}},{"type":"Feature","properties":{"id":27016},"geometry":{"type":"Polygon","coordinates":[[[135.6787,34.572],[135.6846,34.5816],[135.6834,34.5842],[135.6799,34.5918],[135.6737,34.6004],[135.6638,34.5986],[135.6561,34.6027],[135.6539,34.6002],[135.6446,34.5975],[135.6314,34.5977],[135.6252,34.5965],[135.6181,34.591],[135.6111,34.5909],[135.6083,34.5876],[135.6079,34.5837],[135.6199,34.5834],[135.6284,34.5787],[135.6282,34.574],[135.6243,34.5602],[135.6247,34.5536],[135.6269,34.5502],[135.6347,34.5438],[135.6404,34.5417],[135.6558,34.544],[135.6651,34.5627],[135.6759,34.5675],[135.6787,34.572]]]}},{"type":"Feature","properties":{"id":27017},"geometry":{"type":"Polygon","coordinates":[[[135.7142,34.7779],[135.7157,34.7856],[135.7151,34.7901],[135.7116,34.793],[135.6957,34.7973],[135.6736,34.7977],[135.668,34.795],[135.6666,34.7902],[135.6678,34.7868],[135.6726,34.7824],[135.6753,34.7778],[135.6725,34.7727],[135.6614,34.7733],[135.6641,34.7587],[135.661,34.7458],[135.6888,34.7415],[135.6991,34.7422],[135.7023,34.7452],[135.7023,34.7468],[135.7127,34.75],[135.7118,34.7607],[135.7142,34.7779]]]}},{"type":"Feature","properties":{"id":27018},"geometry":{"type":"Polygon","coordinates":[[[135.6661,34.3932],[135.6563,34.4],[135.6463,34.4115],[135.6362,34.4156],[135.6232,34.4235],[135.6073,34.437],[135.6034,34.439],[135.5979,34.4433],[135.5853,34.4503],[135.5829,34.4566],[135.5833,34.4687],[135.5698,34.4751],[135.5622,34.4772],[135.5462,34.4635],[135.5432,34.4608],[135.5311,34.4433],[135.5228,34.4363],[135.5228,34.4317],[135.5283,34.4265],[135.5279,34.4099],[135.5273,34.4058],[135.5235,34.3982],[135.5232,34.3889],[135.5218,34.3854],[135.5143,34.3793],[135.5043,34.3753],[135.4965,34.3705],[135.4945,34.367],[135.4936,34.3573],[135.4908,34.3565],[135.5061,34.34],[135.5193,34.3388],[135.5345,34.3495],[135.5409,34.353],[135.5535,34.355],[135.571,34.3682],[135.5801,34.3727],[135.5915,34.3722],[135.6013,34.3769],[135.6113,34.3742],[135.6247,34.3809],[135.6352,34.3793],[135.6458,34.3804],[135.6661,34.3932]]]}},{"type":"Feature","properties":{"id":27019},"geometry":{"type":"Polygon","coordinates":[[[135.4556,34.3468],[135.4584,34.3522],[135.4581,34.3588],[135.4593,34.3657],[135.4637,34.3755],[135.4626,34.3844],[135.457,34.3971],[135.4609,34.4107],[135.4578,34.4172],[135.4493,34.4384],[135.4473,34.4467],[135.4458,34.4593],[135.4436,34.4636],[135.4372,34.4669],[135.4241,34.4691],[135.4198,34.4748],[135.411,34.4774],[135.4054,34.481],[135.4011,34.4876],[135.3977,34.4897],[135.3842,34.4922],[135.3786,34.4991],[135.3804,34.5034],[135.3733,34.5063],[135.3709,34.5035],[135.3703,34.4963],[135.3722,34.494],[135.3717,34.4894],[135.3766,34.4862],[135.374,34.4765],[135.3669,34.4808],[135.3643,34.4774],[135.3678,34.4707],[135.3551,34.4634],[135.3606,34.4602],[135.3643,34.4589],[135.3716,34.4514],[135.3824,34.4465],[135.3849,34.4424],[135.3853,34.4305],[135.3944,34.4168],[135.4006,34.4132],[135.4114,34.4116],[135.413,34.4071],[135.4093,34.4032],[135.4168,34.387],[135.4206,34.3803],[135.4291,34.3739],[135.4328,34.3644],[135.4353,34.3554],[135.4393,34.3491],[135.4445,34.3457],[135.4529,34.3465],[135.4556,34.3468]]]}},{"type":"Feature","properties":{"id":27020},"geometry":{"type":"Polygon","coordinates":[[[135.3894,34.3525],[135.3902,34.3617],[135.3895,34.367],[135.3918,34.3825],[135.3807,34.3998],[135.3731,34.4097],[135.3623,34.4172],[135.36,34.4101],[135.3485,34.4069],[135.3421,34.401],[135.342,34.3956],[135.3443,34.3919],[135.3519,34.3857],[135.3609,34.3815],[135.3685,34.3698],[135.3797,34.3603],[135.3839,34.3581],[135.3894,34.3525]]]}},{"type":"Feature","properties":{"id":27021},"geometry":{"type":"Polygon","coordinates":[[[135.5851,34.5907],[135.5726,34.5882],[135.5606,34.5942],[135.5493,34.5962],[135.5337,34.5962],[135.5259,34.5934],[135.5253,34.5852],[135.5268,34.5789],[135.5327,34.5731],[135.5465,34.5696],[135.5499,34.5675],[135.5549,34.5618],[135.5596,34.5601],[135.5692,34.5594],[135.572,34.5644],[135.5725,34.573],[135.5745,34.5756],[135.5848,34.5769],[135.5851,34.5907]]]}},{"type":"Feature","properties":{"id":27022},"geometry":{"type":"Polygon","coordinates":[[[135.4388,34.8725],[135.4586,34.863],[135.4627,34.8582],[135.4636,34.8551],[135.4611,34.8458],[135.4581,34.8407],[135.454,34.8227],[135.4541,34.8113],[135.4579,34.804],[135.4619,34.8065],[135.472,34.8105],[135.479,34.8159],[135.4955,34.8128],[135.4982,34.8161],[135.4998,34.8239],[135.5049,34.8252],[135.5155,34.8258],[135.5282,34.8237],[135.543,34.8284],[135.5496,34.8314],[135.5505,34.8348],[135.5466,34.851],[135.5429,34.8586],[135.5307,34.86],[135.5242,34.8655],[135.5167,34.8703],[135.5121,34.8718],[135.506,34.8709],[135.4987,34.8765],[135.4917,34.8725],[135.4878,34.8729],[135.4839,34.8825],[135.4843,34.8878],[135.4883,34.893],[135.4872,34.8957],[135.4781,34.9039],[135.4691,34.9037],[135.4613,34.8982],[135.4508,34.8944],[135.4473,34.8904],[135.4441,34.8903],[135.4427,34.8834],[135.4388,34.8725]]]}},{"type":"Feature","properties":{"id":27023},"geometry":{"type":"Polygon","coordinates":[[[135.1913,34.3373],[135.1843,34.3359],[135.1758,34.3376],[135.1638,34.3315],[135.1536,34.3313],[135.1489,34.3233],[135.1426,34.319],[135.1383,34.3185],[135.1328,34.32],[135.1315,34.3251],[135.125,34.3255],[135.1216,34.3224],[135.1143,34.3227],[135.1029,34.3202],[135.0986,34.3154],[135.0925,34.3114],[135.1062,34.3078],[135.1046,34.2977],[135.1017,34.287],[135.1106,34.281],[135.113,34.2705],[135.125,34.2715],[135.1349,34.2691],[135.1418,34.2772],[135.1516,34.2798],[135.1664,34.2754],[135.177,34.2767],[135.1876,34.2768],[135.1953,34.2835],[135.2067,34.2848],[135.2074,34.2955],[135.2101,34.3031],[135.2102,34.3085],[135.204,34.3142],[135.1974,34.3132],[135.1942,34.3155],[135.1955,34.3269],[135.1913,34.3373]]]}},{"type":"Feature","properties":{"id":27024},"geometry":{"type":"Polygon","coordinates":[[[135.615,34.7453],[135.6091,34.7528],[135.5965,34.7629],[135.592,34.7653],[135.5834,34.7576],[135.5733,34.7568],[135.5657,34.7502],[135.5631,34.7368],[135.5581,34.7287],[135.5617,34.7232],[135.5666,34.7208],[135.5701,34.7172],[135.5733,34.7092],[135.5793,34.7088],[135.5867,34.7189],[135.5842,34.728],[135.5833,34.7355],[135.59,34.7441],[135.5972,34.744],[135.6056,34.741],[135.615,34.7453]]]}},{"type":"Feature","properties":{"id":27025},"geometry":{"type":"Polygon","coordinates":[[[135.617,34.7901],[135.6131,34.784],[135.6064,34.778],[135.604,34.7745],[135.592,34.7653],[135.5965,34.7629],[135.6091,34.7528],[135.615,34.7453],[135.6217,34.74],[135.627,34.7386],[135.6355,34.7455],[135.661,34.7458],[135.6641,34.7587],[135.6614,34.7733],[135.653,34.7745],[135.6485,34.7811],[135.6443,34.7844],[135.6316,34.7878],[135.617,34.7901]]]}},{"type":"Feature","properties":{"id":27026},"geometry":{"type":"Polygon","coordinates":[[[135.4201,34.9322],[135.4337,34.9334],[135.4431,34.9385],[135.4589,34.942],[135.4781,34.9497],[135.4889,34.9565],[135.4899,34.9687],[135.4862,34.9785],[135.4929,34.9863],[135.484,34.9917],[135.4728,34.9921],[135.4642,34.9973],[135.4531,35],[135.4433,35.0044],[135.4325,35.0028],[135.4208,35],[135.4128,35.0081],[135.4029,35.0048],[135.393,35.0071],[135.3834,35.0115],[135.3849,35.0278],[135.3738,35.0422],[135.3621,35.0469],[135.3418,35.0405],[135.337,35.0311],[135.3427,35.0228],[135.3572,35.0212],[135.3553,35],[135.3559,34.9898],[135.3615,34.9807],[135.3523,34.9754],[135.3494,34.9656],[135.3572,34.9592],[135.3639,34.9513],[135.3746,34.9507],[135.3854,34.9526],[135.3898,34.9433],[135.3999,34.9407],[135.4128,34.9415],[135.4201,34.9322]]]}},{"type":"Feature","properties":{"id":27027},"geometry":{"type":"MultiPolygon","coordinates":[[[[135.3822,34.66],[135.3805,34.6606],[135.3732,34.6519],[135.3791,34.6429],[135.3919,34.642],[135.395,34.6456],[135.3997,34.6481],[135.4047,34.6531],[135.4022,34.6561],[135.3979,34.6576],[135.3822,34.66]]],[[[135.4102,34.6592],[135.4108,34.6659],[135.4068,34.6713],[135.4029,34.6732],[135.3884,34.6679],[135.3877,34.6627],[135.4044,34.6591],[135.4102,34.6592]]],[[[135.4624,34.7329],[135.4541,34.7297],[135.4536,34.72],[135.4496,34.7167],[135.4364,34.712],[135.4265,34.7098],[135.4214,34.7056],[135.4209,34.704],[135.4097,34.6984],[135.4087,34.6949],[135.4147,34.6898],[135.4208,34.687],[135.4223,34.6796],[135.4117,34.6766],[135.4128,34.6719],[135.4251,34.6754],[135.425,34.6719],[135.4182,34.6702],[135.4185,34.6639],[135.4206,34.6617],[135.4196,34.6545],[135.4344,34.6608],[135.4385,34.6636],[135.4456,34.673],[135.4514,34.6721],[135.4515,34.6689],[135.4472,34.6678],[135.4422,34.6614],[135.4382,34.6588],[135.4303,34.6572],[135.4287,34.6519],[135.4386,34.6465],[135.4401,34.6485],[135.4478,34.6455],[135.455,34.6475],[135.4603,34.6542],[135.4627,34.6525],[135.4591,34.6479],[135.4614,34.6453],[135.4627,34.6386],[135.4594,34.6378],[135.4573,34.6301],[135.4593,34.6257],[135.4535,34.6168],[135.4469,34.616],[135.443,34.6181],[135.4392,34.6256],[135.4389,34.6333],[135.4417,34.639],[135.4338,34.6442],[135.4231,34.6431],[135.4175,34.6443],[135.3983,34.6386],[135.3986,34.6333],[135.405,34.6308],[135.4114,34.6367],[135.4136,34.6349],[135.407,34.6297],[135.4103,34.6258],[135.4184,34.6258],[135.4185,34.6198],[135.3998,34.6196],[135.4032,34.6117],[135.4163,34.6123],[135.418,34.6107],[135.4439,34.6106],[135.4592,34.6094],[135.4662,34.6076],[135.4722,34.6025],[135.4786,34.6003],[135.488,34.599],[135.4957,34.595],[135.4998,34.5913],[135.5023,34.5865],[135.5071,34.5858],[135.5259,34.5934],[135.5337,34.5962],[135.5493,34.5962],[135.5606,34.5942],[135.5726,34.5882],[135.5851,34.5907],[135.5875,34.6021],[135.5852,34.6075],[135.5803,34.6127],[135.5801,34.6272],[135.5713,34.6328],[135.5659,34.6427],[135.5654,34.6467],[135.5674,34.6578],[135.564,34.6622],[135.5681,34.6716],[135.5684,34.6831],[135.5709,34.6852],[135.5829,34.6886],[135.5908,34.6989],[135.5995,34.7028],[135.6025,34.7109],[135.5921,34.715],[135.5867,34.7189],[135.5793,34.7088],[135.5733,34.7092],[135.5701,34.7172],[135.5666,34.7208],[135.5617,34.7232],[135.5581,34.7287],[135.5631,34.7368],[135.5657,34.7502],[135.5585,34.7563],[135.5553,34.7671],[135.5417,34.7619],[135.5378,34.7575],[135.5331,34.7497],[135.5272,34.7471],[135.5165,34.7442],[135.506,34.7441],[135.4938,34.7474],[135.4814,34.7351],[135.4786,34.7334],[135.4624,34.7329]]]]}},{"type":"Feature","properties":{"id":27028},"geometry":{"type":"Polygon","coordinates":[[[135.5622,34.4772],[135.561,34.4868],[135.5637,34.4894],[135.5684,34.488],[135.5705,34.492],[135.5636,34.4997],[135.5636,34.5035],[135.5694,34.51],[135.5683,34.5157],[135.5611,34.5229],[135.5574,34.5235],[135.5551,34.5196],[135.5494,34.5162],[135.5477,34.5114],[135.5498,34.5068],[135.5477,34.5012],[135.5416,34.4986],[135.5391,34.4945],[135.5381,34.4806],[135.5392,34.4738],[135.5462,34.4635],[135.5622,34.4772]]]}},{"type":"Feature","properties":{"id":27029},"geometry":{"type":"Polygon","coordinates":[[[135.5934,34.5269],[135.581,34.5407],[135.5716,34.5406],[135.5665,34.5427],[135.5699,34.553],[135.5692,34.5594],[135.5596,34.5601],[135.5549,34.5618],[135.5499,34.5675],[135.5465,34.5696],[135.5327,34.5731],[135.5268,34.5789],[135.5253,34.5852],[135.5259,34.5934],[135.5071,34.5858],[135.5023,34.5865],[135.4998,34.5913],[135.4957,34.595],[135.488,34.599],[135.4786,34.6003],[135.4722,34.6025],[135.4652,34.6017],[135.4569,34.6045],[135.4511,34.6044],[135.4464,34.6006],[135.4453,34.5976],[135.4361,34.6002],[135.4332,34.6024],[135.424,34.6047],[135.4261,34.5929],[135.437,34.5888],[135.4484,34.591],[135.452,34.5754],[135.4494,34.5695],[135.4452,34.5676],[135.4418,34.5834],[135.4351,34.5835],[135.4328,34.5872],[135.4259,34.587],[135.4291,34.5745],[135.4293,34.5705],[135.4217,34.5706],[135.4189,34.5784],[135.4181,34.5853],[135.4156,34.5939],[135.4047,34.5997],[135.4025,34.5974],[135.4046,34.5898],[135.4109,34.5605],[135.424,34.56],[135.431,34.5605],[135.4425,34.5577],[135.4451,34.5557],[135.4436,34.5478],[135.4396,34.543],[135.452,34.5341],[135.4552,34.5266],[135.4611,34.5231],[135.4606,34.5112],[135.4642,34.5065],[135.4673,34.4939],[135.4684,34.4822],[135.4696,34.4798],[135.4826,34.4741],[135.4854,34.4643],[135.4881,34.4609],[135.4948,34.4585],[135.4982,34.4556],[135.5008,34.4465],[135.5012,34.4352],[135.5025,34.4335],[135.5177,34.4261],[135.5283,34.4265],[135.5228,34.4317],[135.5228,34.4363],[135.5311,34.4433],[135.5432,34.4608],[135.5462,34.4635],[135.5392,34.4738],[135.5381,34.4806],[135.5391,34.4945],[135.5416,34.4986],[135.5477,34.5012],[135.5498,34.5068],[135.5477,34.5114],[135.5494,34.5162],[135.5551,34.5196],[135.5574,34.5235],[135.5611,34.5229],[135.5683,34.5157],[135.5694,34.51],[135.5832,34.5098],[135.5872,34.5133],[135.5875,34.5191],[135.5934,34.5269]]]}},{"type":"Feature","properties":{"id":27030},"geometry":{"type":"MultiPolygon","coordinates":[[[[135.2556,34.3805],[135.2556,34.3663],[135.2581,34.3599],[135.2672,34.3512],[135.2713,34.3424],[135.2719,34.338],[135.2781,34.3294],[135.2821,34.3217],[135.2822,34.3161],[135.2847,34.3142],[135.2893,34.3041],[135.2951,34.2957],[135.3041,34.3008],[135.3093,34.3111],[135.3325,34.3138],[135.3414,34.332],[135.3436,34.3311],[135.3445,34.3384],[135.3389,34.3419],[135.3349,34.3471],[135.3268,34.366],[135.3231,34.3723],[135.3137,34.3805],[135.3066,34.381],[135.2995,34.3782],[135.2952,34.3802],[135.2794,34.3938],[135.2729,34.3891],[135.2739,34.3854],[135.266,34.3775],[135.2639,34.3804],[135.2556,34.3805]]],[[[135.2394,34.4214],[135.2302,34.4299],[135.2195,34.4225],[135.2288,34.4131],[135.2408,34.42],[135.2394,34.4214]]]]}},{"type":"Feature","properties":{"id":27031},"geometry":{"type":"Polygon","coordinates":[[[135.5525,34.7946],[135.5455,34.7869],[135.5446,34.7835],[135.5553,34.7671],[135.5585,34.7563],[135.5657,34.7502],[135.5733,34.7568],[135.5834,34.7576],[135.592,34.7653],[135.604,34.7745],[135.6064,34.778],[135.6049,34.792],[135.5995,34.8015],[135.589,34.792],[135.5864,34.7911],[135.5745,34.7829],[135.5698,34.7825],[135.5656,34.7847],[135.5626,34.79],[135.5525,34.7946]]]}},{"type":"Feature","properties":{"id":27032},"geometry":{"type":"Polygon","coordinates":[[[135.7023,34.7452],[135.6991,34.7422],[135.6888,34.7415],[135.661,34.7458],[135.6355,34.7455],[135.627,34.7386],[135.629,34.7284],[135.6425,34.7286],[135.654,34.7246],[135.6622,34.7194],[135.6707,34.7166],[135.6765,34.7115],[135.677,34.7034],[135.6806,34.7027],[135.6896,34.7083],[135.7066,34.7212],[135.7027,34.7313],[135.7023,34.7452]]]}},{"type":"Feature","properties":{"id":27033},"geometry":{"type":"Polygon","coordinates":[[[135.6295,34.931],[135.6295,34.9096],[135.6304,34.9055],[135.6364,34.9011],[135.6382,34.8889],[135.6421,34.8839],[135.6525,34.873],[135.6594,34.8694],[135.6684,34.8665],[135.674,34.8634],[135.6852,34.8802],[135.6841,34.8854],[135.679,34.8942],[135.674,34.8968],[135.6569,34.906],[135.6539,34.9162],[135.6459,34.9265],[135.6443,34.9273],[135.6358,34.9313],[135.6295,34.931]]]}},{"type":"Feature","properties":{"id":27034},"geometry":{"type":"Polygon","coordinates":[[[135.5282,34.8237],[135.5155,34.8258],[135.5049,34.8252],[135.4998,34.8239],[135.5053,34.8178],[135.5087,34.8108],[135.5077,34.8008],[135.5026,34.7939],[135.4987,34.7825],[135.4998,34.7726],[135.4951,34.7643],[135.4938,34.7474],[135.506,34.7441],[135.5165,34.7442],[135.5272,34.7471],[135.5331,34.7497],[135.5378,34.7575],[135.5417,34.7619],[135.5553,34.7671],[135.5446,34.7835],[135.5455,34.7869],[135.5525,34.7946],[135.5542,34.7985],[135.5538,34.8057],[135.5282,34.8237]]]}},{"type":"Feature","properties":{"id":27035},"geometry":{"type":"Polygon","coordinates":[[[135.4237,34.4807],[135.4132,34.49],[135.4104,34.4954],[135.4061,34.4982],[135.3939,34.4997],[135.3855,34.5065],[135.3829,34.5052],[135.3804,34.5034],[135.3786,34.4991],[135.3842,34.4922],[135.3977,34.4897],[135.4011,34.4876],[135.4054,34.481],[135.411,34.4774],[135.4198,34.4748],[135.4233,34.4774],[135.4237,34.4807]]]}},{"type":"Feature","properties":{"id":27036},"geometry":{"type":"Polygon","coordinates":[[[135.66,34.5365],[135.6538,34.5329],[135.646,34.5306],[135.625,34.522],[135.6245,34.5127],[135.6348,34.509],[135.6423,34.5031],[135.6534,34.4982],[135.662,34.4972],[135.6697,34.5021],[135.6775,34.504],[135.6797,34.5107],[135.6797,34.5223],[135.6649,34.5277],[135.6603,34.5359],[135.66,34.5365]]]}},{"type":"Feature","properties":{"id":27037},"geometry":{"type":"MultiPolygon","coordinates":[[[[135.2952,34.3802],[135.3002,34.3855],[135.3096,34.3891],[135.3103,34.3929],[135.2996,34.4006],[135.2935,34.4079],[135.2867,34.4004],[135.2823,34.3978],[135.2794,34.3938],[135.2952,34.3802]]],[[[135.2511,34.4292],[135.2414,34.4369],[135.2302,34.4299],[135.2394,34.4214],[135.2511,34.4292]]]]}},{"type":"Feature","properties":{"id":27038},"geometry":{"type":"MultiPolygon","coordinates":[[[[135.437,34.512],[135.4541,34.5118],[135.4606,34.5112],[135.4611,34.5231],[135.4552,34.5266],[135.452,34.5341],[135.4396,34.543],[135.4343,34.5346],[135.4285,34.5294],[135.4249,34.5248],[135.418,34.5203],[135.437,34.512]]],[[[135.4403,34.5541],[135.4308,34.555],[135.4264,34.5514],[135.4264,34.5492],[135.4206,34.5406],[135.4181,34.5389],[135.4119,34.5425],[135.4163,34.5505],[135.4097,34.5539],[135.4031,34.5453],[135.4006,34.5403],[135.4006,34.5358],[135.4055,34.535],[135.4039,34.5317],[135.4061,34.5294],[135.4169,34.5239],[135.4239,34.5259],[135.4323,34.5377],[135.4415,34.5494],[135.4403,34.5541]]]]}},{"type":"Feature","properties":{"id":27039},"geometry":{"type":"Polygon","coordinates":[[[135.5681,34.9143],[135.5761,34.9056],[135.5761,34.9018],[135.5732,34.8985],[135.5706,34.8865],[135.5744,34.8818],[135.574,34.878],[135.5687,34.8727],[135.5694,34.8629],[135.5729,34.8483],[135.5759,34.8456],[135.5851,34.8431],[135.5885,34.8393],[135.5911,34.8321],[135.5916,34.8249],[135.5938,34.8201],[135.5974,34.8169],[135.6033,34.8143],[135.6058,34.8105],[135.5995,34.8015],[135.6049,34.792],[135.6064,34.778],[135.6131,34.784],[135.617,34.7901],[135.6199,34.7978],[135.6233,34.803],[135.6313,34.8081],[135.6429,34.8134],[135.6487,34.8214],[135.6506,34.827],[135.6513,34.8381],[135.6535,34.8439],[135.6589,34.8483],[135.6665,34.8503],[135.674,34.8634],[135.6684,34.8665],[135.6594,34.8694],[135.6525,34.873],[135.6421,34.8839],[135.6382,34.8889],[135.6364,34.9011],[135.6304,34.9055],[135.6295,34.9096],[135.6295,34.931],[135.6258,34.9308],[135.6159,34.9423],[135.6197,34.9523],[135.6165,34.9659],[135.6161,34.9679],[135.6061,34.9679],[135.5964,34.9653],[135.5879,34.9713],[135.578,34.9689],[135.5753,34.9588],[135.5695,34.9497],[135.565,34.9403],[135.5823,34.934],[135.5842,34.9229],[135.5759,34.9135],[135.5681,34.9143]]]}},{"type":"Feature","properties":{"id":27040},"geometry":{"type":"Polygon","coordinates":[[[135.6171,34.4755],[135.6178,34.4868],[135.6277,34.4862],[135.6279,34.49],[135.6215,34.4941],[135.62,34.497],[135.621,34.5068],[135.6245,34.5127],[135.625,34.522],[135.6184,34.526],[135.6142,34.5271],[135.5999,34.5275],[135.5934,34.5269],[135.5875,34.5191],[135.5872,34.5133],[135.5832,34.5098],[135.5694,34.51],[135.5636,34.5035],[135.5636,34.4997],[135.5705,34.492],[135.5684,34.488],[135.5637,34.4894],[135.561,34.4868],[135.5622,34.4772],[135.5698,34.4751],[135.5833,34.4687],[135.5829,34.4566],[135.5853,34.4503],[135.5979,34.4433],[135.6034,34.439],[135.6133,34.4438],[135.6171,34.4532],[135.6171,34.4755]]]}},{"type":"Feature","properties":{"id":27041},"geometry":{"type":"Polygon","coordinates":[[[135.4624,34.7329],[135.4786,34.7334],[135.4814,34.7351],[135.4938,34.7474],[135.4951,34.7643],[135.4998,34.7726],[135.4987,34.7825],[135.5026,34.7939],[135.5077,34.8008],[135.5087,34.8108],[135.5053,34.8178],[135.4998,34.8239],[135.4982,34.8161],[135.4955,34.8128],[135.479,34.8159],[135.472,34.8105],[135.4619,34.8065],[135.4579,34.804],[135.4544,34.802],[135.4419,34.7895],[135.4451,34.7867],[135.4478,34.777],[135.4474,34.7669],[135.4484,34.7661],[135.4585,34.7572],[135.4624,34.7329]]]}},{"type":"Feature","properties":{"id":27042},"geometry":{"type":"Polygon","coordinates":[[[135.4441,34.8903],[135.4473,34.8904],[135.4508,34.8944],[135.4613,34.8982],[135.4691,34.9037],[135.4781,34.9039],[135.4872,34.8957],[135.4883,34.893],[135.4843,34.8878],[135.4839,34.8825],[135.4878,34.8729],[135.4917,34.8725],[135.4987,34.8765],[135.5026,34.8853],[135.5103,34.8969],[135.5206,34.9043],[135.5272,34.9224],[135.5298,34.9265],[135.5246,34.9287],[135.5175,34.9371],[135.509,34.9424],[135.4963,34.9379],[135.4887,34.9529],[135.4889,34.9565],[135.4781,34.9497],[135.4589,34.942],[135.4431,34.9385],[135.4337,34.9334],[135.4419,34.934],[135.4696,34.9259],[135.4638,34.915],[135.4534,34.9167],[135.4411,34.9166],[135.4317,34.9123],[135.4233,34.9047],[135.4328,34.8964],[135.445,34.8944],[135.4441,34.8903]]]}},{"type":"Feature","properties":{"id":27043},"geometry":{"type":"Polygon","coordinates":[[[135.6673,34.6415],[135.657,34.6413],[135.648,34.6423],[135.6414,34.6392],[135.6257,34.6395],[135.6189,34.6449],[135.61,34.6473],[135.6042,34.6476],[135.6007,34.6462],[135.5982,34.6381],[135.5943,34.6302],[135.5911,34.6289],[135.5801,34.6272],[135.5803,34.6127],[135.5852,34.6075],[135.5875,34.6021],[135.5851,34.5907],[135.5921,34.5865],[135.5975,34.5849],[135.6079,34.5837],[135.6083,34.5876],[135.6111,34.5909],[135.6181,34.591],[135.6252,34.5965],[135.6314,34.5977],[135.6446,34.5975],[135.6539,34.6002],[135.6561,34.6027],[135.6545,34.6036],[135.6617,34.6115],[135.6622,34.6143],[135.6673,34.6415]]]}}]}