{"type":"FeatureCollection","features":[{"type":"Feature","properties":{"id":28001},"geometry":{"type":"Polygon","coordinates":[[[134.4548,34.9066],[134.45,34.8983],[134.444,34.8927],[134.4302,34.8735],[134.4225,34.8633],[134.4112,34.8518],[134.4051,34.849],[134.411,34.8391],[134.4118,34.8334],[134.4146,34.8254],[134.4274,34.8003],[134.4355,34.7916],[134.4373,34.7881],[134.4523,34.7851],[134.458,34.7771],[134.4586,34.7827],[134.4619,34.7874],[134.465,34.7857],[134.4671,34.7916],[134.4767,34.7858],[134.4695,34.784],[134.4697,34.7678],[134.4739,34.7591],[134.4781,34.7575],[134.481,34.76],[134.4821,34.7655],[134.4864,34.769],[134.4911,34.7662],[134.4933,34.7701],[134.4989,34.7727],[134.4975,34.7814],[134.4991,34.8037],[134.4992,34.8111],[134.4977,34.8211],[134.4949,34.8248],[134.4874,34.8313],[134.4827,34.8334],[134.472,34.8434],[134.4703,34.8486],[134.4712,34.8552],[134.4743,34.8595],[134.4829,34.8662],[134.4855,34.8708],[134.4902,34.8914],[134.4896,34.8988],[134.4852,34.907],[134.4814,34.908],[134.4739,34.9054],[134.4626,34.9052],[134.4548,34.9066]]]}},{"type":"Feature","properties":{"id":28002},"geometry":{"type":"Polygon","coordinates":[[[134.8685,34.7038],[134.8642,34.7017],[134.8626,34.6978],[134.8569,34.693],[134.8578,34.6915],[134.8779,34.6845],[134.8845,34.6917],[134.8914,34.6919],[134.9036,34.6814],[134.9088,34.6743],[134.9137,34.6756],[134.9247,34.6728],[134.9328,34.6691],[134.9395,34.6636],[134.9429,34.6625],[134.965,34.6464],[134.9739,34.6433],[134.9814,34.6418],[135.0009,34.6419],[135.0045,34.6438],[135.0177,34.6434],[135.0281,34.6375],[135.0325,34.6308],[135.042,34.6278],[135.0583,34.6267],[135.0603,34.6253],[135.0736,34.6282],[135.0749,34.6305],[135.0872,34.6339],[135.0984,34.636],[135.0876,34.6359],[135.05,34.6378],[135.0418,34.6385],[135.035,34.6404],[135.0244,34.6456],[135.0258,34.6531],[135.0246,34.657],[135.0154,34.6602],[134.9989,34.6632],[134.988,34.6602],[134.9795,34.6616],[134.9704,34.6693],[134.9631,34.6776],[134.9569,34.6869],[134.9551,34.694],[134.9485,34.6983],[134.9189,34.7036],[134.9119,34.7077],[134.9072,34.7174],[134.9027,34.7235],[134.8896,34.7314],[134.8826,34.7205],[134.8775,34.7159],[134.8685,34.7038]]]}},{"type":"Feature","properties":{"id":28003},"geometry":{"type":"Polygon","coordinates":[[[134.458,34.7771],[134.4523,34.7851],[134.4373,34.7881],[134.4355,34.7916],[134.4274,34.8003],[134.4146,34.8254],[134.4118,34.8334],[134.411,34.8391],[134.4051,34.849],[134.3964,34.8437],[134.3899,34.8421],[134.3812,34.8382],[134.3648,34.8384],[134.3425,34.8454],[134.3366,34.8464],[134.3313,34.8454],[134.3239,34.8397],[134.3181,34.8327],[134.3088,34.8255],[134.2973,34.8147],[134.307,34.8098],[134.3129,34.8009],[134.3201,34.793],[134.3216,34.7829],[134.3351,34.7629],[134.3315,34.7613],[134.3475,34.7356],[134.3514,34.7359],[134.358,34.7402],[134.3636,34.7405],[134.364,34.7443],[134.3608,34.7463],[134.3608,34.7499],[134.3728,34.7397],[134.3728,34.7342],[134.3815,34.7282],[134.3858,34.7269],[134.3895,34.7344],[134.3942,34.7469],[134.3975,34.7486],[134.4033,34.7547],[134.4057,34.7531],[134.3953,34.7442],[134.3928,34.7372],[134.3931,34.7294],[134.3969,34.7286],[134.4045,34.7295],[134.4071,34.7267],[134.4139,34.729],[134.4177,34.734],[134.4226,34.7366],[134.4273,34.7447],[134.4335,34.747],[134.4307,34.7512],[134.4265,34.7537],[134.4274,34.7566],[134.433,34.7581],[134.4312,34.7643],[134.4347,34.7666],[134.4433,34.7665],[134.4455,34.768],[134.4552,34.7667],[134.4528,34.7606],[134.4502,34.7594],[134.4522,34.7536],[134.4578,34.7572],[134.4585,34.7597],[134.4644,34.7642],[134.4617,34.7669],[134.4604,34.7749],[134.458,34.7771]]]}},{"type":"Feature","properties":{"id":28004},"geometry":{"type":"Polygon","coordinates":[[[135.4624,34.7329],[135.4585,34.7572],[135.4484,34.7661],[135.4404,34.7608],[135.4351,34.761],[135.4305,34.763],[135.4197,34.7652],[135.4047,34.7657],[135.3915,34.7625],[135.3782,34.7632],[135.3643,34.7696],[135.3676,34.7549],[135.3757,34.7407],[135.3791,34.733],[135.3792,34.7375],[135.3825,34.7378],[135.3808,34.7292],[135.3847,34.7247],[135.3858,34.7208],[135.3822,34.7156],[135.3813,34.7091],[135.3767,34.6977],[135.369,34.6836],[135.3715,34.6809],[135.3764,34.6851],[135.3777,34.6906],[135.3839,34.6931],[135.3886,34.6912],[135.3968,34.6998],[135.4008,34.6988],[135.3928,34.6882],[135.3965,34.6863],[135.4014,34.6897],[135.4076,34.6992],[135.4106,34.7017],[135.4214,34.7056],[135.4265,34.7098],[135.4364,34.712],[135.4496,34.7167],[135.4536,34.72],[135.4541,34.7297],[135.4624,34.7329]]]}},{"type":"Feature","properties":{"id":28005},"geometry":{"type":"Polygon","coordinates":[[[134.907,35.1875],[134.9098,35.1943],[134.918,35.2066],[134.9145,35.2291],[134.9122,35.235],[134.912,35.2445],[134.9137,35.2511],[134.9176,35.2568],[134.9232,35.2619],[134.926,35.2672],[134.9315,35.274],[134.9372,35.2879],[134.94,35.2921],[134.9435,35.3029],[134.9345,35.3057],[134.9242,35.3126],[134.9277,35.3228],[134.9285,35.3333],[134.9216,35.3438],[134.9249,35.3544],[134.9234,35.3652],[134.9297,35.3746],[134.9276,35.3847],[134.9302,35.3953],[134.9371,35.4021],[134.924,35.4155],[134.9181,35.4157],[134.9096,35.4118],[134.9046,35.4106],[134.8959,35.4067],[134.8864,35.4038],[134.863,35.4],[134.8618,35.3836],[134.8567,35.3727],[134.8486,35.3668],[134.8319,35.362],[134.8252,35.3614],[134.8193,35.3584],[134.8178,35.3559],[134.8146,35.3407],[134.8121,35.3355],[134.7999,35.3255],[134.7868,35.3136],[134.7855,35.3083],[134.7876,35.3024],[134.7948,35.2935],[134.7987,35.2853],[134.7979,35.2807],[134.794,35.2771],[134.7757,35.2637],[134.7725,35.2628],[134.7568,35.2634],[134.7524,35.2646],[134.7491,35.2678],[134.7447,35.2748],[134.7382,35.276],[134.7228,35.2737],[134.7177,35.2752],[134.7126,35.2799],[134.7082,35.282],[134.6989,35.2831],[134.6932,35.2811],[134.6922,35.2748],[134.6958,35.268],[134.7008,35.2608],[134.702,35.2564],[134.698,35.2494],[134.6876,35.2434],[134.6952,35.2328],[134.6966,35.2262],[134.7034,35.2129],[134.7082,35.2079],[134.7144,35.1985],[134.718,35.1819],[134.7271,35.1577],[134.7338,35.1461],[134.743,35.1343],[134.7469,35.1326],[134.7571,35.132],[134.7624,35.1308],[134.7676,35.1264],[134.7727,35.1247],[134.7808,35.125],[134.7906,35.1282],[134.7997,35.1376],[134.8048,35.1387],[134.8151,35.1381],[134.8199,35.1365],[134.8251,35.1321],[134.8289,35.1309],[134.8416,35.1336],[134.8465,35.1383],[134.8486,35.1501],[134.8551,35.1566],[134.8633,35.1603],[134.8699,35.1647],[134.8781,35.1684],[134.8897,35.1758],[134.907,35.1875]]]}},{"type":"Feature","properties":{"id":28006},"geometry":{"type":"Polygon","coordinates":[[[135.2818,34.7805],[135.2755,34.7733],[135.2766,34.7689],[135.2819,34.7636],[135.2879,34.7548],[135.2943,34.7419],[135.2976,34.719],[135.3052,34.718],[135.3075,34.714],[135.3237,34.7178],[135.324,34.7248],[135.3267,34.7252],[135.3239,34.7356],[135.3224,34.7441],[135.3107,34.7558],[135.3032,34.769],[135.299,34.7725],[135.2818,34.7805]]]}},{"type":"Feature","properties":{"id":28007},"geometry":{"type":"Polygon","coordinates":[[[134.7873,34.4255],[134.7956,34.4337],[134.8032,34.429],[134.8123,34.4251],[134.8206,34.4233],[134.8297,34.4201],[134.8363,34.4167],[134.8448,34.4022],[134.8479,34.3994],[134.8538,34.3994],[134.8589,34.403],[134.8629,34.404],[134.8686,34.4026],[134.877,34.3948],[134.8802,34.3937],[134.8887,34.3945],[134.8953,34.3981],[134.9011,34.4181],[134.9119,34.4303],[134.907,34.4322],[134.9117,34.4367],[134.9167,34.4347],[134.9178,34.4394],[134.915,34.4436],[134.9222,34.4482],[134.925,34.4532],[134.9317,34.4578],[134.9345,34.4579],[134.9435,34.4661],[134.9471,34.4739],[134.9592,34.4893],[134.9734,34.4973],[134.9793,34.5029],[134.9819,34.5089],[134.9897,34.5158],[134.9936,34.5228],[134.9931,34.5286],[134.9949,34.5389],[134.9944,34.5442],[135.0013,34.5493],[135.0063,34.5555],[135.0117,34.5585],[135.0201,34.5671],[135.0257,34.5756],[135.0228,34.5824],[135.0232,34.5885],[135.0193,34.5898],[135.0133,34.5953],[135.009,34.6031],[135.0022,34.609],[134.9924,34.6073],[134.9827,34.6024],[134.9748,34.5969],[134.9699,34.59],[134.9663,34.5871],[134.9607,34.5771],[134.9471,34.5613],[134.9408,34.5568],[134.9356,34.5499],[134.9314,34.5473],[134.9234,34.5467],[134.92,34.5447],[134.9131,34.5362],[134.9067,34.5353],[134.8994,34.53],[134.8945,34.5306],[134.8861,34.5292],[134.8806,34.5239],[134.8778,34.5233],[134.8728,34.515],[134.869,34.5128],[134.8642,34.5058],[134.8628,34.5019],[134.8467,34.4773],[134.8392,34.4687],[134.8346,34.4663],[134.828,34.4686],[134.8244,34.4667],[134.8183,34.4692],[134.8156,34.4622],[134.8086,34.4583],[134.8016,34.4492],[134.7979,34.4497],[134.7911,34.4317],[134.7873,34.4255]]]}},{"type":"Feature","properties":{"id":28008},"geometry":{"type":"Polygon","coordinates":[[[134.7073,35.017],[134.7028,35.0091],[134.7023,35.0007],[134.7071,34.9896],[134.7085,34.9795],[134.7083,34.9691],[134.7103,34.9621],[134.7201,34.9497],[134.7255,34.9442],[134.7357,34.9276],[134.7415,34.9246],[134.7482,34.9231],[134.7576,34.9254],[134.7632,34.925],[134.7824,34.9147],[134.7932,34.9115],[134.809,34.9254],[134.809,34.9292],[134.803,34.9426],[134.8055,34.95],[134.8098,34.9537],[134.8141,34.9629],[134.8036,34.9639],[134.7625,34.966],[134.7492,34.9696],[134.7397,34.9783],[134.7253,34.9986],[134.7137,35.0097],[134.7073,35.017]]]}},{"type":"Feature","properties":{"id":28009},"geometry":{"type":"Polygon","coordinates":[[[134.8896,34.7314],[134.8721,34.7325],[134.8608,34.7318],[134.8536,34.7292],[134.8429,34.7224],[134.8423,34.7176],[134.8454,34.7191],[134.8478,34.7148],[134.8515,34.7152],[134.8519,34.7064],[134.8454,34.7073],[134.8401,34.6966],[134.8539,34.6942],[134.8582,34.699],[134.8625,34.7072],[134.8651,34.7082],[134.8685,34.7038],[134.8775,34.7159],[134.8826,34.7205],[134.8896,34.7314]]]}},{"type":"Feature","properties":{"id":28010},"geometry":{"type":"MultiPolygon","coordinates":[[[[134.4847,34.5971],[134.4796,34.5993],[134.4766,34.5962],[134.4766,34.5929],[134.4829,34.594],[134.4847,34.5971]]],[[[134.5181,34.6558],[134.5135,34.6587],[134.5113,34.6537],[134.5022,34.65],[134.5011,34.6434],[134.5078,34.6406],[134.5136,34.6369],[134.5189,34.6406],[134.5173,34.6445],[134.513,34.6469],[134.5181,34.6504],[134.5181,34.6558]]],[[[134.4392,34.6495],[134.4403,34.6541],[134.4346,34.6523],[134.4392,34.6495]]],[[[134.492,34.6703],[134.4866,34.6715],[134.4849,34.6682],[134.4869,34.6633],[134.4835,34.66],[134.4791,34.6637],[134.4747,34.6592],[134.47,34.6608],[134.466,34.6656],[134.463,34.6629],[134.4601,34.6562],[134.4617,34.6487],[134.4586,34.645],[134.4678,34.641],[134.4726,34.6451],[134.4807,34.6495],[134.483,34.6463],[134.4897,34.6417],[134.4923,34.6446],[134.4997,34.6433],[134.5005,34.6467],[134.4986,34.6519],[134.4947,34.6536],[134.4951,34.6593],[134.4908,34.6611],[134.4961,34.6674],[134.492,34.6703]]],[[[134.5785,34.6752],[134.5732,34.6773],[134.5694,34.6756],[134.5692,34.6724],[134.564,34.6712],[134.5623,34.6688],[134.5628,34.6622],[134.5684,34.6575],[134.5719,34.6515],[134.5753,34.6506],[134.5802,34.656],[134.5853,34.6572],[134.5912,34.6624],[134.5901,34.6688],[134.5863,34.6709],[134.5807,34.671],[134.5785,34.6752]]],[[[134.5356,34.6817],[134.5365,34.686],[134.5297,34.6856],[134.5231,34.6817],[134.5165,34.6813],[134.512,34.6795],[134.5112,34.6761],[134.5132,34.6715],[134.5235,34.6656],[134.5345,34.6612],[134.536,34.6587],[134.541,34.6578],[134.5457,34.6614],[134.545,34.6762],[134.5428,34.6789],[134.5356,34.6817]]],[[[134.7932,34.9115],[134.7824,34.9147],[134.7632,34.925],[134.7576,34.9254],[134.7482,34.9231],[134.7415,34.9246],[134.7357,34.9276],[134.7255,34.9442],[134.7201,34.9497],[134.7103,34.9621],[134.7083,34.9691],[134.7085,34.9795],[134.7071,34.9896],[134.7023,35.0007],[134.7028,35.0091],[134.7073,35.017],[134.7113,35.0265],[134.7187,35.0393],[134.6857,35.0713],[134.6814,35.0784],[134.6762,35.0821],[134.6623,35.0859],[134.6519,35.0857],[134.6396,35.0822],[134.6304,35.0808],[134.6153,35.0697],[134.6079,35.0611],[134.599,35.0454],[134.5964,35.035],[134.5947,35.0206],[134.5918,35.0144],[134.5821,35.0004],[134.5788,34.9901],[134.5774,34.9695],[134.5752,34.9624],[134.5666,34.9513],[134.57,34.9463],[134.5703,34.94],[134.5688,34.9176],[134.5714,34.9006],[134.576,34.8941],[134.5823,34.8927],[134.5893,34.8897],[134.5936,34.8841],[134.5943,34.8789],[134.5929,34.8546],[134.6068,34.8507],[134.6156,34.8492],[134.6229,34.8456],[134.6262,34.8422],[134.6273,34.8356],[134.6255,34.8319],[134.6106,34.8208],[134.6036,34.819],[134.5909,34.8193],[134.5823,34.8182],[134.5774,34.8163],[134.5634,34.8129],[134.5532,34.8077],[134.57,34.7909],[134.5741,34.7774],[134.578,34.7682],[134.5736,34.7645],[134.5758,34.7614],[134.575,34.7581],[134.5845,34.7609],[134.5866,34.7641],[134.5871,34.7697],[134.5936,34.7694],[134.5945,34.7642],[134.5981,34.7639],[134.6033,34.7666],[134.6021,34.7711],[134.5946,34.7706],[134.5986,34.775],[134.6089,34.7738],[134.6122,34.7679],[134.6195,34.771],[134.6225,34.7708],[134.6287,34.7741],[134.6286,34.7777],[134.6237,34.7832],[134.6322,34.7841],[134.6351,34.7804],[134.6322,34.7775],[134.6329,34.768],[134.6358,34.7668],[134.645,34.7666],[134.6465,34.7789],[134.6457,34.7885],[134.648,34.7889],[134.6493,34.7805],[134.655,34.7808],[134.6495,34.7744],[134.6533,34.7707],[134.6599,34.7816],[134.6656,34.7833],[134.6685,34.7797],[134.6612,34.7766],[134.6608,34.7719],[134.6581,34.765],[134.6611,34.7636],[134.6712,34.7734],[134.6761,34.7744],[134.6811,34.7711],[134.6878,34.7727],[134.6915,34.7692],[134.6893,34.7605],[134.6936,34.7593],[134.6983,34.7603],[134.7008,34.7664],[134.7025,34.7742],[134.7106,34.7766],[134.73,34.7699],[134.7415,34.7673],[134.7456,34.7689],[134.7578,34.7639],[134.7536,34.7737],[134.7508,34.7826],[134.7504,34.7897],[134.7525,34.7929],[134.7616,34.799],[134.7648,34.8036],[134.7664,34.8085],[134.769,34.8108],[134.7749,34.8219],[134.7821,34.8307],[134.7962,34.8419],[134.7988,34.8479],[134.7997,34.8615],[134.7993,34.8691],[134.7991,34.8839],[134.7932,34.9115]]]]}},{"type":"Feature","properties":{"id":28011},"geometry":{"type":"Polygon","coordinates":[[[134.8141,34.9629],[134.8181,34.965],[134.8294,34.974],[134.8318,34.978],[134.8375,34.9831],[134.8452,34.9946],[134.8473,34.9989],[134.8518,35.0037],[134.854,35.0308],[134.8536,35.0376],[134.8501,35.0427],[134.8415,35.0494],[134.834,35.0538],[134.8237,35.0522],[134.8123,35.0483],[134.808,35.045],[134.8026,35.0363],[134.793,35.0319],[134.7862,35.0322],[134.7756,35.0363],[134.7606,35.0505],[134.7562,35.0521],[134.7491,35.0514],[134.7456,35.0497],[134.7267,35.0431],[134.7187,35.0393],[134.7113,35.0265],[134.7073,35.017],[134.7137,35.0097],[134.7253,34.9986],[134.7397,34.9783],[134.7492,34.9696],[134.7625,34.966],[134.8036,34.9639],[134.8141,34.9629]]]}},{"type":"Feature","properties":{"id":28012},"geometry":{"type":"Polygon","coordinates":[[[135.4201,34.9322],[135.4128,34.9415],[135.3999,34.9407],[135.3898,34.9433],[135.3854,34.9526],[135.3746,34.9507],[135.3639,34.9513],[135.3572,34.9592],[135.3494,34.9656],[135.3523,34.9754],[135.3615,34.9807],[135.3559,34.9898],[135.3553,35],[135.3572,35.0212],[135.3427,35.0228],[135.3436,35.0175],[135.3337,35.0109],[135.328,35.009],[135.3171,35.0069],[135.2935,35.0058],[135.3009,34.996],[135.3043,34.9892],[135.3058,34.9821],[135.306,34.9724],[135.3076,34.964],[135.3102,34.9563],[135.3234,34.9448],[135.329,34.9374],[135.3356,34.9081],[135.34,34.896],[135.3414,34.8876],[135.3492,34.8633],[135.3521,34.8601],[135.3598,34.8572],[135.367,34.8564],[135.3734,34.8633],[135.3791,34.8749],[135.3813,34.8779],[135.3835,34.8848],[135.3894,34.8942],[135.3914,34.9016],[135.3951,34.9077],[135.4037,34.9191],[135.4089,34.9236],[135.415,34.9319],[135.4201,34.9322]]]}},{"type":"Feature","properties":{"id":28013},"geometry":{"type":"Polygon","coordinates":[[[134.9027,34.7235],[134.9144,34.7293],[134.9325,34.7355],[134.9518,34.743],[134.9552,34.7466],[134.9578,34.7536],[134.9656,34.7613],[134.9501,34.775],[134.9447,34.7773],[134.9345,34.7798],[134.9289,34.7747],[134.9223,34.7719],[134.9152,34.7718],[134.9058,34.7748],[134.899,34.7722],[134.8926,34.7648],[134.8876,34.7603],[134.8887,34.7535],[134.8888,34.7401],[134.8896,34.7314],[134.9027,34.7235]]]}},{"type":"Feature","properties":{"id":28014},"geometry":{"type":"Polygon","coordinates":[[[135.4484,34.7661],[135.4474,34.7669],[135.4478,34.777],[135.4451,34.7867],[135.4419,34.7895],[135.4357,34.7948],[135.4211,34.809],[135.4218,34.8133],[135.4098,34.8129],[135.3902,34.8148],[135.3824,34.8126],[135.3808,34.805],[135.3831,34.7976],[135.3783,34.7865],[135.3747,34.782],[135.3657,34.7746],[135.3643,34.7696],[135.3782,34.7632],[135.3915,34.7625],[135.4047,34.7657],[135.4197,34.7652],[135.4305,34.763],[135.4351,34.761],[135.4404,34.7608],[135.4484,34.7661]]]}},{"type":"Feature","properties":{"id":28015},"geometry":{"type":"Polygon","coordinates":[[[134.8896,34.7314],[134.8888,34.7401],[134.8887,34.7535],[134.8876,34.7603],[134.8926,34.7648],[134.899,34.7722],[134.9058,34.7748],[134.9152,34.7718],[134.9223,34.7719],[134.9289,34.7747],[134.9345,34.7798],[134.9337,34.7864],[134.9317,34.7903],[134.9305,34.7974],[134.9269,34.8058],[134.9243,34.8092],[134.9145,34.8188],[134.9102,34.8221],[134.8954,34.8243],[134.8836,34.8352],[134.8757,34.8411],[134.8541,34.8421],[134.8421,34.8445],[134.8382,34.8461],[134.8264,34.8473],[134.8223,34.8497],[134.8179,34.8592],[134.8147,34.8625],[134.8073,34.8663],[134.7993,34.8691],[134.7997,34.8615],[134.7988,34.8479],[134.7962,34.8419],[134.7821,34.8307],[134.7749,34.8219],[134.769,34.8108],[134.7776,34.8115],[134.788,34.8101],[134.7968,34.8037],[134.8015,34.7962],[134.8063,34.7912],[134.8145,34.7764],[134.8193,34.7691],[134.8198,34.7635],[134.8185,34.7571],[134.8109,34.7462],[134.8119,34.7426],[134.8113,34.7267],[134.8089,34.7211],[134.8094,34.7178],[134.817,34.7133],[134.8268,34.7062],[134.8291,34.7088],[134.8358,34.707],[134.8383,34.7083],[134.8423,34.7176],[134.8429,34.7224],[134.8536,34.7292],[134.8608,34.7318],[134.8721,34.7325],[134.8896,34.7314]]]}},{"type":"Feature","properties":{"id":28016},"geometry":{"type":"Polygon","coordinates":[[[134.5406,35.6703],[134.538,35.6347],[134.5385,35.6299],[134.5411,35.6269],[134.5488,35.6236],[134.5719,35.6192],[134.5798,35.6149],[134.5839,35.5988],[134.5889,35.5877],[134.5893,35.5828],[134.5866,35.5795],[134.5693,35.5714],[134.5642,35.5677],[134.56,35.5613],[134.5552,35.5435],[134.5546,35.5316],[134.5568,35.5235],[134.5573,35.5171],[134.551,35.5057],[134.5467,35.5017],[134.5417,35.5012],[134.5257,35.5016],[134.521,35.4985],[134.5074,35.4777],[134.501,35.4714],[134.4967,35.4609],[134.4944,35.4479],[134.4868,35.4339],[134.478,35.4266],[134.4801,35.4257],[134.4793,35.411],[134.4832,35.4007],[134.4756,35.3807],[134.4796,35.3715],[134.4889,35.3663],[134.5,35.3641],[134.5091,35.3552],[134.5205,35.366],[134.523,35.37],[134.5332,35.3803],[134.5402,35.3821],[134.5536,35.3812],[134.5597,35.3816],[134.5701,35.3885],[134.5782,35.39],[134.587,35.3884],[134.5975,35.3845],[134.6052,35.3849],[134.6107,35.3882],[134.6162,35.3956],[134.6196,35.3982],[134.6313,35.4009],[134.6394,35.4013],[134.6503,35.4039],[134.6519,35.4104],[134.6471,35.4285],[134.6431,35.444],[134.6444,35.4502],[134.6474,35.4574],[134.648,35.4659],[134.6454,35.477],[134.6419,35.4835],[134.6335,35.4915],[134.6303,35.4971],[134.6295,35.5067],[134.6318,35.5138],[134.6409,35.521],[134.6435,35.5257],[134.6446,35.5374],[134.6459,35.5427],[134.649,35.5461],[134.6571,35.55],[134.6681,35.5586],[134.676,35.5659],[134.6891,35.569],[134.6982,35.5755],[134.7166,35.5965],[134.7214,35.6048],[134.7241,35.6161],[134.7251,35.6279],[134.7279,35.6388],[134.7358,35.6512],[134.7424,35.6594],[134.7373,35.6599],[134.7331,35.6583],[134.7317,35.6631],[134.7257,35.6666],[134.7207,35.6671],[134.7184,35.6651],[134.7086,35.6644],[134.7089,35.6567],[134.7078,35.6536],[134.7032,35.6548],[134.6962,35.6544],[134.6915,35.6589],[134.6958,35.6617],[134.6947,35.6648],[134.6872,35.6646],[134.6869,35.6559],[134.6816,35.6576],[134.6789,35.6549],[134.6752,35.6612],[134.6717,35.6602],[134.6664,35.6545],[134.6633,35.6481],[134.6597,35.6503],[134.6606,35.6569],[134.6637,35.6575],[134.6666,35.6622],[134.6654,35.6662],[134.6606,35.6644],[134.6579,35.6659],[134.6488,35.6616],[134.6442,35.6519],[134.6339,35.6469],[134.6306,35.6475],[134.6297,35.6422],[134.625,35.6392],[134.615,35.64],[134.6131,35.6419],[134.6137,35.648],[134.6077,35.6497],[134.6075,35.654],[134.6004,35.6582],[134.5903,35.6556],[134.5881,35.6594],[134.5802,35.6601],[134.5756,35.6578],[134.564,35.6563],[134.563,35.6525],[134.5589,35.6514],[134.5577,35.6552],[134.5522,35.6592],[134.5406,35.6703]]]}},{"type":"Feature","properties":{"id":28017},"geometry":{"type":"Polygon","coordinates":[[[134.4548,34.9066],[134.4523,34.9238],[134.4488,34.9313],[134.4413,34.9395],[134.4367,34.9431],[134.4271,34.9372],[134.4167,34.9323],[134.4083,34.9321],[134.3878,34.9367],[134.38,34.9361],[134.3665,34.9333],[134.3462,34.9235],[134.3403,34.9225],[134.3345,34.926],[134.3271,34.9264],[134.3238,34.9192],[134.3199,34.915],[134.3128,34.9106],[134.3004,34.9066],[134.2919,34.9029],[134.2916,34.8957],[134.2822,34.8923],[134.2727,34.8865],[134.265,34.8793],[134.2681,34.8697],[134.2617,34.8616],[134.2564,34.8531],[134.2634,34.8437],[134.2654,34.8333],[134.2771,34.8245],[134.2882,34.826],[134.2928,34.8169],[134.2973,34.8147],[134.3088,34.8255],[134.3181,34.8327],[134.3239,34.8397],[134.3313,34.8454],[134.3366,34.8464],[134.3425,34.8454],[134.3648,34.8384],[134.3812,34.8382],[134.3899,34.8421],[134.3964,34.8437],[134.4051,34.849],[134.4112,34.8518],[134.4225,34.8633],[134.4302,34.8735],[134.444,34.8927],[134.45,34.8983],[134.4548,34.9066]]]}},{"type":"Feature","properties":{"id":28018},"geometry":{"type":"Polygon","coordinates":[[[134.718,35.1819],[134.7128,35.1769],[134.7014,35.1687],[134.687,35.1685],[134.6817,35.1676],[134.6774,35.163],[134.6759,35.1568],[134.6695,35.1422],[134.6677,35.1347],[134.6607,35.121],[134.6594,35.1159],[134.6609,35.1104],[134.6682,35.1034],[134.6689,35.0979],[134.6623,35.0859],[134.6762,35.0821],[134.6814,35.0784],[134.6857,35.0713],[134.7187,35.0393],[134.7267,35.0431],[134.7456,35.0497],[134.7491,35.0514],[134.7562,35.0521],[134.7606,35.0505],[134.7756,35.0363],[134.7862,35.0322],[134.793,35.0319],[134.8026,35.0363],[134.808,35.045],[134.8123,35.0483],[134.8237,35.0522],[134.834,35.0538],[134.8426,35.0629],[134.8547,35.0808],[134.8566,35.09],[134.861,35.1059],[134.8665,35.1171],[134.8826,35.1295],[134.888,35.136],[134.8938,35.141],[134.9021,35.153],[134.9052,35.1627],[134.907,35.1875],[134.8897,35.1758],[134.8781,35.1684],[134.8699,35.1647],[134.8633,35.1603],[134.8551,35.1566],[134.8486,35.1501],[134.8465,35.1383],[134.8416,35.1336],[134.8289,35.1309],[134.8251,35.1321],[134.8199,35.1365],[134.8151,35.1381],[134.8048,35.1387],[134.7997,35.1376],[134.7906,35.1282],[134.7808,35.125],[134.7727,35.1247],[134.7676,35.1264],[134.7624,35.1308],[134.7571,35.132],[134.7469,35.1326],[134.743,35.1343],[134.7338,35.1461],[134.7271,35.1577],[134.718,35.1819]]]}},{"type":"Feature","properties":{"id":28019},"geometry":{"type":"Polygon","coordinates":[[[134.7932,34.9115],[134.7991,34.8839],[134.7993,34.8691],[134.8073,34.8663],[134.8147,34.8625],[134.8179,34.8592],[134.8223,34.8497],[134.8264,34.8473],[134.8382,34.8461],[134.8421,34.8445],[134.8541,34.8421],[134.8757,34.8411],[134.8843,34.8456],[134.8917,34.8513],[134.896,34.8577],[134.8986,34.8687],[134.8977,34.8771],[134.8956,34.8841],[134.8982,34.8881],[134.904,34.9021],[134.9075,34.9065],[134.9081,34.9242],[134.9108,34.9298],[134.9198,34.9337],[134.9248,34.9401],[134.9251,34.9514],[134.9102,34.9511],[134.9007,34.9552],[134.8875,34.968],[134.8815,34.9759],[134.8723,34.9819],[134.8675,34.984],[134.8605,34.9897],[134.8554,34.9992],[134.8518,35.0037],[134.8473,34.9989],[134.8452,34.9946],[134.8375,34.9831],[134.8318,34.978],[134.8294,34.974],[134.8181,34.965],[134.8141,34.9629],[134.8098,34.9537],[134.8055,34.95],[134.803,34.9426],[134.809,34.9292],[134.809,34.9254],[134.7932,34.9115]]]}},{"type":"Feature","properties":{"id":28020},"geometry":{"type":"Polygon","coordinates":[[[134.9075,34.9065],[134.9138,34.9056],[134.9258,34.9024],[134.9295,34.9001],[134.9316,34.8918],[134.9346,34.8857],[134.9372,34.884],[134.9459,34.8826],[134.9512,34.8838],[134.9674,34.8909],[134.9886,34.8931],[134.9962,34.8934],[135.0073,34.8885],[135.0179,34.879],[135.0237,34.8674],[135.0253,34.8625],[135.0313,34.8549],[135.0333,34.8559],[135.0501,34.8686],[135.0564,34.8718],[135.072,34.8745],[135.0775,34.8775],[135.096,34.8917],[135.1042,34.9015],[135.1098,34.9168],[135.115,34.9278],[135.0977,34.9437],[135.0941,34.9487],[135.0935,34.9528],[135.1005,34.9722],[135.0965,34.9751],[135.0748,34.9957],[135.0671,35.0011],[135.0584,34.993],[135.0508,34.9825],[135.0454,34.9724],[135.0379,34.9663],[135.0137,34.9632],[135.0009,34.9608],[134.9892,34.9521],[134.9858,34.9479],[134.9783,34.9479],[134.962,34.954],[134.9546,34.9553],[134.9382,34.9538],[134.9251,34.9514],[134.9248,34.9401],[134.9198,34.9337],[134.9108,34.9298],[134.9081,34.9242],[134.9075,34.9065]]]}},{"type":"Feature","properties":{"id":28021},"geometry":{"type":"Polygon","coordinates":[[[135.367,34.8564],[135.3748,34.8502],[135.3824,34.8456],[135.3878,34.8411],[135.3926,34.8391],[135.3994,34.8328],[135.4041,34.8223],[135.4098,34.8129],[135.4218,34.8133],[135.4252,34.8387],[135.4249,34.8487],[135.4338,34.8534],[135.4356,34.8638],[135.4388,34.8725],[135.4427,34.8834],[135.4441,34.8903],[135.445,34.8944],[135.4328,34.8964],[135.4233,34.9047],[135.4317,34.9123],[135.4411,34.9166],[135.4534,34.9167],[135.4638,34.915],[135.4696,34.9259],[135.4419,34.934],[135.4337,34.9334],[135.4201,34.9322],[135.415,34.9319],[135.4089,34.9236],[135.4037,34.9191],[135.3951,34.9077],[135.3914,34.9016],[135.3894,34.8942],[135.3835,34.8848],[135.3813,34.8779],[135.3791,34.8749],[135.3734,34.8633],[135.367,34.8564]]]}},{"type":"Feature","properties":{"id":28022},"geometry":{"type":"MultiPolygon","coordinates":[[[[135.2767,34.6983],[135.2661,34.6956],[135.265,34.6975],[135.2545,34.6938],[135.2528,34.6914],[135.2533,34.6847],[135.2556,34.6778],[135.2719,34.6797],[135.2826,34.6797],[135.2905,34.6813],[135.2931,34.6865],[135.2867,34.6886],[135.2794,34.6894],[135.2791,34.6918],[135.2894,34.6903],[135.2886,34.6967],[135.2767,34.6983]]],[[[135.3003,34.7175],[135.2927,34.7134],[135.2922,34.7094],[135.2947,34.7031],[135.3033,34.7053],[135.3047,34.7128],[135.3039,34.7164],[135.3003,34.7175]]],[[[135.2213,34.6774],[135.2238,34.6788],[135.2191,34.6829],[135.211,34.6814],[135.2011,34.6736],[135.202,34.659],[135.2158,34.6503],[135.2403,34.65],[135.2439,34.6539],[135.2392,34.6603],[135.235,34.6614],[135.2292,34.6597],[135.2292,34.6639],[135.2364,34.6658],[135.2294,34.6764],[135.2186,34.6733],[135.2213,34.6774]]],[[[134.9027,34.7235],[134.9072,34.7174],[134.9119,34.7077],[134.9189,34.7036],[134.9485,34.6983],[134.9551,34.694],[134.9569,34.6869],[134.9631,34.6776],[134.9704,34.6693],[134.9795,34.6616],[134.988,34.6602],[134.9989,34.6632],[135.0154,34.6602],[135.0246,34.657],[135.0258,34.6531],[135.0244,34.6456],[135.035,34.6404],[135.0418,34.6385],[135.05,34.6378],[135.0876,34.6359],[135.0984,34.636],[135.1076,34.6404],[135.1152,34.6423],[135.1286,34.6433],[135.1341,34.6409],[135.1417,34.6428],[135.1436,34.645],[135.1668,34.6482],[135.1821,34.6491],[135.1887,34.653],[135.1806,34.6595],[135.187,34.665],[135.1813,34.6677],[135.1886,34.671],[135.1847,34.6816],[135.1901,34.6811],[135.1924,34.6828],[135.1973,34.6796],[135.2041,34.6801],[135.2022,34.685],[135.2075,34.6843],[135.212,34.6864],[135.2134,34.6911],[135.2188,34.695],[135.2226,34.6924],[135.228,34.6918],[135.2378,34.6932],[135.2377,34.6978],[135.2289,34.6983],[135.2296,34.7005],[135.2405,34.7003],[135.2456,34.6987],[135.2556,34.7003],[135.2678,34.7009],[135.2697,34.7053],[135.2736,34.7013],[135.277,34.7024],[135.2885,34.7036],[135.2886,34.7092],[135.2865,34.7121],[135.2914,34.7153],[135.2938,34.7189],[135.2976,34.719],[135.2943,34.7419],[135.2879,34.7548],[135.2819,34.7636],[135.2766,34.7689],[135.2755,34.7733],[135.2818,34.7805],[135.2766,34.7905],[135.2737,34.7921],[135.2557,34.7931],[135.2497,34.7947],[135.2395,34.8018],[135.2388,34.8051],[135.2426,34.8143],[135.2439,34.8201],[135.2454,34.8341],[135.2493,34.8367],[135.2611,34.8383],[135.2763,34.8437],[135.2876,34.8521],[135.2935,34.8582],[135.2903,34.8634],[135.2884,34.8695],[135.2801,34.8873],[135.2741,34.884],[135.2639,34.8767],[135.2528,34.8715],[135.2367,34.8661],[135.2254,34.8681],[135.2162,34.8709],[135.1995,34.8742],[135.1935,34.8764],[135.177,34.8806],[135.1706,34.8805],[135.1593,34.8788],[135.1546,34.8743],[135.1556,34.8514],[135.1531,34.8446],[135.1462,34.8365],[135.14,34.8353],[135.1204,34.8416],[135.1098,34.8426],[135.1044,34.8382],[135.099,34.8314],[135.0898,34.828],[135.0862,34.8248],[135.082,34.8184],[135.0774,34.8091],[135.0761,34.8033],[135.0808,34.7969],[135.0856,34.7949],[135.0894,34.7912],[135.094,34.7824],[135.0939,34.7763],[135.0895,34.7721],[135.0836,34.7711],[135.0775,34.7656],[135.0676,34.7655],[135.0532,34.768],[135.0451,34.771],[135.0394,34.7711],[135.0305,34.7659],[135.0178,34.7666],[135.0048,34.7727],[134.997,34.7733],[134.9733,34.7651],[134.9656,34.7613],[134.9578,34.7536],[134.9552,34.7466],[134.9518,34.743],[134.9325,34.7355],[134.9144,34.7293],[134.9027,34.7235]]]]}},{"type":"Feature","properties":{"id":28023},"geometry":{"type":"Polygon","coordinates":[[[134.9656,34.7613],[134.9733,34.7651],[134.997,34.7733],[135.0048,34.7727],[135.0178,34.7666],[135.0305,34.7659],[135.0394,34.7711],[135.0451,34.771],[135.0532,34.768],[135.0676,34.7655],[135.0775,34.7656],[135.0836,34.7711],[135.0895,34.7721],[135.0939,34.7763],[135.094,34.7824],[135.0894,34.7912],[135.0856,34.7949],[135.0808,34.7969],[135.0761,34.8033],[135.0774,34.8091],[135.082,34.8184],[135.0862,34.8248],[135.0898,34.828],[135.099,34.8314],[135.1044,34.8382],[135.1098,34.8426],[135.1204,34.8416],[135.14,34.8353],[135.1462,34.8365],[135.1531,34.8446],[135.1556,34.8514],[135.1546,34.8743],[135.1593,34.8788],[135.1706,34.8805],[135.177,34.8806],[135.17,34.8922],[135.1655,34.8972],[135.1593,34.9118],[135.1578,34.921],[135.1548,34.9274],[135.15,34.9317],[135.1456,34.9316],[135.14,34.9279],[135.1307,34.9263],[135.115,34.9278],[135.1098,34.9168],[135.1042,34.9015],[135.096,34.8917],[135.0775,34.8775],[135.072,34.8745],[135.0564,34.8718],[135.0501,34.8686],[135.0333,34.8559],[135.0313,34.8549],[135.0216,34.8505],[135.0095,34.8468],[135.006,34.8443],[135.0002,34.8315],[134.9964,34.8256],[134.9884,34.8195],[134.9749,34.817],[134.9663,34.8162],[134.9626,34.8146],[134.9483,34.8112],[134.9446,34.8096],[134.9361,34.8086],[134.9269,34.8058],[134.9305,34.7974],[134.9317,34.7903],[134.9337,34.7864],[134.9345,34.7798],[134.9447,34.7773],[134.9501,34.775],[134.9656,34.7613]]]}},{"type":"Feature","properties":{"id":28024},"geometry":{"type":"MultiPolygon","coordinates":[[[[134.8238,34.1791],[134.8198,34.1791],[134.8182,34.1688],[134.8118,34.1657],[134.8105,34.1571],[134.8162,34.1559],[134.8235,34.1573],[134.8311,34.1653],[134.8313,34.1707],[134.8238,34.1791]]],[[[134.7411,34.3536],[134.735,34.3406],[134.73,34.3335],[134.7303,34.3314],[134.722,34.331],[134.7177,34.3278],[134.7167,34.3244],[134.7067,34.3211],[134.7017,34.3247],[134.6947,34.3239],[134.6886,34.3314],[134.6861,34.3258],[134.6811,34.3197],[134.6742,34.3175],[134.6703,34.3119],[134.6686,34.3072],[134.6617,34.2967],[134.6575,34.2928],[134.6628,34.2876],[134.6611,34.2819],[134.6611,34.2708],[134.6668,34.2714],[134.6728,34.2656],[134.672,34.2611],[134.6761,34.2553],[134.6717,34.2497],[134.6578,34.2414],[134.6586,34.2403],[134.6717,34.2464],[134.6746,34.2446],[134.6807,34.2484],[134.6858,34.2465],[134.6926,34.2482],[134.7024,34.2418],[134.7083,34.2453],[134.7061,34.2482],[134.7124,34.2528],[134.7192,34.2531],[134.721,34.2497],[134.7205,34.2427],[134.7155,34.2431],[134.7113,34.24],[134.7069,34.2325],[134.7028,34.2289],[134.6994,34.2208],[134.7014,34.2167],[134.7108,34.2168],[134.7194,34.2157],[134.7217,34.2114],[134.7247,34.2114],[134.7302,34.2068],[134.7325,34.1981],[134.7295,34.1897],[134.7334,34.1884],[134.7545,34.1943],[134.7612,34.1971],[134.7757,34.2005],[134.7789,34.1996],[134.8006,34.1994],[134.8022,34.2031],[134.8149,34.2075],[134.8238,34.2148],[134.8297,34.2216],[134.8329,34.2238],[134.8505,34.2324],[134.8622,34.2358],[134.8571,34.2423],[134.8455,34.2534],[134.8392,34.2627],[134.8362,34.2688],[134.8354,34.2736],[134.8364,34.2918],[134.8339,34.298],[134.8342,34.3093],[134.8331,34.3187],[134.8293,34.3267],[134.8279,34.3333],[134.8253,34.3381],[134.8147,34.3459],[134.8056,34.3501],[134.7976,34.3516],[134.7808,34.3512],[134.7754,34.3494],[134.7645,34.3495],[134.754,34.3527],[134.7411,34.3536]]]]}},{"type":"Feature","properties":{"id":28025},"geometry":{"type":"Polygon","coordinates":[[[135.3791,34.733],[135.3757,34.7407],[135.3676,34.7549],[135.3643,34.7696],[135.3585,34.7723],[135.3455,34.7762],[135.3348,34.7778],[135.3231,34.7824],[135.3211,34.7893],[135.3224,34.799],[135.3277,34.8136],[135.3282,34.8228],[135.3252,34.8312],[135.3222,34.8348],[135.3115,34.8433],[135.3035,34.8482],[135.2935,34.8582],[135.2876,34.8521],[135.2763,34.8437],[135.2611,34.8383],[135.2493,34.8367],[135.2454,34.8341],[135.2439,34.8201],[135.2426,34.8143],[135.2388,34.8051],[135.2395,34.8018],[135.2497,34.7947],[135.2557,34.7931],[135.2737,34.7921],[135.2766,34.7905],[135.2818,34.7805],[135.299,34.7725],[135.3032,34.769],[135.3107,34.7558],[135.3224,34.7441],[135.3239,34.7356],[135.3267,34.7252],[135.3329,34.7233],[135.3247,34.7168],[135.3248,34.7109],[135.3328,34.7092],[135.3387,34.7107],[135.3431,34.7134],[135.3453,34.7042],[135.3478,34.7028],[135.3522,34.7058],[135.3585,34.7005],[135.3552,34.6953],[135.3632,34.688],[135.3717,34.6953],[135.3792,34.7093],[135.3828,34.7189],[135.3831,34.7233],[135.3786,34.7297],[135.3792,34.7326],[135.3791,34.733]]]}},{"type":"Feature","properties":{"id":28026},"geometry":{"type":"Polygon","coordinates":[[[134.9251,34.9514],[134.9382,34.9538],[134.9546,34.9553],[134.962,34.954],[134.9783,34.9479],[134.9858,34.9479],[134.9892,34.9521],[135.0009,34.9608],[135.0137,34.9632],[135.0379,34.9663],[135.0454,34.9724],[135.0508,34.9825],[135.0584,34.993],[135.0671,35.0011],[135.083,35.0148],[135.0878,35.022],[135.0937,35.036],[135.0971,35.0467],[135.0851,35.0481],[135.0481,35.05],[135.0403,35.0508],[135.0219,35.0565],[135.0112,35.0618],[135.0055,35.0631],[134.9906,35.061],[134.9676,35.0633],[134.9684,35.0546],[134.9679,35.045],[134.9645,35.0357],[134.933,35.0117],[134.927,35.0025],[134.9216,34.9957],[134.919,34.988],[134.9151,34.9822],[134.906,34.9785],[134.8891,34.9762],[134.8815,34.9759],[134.8875,34.968],[134.9007,34.9552],[134.9102,34.9511],[134.9251,34.9514]]]}},{"type":"Feature","properties":{"id":28027},"geometry":{"type":"Polygon","coordinates":[[[134.9269,34.8058],[134.9361,34.8086],[134.9446,34.8096],[134.9483,34.8112],[134.9626,34.8146],[134.9663,34.8162],[134.9749,34.817],[134.9884,34.8195],[134.9964,34.8256],[135.0002,34.8315],[135.006,34.8443],[135.0095,34.8468],[135.0216,34.8505],[135.0313,34.8549],[135.0253,34.8625],[135.0237,34.8674],[135.0179,34.879],[135.0073,34.8885],[134.9962,34.8934],[134.9886,34.8931],[134.9674,34.8909],[134.9512,34.8838],[134.9459,34.8826],[134.9372,34.884],[134.9346,34.8857],[134.9316,34.8918],[134.9295,34.9001],[134.9258,34.9024],[134.9138,34.9056],[134.9075,34.9065],[134.904,34.9021],[134.8982,34.8881],[134.8956,34.8841],[134.8977,34.8771],[134.8986,34.8687],[134.896,34.8577],[134.8917,34.8513],[134.8843,34.8456],[134.8757,34.8411],[134.8836,34.8352],[134.8954,34.8243],[134.9102,34.8221],[134.9145,34.8188],[134.9243,34.8092],[134.9269,34.8058]]]}},{"type":"Feature","properties":{"id":28028},"geometry":{"type":"Polygon","coordinates":[[[135.2935,35.0058],[135.2716,35.0114],[135.2612,35.0126],[135.2554,35.0142],[135.2484,35.0179],[135.2394,35.0261],[135.2324,35.027],[135.2135,35.0199],[135.2011,35.0164],[135.1945,35.0135],[135.1793,35.0016],[135.1743,34.9935],[135.1696,34.9896],[135.1519,34.9865],[135.148,34.9848],[135.1452,34.9808],[135.1407,34.9656],[135.138,34.9628],[135.1312,34.9619],[135.1227,34.9625],[135.1127,34.9652],[135.1005,34.9722],[135.0935,34.9528],[135.0941,34.9487],[135.0977,34.9437],[135.115,34.9278],[135.1307,34.9263],[135.14,34.9279],[135.1456,34.9316],[135.15,34.9317],[135.1548,34.9274],[135.1578,34.921],[135.1593,34.9118],[135.1655,34.8972],[135.17,34.8922],[135.177,34.8806],[135.1935,34.8764],[135.1995,34.8742],[135.2162,34.8709],[135.2254,34.8681],[135.2367,34.8661],[135.2528,34.8715],[135.2639,34.8767],[135.2741,34.884],[135.2801,34.8873],[135.2841,34.8974],[135.2865,34.9137],[135.2904,34.9189],[135.2976,34.9235],[135.302,34.9279],[135.3065,34.9396],[135.3102,34.9563],[135.3076,34.964],[135.306,34.9724],[135.3058,34.9821],[135.3043,34.9892],[135.3009,34.996],[135.2935,35.0058]]]}},{"type":"Feature","properties":{"id":28029},"geometry":{"type":"Polygon","coordinates":[[[135.3427,35.0228],[135.337,35.0311],[135.3418,35.0405],[135.3621,35.0469],[135.3738,35.0422],[135.3741,35.0463],[135.375,35.056],[135.3824,35.0645],[135.4016,35.0731],[135.403,35.0909],[135.3912,35.0984],[135.394,35.1035],[135.3961,35.1073],[135.3894,35.1148],[135.3867,35.1258],[135.373,35.1288],[135.3623,35.1291],[135.3422,35.1367],[135.3373,35.1464],[135.3262,35.1434],[135.294,35.1388],[135.2864,35.1479],[135.2935,35.156],[135.2929,35.161],[135.2919,35.1693],[135.2808,35.1718],[135.2588,35.1739],[135.2398,35.1736],[135.2286,35.1608],[135.226,35.1603],[135.22,35.1525],[135.2226,35.1387],[135.2219,35.1331],[135.2108,35.1248],[135.1884,35.1166],[135.1762,35.1155],[135.162,35.1177],[135.1566,35.12],[135.1483,35.1212],[135.128,35.1222],[135.1236,35.1211],[135.12,35.1181],[135.1146,35.1093],[135.1087,35.1015],[135.1081,35.0983],[135.1162,35.086],[135.1227,35.0732],[135.127,35.0598],[135.1304,35.0517],[135.1305,35.046],[135.1275,35.0434],[135.0971,35.0467],[135.0937,35.036],[135.0878,35.022],[135.083,35.0148],[135.0671,35.0011],[135.0748,34.9957],[135.0965,34.9751],[135.1005,34.9722],[135.1127,34.9652],[135.1227,34.9625],[135.1312,34.9619],[135.138,34.9628],[135.1407,34.9656],[135.1452,34.9808],[135.148,34.9848],[135.1519,34.9865],[135.1696,34.9896],[135.1743,34.9935],[135.1793,35.0016],[135.1945,35.0135],[135.2011,35.0164],[135.2135,35.0199],[135.2324,35.027],[135.2394,35.0261],[135.2484,35.0179],[135.2554,35.0142],[135.2612,35.0126],[135.2716,35.0114],[135.2935,35.0058],[135.3171,35.0069],[135.328,35.009],[135.3337,35.0109],[135.3436,35.0175],[135.3427,35.0228]]]}},{"type":"Feature","properties":{"id":28030},"geometry":{"type":"Polygon","coordinates":[[[134.4367,34.9431],[134.4424,34.9489],[134.4447,34.9536],[134.4504,34.961],[134.4565,34.9632],[134.4677,34.9651],[134.4722,34.9682],[134.4803,34.9791],[134.488,34.9908],[134.4903,34.9954],[134.4974,35.0031],[134.4907,35.0096],[134.4847,35.0184],[134.483,35.0227],[134.4765,35.0292],[134.4703,35.0315],[134.4567,35.0322],[134.4519,35.0333],[134.4499,35.0362],[134.4529,35.0429],[134.4557,35.0585],[134.4551,35.066],[134.4494,35.081],[134.4506,35.1028],[134.449,35.1069],[134.4412,35.1114],[134.4261,35.1164],[134.4209,35.1238],[134.42,35.1302],[134.4117,35.1451],[134.4001,35.1489],[134.3881,35.1489],[134.3773,35.1475],[134.365,35.1367],[134.3623,35.1202],[134.356,35.1108],[134.3563,35.1004],[134.3527,35.091],[134.3429,35.0856],[134.3229,35.0807],[134.3236,35.0704],[134.3177,35.0518],[134.3198,35.042],[134.3097,35.0381],[134.2991,35.0382],[134.29,35.0333],[134.2732,35.0195],[134.2687,35.0102],[134.2743,35],[134.2832,34.9948],[134.2808,34.9841],[134.2729,34.9772],[134.2774,34.9673],[134.2756,34.9567],[134.2666,34.9495],[134.2577,34.9433],[134.258,34.9413],[134.2592,34.9331],[134.2697,34.932],[134.2786,34.9253],[134.2856,34.9181],[134.2921,34.9077],[134.2919,34.9029],[134.3004,34.9066],[134.3128,34.9106],[134.3199,34.915],[134.3238,34.9192],[134.3271,34.9264],[134.3345,34.926],[134.3403,34.9225],[134.3462,34.9235],[134.3665,34.9333],[134.38,34.9361],[134.3878,34.9367],[134.4083,34.9321],[134.4167,34.9323],[134.4271,34.9372],[134.4367,34.9431]]]}},{"type":"Feature","properties":{"id":28031},"geometry":{"type":"Polygon","coordinates":[[[134.5406,35.6703],[134.5378,35.6706],[134.5333,35.6667],[134.5287,35.6676],[134.5224,35.666],[134.5219,35.6633],[134.5117,35.6584],[134.5084,35.6608],[134.502,35.6622],[134.4995,35.6578],[134.4952,35.6544],[134.4906,35.6536],[134.4794,35.6461],[134.4758,35.6404],[134.4688,35.6406],[134.4603,35.6389],[134.4517,35.6289],[134.4476,35.6287],[134.4336,35.6328],[134.4321,35.6292],[134.4356,35.6244],[134.4344,35.6211],[134.4286,35.6203],[134.4204,35.6245],[134.4164,35.6225],[134.4148,35.6182],[134.4009,35.6161],[134.3946,35.62],[134.3813,35.6128],[134.3745,35.6145],[134.3694,35.613],[134.3957,35.5982],[134.4045,35.5915],[134.4098,35.5733],[134.4105,35.562],[134.4239,35.5598],[134.4278,35.5487],[134.4281,35.5384],[134.4229,35.527],[134.4178,35.5175],[134.4233,35.5088],[134.4313,35.5022],[134.433,35.4888],[134.4371,35.4788],[134.4372,35.4676],[134.4411,35.451],[134.4426,35.4411],[134.4438,35.4394],[134.4597,35.4333],[134.4706,35.4299],[134.478,35.4266],[134.4868,35.4339],[134.4944,35.4479],[134.4967,35.4609],[134.501,35.4714],[134.5074,35.4777],[134.521,35.4985],[134.5257,35.5016],[134.5417,35.5012],[134.5467,35.5017],[134.551,35.5057],[134.5573,35.5171],[134.5568,35.5235],[134.5546,35.5316],[134.5552,35.5435],[134.56,35.5613],[134.5642,35.5677],[134.5693,35.5714],[134.5866,35.5795],[134.5893,35.5828],[134.5889,35.5877],[134.5839,35.5988],[134.5798,35.6149],[134.5719,35.6192],[134.5488,35.6236],[134.5411,35.6269],[134.5385,35.6299],[134.538,35.6347],[134.5406,35.6703]]]}},{"type":"Feature","properties":{"id":28032},"geometry":{"type":"Polygon","coordinates":[[[134.6876,35.2434],[134.6702,35.2474],[134.6636,35.2506],[134.6564,35.2575],[134.652,35.2645],[134.6422,35.2741],[134.6353,35.2756],[134.6306,35.2746],[134.6229,35.2709],[134.6143,35.2711],[134.6005,35.2751],[134.5943,35.2784],[134.5759,35.2956],[134.5638,35.3022],[134.5355,35.3158],[134.5243,35.3196],[134.5051,35.3236],[134.5078,35.3132],[134.5157,35.306],[134.5135,35.2953],[134.5145,35.2849],[134.5183,35.2747],[134.5097,35.2693],[134.4899,35.2594],[134.4838,35.2503],[134.4742,35.246],[134.4548,35.2344],[134.4352,35.2268],[134.4262,35.2322],[134.4057,35.2377],[134.4011,35.2281],[134.3927,35.2212],[134.384,35.2153],[134.3835,35.2045],[134.3859,35.1944],[134.397,35.1884],[134.4074,35.1842],[134.4154,35.1771],[134.411,35.1681],[134.4155,35.1556],[134.4117,35.1451],[134.42,35.1302],[134.4209,35.1238],[134.4261,35.1164],[134.4412,35.1114],[134.449,35.1069],[134.4506,35.1028],[134.4494,35.081],[134.4551,35.066],[134.4557,35.0585],[134.4529,35.0429],[134.4499,35.0362],[134.4519,35.0333],[134.4567,35.0322],[134.4703,35.0315],[134.4765,35.0292],[134.483,35.0227],[134.4847,35.0184],[134.4907,35.0096],[134.4974,35.0031],[134.5043,35.0028],[134.5092,35.0008],[134.5126,34.9963],[134.5173,34.9873],[134.5246,34.9805],[134.5293,34.9785],[134.5462,34.9658],[134.5515,34.9612],[134.5563,34.9592],[134.5666,34.9513],[134.5752,34.9624],[134.5774,34.9695],[134.5788,34.9901],[134.5821,35.0004],[134.5918,35.0144],[134.5947,35.0206],[134.5964,35.035],[134.599,35.0454],[134.6079,35.0611],[134.6153,35.0697],[134.6304,35.0808],[134.6396,35.0822],[134.6519,35.0857],[134.6623,35.0859],[134.6689,35.0979],[134.6682,35.1034],[134.6609,35.1104],[134.6594,35.1159],[134.6607,35.121],[134.6677,35.1347],[134.6695,35.1422],[134.6759,35.1568],[134.6774,35.163],[134.6817,35.1676],[134.687,35.1685],[134.7014,35.1687],[134.7128,35.1769],[134.718,35.1819],[134.7144,35.1985],[134.7082,35.2079],[134.7034,35.2129],[134.6966,35.2262],[134.6952,35.2328],[134.6876,35.2434]]]}},{"type":"Feature","properties":{"id":28033},"geometry":{"type":"Polygon","coordinates":[[[134.8953,34.3981],[134.8887,34.3945],[134.8802,34.3937],[134.877,34.3948],[134.8686,34.4026],[134.8629,34.404],[134.8589,34.403],[134.8538,34.3994],[134.8479,34.3994],[134.8448,34.4022],[134.8363,34.4167],[134.8297,34.4201],[134.8206,34.4233],[134.8123,34.4251],[134.8032,34.429],[134.7956,34.4337],[134.7873,34.4255],[134.7823,34.415],[134.7756,34.4119],[134.7728,34.4042],[134.7658,34.3903],[134.7633,34.3867],[134.7589,34.3847],[134.7547,34.385],[134.7522,34.3769],[134.7492,34.3744],[134.7481,34.3689],[134.7411,34.3536],[134.754,34.3527],[134.7645,34.3495],[134.7754,34.3494],[134.7808,34.3512],[134.7976,34.3516],[134.8056,34.3501],[134.8147,34.3459],[134.8253,34.3381],[134.8279,34.3333],[134.8293,34.3267],[134.8331,34.3187],[134.8342,34.3093],[134.8339,34.298],[134.8364,34.2918],[134.8354,34.2736],[134.8362,34.2688],[134.8392,34.2627],[134.8455,34.2534],[134.8571,34.2423],[134.8622,34.2358],[134.867,34.2383],[134.8797,34.242],[134.8867,34.2448],[134.8988,34.2519],[134.9083,34.2546],[134.9142,34.2551],[134.9245,34.2579],[134.937,34.2624],[134.9462,34.2643],[134.9522,34.2667],[134.9533,34.2739],[134.9509,34.274],[134.9487,34.2801],[134.9504,34.2862],[134.9489,34.29],[134.9453,34.2933],[134.9436,34.2981],[134.9355,34.3031],[134.9293,34.3049],[134.9228,34.3101],[134.9186,34.3164],[134.9154,34.3364],[134.9094,34.3414],[134.9036,34.3406],[134.8983,34.3491],[134.8953,34.3517],[134.8967,34.3611],[134.8961,34.3659],[134.8983,34.3678],[134.8982,34.3755],[134.896,34.3796],[134.8964,34.3837],[134.8953,34.3981]]]}},{"type":"Feature","properties":{"id":28034},"geometry":{"type":"Polygon","coordinates":[[[134.5929,34.8546],[134.5827,34.8504],[134.5747,34.8444],[134.56,34.8277],[134.5548,34.8185],[134.5532,34.8077],[134.5634,34.8129],[134.5774,34.8163],[134.5823,34.8182],[134.5909,34.8193],[134.6036,34.819],[134.6106,34.8208],[134.6255,34.8319],[134.6273,34.8356],[134.6262,34.8422],[134.6229,34.8456],[134.6156,34.8492],[134.6068,34.8507],[134.5929,34.8546]]]}},{"type":"Feature","properties":{"id":28035},"geometry":{"type":"Polygon","coordinates":[[[134.907,35.1875],[134.9052,35.1627],[134.9021,35.153],[134.8938,35.141],[134.888,35.136],[134.8826,35.1295],[134.8665,35.1171],[134.861,35.1059],[134.8566,35.09],[134.8547,35.0808],[134.8426,35.0629],[134.834,35.0538],[134.8415,35.0494],[134.8501,35.0427],[134.8536,35.0376],[134.854,35.0308],[134.8518,35.0037],[134.8554,34.9992],[134.8605,34.9897],[134.8675,34.984],[134.8723,34.9819],[134.8815,34.9759],[134.8891,34.9762],[134.906,34.9785],[134.9151,34.9822],[134.919,34.988],[134.9216,34.9957],[134.927,35.0025],[134.933,35.0117],[134.9645,35.0357],[134.9679,35.045],[134.9684,35.0546],[134.9676,35.0633],[134.9545,35.0609],[134.95,35.0638],[134.9471,35.0843],[134.9418,35.0942],[134.9409,35.0991],[134.9425,35.1045],[134.9487,35.1118],[134.9566,35.1234],[134.9656,35.1432],[134.9657,35.149],[134.9637,35.153],[134.9635,35.1673],[134.9609,35.1823],[134.9571,35.1931],[134.9522,35.1987],[134.9379,35.2058],[134.9239,35.207],[134.918,35.2066],[134.9098,35.1943],[134.907,35.1875]]]}},{"type":"Feature","properties":{"id":28036},"geometry":{"type":"Polygon","coordinates":[[[135.3102,34.9563],[135.3065,34.9396],[135.302,34.9279],[135.2976,34.9235],[135.2904,34.9189],[135.2865,34.9137],[135.2841,34.8974],[135.2801,34.8873],[135.2884,34.8695],[135.2903,34.8634],[135.2935,34.8582],[135.3035,34.8482],[135.3115,34.8433],[135.3222,34.8348],[135.3252,34.8312],[135.3282,34.8228],[135.3277,34.8136],[135.3224,34.799],[135.3211,34.7893],[135.3231,34.7824],[135.3348,34.7778],[135.3455,34.7762],[135.3585,34.7723],[135.3643,34.7696],[135.3657,34.7746],[135.3747,34.782],[135.3783,34.7865],[135.3831,34.7976],[135.3808,34.805],[135.3824,34.8126],[135.3902,34.8148],[135.4098,34.8129],[135.4041,34.8223],[135.3994,34.8328],[135.3926,34.8391],[135.3878,34.8411],[135.3824,34.8456],[135.3748,34.8502],[135.367,34.8564],[135.3598,34.8572],[135.3521,34.8601],[135.3492,34.8633],[135.3414,34.8876],[135.34,34.896],[135.3356,34.9081],[135.329,34.9374],[135.3234,34.9448],[135.3102,34.9563]]]}},{"type":"Feature","properties":{"id":28037},"geometry":{"type":"Polygon","coordinates":[[[134.7578,34.7639],[134.7609,34.7584],[134.7575,34.7516],[134.7619,34.7486],[134.7684,34.7508],[134.7731,34.7475],[134.7876,34.7402],[134.7931,34.7353],[134.7988,34.733],[134.8046,34.7376],[134.8076,34.748],[134.8048,34.7567],[134.8081,34.7589],[134.8109,34.7462],[134.8185,34.7571],[134.8198,34.7635],[134.8193,34.7691],[134.8145,34.7764],[134.8063,34.7912],[134.8015,34.7962],[134.7968,34.8037],[134.788,34.8101],[134.7776,34.8115],[134.769,34.8108],[134.7664,34.8085],[134.7648,34.8036],[134.7616,34.799],[134.7525,34.7929],[134.7504,34.7897],[134.7508,34.7826],[134.7536,34.7737],[134.7578,34.7639]]]}},{"type":"Feature","properties":{"id":28038},"geometry":{"type":"Polygon","coordinates":[[[134.918,35.2066],[134.9239,35.207],[134.9379,35.2058],[134.9522,35.1987],[134.9571,35.1931],[134.9609,35.1823],[134.9635,35.1673],[134.9637,35.153],[134.9657,35.149],[134.9656,35.1432],[134.9566,35.1234],[134.9487,35.1118],[134.9425,35.1045],[134.9409,35.0991],[134.9418,35.0942],[134.9471,35.0843],[134.95,35.0638],[134.9545,35.0609],[134.9676,35.0633],[134.9906,35.061],[135.0055,35.0631],[135.0112,35.0618],[135.0219,35.0565],[135.0403,35.0508],[135.0481,35.05],[135.0851,35.0481],[135.0971,35.0467],[135.1275,35.0434],[135.1305,35.046],[135.1304,35.0517],[135.127,35.0598],[135.1227,35.0732],[135.1162,35.086],[135.1081,35.0983],[135.1087,35.1015],[135.1146,35.1093],[135.12,35.1181],[135.1236,35.1211],[135.128,35.1222],[135.1483,35.1212],[135.1566,35.12],[135.162,35.1177],[135.1762,35.1155],[135.1884,35.1166],[135.2108,35.1248],[135.2219,35.1331],[135.2226,35.1387],[135.22,35.1525],[135.226,35.1603],[135.2181,35.1588],[135.2078,35.1586],[135.2006,35.1659],[135.1899,35.1687],[135.192,35.1789],[135.1921,35.1891],[135.2025,35.1916],[135.1983,35.2009],[135.1847,35.2127],[135.1747,35.214],[135.165,35.2173],[135.1588,35.2259],[135.1667,35.2322],[135.1646,35.2499],[135.1576,35.2583],[135.1363,35.2602],[135.1169,35.2606],[135.106,35.2593],[135.0962,35.2566],[135.0884,35.25],[135.0805,35.2415],[135.0673,35.2401],[135.0607,35.2532],[135.0519,35.2589],[135.0415,35.2576],[135.0218,35.2652],[135.0134,35.2708],[135.0112,35.2812],[135,35.2873],[134.9713,35.2928],[134.9603,35.2956],[134.9503,35.3008],[134.9435,35.3029],[134.94,35.2921],[134.9372,35.2879],[134.9315,35.274],[134.926,35.2672],[134.9232,35.2619],[134.9176,35.2568],[134.9137,35.2511],[134.912,35.2445],[134.9122,35.235],[134.9145,35.2291],[134.918,35.2066]]]}},{"type":"Feature","properties":{"id":28039},"geometry":{"type":"Polygon","coordinates":[[[134.4548,34.9066],[134.4626,34.9052],[134.4739,34.9054],[134.4814,34.908],[134.4852,34.907],[134.4896,34.8988],[134.4902,34.8914],[134.4855,34.8708],[134.4829,34.8662],[134.4743,34.8595],[134.4712,34.8552],[134.4703,34.8486],[134.472,34.8434],[134.4827,34.8334],[134.4874,34.8313],[134.4949,34.8248],[134.4977,34.8211],[134.4992,34.8111],[134.4991,34.8037],[134.4975,34.7814],[134.4989,34.7727],[134.5047,34.7611],[134.5188,34.7722],[134.5206,34.7754],[134.5276,34.7827],[134.5332,34.7756],[134.5374,34.7747],[134.5417,34.7705],[134.5488,34.7729],[134.5586,34.77],[134.5581,34.7644],[134.5656,34.7611],[134.5681,34.7732],[134.5716,34.773],[134.5711,34.7658],[134.5736,34.7645],[134.578,34.7682],[134.5741,34.7774],[134.57,34.7909],[134.5532,34.8077],[134.5548,34.8185],[134.56,34.8277],[134.5747,34.8444],[134.5827,34.8504],[134.5929,34.8546],[134.5943,34.8789],[134.5936,34.8841],[134.5893,34.8897],[134.5823,34.8927],[134.576,34.8941],[134.5714,34.9006],[134.5688,34.9176],[134.5703,34.94],[134.57,34.9463],[134.5666,34.9513],[134.5563,34.9592],[134.5515,34.9612],[134.5462,34.9658],[134.5293,34.9785],[134.5246,34.9805],[134.5173,34.9873],[134.5126,34.9963],[134.5092,35.0008],[134.5043,35.0028],[134.4974,35.0031],[134.4903,34.9954],[134.488,34.9908],[134.4803,34.9791],[134.4722,34.9682],[134.4677,34.9651],[134.4565,34.9632],[134.4504,34.961],[134.4447,34.9536],[134.4424,34.9489],[134.4367,34.9431],[134.4413,34.9395],[134.4488,34.9313],[134.4523,34.9238],[134.4548,34.9066]]]}},{"type":"Feature","properties":{"id":28040},"geometry":{"type":"Polygon","coordinates":[[[134.9371,35.4021],[134.9419,35.4068],[134.953,35.4074],[134.9635,35.4052],[134.9724,35.3967],[134.9837,35.395],[134.9898,35.3863],[135,35.3838],[135.0091,35.388],[135.0226,35.3914],[135.0358,35.4068],[135.0464,35.4055],[135.0526,35.4166],[135.0499,35.4266],[135.0524,35.4374],[135.0516,35.449],[135.0469,35.4574],[135.0436,35.4683],[135.0433,35.4942],[135.0437,35.4971],[135.0465,35.5146],[135.0423,35.5243],[135.04,35.5346],[135.03,35.5368],[135.0193,35.5343],[135.0073,35.5325],[134.9911,35.5265],[134.9697,35.517],[134.9625,35.5096],[134.9518,35.5107],[134.9406,35.5095],[134.9259,35.5169],[134.9209,35.5333],[134.9155,35.5422],[134.9055,35.5474],[134.8987,35.5548],[134.8887,35.5579],[134.8827,35.566],[134.8718,35.5754],[134.8673,35.595],[134.8747,35.6231],[134.8699,35.6329],[134.8707,35.6592],[134.8628,35.6579],[134.8584,35.6601],[134.8514,35.6561],[134.845,35.6486],[134.8414,35.6425],[134.8361,35.645],[134.8344,35.6492],[134.8375,35.6511],[134.8369,35.6564],[134.8264,35.6553],[134.8217,35.6599],[134.816,35.6606],[134.8147,35.6631],[134.8077,35.665],[134.8044,35.6639],[134.7956,35.6699],[134.7931,35.6671],[134.7842,35.6664],[134.7817,35.662],[134.7756,35.6617],[134.7742,35.6589],[134.7655,35.66],[134.761,35.6638],[134.7649,35.6692],[134.7617,35.6732],[134.7586,35.6636],[134.7521,35.6633],[134.7478,35.6603],[134.7458,35.6667],[134.7428,35.6642],[134.7424,35.6594],[134.7358,35.6512],[134.7279,35.6388],[134.7251,35.6279],[134.7241,35.6161],[134.7214,35.6048],[134.7166,35.5965],[134.6982,35.5755],[134.6891,35.569],[134.676,35.5659],[134.6681,35.5586],[134.6571,35.55],[134.649,35.5461],[134.6459,35.5427],[134.6446,35.5374],[134.6435,35.5257],[134.6409,35.521],[134.6318,35.5138],[134.6295,35.5067],[134.6303,35.4971],[134.6335,35.4915],[134.6419,35.4835],[134.6454,35.477],[134.648,35.4659],[134.6474,35.4574],[134.6444,35.4502],[134.6431,35.444],[134.6471,35.4285],[134.6652,35.4274],[134.6724,35.4254],[134.6818,35.4204],[134.6936,35.4193],[134.7023,35.4209],[134.7135,35.421],[134.7364,35.4197],[134.7441,35.4199],[134.7504,35.4223],[134.7535,35.4264],[134.7548,35.4349],[134.7589,35.4393],[134.7673,35.4415],[134.7915,35.4417],[134.7988,35.4433],[134.8051,35.4423],[134.8186,35.4356],[134.8222,35.4327],[134.8436,35.412],[134.8467,35.4094],[134.8582,35.404],[134.863,35.4],[134.8864,35.4038],[134.8959,35.4067],[134.9046,35.4106],[134.9096,35.4118],[134.9181,35.4157],[134.924,35.4155],[134.9371,35.4021]]]}},{"type":"Feature","properties":{"id":28041},"geometry":{"type":"Polygon","coordinates":[[[134.863,35.4],[134.8582,35.404],[134.8467,35.4094],[134.8436,35.412],[134.8222,35.4327],[134.8186,35.4356],[134.8051,35.4423],[134.7988,35.4433],[134.7915,35.4417],[134.7673,35.4415],[134.7589,35.4393],[134.7548,35.4349],[134.7535,35.4264],[134.7504,35.4223],[134.7441,35.4199],[134.7364,35.4197],[134.7135,35.421],[134.7023,35.4209],[134.6936,35.4193],[134.6818,35.4204],[134.6724,35.4254],[134.6652,35.4274],[134.6471,35.4285],[134.6519,35.4104],[134.6503,35.4039],[134.6394,35.4013],[134.6313,35.4009],[134.6196,35.3982],[134.6162,35.3956],[134.6107,35.3882],[134.6052,35.3849],[134.5975,35.3845],[134.587,35.3884],[134.5782,35.39],[134.5701,35.3885],[134.5597,35.3816],[134.5536,35.3812],[134.5402,35.3821],[134.5332,35.3803],[134.523,35.37],[134.5205,35.366],[134.5091,35.3552],[134.5109,35.3534],[134.5126,35.3408],[134.5051,35.3236],[134.5243,35.3196],[134.5355,35.3158],[134.5638,35.3022],[134.5759,35.2956],[134.5943,35.2784],[134.6005,35.2751],[134.6143,35.2711],[134.6229,35.2709],[134.6306,35.2746],[134.6353,35.2756],[134.6422,35.2741],[134.652,35.2645],[134.6564,35.2575],[134.6636,35.2506],[134.6702,35.2474],[134.6876,35.2434],[134.698,35.2494],[134.702,35.2564],[134.7008,35.2608],[134.6958,35.268],[134.6922,35.2748],[134.6932,35.2811],[134.6989,35.2831],[134.7082,35.282],[134.7126,35.2799],[134.7177,35.2752],[134.7228,35.2737],[134.7382,35.276],[134.7447,35.2748],[134.7491,35.2678],[134.7524,35.2646],[134.7568,35.2634],[134.7725,35.2628],[134.7757,35.2637],[134.794,35.2771],[134.7979,35.2807],[134.7987,35.2853],[134.7948,35.2935],[134.7876,35.3024],[134.7855,35.3083],[134.7868,35.3136],[134.7999,35.3255],[134.8121,35.3355],[134.8146,35.3407],[134.8178,35.3559],[134.8193,35.3584],[134.8252,35.3614],[134.8319,35.362],[134.8486,35.3668],[134.8567,35.3727],[134.8618,35.3836],[134.863,35.4]]]}}]}