{"type":"FeatureCollection","features":[{"type":"Feature","properties":{"id":29001},"geometry":{"type":"Polygon","coordinates":[[[135.7457,34.5898],[135.7629,34.5868],[135.7748,34.5947],[135.7692,34.6126],[135.7665,34.6148],[135.7605,34.6161],[135.7524,34.6042],[135.7457,34.5898]]]}},{"type":"Feature","properties":{"id":29002},"geometry":{"type":"Polygon","coordinates":[[[135.7893,34.4683],[135.7873,34.4644],[135.7877,34.4592],[135.7993,34.4561],[135.8089,34.4481],[135.812,34.4471],[135.8253,34.4491],[135.8322,34.4468],[135.8419,34.4348],[135.8479,34.4302],[135.8667,34.4432],[135.8676,34.4539],[135.8668,34.4558],[135.8571,34.461],[135.8522,34.4688],[135.8486,34.471],[135.8426,34.4717],[135.8398,34.4746],[135.8348,34.4835],[135.8281,34.4875],[135.8164,34.4905],[135.8114,34.4841],[135.8094,34.4725],[135.8054,34.4678],[135.8018,34.4671],[135.7893,34.4683]]]}},{"type":"Feature","properties":{"id":29003},"geometry":{"type":"Polygon","coordinates":[[[135.677,34.4003],[135.6769,34.3958],[135.6661,34.3932],[135.6458,34.3804],[135.6568,34.3704],[135.6605,34.3603],[135.6664,34.3516],[135.664,34.341],[135.6635,34.3239],[135.6713,34.3134],[135.6713,34.2984],[135.6767,34.2898],[135.6762,34.2793],[135.6819,34.2709],[135.6937,34.2731],[135.7039,34.2721],[135.7216,34.2583],[135.7263,34.2401],[135.7322,34.2307],[135.7301,34.2183],[135.7209,34.2126],[135.7154,34.208],[135.7135,34.2004],[135.7109,34.1977],[135.7029,34.1932],[135.6997,34.1818],[135.7014,34.1756],[135.7121,34.169],[135.7198,34.1626],[135.7315,34.1585],[135.7327,34.1537],[135.7311,34.1407],[135.7293,34.1364],[135.7229,34.1312],[135.7108,34.1262],[135.6989,34.1055],[135.6948,34.1004],[135.6805,34.0935],[135.6664,34.0826],[135.6813,34.0794],[135.69,34.0794],[135.701,34.0812],[135.7054,34.0828],[135.711,34.0896],[135.7163,34.0944],[135.7297,34.1132],[135.7351,34.1246],[135.7447,34.133],[135.7461,34.1411],[135.7589,34.1525],[135.767,34.1504],[135.7775,34.1447],[135.7896,34.1346],[135.7931,34.1335],[135.802,34.1341],[135.828,34.1402],[135.8474,34.1403],[135.8565,34.1416],[135.8695,34.1453],[135.8766,34.1481],[135.884,34.1482],[135.8906,34.1451],[135.9079,34.1421],[135.9109,34.154],[135.9108,34.1584],[135.9051,34.1687],[135.8958,34.1772],[135.89,34.1777],[135.8832,34.1749],[135.8775,34.1742],[135.8638,34.1748],[135.8606,34.1787],[135.8637,34.1867],[135.8626,34.1903],[135.8574,34.1909],[135.8498,34.1886],[135.8447,34.1859],[135.8359,34.183],[135.8293,34.1818],[135.8125,34.1836],[135.8038,34.1751],[135.7792,34.1824],[135.7709,34.1871],[135.7524,34.1942],[135.7498,34.1993],[135.749,34.2066],[135.7502,34.2108],[135.7539,34.2165],[135.7522,34.2287],[135.7613,34.235],[135.7726,34.2408],[135.7824,34.241],[135.7896,34.2342],[135.8025,34.2336],[135.8142,34.2357],[135.819,34.2396],[135.8242,34.2474],[135.8277,34.2506],[135.8333,34.2587],[135.8471,34.2678],[135.8377,34.2727],[135.832,34.2771],[135.8273,34.2784],[135.8192,34.2813],[135.8066,34.2824],[135.7925,34.2825],[135.7809,34.2858],[135.777,34.2926],[135.777,34.3106],[135.7797,34.3186],[135.7793,34.3226],[135.7743,34.3297],[135.7717,34.3409],[135.7747,34.3542],[135.7749,34.3697],[135.7761,34.3753],[135.7671,34.3757],[135.7628,34.3793],[135.763,34.3852],[135.7606,34.3886],[135.7489,34.3877],[135.7386,34.3848],[135.7329,34.3855],[135.7284,34.3893],[135.7231,34.397],[135.7194,34.3981],[135.7034,34.3983],[135.6856,34.4062],[135.677,34.4003]]]}},{"type":"Feature","properties":{"id":29004},"geometry":{"type":"Polygon","coordinates":[[[135.7489,34.3877],[135.7487,34.3983],[135.7504,34.4066],[135.7571,34.4147],[135.7684,34.4233],[135.7647,34.4316],[135.7656,34.435],[135.7732,34.4435],[135.7745,34.448],[135.7711,34.4544],[135.7637,34.4593],[135.7601,34.4625],[135.7598,34.4707],[135.7618,34.4753],[135.753,34.4781],[135.7494,34.4708],[135.7456,34.469],[135.7211,34.4688],[135.7142,34.4679],[135.7054,34.4632],[135.6942,34.4649],[135.6854,34.4703],[135.686,34.467],[135.6854,34.4525],[135.6867,34.4422],[135.6844,34.4363],[135.683,34.4326],[135.6694,34.4166],[135.6773,34.4099],[135.677,34.4003],[135.6856,34.4062],[135.7034,34.3983],[135.7194,34.3981],[135.7231,34.397],[135.7284,34.3893],[135.7329,34.3855],[135.7386,34.3848],[135.7489,34.3877]]]}},{"type":"Feature","properties":{"id":29005},"geometry":{"type":"Polygon","coordinates":[[[135.7216,34.6416],[135.7124,34.6446],[135.7058,34.6458],[135.6975,34.6492],[135.6844,34.6561],[135.6729,34.6587],[135.6691,34.6498],[135.6673,34.6415],[135.6622,34.6143],[135.6725,34.6105],[135.6784,34.6094],[135.7074,34.6091],[135.7159,34.6097],[135.7248,34.6193],[135.7252,34.622],[135.7227,34.6301],[135.7216,34.6416]]]}},{"type":"Feature","properties":{"id":29006},"geometry":{"type":"Polygon","coordinates":[[[136.0987,34.4317],[136.0917,34.4454],[136.0896,34.4567],[136.085,34.4699],[136.0813,34.4752],[136.076,34.4756],[136.0632,34.4793],[136.0558,34.4799],[136.0478,34.4785],[136.0444,34.4756],[136.0465,34.4686],[136.0394,34.4617],[136.0284,34.4563],[136.0171,34.4517],[136.0111,34.4434],[136.0058,34.4412],[135.9973,34.4428],[135.9892,34.4427],[135.9776,34.4392],[135.9778,34.4291],[135.9761,34.4233],[135.9717,34.4195],[135.9643,34.4168],[135.9589,34.409],[135.9444,34.3961],[135.9421,34.389],[135.9415,34.3793],[135.9391,34.3735],[135.9574,34.3735],[135.9708,34.377],[135.9743,34.3758],[135.9802,34.369],[135.9812,34.3651],[135.9811,34.3528],[135.9854,34.349],[135.993,34.3481],[136.0069,34.348],[136.0123,34.3491],[136.0187,34.352],[136.024,34.3505],[136.0301,34.3453],[136.0363,34.3419],[136.0443,34.3415],[136.0477,34.3427],[136.0605,34.343],[136.0649,34.3447],[136.0665,34.3527],[136.0699,34.3587],[136.0733,34.3597],[136.0872,34.3579],[136.0976,34.3575],[136.0946,34.3656],[136.089,34.3762],[136.08,34.3831],[136.0732,34.3916],[136.0793,34.4018],[136.0881,34.4074],[136.093,34.4167],[136.0987,34.4317]]]}},{"type":"Feature","properties":{"id":29007},"geometry":{"type":"Polygon","coordinates":[[[135.7605,34.6161],[135.7451,34.6253],[135.7414,34.6293],[135.7337,34.6468],[135.7216,34.6416],[135.7227,34.6301],[135.7252,34.622],[135.7248,34.6193],[135.7159,34.6097],[135.717,34.6005],[135.7271,34.5918],[135.7368,34.59],[135.7457,34.5898],[135.7524,34.6042],[135.7605,34.6161]]]}},{"type":"Feature","properties":{"id":29008},"geometry":{"type":"Polygon","coordinates":[[[135.732,34.7755],[135.7142,34.7779],[135.7118,34.7607],[135.7127,34.75],[135.7023,34.7468],[135.7023,34.7452],[135.7027,34.7313],[135.7066,34.7212],[135.6896,34.7083],[135.6806,34.7027],[135.6758,34.6877],[135.6808,34.6773],[135.6729,34.6587],[135.6844,34.6561],[135.6975,34.6492],[135.7058,34.6458],[135.7124,34.6446],[135.7216,34.6416],[135.7337,34.6468],[135.7343,34.6609],[135.7306,34.6681],[135.723,34.6872],[135.7196,34.6938],[135.7201,34.6965],[135.7264,34.7035],[135.7339,34.7082],[135.7395,34.7163],[135.746,34.7218],[135.7593,34.7223],[135.7585,34.7243],[135.7562,34.7351],[135.7466,34.7451],[135.7394,34.75],[135.7346,34.7596],[135.732,34.7755]]]}},{"type":"Feature","properties":{"id":29009},"geometry":{"type":"Polygon","coordinates":[[[136.1149,34.1614],[136.1151,34.1639],[136.1085,34.172],[136.1113,34.1817],[136.1013,34.1834],[136.0963,34.1925],[136.0714,34.1977],[136.0585,34.2026],[136.0358,34.2095],[136.0317,34.2152],[136.0295,34.2267],[136.0278,34.2286],[136.0166,34.2327],[136.0069,34.2325],[135.9845,34.2251],[135.9758,34.2231],[135.9613,34.2265],[135.9541,34.2124],[135.9466,34.2006],[135.9462,34.1863],[135.9455,34.1837],[135.9391,34.1782],[135.9362,34.1771],[135.9255,34.1768],[135.9196,34.1754],[135.9051,34.1687],[135.9108,34.1584],[135.9109,34.154],[135.9079,34.1421],[135.9141,34.1304],[135.9179,34.1262],[135.9325,34.1267],[135.939,34.1218],[135.9446,34.1137],[135.9472,34.1116],[135.9586,34.107],[135.9666,34.102],[135.9689,34.0991],[135.971,34.0912],[135.9725,34.0737],[135.9746,34.0644],[135.9777,34.0598],[135.9858,34.0587],[135.9893,34.0599],[135.9992,34.0681],[136.0088,34.0702],[136.0154,34.0681],[136.0254,34.0599],[136.0345,34.056],[136.0496,34.0522],[136.0584,34.0507],[136.0614,34.049],[136.0682,34.0402],[136.071,34.0324],[136.0735,34.0291],[136.0902,34.0242],[136.1038,34.0225],[136.1039,34.0337],[136.0981,34.0434],[136.0966,34.0536],[136.0979,34.067],[136.0967,34.0786],[136.1089,34.0899],[136.1105,34.1],[136.1075,34.1109],[136.1093,34.1185],[136.1103,34.1223],[136.1074,34.1325],[136.1096,34.1431],[136.1141,34.1527],[136.1149,34.1614]]]}},{"type":"Feature","properties":{"id":29010},"geometry":{"type":"Polygon","coordinates":[[[135.7289,34.55],[135.7308,34.5544],[135.7311,34.5652],[135.7301,34.5709],[135.7267,34.5747],[135.7157,34.5774],[135.7081,34.5782],[135.7124,34.5698],[135.7129,34.5567],[135.7142,34.5523],[135.7177,34.5502],[135.7289,34.55]]]}},{"type":"Feature","properties":{"id":29011},"geometry":{"type":"Polygon","coordinates":[[[135.7081,34.5782],[135.7,34.5794],[135.695,34.5787],[135.6787,34.572],[135.6759,34.5675],[135.6651,34.5627],[135.6558,34.544],[135.66,34.5365],[135.6603,34.5359],[135.6656,34.5331],[135.6774,34.5353],[135.6938,34.5344],[135.7015,34.532],[135.7142,34.521],[135.7178,34.5148],[135.7214,34.5132],[135.7225,34.5258],[135.7266,34.5305],[135.7358,34.533],[135.7261,34.5408],[135.7259,34.5448],[135.7289,34.55],[135.7177,34.5502],[135.7142,34.5523],[135.7129,34.5567],[135.7124,34.5698],[135.7081,34.5782]]]}},{"type":"Feature","properties":{"id":29012},"geometry":{"type":"Polygon","coordinates":[[[135.8164,34.4905],[135.8152,34.4994],[135.8158,34.5022],[135.8244,34.5165],[135.8277,34.5197],[135.8278,34.5243],[135.8256,34.5262],[135.8172,34.5295],[135.8085,34.5337],[135.7979,34.5337],[135.7879,34.5283],[135.7683,34.5312],[135.7681,34.5089],[135.7644,34.4977],[135.766,34.4888],[135.7661,34.4801],[135.7618,34.4753],[135.7598,34.4707],[135.7601,34.4625],[135.7637,34.4593],[135.7731,34.4666],[135.7759,34.4703],[135.7807,34.4711],[135.7893,34.4683],[135.8018,34.4671],[135.8054,34.4678],[135.8094,34.4725],[135.8114,34.4841],[135.8164,34.4905]]]}},{"type":"Feature","properties":{"id":29013},"geometry":{"type":"Polygon","coordinates":[[[135.753,34.4781],[135.7455,34.4836],[135.7476,34.4897],[135.7461,34.4925],[135.7413,34.4942],[135.7373,34.4981],[135.7362,34.502],[135.7314,34.5066],[135.724,34.5091],[135.7214,34.5132],[135.7178,34.5148],[135.7142,34.521],[135.7015,34.532],[135.6938,34.5344],[135.6774,34.5353],[135.6656,34.5331],[135.6603,34.5359],[135.6649,34.5277],[135.6797,34.5223],[135.6797,34.5107],[135.6775,34.504],[135.6762,34.5],[135.6826,34.4911],[135.684,34.4769],[135.6854,34.4703],[135.6942,34.4649],[135.7054,34.4632],[135.7142,34.4679],[135.7211,34.4688],[135.7456,34.469],[135.7494,34.4708],[135.753,34.4781]]]}},{"type":"Feature","properties":{"id":29014},"geometry":{"type":"Polygon","coordinates":[[[135.7457,34.5898],[135.7368,34.59],[135.7271,34.5918],[135.7229,34.5848],[135.7157,34.5774],[135.7267,34.5747],[135.7301,34.5709],[135.7311,34.5652],[135.7308,34.5544],[135.7289,34.55],[135.7403,34.5504],[135.743,34.5535],[135.7423,34.5665],[135.7451,34.571],[135.7597,34.5762],[135.7628,34.5766],[135.7629,34.5868],[135.7457,34.5898]]]}},{"type":"Feature","properties":{"id":29015},"geometry":{"type":"Polygon","coordinates":[[[136.0976,34.3575],[136.0872,34.3579],[136.0733,34.3597],[136.0699,34.3587],[136.0665,34.3527],[136.0649,34.3447],[136.0605,34.343],[136.0477,34.3427],[136.0443,34.3415],[136.0363,34.3419],[136.0301,34.3453],[136.024,34.3505],[136.0187,34.352],[136.0123,34.3491],[136.0069,34.348],[135.993,34.3481],[135.9854,34.349],[135.9811,34.3528],[135.9812,34.3651],[135.9802,34.369],[135.9743,34.3758],[135.9708,34.377],[135.9574,34.3735],[135.9391,34.3735],[135.9329,34.3699],[135.9258,34.3697],[135.9208,34.3641],[135.9139,34.3599],[135.8945,34.3433],[135.8905,34.3389],[135.9032,34.3278],[135.9094,34.3252],[135.9113,34.3227],[135.9142,34.3107],[135.9146,34.3005],[135.9161,34.2941],[135.9208,34.2846],[135.9236,34.2841],[135.9296,34.2794],[135.9387,34.2772],[135.9599,34.2773],[135.9635,34.2739],[135.9609,34.2656],[135.9643,34.2611],[135.9716,34.2589],[135.9747,34.2496],[135.9718,34.2404],[135.9675,34.2334],[135.9613,34.2265],[135.9758,34.2231],[135.9845,34.2251],[136.0069,34.2325],[136.0166,34.2327],[136.0278,34.2286],[136.0295,34.2267],[136.0317,34.2152],[136.0358,34.2095],[136.0585,34.2026],[136.0714,34.1977],[136.0963,34.1925],[136.1107,34.2071],[136.1211,34.211],[136.116,34.2209],[136.125,34.2355],[136.1331,34.2499],[136.125,34.256],[136.1237,34.2663],[136.1167,34.2741],[136.1078,34.2803],[136.1002,34.2885],[136.098,34.2985],[136.1242,34.3071],[136.1318,34.3137],[136.1218,34.3229],[136.1117,34.3265],[136.1045,34.3393],[136.0976,34.3575]]]}},{"type":"Feature","properties":{"id":29016},"geometry":{"type":"Polygon","coordinates":[[[135.7629,34.5868],[135.7628,34.5766],[135.7661,34.5739],[135.7714,34.5751],[135.7793,34.5788],[135.7897,34.5852],[135.7981,34.5893],[135.7916,34.5968],[135.7748,34.5947],[135.7629,34.5868]]]}},{"type":"Feature","properties":{"id":29017},"geometry":{"type":"Polygon","coordinates":[[[135.7358,34.533],[135.7494,34.5282],[135.7683,34.5312],[135.7684,34.5586],[135.7661,34.5739],[135.7628,34.5766],[135.7597,34.5762],[135.7451,34.571],[135.7423,34.5665],[135.743,34.5535],[135.7403,34.5504],[135.7289,34.55],[135.7259,34.5448],[135.7261,34.5408],[135.7358,34.533]]]}},{"type":"Feature","properties":{"id":29018},"geometry":{"type":"Polygon","coordinates":[[[135.8471,34.2678],[135.8571,34.2803],[135.8608,34.2821],[135.8708,34.2835],[135.8788,34.2862],[135.8935,34.2892],[135.9065,34.2893],[135.9123,34.2881],[135.9208,34.2846],[135.9161,34.2941],[135.9146,34.3005],[135.9142,34.3107],[135.9113,34.3227],[135.9094,34.3252],[135.9032,34.3278],[135.8905,34.3389],[135.8848,34.3334],[135.8806,34.333],[135.8777,34.3395],[135.8693,34.3429],[135.8672,34.3393],[135.8606,34.3333],[135.8567,34.3312],[135.842,34.3287],[135.8375,34.3252],[135.8247,34.3104],[135.8273,34.2966],[135.8273,34.2784],[135.832,34.2771],[135.8377,34.2727],[135.8471,34.2678]]]}},{"type":"Feature","properties":{"id":29019},"geometry":{"type":"Polygon","coordinates":[[[136.2105,34.4564],[136.2188,34.478],[136.229,34.4848],[136.2222,34.4935],[136.2212,34.506],[136.2214,34.5165],[136.2143,34.5251],[136.1908,34.5197],[136.1811,34.5141],[136.1795,34.5165],[136.1721,34.5138],[136.1646,34.5139],[136.1508,34.498],[136.1424,34.4909],[136.1385,34.49],[136.1289,34.4921],[136.1181,34.492],[136.1058,34.4822],[136.1002,34.4759],[136.0951,34.4747],[136.0813,34.4752],[136.085,34.4699],[136.0896,34.4567],[136.0917,34.4454],[136.0987,34.4317],[136.1089,34.4322],[136.125,34.4399],[136.1354,34.4409],[136.1453,34.4385],[136.1559,34.4414],[136.1662,34.4452],[136.1787,34.4422],[136.1902,34.446],[136.2092,34.4453],[136.2105,34.4564]]]}},{"type":"Feature","properties":{"id":29020},"geometry":{"type":"Polygon","coordinates":[[[135.7661,34.5739],[135.7684,34.5586],[135.7749,34.5633],[135.7928,34.5679],[135.8027,34.576],[135.8071,34.5787],[135.7981,34.5893],[135.7897,34.5852],[135.7793,34.5788],[135.7714,34.5751],[135.7661,34.5739]]]}},{"type":"Feature","properties":{"id":29021},"geometry":{"type":"Polygon","coordinates":[[[135.9164,34.7446],[135.9146,34.741],[135.9079,34.7335],[135.8998,34.7265],[135.893,34.7061],[135.875,34.7081],[135.8559,34.7026],[135.8355,34.7098],[135.8149,34.7122],[135.8067,34.718],[135.7962,34.7207],[135.7844,34.7205],[135.7808,34.7204],[135.7585,34.7243],[135.7593,34.7223],[135.746,34.7218],[135.7395,34.7163],[135.7339,34.7082],[135.7264,34.7035],[135.7201,34.6965],[135.7196,34.6938],[135.723,34.6872],[135.7306,34.6681],[135.7343,34.6609],[135.7532,34.6524],[135.7659,34.6516],[135.776,34.6558],[135.7866,34.6554],[135.8076,34.648],[135.8167,34.6441],[135.8297,34.6337],[135.8456,34.6336],[135.8498,34.6323],[135.856,34.6211],[135.8591,34.619],[135.8674,34.6164],[135.8714,34.6138],[135.8728,34.6101],[135.8776,34.6084],[135.8881,34.6082],[135.8926,34.6091],[135.8946,34.614],[135.8971,34.6261],[135.9,34.6294],[135.9041,34.629],[135.9145,34.6242],[135.9204,34.6244],[135.925,34.6267],[135.9289,34.6341],[135.9328,34.636],[135.9398,34.6357],[135.9438,34.6339],[135.9461,34.6299],[135.9481,34.6197],[135.9422,34.6083],[135.9407,34.5966],[135.9393,34.5935],[135.9293,34.5892],[135.937,34.5794],[135.9381,34.569],[135.9498,34.5594],[135.9706,34.5591],[135.9738,34.5598],[135.9757,34.5639],[135.9756,34.5901],[135.9769,34.5954],[135.9794,34.5992],[135.9986,34.6156],[135.9946,34.6227],[135.9938,34.6264],[135.9971,34.6369],[135.9938,34.6506],[135.9911,34.6586],[135.9882,34.6611],[135.9846,34.6588],[135.9813,34.6525],[135.9694,34.6511],[135.9619,34.6488],[135.9575,34.6499],[135.9549,34.6587],[135.9548,34.6712],[135.9562,34.675],[135.9717,34.6796],[135.9814,34.6875],[135.987,34.6876],[135.9992,34.6794],[136.0045,34.6772],[136.0098,34.6773],[136.0202,34.681],[136.0272,34.6857],[136.0369,34.6882],[136.0408,34.6928],[136.0458,34.6951],[136.0539,34.696],[136.0674,34.701],[136.0694,34.7025],[136.0671,34.7051],[136.0717,34.7142],[136.0661,34.7232],[136.0482,34.7379],[136.0438,34.7226],[136.0373,34.7151],[136.031,34.7064],[136.0115,34.7133],[136.0017,34.71],[135.9897,34.7119],[135.9884,34.7218],[135.9853,34.7313],[135.9768,34.7378],[135.9705,34.7374],[135.9624,34.737],[135.9538,34.7428],[135.9461,34.7351],[135.9358,34.7346],[135.9265,34.7383],[135.9305,34.7536],[135.9193,34.7505],[135.9164,34.7446]]]}},{"type":"Feature","properties":{"id":29022},"geometry":{"type":"Polygon","coordinates":[[[135.7154,34.208],[135.7125,34.2055],[135.7004,34.2089],[135.6817,34.2194],[135.6714,34.2212],[135.6624,34.2149],[135.6521,34.2154],[135.6437,34.2098],[135.6372,34.201],[135.6417,34.1907],[135.6442,34.1796],[135.6353,34.1743],[135.6261,34.1666],[135.625,34.1555],[135.6069,34.1502],[135.5903,34.1398],[135.5877,34.1292],[135.5833,34.1193],[135.575,34.1109],[135.5655,34.1068],[135.5584,34.0992],[135.5492,34.0944],[135.5498,34.0925],[135.5525,34.0837],[135.5428,34.0715],[135.5474,34.0688],[135.5539,34.065],[135.5608,34.067],[135.5719,34.0719],[135.5887,34.0747],[135.6033,34.0718],[135.6116,34.0679],[135.615,34.0652],[135.6232,34.063],[135.6408,34.0698],[135.6517,34.0721],[135.6596,34.0761],[135.6664,34.0826],[135.6805,34.0935],[135.6948,34.1004],[135.6989,34.1055],[135.7108,34.1262],[135.7229,34.1312],[135.7293,34.1364],[135.7311,34.1407],[135.7327,34.1537],[135.7315,34.1585],[135.7198,34.1626],[135.7121,34.169],[135.7014,34.1756],[135.6997,34.1818],[135.7029,34.1932],[135.7109,34.1977],[135.7135,34.2004],[135.7154,34.208]]]}},{"type":"Feature","properties":{"id":29023},"geometry":{"type":"Polygon","coordinates":[[[135.717,34.6005],[135.6984,34.5932],[135.6834,34.5842],[135.6846,34.5816],[135.6787,34.572],[135.695,34.5787],[135.7,34.5794],[135.7081,34.5782],[135.7157,34.5774],[135.7229,34.5848],[135.7271,34.5918],[135.717,34.6005]]]}},{"type":"Feature","properties":{"id":29024},"geometry":{"type":"Polygon","coordinates":[[[135.7761,34.3753],[135.782,34.3772],[135.7919,34.3776],[135.8043,34.3794],[135.8182,34.3826],[135.8322,34.3881],[135.8441,34.3884],[135.8463,34.3896],[135.8471,34.3977],[135.8493,34.4011],[135.8579,34.4051],[135.8607,34.4086],[135.8607,34.4131],[135.853,34.4201],[135.8479,34.4302],[135.8314,34.4231],[135.8281,34.4174],[135.8249,34.4156],[135.8196,34.416],[135.8156,34.4188],[135.8138,34.4241],[135.8109,34.4255],[135.7987,34.4198],[135.7832,34.42],[135.7684,34.4233],[135.7571,34.4147],[135.7504,34.4066],[135.7487,34.3983],[135.7489,34.3877],[135.7606,34.3886],[135.763,34.3852],[135.7628,34.3793],[135.7671,34.3757],[135.7761,34.3753]]]}},{"type":"Feature","properties":{"id":29025},"geometry":{"type":"Polygon","coordinates":[[[135.8667,34.4432],[135.884,34.4504],[135.8873,34.4508],[135.889,34.4544],[135.8924,34.4671],[135.8943,34.4811],[135.9042,34.4898],[135.9109,34.4977],[135.9143,34.5063],[135.9146,34.5123],[135.917,34.5161],[135.9363,34.5239],[135.9466,34.5262],[135.9487,34.5286],[135.9466,34.5354],[135.9464,34.5457],[135.9498,34.5594],[135.9381,34.569],[135.937,34.5794],[135.9293,34.5892],[135.9136,34.5868],[135.9101,34.5849],[135.9,34.5696],[135.8884,34.5636],[135.8817,34.5611],[135.877,34.5572],[135.8717,34.5494],[135.8682,34.5482],[135.8603,34.5487],[135.8385,34.5526],[135.8246,34.5427],[135.8172,34.5295],[135.8256,34.5262],[135.8278,34.5243],[135.8277,34.5197],[135.8244,34.5165],[135.8158,34.5022],[135.8152,34.4994],[135.8164,34.4905],[135.8281,34.4875],[135.8348,34.4835],[135.8398,34.4746],[135.8426,34.4717],[135.8486,34.471],[135.8522,34.4688],[135.8571,34.461],[135.8668,34.4558],[135.8676,34.4539],[135.8667,34.4432]]]}},{"type":"Feature","properties":{"id":29026},"geometry":{"type":"Polygon","coordinates":[[[135.6622,34.6143],[135.6617,34.6115],[135.6545,34.6036],[135.6561,34.6027],[135.6638,34.5986],[135.6737,34.6004],[135.6799,34.5918],[135.6834,34.5842],[135.6984,34.5932],[135.717,34.6005],[135.7159,34.6097],[135.7074,34.6091],[135.6784,34.6094],[135.6725,34.6105],[135.6622,34.6143]]]}},{"type":"Feature","properties":{"id":29027},"geometry":{"type":"Polygon","coordinates":[[[135.8273,34.2784],[135.8273,34.2966],[135.8247,34.3104],[135.8375,34.3252],[135.842,34.3287],[135.8567,34.3312],[135.8606,34.3333],[135.8672,34.3393],[135.8693,34.3429],[135.869,34.3452],[135.8638,34.3511],[135.8447,34.3573],[135.8396,34.3615],[135.8366,34.3671],[135.8182,34.3826],[135.8043,34.3794],[135.7919,34.3776],[135.782,34.3772],[135.7761,34.3753],[135.7749,34.3697],[135.7747,34.3542],[135.7717,34.3409],[135.7743,34.3297],[135.7793,34.3226],[135.7797,34.3186],[135.777,34.3106],[135.777,34.2926],[135.7809,34.2858],[135.7925,34.2825],[135.8066,34.2824],[135.8192,34.2813],[135.8273,34.2784]]]}},{"type":"Feature","properties":{"id":29028},"geometry":{"type":"Polygon","coordinates":[[[136.0735,34.0291],[136.071,34.0324],[136.0682,34.0402],[136.0614,34.049],[136.0584,34.0507],[136.0496,34.0522],[136.0345,34.056],[136.0254,34.0599],[136.0154,34.0681],[136.0088,34.0702],[135.9992,34.0681],[135.9893,34.0599],[135.9858,34.0587],[135.9777,34.0598],[135.9746,34.0644],[135.9725,34.0737],[135.971,34.0912],[135.9689,34.0991],[135.9666,34.102],[135.9586,34.107],[135.9472,34.1116],[135.9446,34.1137],[135.939,34.1218],[135.9325,34.1267],[135.9179,34.1262],[135.9117,34.1141],[135.9073,34.0984],[135.9027,34.077],[135.9022,34.0698],[135.8997,34.0625],[135.8992,34.0493],[135.9029,34.0387],[135.9105,34.0269],[135.911,34.0145],[135.9073,33.9989],[135.9065,33.9924],[135.903,33.9841],[135.9029,33.9807],[135.9071,33.9724],[135.9146,33.9709],[135.921,33.9713],[135.9274,33.9759],[135.9378,33.9768],[135.9484,33.9765],[135.9595,33.9776],[135.9698,33.9823],[135.9797,33.9858],[135.9934,34],[136.0061,34.0065],[136.0104,34.016],[136.0183,34.0234],[136.0217,34.0331],[136.032,34.0294],[136.0404,34.0379],[136.0497,34.0313],[136.0691,34.0303],[136.0735,34.0291]]]}},{"type":"Feature","properties":{"id":29029},"geometry":{"type":"Polygon","coordinates":[[[136.107,34.5503],[136.1047,34.5441],[136.1029,34.5281],[136.0961,34.5226],[136.093,34.5176],[136.0922,34.5101],[136.0901,34.5045],[136.0833,34.4951],[136.0753,34.4878],[136.0749,34.4818],[136.076,34.4756],[136.0813,34.4752],[136.0951,34.4747],[136.1002,34.4759],[136.1058,34.4822],[136.1181,34.492],[136.1289,34.4921],[136.1385,34.49],[136.1424,34.4909],[136.1508,34.498],[136.1646,34.5139],[136.1721,34.5138],[136.1795,34.5165],[136.1733,34.5259],[136.1716,34.5361],[136.1635,34.5461],[136.1571,34.5562],[136.1481,34.5533],[136.1365,34.5518],[136.116,34.5448],[136.107,34.5503]]]}},{"type":"Feature","properties":{"id":29030},"geometry":{"type":"Polygon","coordinates":[[[135.7893,34.4683],[135.7807,34.4711],[135.7759,34.4703],[135.7731,34.4666],[135.7637,34.4593],[135.7711,34.4544],[135.7745,34.448],[135.7732,34.4435],[135.7656,34.435],[135.7647,34.4316],[135.7684,34.4233],[135.7832,34.42],[135.7987,34.4198],[135.8109,34.4255],[135.8138,34.4241],[135.8156,34.4188],[135.8196,34.416],[135.8249,34.4156],[135.8281,34.4174],[135.8314,34.4231],[135.8479,34.4302],[135.8419,34.4348],[135.8322,34.4468],[135.8253,34.4491],[135.812,34.4471],[135.8089,34.4481],[135.7993,34.4561],[135.7877,34.4592],[135.7873,34.4644],[135.7893,34.4683]]]}},{"type":"Feature","properties":{"id":29031},"geometry":{"type":"Polygon","coordinates":[[[135.8172,34.5295],[135.8246,34.5427],[135.8385,34.5526],[135.8318,34.5561],[135.8259,34.5645],[135.8147,34.5742],[135.8071,34.5787],[135.8027,34.576],[135.7928,34.5679],[135.7749,34.5633],[135.7684,34.5586],[135.7683,34.5312],[135.7879,34.5283],[135.7979,34.5337],[135.8085,34.5337],[135.8172,34.5295]]]}},{"type":"Feature","properties":{"id":29032},"geometry":{"type":"Polygon","coordinates":[[[135.9051,34.1687],[135.9196,34.1754],[135.9255,34.1768],[135.9362,34.1771],[135.9391,34.1782],[135.9455,34.1837],[135.9462,34.1863],[135.9466,34.2006],[135.9541,34.2124],[135.9613,34.2265],[135.9675,34.2334],[135.9718,34.2404],[135.9747,34.2496],[135.9716,34.2589],[135.9643,34.2611],[135.9609,34.2656],[135.9635,34.2739],[135.9599,34.2773],[135.9387,34.2772],[135.9296,34.2794],[135.9236,34.2841],[135.9208,34.2846],[135.9123,34.2881],[135.9065,34.2893],[135.8935,34.2892],[135.8788,34.2862],[135.8708,34.2835],[135.8608,34.2821],[135.8571,34.2803],[135.8471,34.2678],[135.8333,34.2587],[135.8277,34.2506],[135.8242,34.2474],[135.819,34.2396],[135.8142,34.2357],[135.8025,34.2336],[135.7896,34.2342],[135.7824,34.241],[135.7726,34.2408],[135.7613,34.235],[135.7522,34.2287],[135.7539,34.2165],[135.7502,34.2108],[135.749,34.2066],[135.7498,34.1993],[135.7524,34.1942],[135.7709,34.1871],[135.7792,34.1824],[135.8038,34.1751],[135.8125,34.1836],[135.8293,34.1818],[135.8359,34.183],[135.8447,34.1859],[135.8498,34.1886],[135.8574,34.1909],[135.8626,34.1903],[135.8637,34.1867],[135.8606,34.1787],[135.8638,34.1748],[135.8775,34.1742],[135.8832,34.1749],[135.89,34.1777],[135.8958,34.1772],[135.9051,34.1687]]]}},{"type":"Feature","properties":{"id":29033},"geometry":{"type":"Polygon","coordinates":[[[135.7981,34.5893],[135.8071,34.5787],[135.8147,34.5742],[135.8259,34.5645],[135.8318,34.5561],[135.8385,34.5526],[135.8603,34.5487],[135.8682,34.5482],[135.8717,34.5494],[135.877,34.5572],[135.8817,34.5611],[135.8884,34.5636],[135.9,34.5696],[135.9101,34.5849],[135.9136,34.5868],[135.9293,34.5892],[135.9393,34.5935],[135.9407,34.5966],[135.9422,34.6083],[135.9481,34.6197],[135.9461,34.6299],[135.9438,34.6339],[135.9398,34.6357],[135.9328,34.636],[135.9289,34.6341],[135.925,34.6267],[135.9204,34.6244],[135.9145,34.6242],[135.9041,34.629],[135.9,34.6294],[135.8971,34.6261],[135.8946,34.614],[135.8926,34.6091],[135.8881,34.6082],[135.8776,34.6084],[135.8728,34.6101],[135.8714,34.6138],[135.8674,34.6164],[135.8591,34.619],[135.856,34.6211],[135.8498,34.6323],[135.8456,34.6336],[135.8297,34.6337],[135.8278,34.6263],[135.8235,34.6161],[135.8172,34.6087],[135.8132,34.607],[135.7998,34.6066],[135.7959,34.604],[135.7916,34.5968],[135.7981,34.5893]]]}},{"type":"Feature","properties":{"id":29034},"geometry":{"type":"Polygon","coordinates":[[[135.921,33.9713],[135.9146,33.9709],[135.9071,33.9724],[135.9029,33.9807],[135.903,33.9841],[135.9065,33.9924],[135.9073,33.9989],[135.911,34.0145],[135.9105,34.0269],[135.9029,34.0387],[135.8992,34.0493],[135.8997,34.0625],[135.9022,34.0698],[135.9027,34.077],[135.9073,34.0984],[135.9117,34.1141],[135.9179,34.1262],[135.9141,34.1304],[135.9079,34.1421],[135.8906,34.1451],[135.884,34.1482],[135.8766,34.1481],[135.8695,34.1453],[135.8565,34.1416],[135.8474,34.1403],[135.828,34.1402],[135.802,34.1341],[135.7931,34.1335],[135.7896,34.1346],[135.7775,34.1447],[135.767,34.1504],[135.7589,34.1525],[135.7461,34.1411],[135.7447,34.133],[135.7351,34.1246],[135.7297,34.1132],[135.7163,34.0944],[135.711,34.0896],[135.7054,34.0828],[135.701,34.0812],[135.69,34.0794],[135.6813,34.0794],[135.6664,34.0826],[135.6596,34.0761],[135.6517,34.0721],[135.6408,34.0698],[135.6232,34.063],[135.615,34.0652],[135.6116,34.0679],[135.6033,34.0718],[135.5887,34.0747],[135.5719,34.0719],[135.5608,34.067],[135.5539,34.065],[135.5634,34.0603],[135.5721,34.0547],[135.5824,34.055],[135.5879,34.0465],[135.597,34.0413],[135.6008,34.0309],[135.5979,34.02],[135.5975,34.0087],[135.6081,34.0092],[135.6181,34.006],[135.6272,34],[135.6379,33.988],[135.6414,33.9786],[135.6425,33.9672],[135.6394,33.9568],[135.6344,33.9462],[135.624,33.9498],[135.6197,33.9359],[135.6158,33.9265],[135.6145,33.9166],[135.6052,33.9012],[135.6243,33.8955],[135.6285,33.8846],[135.625,33.8748],[135.6351,33.8712],[135.6468,33.8738],[135.6595,33.881],[135.6655,33.8894],[135.6739,33.897],[135.6842,33.8959],[135.6935,33.9],[135.7055,33.9003],[135.7164,33.8993],[135.7273,33.8997],[135.7358,33.8929],[135.745,33.8871],[135.7605,33.8824],[135.7698,33.8874],[135.7808,33.8848],[135.792,33.8894],[135.8049,33.8921],[135.8091,33.9013],[135.8191,33.9021],[135.8387,33.8923],[135.8416,33.8926],[135.8492,33.8934],[135.8624,33.8969],[135.8675,33.906],[135.8722,33.9168],[135.8875,33.92],[135.9024,33.9221],[135.8996,33.932],[135.8957,33.9422],[135.9101,33.9577],[135.9185,33.9695],[135.921,33.9713]]]}},{"type":"Feature","properties":{"id":29035},"geometry":{"type":"Polygon","coordinates":[[[136.0655,34.6168],[136.0513,34.6204],[136.0402,34.622],[136.0345,34.6238],[136.0289,34.6282],[136.0249,34.6286],[136.0085,34.6201],[135.9986,34.6156],[135.9794,34.5992],[135.9769,34.5954],[135.9756,34.5901],[135.9757,34.5639],[135.9738,34.5598],[135.9706,34.5591],[135.9498,34.5594],[135.9464,34.5457],[135.9466,34.5354],[135.9487,34.5286],[135.9466,34.5262],[135.9363,34.5239],[135.917,34.5161],[135.9146,34.5123],[135.9143,34.5063],[135.9109,34.4977],[135.9042,34.4898],[135.8943,34.4811],[135.8924,34.4671],[135.889,34.4544],[135.8873,34.4508],[135.8966,34.4458],[135.9016,34.4445],[135.9138,34.444],[135.9189,34.4429],[135.9259,34.4391],[135.938,34.4306],[135.9453,34.4304],[135.9465,34.4347],[135.9505,34.436],[135.96,34.4342],[135.9697,34.4383],[135.9776,34.4392],[135.9892,34.4427],[135.9973,34.4428],[136.0058,34.4412],[136.0111,34.4434],[136.0171,34.4517],[136.0284,34.4563],[136.0394,34.4617],[136.0465,34.4686],[136.0444,34.4756],[136.0478,34.4785],[136.0558,34.4799],[136.0632,34.4793],[136.076,34.4756],[136.0749,34.4818],[136.0753,34.4878],[136.0833,34.4951],[136.0901,34.5045],[136.0922,34.5101],[136.093,34.5176],[136.0961,34.5226],[136.1029,34.5281],[136.1047,34.5441],[136.107,34.5503],[136.1025,34.553],[136.0928,34.5555],[136.0741,34.5644],[136.0633,34.5662],[136.0502,34.5833],[136.0506,34.5941],[136.0551,34.6045],[136.0655,34.6168]]]}},{"type":"Feature","properties":{"id":29036},"geometry":{"type":"Polygon","coordinates":[[[135.7748,34.5947],[135.7916,34.5968],[135.7959,34.604],[135.7998,34.6066],[135.8132,34.607],[135.8172,34.6087],[135.8235,34.6161],[135.8278,34.6263],[135.8297,34.6337],[135.8167,34.6441],[135.8076,34.648],[135.7866,34.6554],[135.776,34.6558],[135.7659,34.6516],[135.7532,34.6524],[135.7343,34.6609],[135.7337,34.6468],[135.7414,34.6293],[135.7451,34.6253],[135.7605,34.6161],[135.7665,34.6148],[135.7692,34.6126],[135.7748,34.5947]]]}},{"type":"Feature","properties":{"id":29037},"geometry":{"type":"Polygon","coordinates":[[[135.7618,34.4753],[135.7661,34.4801],[135.766,34.4888],[135.7644,34.4977],[135.7681,34.5089],[135.7683,34.5312],[135.7494,34.5282],[135.7358,34.533],[135.7266,34.5305],[135.7225,34.5258],[135.7214,34.5132],[135.724,34.5091],[135.7314,34.5066],[135.7362,34.502],[135.7373,34.4981],[135.7413,34.4942],[135.7461,34.4925],[135.7476,34.4897],[135.7455,34.4836],[135.753,34.4781],[135.7618,34.4753]]]}},{"type":"Feature","properties":{"id":29038},"geometry":{"type":"Polygon","coordinates":[[[136.0694,34.7025],[136.0674,34.701],[136.0539,34.696],[136.0458,34.6951],[136.0408,34.6928],[136.0369,34.6882],[136.0272,34.6857],[136.0202,34.681],[136.0098,34.6773],[136.0045,34.6772],[135.9992,34.6794],[135.987,34.6876],[135.9814,34.6875],[135.9717,34.6796],[135.9562,34.675],[135.9548,34.6712],[135.9549,34.6587],[135.9575,34.6499],[135.9619,34.6488],[135.9694,34.6511],[135.9813,34.6525],[135.9846,34.6588],[135.9882,34.6611],[135.9911,34.6586],[135.9938,34.6506],[135.9971,34.6369],[135.9938,34.6264],[135.9946,34.6227],[135.9986,34.6156],[136.0085,34.6201],[136.0249,34.6286],[136.0289,34.6282],[136.0345,34.6238],[136.0402,34.622],[136.0513,34.6204],[136.0655,34.6168],[136.0723,34.6255],[136.074,34.6356],[136.0697,34.6505],[136.0793,34.6559],[136.0814,34.6594],[136.0889,34.6722],[136.0825,34.681],[136.0784,34.6925],[136.0694,34.7025]]]}},{"type":"Feature","properties":{"id":29039},"geometry":{"type":"Polygon","coordinates":[[[135.8479,34.4302],[135.853,34.4201],[135.8607,34.4131],[135.8607,34.4086],[135.8579,34.4051],[135.8493,34.4011],[135.8471,34.3977],[135.8463,34.3896],[135.8441,34.3884],[135.8322,34.3881],[135.8182,34.3826],[135.8366,34.3671],[135.8396,34.3615],[135.8447,34.3573],[135.8638,34.3511],[135.869,34.3452],[135.8693,34.3429],[135.8777,34.3395],[135.8806,34.333],[135.8848,34.3334],[135.8905,34.3389],[135.8945,34.3433],[135.9139,34.3599],[135.9208,34.3641],[135.9258,34.3697],[135.9329,34.3699],[135.9391,34.3735],[135.9415,34.3793],[135.9421,34.389],[135.9444,34.3961],[135.9589,34.409],[135.9643,34.4168],[135.9717,34.4195],[135.9761,34.4233],[135.9778,34.4291],[135.9776,34.4392],[135.9697,34.4383],[135.96,34.4342],[135.9505,34.436],[135.9465,34.4347],[135.9453,34.4304],[135.938,34.4306],[135.9259,34.4391],[135.9189,34.4429],[135.9138,34.444],[135.9016,34.4445],[135.8966,34.4458],[135.8873,34.4508],[135.884,34.4504],[135.8667,34.4432],[135.8479,34.4302]]]}}]}