{"type":"FeatureCollection","features":[{"type":"Feature","properties":{"id":3001},"geometry":{"type":"Polygon","coordinates":[[[141.8568,40.0545],[141.8485,40.0504],[141.8402,40.0435],[141.8382,40.0383],[141.8375,40.0277],[141.8351,40.0245],[141.8164,40.0183],[141.8027,40.0163],[141.7979,39.9941],[141.7984,39.9844],[141.8036,39.9699],[141.8125,39.9691],[141.8328,39.9692],[141.844,39.972],[141.8565,39.9729],[141.8651,39.9718],[141.874,39.9674],[141.8804,39.966],[141.9002,39.9694],[141.9246,39.9699],[141.9314,39.9737],[141.9373,39.9845],[141.9464,39.9936],[141.9449,39.9982],[141.9412,39.9991],[141.9378,40.0044],[141.9369,40.0089],[141.9322,40.0119],[141.9297,40.0092],[141.9244,40.0081],[141.9158,40.0081],[141.9097,40.0112],[141.9064,40.015],[141.901,40.0148],[141.8985,40.0233],[141.8857,40.0338],[141.8784,40.0476],[141.8669,40.0533],[141.8625,40.0525],[141.8568,40.0545]]]}},{"type":"Feature","properties":{"id":3002},"geometry":{"type":"Polygon","coordinates":[[[141.2676,38.784],[141.279,38.7911],[141.2903,38.794],[141.3008,38.7905],[141.3069,38.7991],[141.3135,38.8193],[141.3241,38.8155],[141.3343,38.8097],[141.3444,38.8055],[141.354,38.8092],[141.3644,38.8059],[141.375,38.8035],[141.3826,38.7931],[141.3939,38.7953],[141.3999,38.7872],[141.4107,38.7841],[141.4199,38.7783],[141.4379,38.7796],[141.4382,38.8082],[141.4506,38.8076],[141.4373,38.8089],[141.4143,38.8091],[141.4108,38.8098],[141.4054,38.814],[141.4042,38.8199],[141.4039,38.8397],[141.4021,38.8542],[141.3973,38.8656],[141.3938,38.869],[141.3764,38.8825],[141.3617,38.8992],[141.3576,38.9007],[141.3486,38.9014],[141.3327,38.9006],[141.3265,38.897],[141.3221,38.8918],[141.3164,38.8808],[141.3092,38.8727],[141.2975,38.8637],[141.2924,38.8619],[141.2762,38.8614],[141.2692,38.8601],[141.264,38.8535],[141.2632,38.8471],[141.2609,38.843],[141.2601,38.8351],[141.2603,38.8208],[141.259,38.8137],[141.2534,38.8048],[141.2519,38.7976],[141.2529,38.7947],[141.2623,38.7868],[141.2676,38.784]]]}},{"type":"Feature","properties":{"id":3003},"geometry":{"type":"Polygon","coordinates":[[[140.8506,39.9629],[140.8514,39.9563],[140.8609,39.9498],[140.8562,39.9359],[140.8611,39.9266],[140.8632,39.9166],[140.8717,39.9046],[140.875,39.8939],[140.8824,39.8826],[140.8813,39.8716],[140.8917,39.8549],[140.9011,39.8473],[140.9072,39.84],[140.9132,39.8377],[140.9374,39.8375],[140.946,39.8382],[140.9511,39.84],[140.9609,39.8476],[140.97,39.8489],[140.9812,39.8438],[140.9852,39.8428],[140.9903,39.8442],[140.9969,39.8509],[141.0217,39.8538],[141.042,39.8576],[141.0543,39.8587],[141.0729,39.8633],[141.0843,39.8668],[141.1013,39.8681],[141.1084,39.8716],[141.1237,39.8763],[141.1315,39.8777],[141.1383,39.8814],[141.155,39.894],[141.1641,39.8991],[141.1678,39.9041],[141.167,39.9114],[141.1582,39.9279],[141.1458,39.9368],[141.1372,39.9412],[141.1345,39.9461],[141.1348,39.9538],[141.1384,39.958],[141.1472,39.9622],[141.1489,39.9654],[141.1469,39.97],[141.1372,39.9776],[141.1342,39.9854],[141.1338,39.9973],[141.1309,40.0166],[141.1328,40.0297],[141.1368,40.0338],[141.1506,40.0451],[141.1619,40.0634],[141.1653,40.0758],[141.1537,40.0852],[141.1406,40.0926],[141.1325,40.0996],[141.1267,40.1105],[141.119,40.1212],[141.1151,40.1242],[141.0968,40.131],[141.0848,40.1324],[141.0685,40.1329],[141.0634,40.1346],[141.0481,40.1468],[141.0393,40.1611],[141.0367,40.1733],[141.0341,40.1808],[141.0332,40.1977],[141.0309,40.2082],[141.0253,40.2178],[141.0091,40.2152],[140.9918,40.2192],[140.9817,40.2193],[140.9729,40.2266],[140.9668,40.2379],[140.9584,40.2456],[140.9472,40.2423],[140.9449,40.2324],[140.938,40.2233],[140.9266,40.2228],[140.9162,40.2204],[140.9073,40.2148],[140.902,40.2054],[140.8931,40.1977],[140.8899,40.185],[140.8815,40.1785],[140.8661,40.1717],[140.875,40.1571],[140.8862,40.1528],[140.8809,40.1434],[140.875,40.1349],[140.875,40.1229],[140.8826,40.1122],[140.8788,40.092],[140.8681,40.0833],[140.8523,40.0741],[140.8505,40.0636],[140.8586,40.0441],[140.8579,40.0335],[140.8552,40.0226],[140.8591,40.013],[140.8524,40.0052],[140.854,39.9926],[140.8516,39.9828],[140.8499,39.9694],[140.8506,39.9629]]]}},{"type":"Feature","properties":{"id":3004},"geometry":{"type":"Polygon","coordinates":[[[141.4172,39.5661],[141.4061,39.5749],[141.401,39.5764],[141.3813,39.5744],[141.377,39.5728],[141.3625,39.5719],[141.3434,39.5681],[141.3355,39.5683],[141.328,39.5713],[141.3208,39.5726],[141.3091,39.5781],[141.3023,39.5661],[141.2887,39.5474],[141.2864,39.5419],[141.286,39.5329],[141.2919,39.5112],[141.2903,39.5009],[141.2832,39.4908],[141.277,39.4832],[141.2715,39.4808],[141.2513,39.4806],[141.244,39.4812],[141.2236,39.4878],[141.2132,39.4901],[141.2039,39.4932],[141.1893,39.4994],[141.1802,39.5039],[141.1702,39.5071],[141.1631,39.5075],[141.1391,39.5071],[141.1185,39.5037],[141.113,39.5041],[141.1015,39.5075],[141.0908,39.5151],[141.0785,39.5196],[141.0685,39.5242],[141.0615,39.5249],[141.0285,39.5245],[141.0217,39.525],[141.0162,39.5279],[141.0061,39.5357],[140.9982,39.537],[140.9825,39.5417],[140.977,39.5445],[140.9715,39.5403],[140.9563,39.5311],[140.9507,39.5306],[140.9275,39.5419],[140.9153,39.5423],[140.9075,39.5414],[140.9011,39.5387],[140.8852,39.526],[140.8782,39.5188],[140.88,39.5126],[140.8809,39.5026],[140.8842,39.4945],[140.8844,39.4829],[140.8835,39.4762],[140.8972,39.4703],[140.9095,39.466],[140.9107,39.4604],[140.9039,39.4483],[140.903,39.4436],[140.9049,39.4369],[140.9109,39.4317],[140.913,39.4274],[140.9153,39.4149],[140.9155,39.3984],[140.9164,39.3923],[140.9193,39.3848],[140.9206,39.3734],[140.9326,39.3639],[140.9371,39.3625],[140.9467,39.362],[140.9729,39.3623],[140.9839,39.36],[140.9935,39.3494],[141.002,39.3432],[141.0135,39.3407],[141.0293,39.3362],[141.0484,39.3283],[141.0553,39.3273],[141.0596,39.3282],[141.0668,39.3361],[141.0762,39.3441],[141.0808,39.349],[141.0919,39.3581],[141.0967,39.3608],[141.1024,39.361],[141.116,39.3563],[141.1253,39.3552],[141.1358,39.3566],[141.1597,39.355],[141.1647,39.3567],[141.1741,39.3642],[141.1808,39.3627],[141.1823,39.3565],[141.1881,39.3437],[141.1895,39.3372],[141.1924,39.3308],[141.1931,39.3206],[141.1956,39.3158],[141.2074,39.3111],[141.2209,39.3107],[141.2329,39.3087],[141.2511,39.3151],[141.2668,39.3224],[141.2746,39.323],[141.2806,39.3209],[141.2899,39.3201],[141.2994,39.3165],[141.3038,39.3101],[141.3101,39.2935],[141.3107,39.2781],[141.3152,39.2752],[141.3217,39.2756],[141.3259,39.2774],[141.3371,39.2794],[141.343,39.2782],[141.3457,39.2681],[141.3481,39.2641],[141.3549,39.2608],[141.3686,39.2571],[141.3765,39.2642],[141.3777,39.2689],[141.3784,39.2865],[141.3766,39.2899],[141.3591,39.3033],[141.3532,39.3108],[141.3439,39.3186],[141.3416,39.3228],[141.3324,39.3337],[141.33,39.3379],[141.3169,39.3487],[141.3143,39.3542],[141.305,39.3703],[141.3092,39.3875],[141.313,39.395],[141.3163,39.4038],[141.3206,39.4119],[141.3315,39.425],[141.3383,39.4268],[141.3654,39.4271],[141.3852,39.4311],[141.3913,39.4338],[141.4087,39.4476],[141.4174,39.4519],[141.4242,39.4567],[141.4326,39.4611],[141.436,39.4654],[141.4397,39.4754],[141.4429,39.5029],[141.4471,39.5127],[141.4574,39.5255],[141.4668,39.53],[141.5003,39.5383],[141.4958,39.5504],[141.4902,39.5546],[141.4845,39.5551],[141.4629,39.5548],[141.4544,39.5538],[141.4438,39.549],[141.4347,39.5491],[141.4274,39.5553],[141.4172,39.5661]]]}},{"type":"Feature","properties":{"id":3005},"geometry":{"type":"Polygon","coordinates":[[[141.1763,39.0095],[141.1649,39.009],[141.1209,39.0087],[141.1064,39.0069],[141.0986,39.0044],[141.0804,38.9999],[141.0591,38.9972],[141.0522,38.9952],[141.0394,38.9937],[141.0245,38.9893],[141.0102,38.9859],[141.0223,38.9772],[141.0277,38.9753],[141.0415,38.9682],[141.0587,38.9618],[141.0702,38.9589],[141.0786,38.9578],[141.0918,38.9548],[141.126,38.9592],[141.1425,38.9653],[141.1493,38.9701],[141.1632,38.9747],[141.1695,38.9776],[141.1838,38.9886],[141.1923,38.9928],[141.1927,38.9984],[141.1763,39.0095]]]}},{"type":"Feature","properties":{"id":3006},"geometry":{"type":"Polygon","coordinates":[[[141.6847,40.4482],[141.6706,40.4327],[141.6607,40.4271],[141.6479,40.4233],[141.6385,40.4189],[141.625,40.4179],[141.6099,40.4112],[141.5993,40.4093],[141.59,40.4032],[141.5846,40.3926],[141.5864,40.3821],[141.5839,40.3705],[141.5829,40.3673],[141.5951,40.3577],[141.5968,40.3533],[141.5961,40.3492],[141.588,40.3386],[141.5781,40.3272],[141.5731,40.3172],[141.5742,40.3107],[141.5779,40.3024],[141.582,40.2966],[141.5901,40.2806],[141.602,40.2741],[141.6124,40.2698],[141.6157,40.2668],[141.6156,40.2623],[141.611,40.2498],[141.6059,40.2449],[141.5955,40.2381],[141.5826,40.231],[141.5916,40.2272],[141.5986,40.2228],[141.6109,40.2183],[141.6208,40.2109],[141.6277,40.2077],[141.6345,40.206],[141.6536,40.2044],[141.6606,40.2063],[141.6799,40.2175],[141.6812,40.2206],[141.6814,40.2288],[141.6847,40.2348],[141.6901,40.239],[141.6958,40.24],[141.7004,40.2383],[141.7128,40.237],[141.7181,40.2384],[141.7262,40.245],[141.7274,40.2514],[141.727,40.2677],[141.7308,40.2727],[141.7382,40.2734],[141.747,40.2728],[141.7551,40.2695],[141.7596,40.2689],[141.7644,40.2707],[141.7745,40.2799],[141.7969,40.2944],[141.792,40.301],[141.7852,40.3152],[141.7736,40.3228],[141.7736,40.3275],[141.7708,40.3325],[141.7721,40.3415],[141.7697,40.3478],[141.756,40.3545],[141.7534,40.3596],[141.7555,40.3635],[141.7544,40.3691],[141.7501,40.374],[141.7411,40.3799],[141.7382,40.3841],[141.7346,40.3845],[141.7288,40.3901],[141.7279,40.3933],[141.721,40.3982],[141.7197,40.4024],[141.7224,40.407],[141.7138,40.4202],[141.7062,40.4217],[141.703,40.4246],[141.7014,40.4322],[141.694,40.4354],[141.6903,40.4399],[141.6902,40.4433],[141.6847,40.4482]]]}},{"type":"Feature","properties":{"id":3007},"geometry":{"type":"Polygon","coordinates":[[[141.2888,40.0215],[141.2964,40.0271],[141.3004,40.0327],[141.3013,40.0375],[141.3009,40.0524],[141.3032,40.0569],[141.3061,40.0577],[141.3145,40.0563],[141.3196,40.0541],[141.327,40.0533],[141.3509,40.0571],[141.3617,40.0608],[141.3666,40.0652],[141.3656,40.0715],[141.3451,40.0874],[141.3439,40.0931],[141.3476,40.103],[141.3506,40.1079],[141.3516,40.1159],[141.3499,40.1198],[141.3405,40.1273],[141.3404,40.1319],[141.3488,40.1385],[141.3607,40.1428],[141.368,40.1435],[141.3994,40.1437],[141.3984,40.1727],[141.396,40.1798],[141.3903,40.1854],[141.3903,40.1926],[141.3954,40.1976],[141.3974,40.2042],[141.3962,40.2123],[141.3938,40.2165],[141.3921,40.2236],[141.3876,40.2348],[141.3803,40.2276],[141.3693,40.2188],[141.362,40.2177],[141.3516,40.2214],[141.3378,40.2286],[141.3308,40.2305],[141.3175,40.2358],[141.3095,40.2406],[141.2992,40.2484],[141.2907,40.251],[141.2748,40.2471],[141.2702,40.241],[141.2694,40.2326],[141.2646,40.2225],[141.2574,40.2124],[141.2218,40.198],[141.2169,40.1945],[141.2112,40.1873],[141.2048,40.1817],[141.1981,40.1733],[141.1975,40.1682],[141.1988,40.1575],[141.199,40.1362],[141.1982,40.1304],[141.1886,40.1106],[141.1767,40.0931],[141.1673,40.0846],[141.1653,40.0758],[141.1769,40.0701],[141.1877,40.0622],[141.1985,40.0569],[141.2122,40.0549],[141.2306,40.0529],[141.2405,40.0501],[141.2525,40.0376],[141.2587,40.0342],[141.2709,40.0333],[141.2762,40.0318],[141.2813,40.0286],[141.2888,40.0215]]]}},{"type":"Feature","properties":{"id":3008},"geometry":{"type":"Polygon","coordinates":[[[140.7768,38.9551],[140.7928,38.9583],[140.8037,38.9591],[140.8147,38.9616],[140.825,38.9608],[140.8356,38.9565],[140.8434,38.9485],[140.8654,38.9386],[140.875,38.9329],[140.8868,38.9247],[140.898,38.9245],[140.9083,38.9259],[140.9165,38.9198],[140.9272,38.9166],[140.9498,38.9079],[140.9597,38.9055],[140.9686,38.8986],[140.9746,38.8896],[140.9876,38.8732],[141,38.8778],[141.0099,38.8763],[141.0191,38.8806],[141.0296,38.8798],[141.0387,38.8747],[141.0486,38.8755],[141.0587,38.879],[141.069,38.8797],[141.0794,38.8771],[141.0997,38.8832],[141.1075,38.8769],[141.125,38.8773],[141.1363,38.8752],[141.1495,38.8659],[141.1491,38.8552],[141.1429,38.8472],[141.134,38.8398],[141.119,38.8335],[141.125,38.8228],[141.1352,38.8098],[141.1443,38.8016],[141.1429,38.7901],[141.1504,38.782],[141.1656,38.7782],[141.1751,38.7757],[141.1843,38.7809],[141.2043,38.7682],[141.2105,38.7595],[141.2155,38.7499],[141.2327,38.7499],[141.2438,38.7525],[141.2591,38.7572],[141.2595,38.7674],[141.2676,38.784],[141.2623,38.7868],[141.2529,38.7947],[141.2519,38.7976],[141.2534,38.8048],[141.259,38.8137],[141.2603,38.8208],[141.2601,38.8351],[141.2609,38.843],[141.2632,38.8471],[141.264,38.8535],[141.2692,38.8601],[141.2762,38.8614],[141.2924,38.8619],[141.2975,38.8637],[141.3092,38.8727],[141.3164,38.8808],[141.3221,38.8918],[141.3265,38.897],[141.3327,38.9006],[141.3486,38.9014],[141.3576,38.9007],[141.3617,38.8992],[141.3764,38.8825],[141.3938,38.869],[141.3973,38.8656],[141.4021,38.8542],[141.4039,38.8397],[141.4042,38.8199],[141.4054,38.814],[141.4108,38.8098],[141.4143,38.8091],[141.4373,38.8089],[141.4506,38.8076],[141.4601,38.8128],[141.4565,38.8227],[141.4541,38.8359],[141.4605,38.8467],[141.4634,38.8563],[141.4556,38.8668],[141.4583,38.8766],[141.4695,38.8825],[141.4743,38.8926],[141.4927,38.9045],[141.4946,38.9166],[141.4902,38.9274],[141.4945,38.9488],[141.4937,38.9601],[141.4873,38.975],[141.4889,38.982],[141.4753,38.9857],[141.4708,38.9911],[141.4776,39.0013],[141.4783,39.0084],[141.4745,39.0195],[141.479,39.0387],[141.4835,39.0507],[141.4836,39.0563],[141.4774,39.0819],[141.466,39.1001],[141.4624,39.1047],[141.446,39.1088],[141.4321,39.1106],[141.4169,39.1105],[141.411,39.1122],[141.4023,39.1306],[141.4005,39.138],[141.3949,39.1525],[141.3911,39.1593],[141.3846,39.1509],[141.379,39.148],[141.3684,39.1491],[141.3609,39.1477],[141.3576,39.1432],[141.3567,39.1357],[141.3547,39.1316],[141.3491,39.1293],[141.3412,39.13],[141.3306,39.1324],[141.3244,39.1327],[141.3104,39.1296],[141.3052,39.1243],[141.305,39.1166],[141.3084,39.1089],[141.3117,39.0959],[141.3144,39.0889],[141.3106,39.0842],[141.2961,39.0866],[141.2772,39.0871],[141.2718,39.086],[141.2621,39.0786],[141.2316,39.0541],[141.2266,39.0509],[141.2134,39.0468],[141.2066,39.0433],[141.2048,39.0394],[141.2062,39.0282],[141.2035,39.0234],[141.1991,39.0218],[141.1891,39.0147],[141.1763,39.0095],[141.1927,38.9984],[141.1923,38.9928],[141.1838,38.9886],[141.1695,38.9776],[141.1632,38.9747],[141.1493,38.9701],[141.1425,38.9653],[141.126,38.9592],[141.0918,38.9548],[141.0786,38.9578],[141.0702,38.9589],[141.0587,38.9618],[141.0415,38.9682],[141.0277,38.9753],[141.0223,38.9772],[141.0102,38.9859],[141.0038,38.986],[140.9871,38.9932],[140.9805,38.9942],[140.9613,38.9942],[140.9529,38.993],[140.947,38.9887],[140.9415,38.9874],[140.9374,38.9885],[140.9261,38.9962],[140.9222,39.0008],[140.9202,39.0073],[140.9086,39.0284],[140.901,39.0388],[140.8965,39.0423],[140.8915,39.0436],[140.8728,39.0435],[140.8651,39.0416],[140.8604,39.0379],[140.8549,39.0269],[140.8488,39.0204],[140.8361,39.0151],[140.8267,39.0119],[140.8194,39.0112],[140.7858,39.0112],[140.7827,39.0065],[140.7726,39.0007],[140.768,38.9843],[140.7778,38.9658],[140.7768,38.9551]]]}},{"type":"Feature","properties":{"id":3009},"geometry":{"type":"Polygon","coordinates":[[[141.1582,39.9279],[141.1729,39.927],[141.1822,39.9251],[141.1882,39.9222],[141.1929,39.9172],[141.202,39.903],[141.2079,39.899],[141.2182,39.8993],[141.231,39.9025],[141.2378,39.9033],[141.2546,39.9033],[141.2617,39.9013],[141.265,39.8971],[141.2722,39.878],[141.2779,39.8683],[141.2802,39.8605],[141.2958,39.8394],[141.3079,39.833],[141.3194,39.8331],[141.3467,39.8466],[141.3557,39.8473],[141.3686,39.8428],[141.3771,39.8414],[141.3848,39.8426],[141.3937,39.8473],[141.3994,39.8486],[141.413,39.846],[141.4203,39.8462],[141.4311,39.8517],[141.4334,39.8555],[141.4297,39.8628],[141.4253,39.8772],[141.4144,39.8855],[141.4064,39.8953],[141.4012,39.9107],[141.3972,39.9193],[141.3929,39.926],[141.3876,39.9309],[141.3798,39.9415],[141.377,39.9487],[141.3764,39.9583],[141.3705,39.9629],[141.3288,39.9726],[141.3208,39.976],[141.3171,39.9832],[141.3156,39.9922],[141.3123,39.9976],[141.3043,40.0072],[141.2888,40.0215],[141.2813,40.0286],[141.2762,40.0318],[141.2709,40.0333],[141.2587,40.0342],[141.2525,40.0376],[141.2405,40.0501],[141.2306,40.0529],[141.2122,40.0549],[141.1985,40.0569],[141.1877,40.0622],[141.1769,40.0701],[141.1653,40.0758],[141.1619,40.0634],[141.1506,40.0451],[141.1368,40.0338],[141.1328,40.0297],[141.1309,40.0166],[141.1338,39.9973],[141.1342,39.9854],[141.1372,39.9776],[141.1469,39.97],[141.1489,39.9654],[141.1472,39.9622],[141.1384,39.958],[141.1348,39.9538],[141.1345,39.9461],[141.1372,39.9412],[141.1458,39.9368],[141.1582,39.9279]]]}},{"type":"Feature","properties":{"id":3010},"geometry":{"type":"Polygon","coordinates":[[[141.8027,40.0163],[141.7956,40.018],[141.7875,40.0234],[141.7819,40.0259],[141.7756,40.0269],[141.7653,40.0261],[141.758,40.0239],[141.7448,40.0163],[141.7381,40.0114],[141.7255,40.0052],[141.7036,40.0048],[141.6936,40.0074],[141.6801,40.0086],[141.6723,40.007],[141.6658,40.0023],[141.6595,40.0026],[141.6535,40.0069],[141.6426,40.0125],[141.6339,40.0157],[141.616,40.0175],[141.6021,40.0178],[141.5947,40.0199],[141.5909,40.0231],[141.5813,40.0368],[141.5777,40.0395],[141.5684,40.0426],[141.5567,40.0436],[141.543,40.0467],[141.5332,40.0501],[141.5321,40.0347],[141.533,40.0311],[141.541,40.0197],[141.5463,40.0148],[141.5487,40.0107],[141.5579,40.0012],[141.5776,39.9703],[141.5819,39.9605],[141.583,39.9546],[141.5784,39.9372],[141.5739,39.9318],[141.5642,39.9242],[141.5561,39.9137],[141.5511,39.9005],[141.5448,39.8974],[141.5384,39.898],[141.5277,39.9063],[141.5176,39.906],[141.5053,39.9012],[141.4894,39.8971],[141.4866,39.894],[141.4862,39.8896],[141.4876,39.8779],[141.4963,39.8704],[141.5047,39.8664],[141.509,39.8624],[141.5103,39.8455],[141.5166,39.8366],[141.5206,39.8292],[141.5213,39.8257],[141.5189,39.8113],[141.515,39.8016],[141.5125,39.7985],[141.5011,39.7923],[141.4879,39.7864],[141.4838,39.7789],[141.4788,39.7671],[141.4728,39.7602],[141.468,39.7592],[141.4483,39.7587],[141.4337,39.7553],[141.4085,39.7539],[141.4033,39.7505],[141.4009,39.7455],[141.4005,39.7395],[141.4008,39.7156],[141.4038,39.7041],[141.4063,39.6916],[141.4066,39.686],[141.4239,39.6783],[141.4321,39.674],[141.4398,39.6732],[141.4512,39.6768],[141.4623,39.6795],[141.47,39.6827],[141.4769,39.6902],[141.4892,39.7],[141.4982,39.7028],[141.5109,39.7044],[141.5261,39.7011],[141.5362,39.7016],[141.5508,39.7093],[141.5585,39.7124],[141.5676,39.7142],[141.5885,39.7146],[141.5991,39.7137],[141.6076,39.7216],[141.6191,39.7275],[141.6245,39.7294],[141.6311,39.7342],[141.6382,39.7374],[141.6568,39.7431],[141.6659,39.7446],[141.6709,39.7466],[141.6776,39.7471],[141.704,39.7471],[141.7213,39.7435],[141.7337,39.7391],[141.7419,39.7379],[141.7478,39.7358],[141.7561,39.7348],[141.7822,39.7286],[141.7997,39.7152],[141.8053,39.714],[141.8101,39.7167],[141.8117,39.7196],[141.8206,39.7277],[141.8229,39.7319],[141.8275,39.7354],[141.8415,39.74],[141.8583,39.7476],[141.8683,39.749],[141.8828,39.7533],[141.8946,39.7546],[141.8999,39.7587],[141.9008,39.7647],[141.8999,39.7709],[141.892,39.7812],[141.8913,39.7857],[141.8949,39.7899],[141.9041,39.7964],[141.912,39.7994],[141.9186,39.8005],[141.9245,39.8038],[141.938,39.8145],[141.9541,39.8209],[141.9604,39.8226],[141.9789,39.8298],[141.9803,39.8304],[141.9807,39.8303],[141.9796,39.8352],[141.9808,39.8403],[141.9769,39.8426],[141.9745,39.847],[141.9745,39.8515],[141.9768,39.8576],[141.9752,39.8591],[141.9797,39.8649],[141.9769,39.8677],[141.9769,39.8728],[141.9737,39.8768],[141.9714,39.8844],[141.9636,39.885],[141.9594,39.8878],[141.9455,39.8813],[141.9354,39.8737],[141.9263,39.869],[141.92,39.8647],[141.9057,39.858],[141.8991,39.8567],[141.8952,39.8584],[141.8917,39.8644],[141.8845,39.8661],[141.8755,39.8623],[141.8593,39.8621],[141.8534,39.8634],[141.8436,39.8673],[141.8373,39.8725],[141.8297,39.883],[141.8241,39.8939],[141.8209,39.8977],[141.8143,39.8985],[141.8055,39.8939],[141.7985,39.892],[141.7814,39.8915],[141.7777,39.8934],[141.7775,39.8983],[141.7852,39.9122],[141.7864,39.9165],[141.789,39.9369],[141.7928,39.9489],[141.7968,39.9555],[141.7989,39.9625],[141.8036,39.9699],[141.7984,39.9844],[141.7979,39.9941],[141.8027,40.0163]]]}},{"type":"Feature","properties":{"id":3011},"geometry":{"type":"Polygon","coordinates":[[[141.9223,39.1837],[141.9199,39.1859],[141.9113,39.1863],[141.9017,39.1839],[141.8947,39.1847],[141.8918,39.1811],[141.8875,39.1851],[141.882,39.186],[141.88,39.1913],[141.8744,39.1925],[141.8687,39.1911],[141.8659,39.1935],[141.872,39.1967],[141.8696,39.2009],[141.8648,39.2026],[141.8682,39.2067],[141.8851,39.2019],[141.8893,39.1976],[141.8939,39.2002],[141.8912,39.2091],[141.8957,39.209],[141.9038,39.2048],[141.9135,39.2116],[141.9216,39.2155],[141.924,39.2144],[141.9287,39.2177],[141.9237,39.2205],[141.935,39.2216],[141.9384,39.2232],[141.9458,39.2163],[141.9541,39.2229],[141.9514,39.2247],[141.9494,39.23],[141.9499,39.2358],[141.9437,39.2381],[141.9454,39.2421],[141.9523,39.2442],[141.9576,39.2434],[141.9598,39.2466],[141.9716,39.2475],[141.9701,39.2511],[141.959,39.2508],[141.9421,39.2472],[141.9322,39.2429],[141.929,39.2466],[141.9208,39.2379],[141.9135,39.2422],[141.9143,39.248],[141.9079,39.2469],[141.9064,39.2499],[141.8995,39.2481],[141.8969,39.2506],[141.9027,39.2531],[141.9032,39.2567],[141.8998,39.2586],[141.8982,39.2633],[141.8935,39.2649],[141.8936,39.2683],[141.8874,39.2687],[141.8885,39.2728],[141.8923,39.2735],[141.8961,39.2707],[141.9056,39.2724],[141.9089,39.2682],[141.9135,39.2666],[141.9148,39.2706],[141.9253,39.266],[141.9291,39.2677],[141.9252,39.2773],[141.926,39.2858],[141.9181,39.2869],[141.9139,39.2899],[141.905,39.2917],[141.9093,39.2952],[141.9044,39.2982],[141.8885,39.3011],[141.8876,39.3028],[141.907,39.3091],[141.9078,39.3057],[141.9172,39.3031],[141.9209,39.3085],[141.9329,39.31],[141.9366,39.3078],[141.9402,39.309],[141.9412,39.3127],[141.9496,39.3144],[141.954,39.3131],[141.9578,39.3166],[141.9691,39.3127],[141.972,39.3177],[141.9772,39.3192],[141.9748,39.3243],[141.9804,39.3315],[141.9809,39.3368],[141.9933,39.3463],[141.9969,39.3505],[141.9838,39.3478],[141.9752,39.3376],[141.959,39.3371],[141.9548,39.3404],[141.9448,39.3335],[141.9433,39.3291],[141.9358,39.3301],[141.9328,39.3322],[141.9234,39.3332],[141.916,39.3269],[141.9112,39.3292],[141.9047,39.3264],[141.9004,39.3293],[141.897,39.3348],[141.8973,39.3378],[141.9057,39.3397],[141.9092,39.3435],[141.9158,39.3464],[141.9127,39.3509],[141.9043,39.3502],[141.8833,39.3505],[141.866,39.355],[141.8558,39.3597],[141.8496,39.3615],[141.8345,39.3687],[141.8047,39.376],[141.8008,39.3805],[141.7972,39.3877],[141.7898,39.3889],[141.7759,39.3886],[141.7679,39.3891],[141.7621,39.3918],[141.7567,39.3981],[141.7475,39.4061],[141.7429,39.4126],[141.7048,39.4122],[141.683,39.4088],[141.6715,39.4042],[141.6585,39.3716],[141.6564,39.3555],[141.6565,39.3496],[141.6589,39.3365],[141.6632,39.3281],[141.6686,39.3223],[141.6792,39.3213],[141.6835,39.3197],[141.6853,39.3149],[141.6852,39.3015],[141.686,39.2972],[141.6975,39.279],[141.7028,39.2719],[141.7043,39.2642],[141.705,39.2504],[141.7082,39.2442],[141.7084,39.2391],[141.705,39.2322],[141.7034,39.2245],[141.7049,39.2188],[141.7094,39.2146],[141.7182,39.2091],[141.7308,39.1981],[141.7404,39.1878],[141.7504,39.1813],[141.7604,39.1803],[141.7668,39.1783],[141.7856,39.178],[141.7979,39.1768],[141.8312,39.177],[141.8412,39.1764],[141.8544,39.1733],[141.8652,39.1726],[141.8934,39.1728],[141.8991,39.1734],[141.9153,39.1799],[141.9223,39.1837]]]}},{"type":"Feature","properties":{"id":3012},"geometry":{"type":"Polygon","coordinates":[[[140.8909,39.1799],[140.8986,39.1775],[140.9211,39.1723],[140.9253,39.1684],[140.9259,39.1548],[140.9276,39.15],[140.9344,39.1482],[140.9502,39.1485],[140.97,39.1448],[140.9894,39.1391],[141.0045,39.1317],[141.01,39.1307],[141.0291,39.1312],[141.0539,39.141],[141.0639,39.1483],[141.0729,39.1527],[141.0866,39.1638],[141.096,39.1686],[141.1067,39.1763],[141.1136,39.1789],[141.1185,39.1791],[141.1245,39.1773],[141.1315,39.1811],[141.1369,39.1914],[141.1353,39.2023],[141.1312,39.209],[141.1234,39.2179],[141.1101,39.2307],[141.102,39.2303],[141.0988,39.2288],[141.0891,39.2277],[141.0834,39.23],[141.0714,39.2431],[141.0647,39.2458],[141.0567,39.2469],[141.0518,39.2488],[141.039,39.2516],[141.0318,39.2514],[141.0254,39.2486],[141.0188,39.2438],[141.0135,39.2417],[141.0097,39.2383],[140.9989,39.2312],[140.995,39.2306],[140.9636,39.2342],[140.9512,39.2298],[140.9443,39.2233],[140.9423,39.2166],[140.9383,39.2099],[140.9297,39.2019],[140.9152,39.1916],[140.8974,39.1838],[140.8909,39.1799]]]}},{"type":"Feature","properties":{"id":3013},"geometry":{"type":"Polygon","coordinates":[[[141.395,40.3552],[141.385,40.3393],[141.375,40.3379],[141.3649,40.3322],[141.3574,40.3292],[141.3579,40.3286],[141.3577,40.3027],[141.3586,40.2978],[141.3728,40.286],[141.383,40.2707],[141.3929,40.2721],[141.4135,40.2731],[141.42,40.2752],[141.4295,40.2761],[141.4446,40.2788],[141.4484,40.2785],[141.4517,40.2746],[141.4554,40.265],[141.4594,40.2519],[141.4619,40.2376],[141.4634,40.2344],[141.4692,40.2311],[141.4787,40.2276],[141.4963,40.2239],[141.5142,40.2196],[141.5216,40.224],[141.5427,40.2307],[141.5493,40.231],[141.5826,40.231],[141.5955,40.2381],[141.6059,40.2449],[141.611,40.2498],[141.6156,40.2623],[141.6157,40.2668],[141.6124,40.2698],[141.602,40.2741],[141.5901,40.2806],[141.582,40.2966],[141.5779,40.3024],[141.5742,40.3107],[141.5731,40.3172],[141.5781,40.3272],[141.588,40.3386],[141.5961,40.3492],[141.5968,40.3533],[141.5951,40.3577],[141.5829,40.3673],[141.5839,40.3705],[141.5672,40.3589],[141.5497,40.3491],[141.5393,40.3443],[141.5167,40.3527],[141.5094,40.3599],[141.4957,40.3665],[141.487,40.3715],[141.4762,40.3741],[141.4655,40.372],[141.4419,40.3707],[141.4328,40.3646],[141.422,40.3604],[141.4122,40.355],[141.4058,40.363],[141.3968,40.358],[141.395,40.3552]]]}},{"type":"Feature","properties":{"id":3014},"geometry":{"type":"Polygon","coordinates":[[[141.5003,39.5383],[141.5045,39.5347],[141.5105,39.5318],[141.5405,39.5228],[141.5477,39.5196],[141.5609,39.5155],[141.5794,39.5063],[141.6256,39.4701],[141.6315,39.4626],[141.64,39.4564],[141.6469,39.455],[141.6572,39.4553],[141.6637,39.4527],[141.6752,39.4467],[141.6863,39.4387],[141.6961,39.4408],[141.7115,39.442],[141.7076,39.4581],[141.7072,39.4972],[141.7099,39.5048],[141.724,39.5131],[141.7292,39.515],[141.741,39.5241],[141.7467,39.5301],[141.7234,39.5479],[141.7188,39.555],[141.7211,39.5699],[141.7248,39.5781],[141.7353,39.5834],[141.7482,39.587],[141.7524,39.5903],[141.7534,39.5981],[141.7513,39.6016],[141.7381,39.6057],[141.7317,39.6084],[141.7165,39.6194],[141.7098,39.6201],[141.6886,39.6197],[141.6793,39.6206],[141.6726,39.6251],[141.672,39.631],[141.6719,39.65],[141.668,39.6601],[141.6649,39.6642],[141.6595,39.6673],[141.647,39.6717],[141.6226,39.6812],[141.6186,39.6843],[141.6099,39.6968],[141.604,39.7037],[141.5991,39.7137],[141.5885,39.7146],[141.5676,39.7142],[141.5585,39.7124],[141.5508,39.7093],[141.5362,39.7016],[141.5261,39.7011],[141.5109,39.7044],[141.4982,39.7028],[141.4892,39.7],[141.4769,39.6902],[141.47,39.6827],[141.4623,39.6795],[141.4512,39.6768],[141.4398,39.6732],[141.4321,39.674],[141.4239,39.6783],[141.4066,39.686],[141.3967,39.6811],[141.3901,39.6764],[141.3848,39.6745],[141.3786,39.6703],[141.3732,39.6684],[141.3622,39.6628],[141.3537,39.6565],[141.3495,39.6518],[141.3491,39.6314],[141.3503,39.6275],[141.358,39.6216],[141.3665,39.6184],[141.3837,39.6145],[141.3902,39.6119],[141.4041,39.5946],[141.4156,39.5855],[141.4268,39.5779],[141.4274,39.5738],[141.4247,39.57],[141.4172,39.5661],[141.4274,39.5553],[141.4347,39.5491],[141.4438,39.549],[141.4544,39.5538],[141.4629,39.5548],[141.4845,39.5551],[141.4902,39.5546],[141.4958,39.5504],[141.5003,39.5383]]]}},{"type":"Feature","properties":{"id":3015},"geometry":{"type":"Polygon","coordinates":[[[140.8835,39.4762],[140.8798,39.4676],[140.8741,39.4621],[140.8695,39.4549],[140.8677,39.4483],[140.8665,39.4362],[140.863,39.4348],[140.8517,39.4365],[140.8395,39.4348],[140.8356,39.4316],[140.8331,39.4261],[140.8281,39.4196],[140.8285,39.4146],[140.8492,39.3986],[140.8566,39.3907],[140.8627,39.3784],[140.8725,39.3615],[140.8761,39.3436],[140.8816,39.3313],[140.8859,39.3274],[140.9071,39.311],[140.9078,39.305],[140.9053,39.3012],[140.9037,39.2878],[140.9002,39.2775],[140.8957,39.2702],[140.8897,39.263],[140.8878,39.2579],[140.8897,39.2523],[140.8997,39.2413],[140.9001,39.2373],[140.8964,39.2314],[140.8808,39.2185],[140.8692,39.2098],[140.8651,39.2007],[140.8639,39.1901],[140.861,39.1796],[140.8909,39.1799],[140.8974,39.1838],[140.9152,39.1916],[140.9297,39.2019],[140.9383,39.2099],[140.9423,39.2166],[140.9443,39.2233],[140.9512,39.2298],[140.9636,39.2342],[140.995,39.2306],[140.9989,39.2312],[141.0097,39.2383],[141.0135,39.2417],[141.0188,39.2438],[141.0254,39.2486],[141.0318,39.2514],[141.039,39.2516],[141.0518,39.2488],[141.0567,39.2469],[141.0647,39.2458],[141.0714,39.2431],[141.0834,39.23],[141.0891,39.2277],[141.0988,39.2288],[141.102,39.2303],[141.1101,39.2307],[141.1214,39.2342],[141.1381,39.2385],[141.1426,39.2423],[141.1452,39.2507],[141.1475,39.2535],[141.1614,39.2546],[141.1685,39.2571],[141.1718,39.2646],[141.1757,39.2678],[141.1854,39.2709],[141.1976,39.271],[141.2104,39.2659],[141.2182,39.2643],[141.2302,39.2637],[141.2406,39.2648],[141.2455,39.2678],[141.2534,39.277],[141.2554,39.2814],[141.254,39.2884],[141.2481,39.2939],[141.2455,39.2979],[141.2329,39.3087],[141.2209,39.3107],[141.2074,39.3111],[141.1956,39.3158],[141.1931,39.3206],[141.1924,39.3308],[141.1895,39.3372],[141.1881,39.3437],[141.1823,39.3565],[141.1808,39.3627],[141.1741,39.3642],[141.1647,39.3567],[141.1597,39.355],[141.1358,39.3566],[141.1253,39.3552],[141.116,39.3563],[141.1024,39.361],[141.0967,39.3608],[141.0919,39.3581],[141.0808,39.349],[141.0762,39.3441],[141.0668,39.3361],[141.0596,39.3282],[141.0553,39.3273],[141.0484,39.3283],[141.0293,39.3362],[141.0135,39.3407],[141.002,39.3432],[140.9935,39.3494],[140.9839,39.36],[140.9729,39.3623],[140.9467,39.362],[140.9371,39.3625],[140.9326,39.3639],[140.9206,39.3734],[140.9193,39.3848],[140.9164,39.3923],[140.9155,39.3984],[140.9153,39.4149],[140.913,39.4274],[140.9109,39.4317],[140.9049,39.4369],[140.903,39.4436],[140.9039,39.4483],[140.9107,39.4604],[140.9095,39.466],[140.8972,39.4703],[140.8835,39.4762]]]}},{"type":"Feature","properties":{"id":3016},"geometry":{"type":"Polygon","coordinates":[[[141.7969,40.2944],[141.7745,40.2799],[141.7644,40.2707],[141.7596,40.2689],[141.7551,40.2695],[141.747,40.2728],[141.7382,40.2734],[141.7308,40.2727],[141.727,40.2677],[141.7274,40.2514],[141.7262,40.245],[141.7181,40.2384],[141.7128,40.237],[141.7004,40.2383],[141.6958,40.24],[141.6901,40.239],[141.6847,40.2348],[141.6814,40.2288],[141.6812,40.2206],[141.6799,40.2175],[141.6606,40.2063],[141.6536,40.2044],[141.6345,40.206],[141.6277,40.2077],[141.6208,40.2109],[141.6109,40.2183],[141.5986,40.2228],[141.5916,40.2272],[141.5826,40.231],[141.5493,40.231],[141.5427,40.2307],[141.5216,40.224],[141.5142,40.2196],[141.5092,40.2121],[141.5037,40.199],[141.4978,40.1879],[141.4943,40.1717],[141.4892,40.1601],[141.4766,40.1404],[141.4725,40.1362],[141.4642,40.1302],[141.463,40.1245],[141.4678,40.1092],[141.4788,40.0926],[141.4844,40.0871],[141.4902,40.0776],[141.516,40.0724],[141.5237,40.0658],[141.529,40.0554],[141.5332,40.0501],[141.543,40.0467],[141.5567,40.0436],[141.5684,40.0426],[141.5777,40.0395],[141.5813,40.0368],[141.5909,40.0231],[141.5947,40.0199],[141.6021,40.0178],[141.616,40.0175],[141.6339,40.0157],[141.6426,40.0125],[141.6535,40.0069],[141.6595,40.0026],[141.6658,40.0023],[141.6723,40.007],[141.6801,40.0086],[141.6936,40.0074],[141.7036,40.0048],[141.7255,40.0052],[141.7381,40.0114],[141.7448,40.0163],[141.758,40.0239],[141.7593,40.0373],[141.7619,40.046],[141.7581,40.0499],[141.7483,40.0573],[141.7421,40.0672],[141.74,40.0757],[141.7405,40.0804],[141.748,40.0941],[141.756,40.0981],[141.7745,40.1043],[141.795,40.1072],[141.8008,40.1086],[141.808,40.1129],[141.8112,40.1224],[141.8162,40.1276],[141.8318,40.128],[141.8418,40.1297],[141.8466,40.1343],[141.8509,40.1348],[141.8603,40.1316],[141.8716,40.1348],[141.877,40.144],[141.8732,40.1447],[141.8703,40.1519],[141.866,40.154],[141.8593,40.1651],[141.8525,40.1693],[141.8405,40.173],[141.835,40.1775],[141.8242,40.1802],[141.8194,40.179],[141.8136,40.183],[141.8079,40.1829],[141.8012,40.1848],[141.7995,40.1891],[141.7948,40.1907],[141.806,40.1988],[141.795,40.2013],[141.7984,40.2076],[141.801,40.2073],[141.8061,40.2122],[141.8078,40.2169],[141.8141,40.2207],[141.8296,40.2207],[141.8329,40.2245],[141.8309,40.2275],[141.8324,40.2345],[141.826,40.2446],[141.8229,40.2464],[141.8255,40.2499],[141.8218,40.2551],[141.8205,40.2629],[141.817,40.2668],[141.8169,40.2709],[141.7969,40.2944]]]}},{"type":"Feature","properties":{"id":3017},"geometry":{"type":"Polygon","coordinates":[[[141.3994,40.1437],[141.4037,40.1334],[141.4053,40.1264],[141.4093,40.1161],[141.4166,40.1043],[141.4213,40.1005],[141.4287,40.0984],[141.4399,40.0987],[141.4494,40.1023],[141.4575,40.104],[141.4678,40.1092],[141.463,40.1245],[141.4642,40.1302],[141.4725,40.1362],[141.4766,40.1404],[141.4892,40.1601],[141.4943,40.1717],[141.4978,40.1879],[141.5037,40.199],[141.5092,40.2121],[141.5142,40.2196],[141.4963,40.2239],[141.4787,40.2276],[141.4692,40.2311],[141.4634,40.2344],[141.4619,40.2376],[141.4594,40.2519],[141.4554,40.265],[141.4517,40.2746],[141.4484,40.2785],[141.4446,40.2788],[141.4295,40.2761],[141.42,40.2752],[141.4135,40.2731],[141.3929,40.2721],[141.383,40.2707],[141.3819,40.2656],[141.3849,40.2561],[141.3853,40.2441],[141.3876,40.2348],[141.3921,40.2236],[141.3938,40.2165],[141.3962,40.2123],[141.3974,40.2042],[141.3954,40.1976],[141.3903,40.1926],[141.3903,40.1854],[141.396,40.1798],[141.3984,40.1727],[141.3994,40.1437]]]}},{"type":"Feature","properties":{"id":3018},"geometry":{"type":"Polygon","coordinates":[[[141.2888,40.0215],[141.3043,40.0072],[141.3123,39.9976],[141.3156,39.9922],[141.3171,39.9832],[141.3208,39.976],[141.3288,39.9726],[141.3705,39.9629],[141.3764,39.9583],[141.377,39.9487],[141.3798,39.9415],[141.3876,39.9309],[141.3929,39.926],[141.3972,39.9193],[141.4012,39.9107],[141.4064,39.8953],[141.4144,39.8855],[141.4253,39.8772],[141.4359,39.8745],[141.449,39.8722],[141.4549,39.8723],[141.4728,39.875],[141.4876,39.8779],[141.4862,39.8896],[141.4866,39.894],[141.4894,39.8971],[141.5053,39.9012],[141.5176,39.906],[141.5277,39.9063],[141.5384,39.898],[141.5448,39.8974],[141.5511,39.9005],[141.5561,39.9137],[141.5642,39.9242],[141.5739,39.9318],[141.5784,39.9372],[141.583,39.9546],[141.5819,39.9605],[141.5776,39.9703],[141.5579,40.0012],[141.5487,40.0107],[141.5463,40.0148],[141.541,40.0197],[141.533,40.0311],[141.5321,40.0347],[141.5332,40.0501],[141.529,40.0554],[141.5237,40.0658],[141.516,40.0724],[141.4902,40.0776],[141.4844,40.0871],[141.4788,40.0926],[141.4678,40.1092],[141.4575,40.104],[141.4494,40.1023],[141.4399,40.0987],[141.4287,40.0984],[141.4213,40.1005],[141.4166,40.1043],[141.4093,40.1161],[141.4053,40.1264],[141.4037,40.1334],[141.3994,40.1437],[141.368,40.1435],[141.3607,40.1428],[141.3488,40.1385],[141.3404,40.1319],[141.3405,40.1273],[141.3499,40.1198],[141.3516,40.1159],[141.3506,40.1079],[141.3476,40.103],[141.3439,40.0931],[141.3451,40.0874],[141.3656,40.0715],[141.3666,40.0652],[141.3617,40.0608],[141.3509,40.0571],[141.327,40.0533],[141.3196,40.0541],[141.3145,40.0563],[141.3061,40.0577],[141.3032,40.0569],[141.3009,40.0524],[141.3013,40.0375],[141.3004,40.0327],[141.2964,40.0271],[141.2888,40.0215]]]}},{"type":"Feature","properties":{"id":3019},"geometry":{"type":"Polygon","coordinates":[[[141.9789,39.8298],[141.9604,39.8226],[141.9541,39.8209],[141.938,39.8145],[141.9245,39.8038],[141.9186,39.8005],[141.912,39.7994],[141.9041,39.7964],[141.8949,39.7899],[141.8913,39.7857],[141.892,39.7812],[141.8999,39.7709],[141.9008,39.7647],[141.8999,39.7587],[141.8946,39.7546],[141.8828,39.7533],[141.8683,39.749],[141.8583,39.7476],[141.8415,39.74],[141.8275,39.7354],[141.8229,39.7319],[141.8206,39.7277],[141.8117,39.7196],[141.8101,39.7167],[141.8053,39.714],[141.7997,39.7152],[141.7822,39.7286],[141.7561,39.7348],[141.7478,39.7358],[141.7419,39.7379],[141.7337,39.7391],[141.7213,39.7435],[141.704,39.7471],[141.6776,39.7471],[141.6709,39.7466],[141.6659,39.7446],[141.6568,39.7431],[141.6382,39.7374],[141.6311,39.7342],[141.6245,39.7294],[141.6191,39.7275],[141.6076,39.7216],[141.5991,39.7137],[141.604,39.7037],[141.6099,39.6968],[141.6186,39.6843],[141.6226,39.6812],[141.647,39.6717],[141.6595,39.6673],[141.6649,39.6642],[141.668,39.6601],[141.6719,39.65],[141.672,39.631],[141.6726,39.6251],[141.6793,39.6206],[141.6886,39.6197],[141.7098,39.6201],[141.7165,39.6194],[141.7317,39.6084],[141.7381,39.6057],[141.7513,39.6016],[141.7534,39.5981],[141.7524,39.5903],[141.7482,39.587],[141.7353,39.5834],[141.7248,39.5781],[141.7211,39.5699],[141.7188,39.555],[141.7234,39.5479],[141.7467,39.5301],[141.7508,39.5389],[141.7538,39.5414],[141.7602,39.5431],[141.7731,39.5435],[141.7921,39.5472],[141.803,39.5479],[141.8254,39.548],[141.8331,39.549],[141.8407,39.552],[141.8603,39.5626],[141.8704,39.5644],[141.883,39.5596],[141.9012,39.5459],[141.9102,39.544],[141.9325,39.5442],[141.9477,39.5422],[141.9631,39.5362],[141.968,39.5331],[141.9851,39.5195],[141.9988,39.5121],[142.0085,39.5046],[142.0144,39.5011],[142.0213,39.4994],[142.03,39.5086],[142.03,39.5153],[142.0331,39.5186],[142.0305,39.5239],[142.0365,39.531],[142.0442,39.5313],[142.0551,39.522],[142.0583,39.5219],[142.063,39.5253],[142.0581,39.5286],[142.0597,39.5336],[142.0653,39.5328],[142.0656,39.5367],[142.0714,39.5422],[142.0722,39.5481],[142.0681,39.5536],[142.0703,39.5586],[142.065,39.5642],[142.0589,39.5647],[142.0572,39.5686],[142.0594,39.5719],[142.0578,39.5744],[142.0497,39.5756],[142.045,39.5736],[142.0388,39.5733],[142.0292,39.5751],[142.0269,39.5797],[142.0322,39.5883],[142.0304,39.5911],[142.0311,39.5981],[142.0257,39.6044],[142.0281,39.6083],[142.0317,39.6089],[142.0322,39.6136],[142.025,39.6169],[142.0242,39.6264],[142.0294,39.6311],[142.0233,39.6358],[142.0272,39.6442],[142.0303,39.6458],[142.0242,39.6528],[142.0261,39.6569],[142.02,39.6572],[142.0155,39.6553],[142.0061,39.6418],[141.9969,39.6307],[141.9932,39.6275],[141.9866,39.6176],[141.9785,39.6133],[141.9772,39.6092],[141.9715,39.6047],[141.9675,39.5981],[141.9588,39.5865],[141.9536,39.5857],[141.9501,39.5877],[141.9456,39.5945],[141.9452,39.5985],[141.9559,39.6053],[141.9635,39.6113],[141.9623,39.6143],[141.9677,39.6193],[141.9652,39.6242],[141.9713,39.6257],[141.9684,39.6323],[141.972,39.6387],[141.9684,39.6417],[141.9698,39.6461],[141.9757,39.6431],[141.9816,39.6452],[141.9829,39.6524],[141.9766,39.6536],[141.9716,39.6614],[141.976,39.6639],[141.9758,39.6696],[141.98,39.6724],[141.9863,39.6831],[141.9847,39.6878],[141.9701,39.687],[141.9671,39.6899],[141.9722,39.6929],[141.9766,39.7061],[141.9803,39.7056],[141.9852,39.712],[141.9826,39.7185],[141.9843,39.7196],[141.9841,39.726],[141.9729,39.7283],[141.9725,39.7334],[141.9825,39.7341],[141.9879,39.7442],[141.9917,39.7475],[141.9992,39.7488],[141.9916,39.7527],[141.9883,39.7622],[141.9902,39.7669],[141.9988,39.773],[142.005,39.7764],[141.9965,39.7784],[141.989,39.7874],[141.9843,39.7887],[141.9876,39.793],[141.989,39.7982],[141.9838,39.8035],[141.9839,39.813],[141.9901,39.817],[141.9916,39.8207],[141.9874,39.8252],[141.9862,39.8302],[141.9789,39.8298]]]}},{"type":"Feature","properties":{"id":3020},"geometry":{"type":"Polygon","coordinates":[[[141.1013,39.8681],[141.1086,39.8606],[141.1217,39.8419],[141.1281,39.834],[141.1303,39.8293],[141.1355,39.8243],[141.1488,39.8057],[141.1596,39.7936],[141.1651,39.784],[141.1734,39.7717],[141.1712,39.767],[141.1658,39.7662],[141.1519,39.7663],[141.1422,39.7646],[141.1346,39.7616],[141.1296,39.7574],[141.1248,39.7467],[141.1208,39.7412],[141.1129,39.7352],[141.1034,39.7305],[141.0875,39.7178],[141.0842,39.7143],[141.0789,39.7009],[141.0746,39.6967],[141.0661,39.694],[141.0569,39.6946],[141.0506,39.6968],[141.0415,39.698],[141.0254,39.7021],[141.0212,39.6928],[141.0174,39.6867],[141.0117,39.6812],[141.0073,39.6744],[141.0045,39.6624],[141.0058,39.6569],[141.0148,39.6524],[141.0226,39.6508],[141.0388,39.6439],[141.0434,39.6431],[141.0546,39.641],[141.0743,39.6359],[141.0848,39.6341],[141.0981,39.6342],[141.1026,39.6349],[141.1178,39.6424],[141.1314,39.6436],[141.1365,39.6426],[141.1539,39.6292],[141.1633,39.6246],[141.1702,39.6199],[141.1788,39.6158],[141.1855,39.6109],[141.2016,39.6038],[141.2142,39.6004],[141.224,39.599],[141.2375,39.5982],[141.2479,39.5956],[141.256,39.5894],[141.2614,39.5811],[141.2677,39.5807],[141.281,39.5982],[141.2851,39.5999],[141.2911,39.5987],[141.3033,39.5829],[141.3091,39.5781],[141.3208,39.5726],[141.328,39.5713],[141.3355,39.5683],[141.3434,39.5681],[141.3625,39.5719],[141.377,39.5728],[141.3813,39.5744],[141.401,39.5764],[141.4061,39.5749],[141.4172,39.5661],[141.4247,39.57],[141.4274,39.5738],[141.4268,39.5779],[141.4156,39.5855],[141.4041,39.5946],[141.3902,39.6119],[141.3837,39.6145],[141.3665,39.6184],[141.358,39.6216],[141.3503,39.6275],[141.3491,39.6314],[141.3495,39.6518],[141.3537,39.6565],[141.3622,39.6628],[141.3732,39.6684],[141.3786,39.6703],[141.3848,39.6745],[141.3901,39.6764],[141.3967,39.6811],[141.4066,39.686],[141.4063,39.6916],[141.4038,39.7041],[141.4008,39.7156],[141.4005,39.7395],[141.4009,39.7455],[141.4033,39.7505],[141.4085,39.7539],[141.4337,39.7553],[141.4483,39.7587],[141.468,39.7592],[141.4728,39.7602],[141.4788,39.7671],[141.4838,39.7789],[141.4879,39.7864],[141.5011,39.7923],[141.5125,39.7985],[141.515,39.8016],[141.5189,39.8113],[141.5213,39.8257],[141.5206,39.8292],[141.5166,39.8366],[141.5103,39.8455],[141.509,39.8624],[141.5047,39.8664],[141.4963,39.8704],[141.4876,39.8779],[141.4728,39.875],[141.4549,39.8723],[141.449,39.8722],[141.4359,39.8745],[141.4253,39.8772],[141.4297,39.8628],[141.4334,39.8555],[141.4311,39.8517],[141.4203,39.8462],[141.413,39.846],[141.3994,39.8486],[141.3937,39.8473],[141.3848,39.8426],[141.3771,39.8414],[141.3686,39.8428],[141.3557,39.8473],[141.3467,39.8466],[141.3194,39.8331],[141.3079,39.833],[141.2958,39.8394],[141.2802,39.8605],[141.2779,39.8683],[141.2722,39.878],[141.265,39.8971],[141.2617,39.9013],[141.2546,39.9033],[141.2378,39.9033],[141.231,39.9025],[141.2182,39.8993],[141.2079,39.899],[141.202,39.903],[141.1929,39.9172],[141.1882,39.9222],[141.1822,39.9251],[141.1729,39.927],[141.1582,39.9279],[141.167,39.9114],[141.1678,39.9041],[141.1641,39.8991],[141.155,39.894],[141.1383,39.8814],[141.1315,39.8777],[141.1237,39.8763],[141.1084,39.8716],[141.1013,39.8681]]]}},{"type":"Feature","properties":{"id":3021},"geometry":{"type":"Polygon","coordinates":[[[141.3241,40.3666],[141.3202,40.3698],[141.3014,40.3628],[141.2958,40.3536],[141.2889,40.3453],[141.2784,40.3422],[141.2679,40.3471],[141.2605,40.3387],[141.25,40.3362],[141.2357,40.3255],[141.2271,40.3203],[141.2206,40.3121],[141.2105,40.3099],[141.2009,40.305],[141.1909,40.3049],[141.1798,40.3071],[141.1656,40.3036],[141.1534,40.298],[141.1433,40.2974],[141.1342,40.2913],[141.1154,40.2815],[141.1058,40.2778],[141.1132,40.2586],[141.1037,40.25],[141.0921,40.2501],[141.0802,40.2491],[141.0726,40.2393],[141.0607,40.2304],[141.0507,40.2301],[141.0388,40.2251],[141.0296,40.2188],[141.0253,40.2178],[141.0309,40.2082],[141.0332,40.1977],[141.0341,40.1808],[141.0367,40.1733],[141.0393,40.1611],[141.0481,40.1468],[141.0634,40.1346],[141.0685,40.1329],[141.0848,40.1324],[141.0968,40.131],[141.1151,40.1242],[141.119,40.1212],[141.1267,40.1105],[141.1325,40.0996],[141.1406,40.0926],[141.1537,40.0852],[141.1653,40.0758],[141.1673,40.0846],[141.1767,40.0931],[141.1886,40.1106],[141.1982,40.1304],[141.199,40.1362],[141.1988,40.1575],[141.1975,40.1682],[141.1981,40.1733],[141.2048,40.1817],[141.2112,40.1873],[141.2169,40.1945],[141.2218,40.198],[141.2574,40.2124],[141.2646,40.2225],[141.2694,40.2326],[141.2702,40.241],[141.2748,40.2471],[141.2907,40.251],[141.2992,40.2484],[141.3095,40.2406],[141.3175,40.2358],[141.3308,40.2305],[141.3378,40.2286],[141.3516,40.2214],[141.362,40.2177],[141.3693,40.2188],[141.3803,40.2276],[141.3876,40.2348],[141.3853,40.2441],[141.3849,40.2561],[141.3819,40.2656],[141.383,40.2707],[141.3728,40.286],[141.3586,40.2978],[141.3577,40.3027],[141.3579,40.3286],[141.3574,40.3292],[141.3546,40.328],[141.3467,40.3391],[141.3398,40.3475],[141.338,40.3587],[141.3285,40.3628],[141.3241,40.3666]]]}},{"type":"Feature","properties":{"id":3022},"geometry":{"type":"Polygon","coordinates":[[[140.7061,39.4671],[140.6895,39.4566],[140.6825,39.4484],[140.6865,39.4383],[140.6887,39.4267],[140.6849,39.4166],[140.662,39.4119],[140.6617,39.3967],[140.6595,39.3871],[140.6593,39.3862],[140.6791,39.3827],[140.6837,39.3619],[140.6943,39.3559],[140.6921,39.3459],[140.7017,39.3418],[140.7093,39.3333],[140.6999,39.3182],[140.7016,39.297],[140.7119,39.2943],[140.7205,39.2855],[140.7202,39.2749],[140.7284,39.2675],[140.7398,39.2637],[140.759,39.2541],[140.7766,39.2435],[140.7853,39.2369],[140.7898,39.2278],[140.7816,39.2207],[140.7725,39.2159],[140.7694,39.2064],[140.7687,39.1996],[140.7682,39.1952],[140.7902,39.187],[140.8013,39.1866],[140.8099,39.1789],[140.8156,39.1839],[140.8308,39.171],[140.8361,39.1643],[140.8426,39.1637],[140.8578,39.176],[140.861,39.1796],[140.8639,39.1901],[140.8651,39.2007],[140.8692,39.2098],[140.8808,39.2185],[140.8964,39.2314],[140.9001,39.2373],[140.8997,39.2413],[140.8897,39.2523],[140.8878,39.2579],[140.8897,39.263],[140.8957,39.2702],[140.9002,39.2775],[140.9037,39.2878],[140.9053,39.3012],[140.9078,39.305],[140.9071,39.311],[140.8859,39.3274],[140.8816,39.3313],[140.8761,39.3436],[140.8725,39.3615],[140.8627,39.3784],[140.8566,39.3907],[140.8492,39.3986],[140.8285,39.4146],[140.8281,39.4196],[140.8331,39.4261],[140.8356,39.4316],[140.8395,39.4348],[140.8517,39.4365],[140.863,39.4348],[140.8665,39.4362],[140.8677,39.4483],[140.8695,39.4549],[140.8741,39.4621],[140.8798,39.4676],[140.8835,39.4762],[140.8844,39.4829],[140.8842,39.4945],[140.8809,39.5026],[140.88,39.5126],[140.8782,39.5188],[140.8718,39.5341],[140.8693,39.5382],[140.8679,39.5446],[140.8633,39.5566],[140.8607,39.5709],[140.8561,39.5838],[140.8486,39.5926],[140.8423,39.5959],[140.8115,39.599],[140.7998,39.599],[140.799,39.6002],[140.786,39.6012],[140.7827,39.5909],[140.7737,39.5858],[140.762,39.575],[140.7552,39.5674],[140.7458,39.5637],[140.7421,39.5635],[140.7337,39.5629],[140.7307,39.5533],[140.7397,39.5463],[140.7442,39.5346],[140.7414,39.5229],[140.7317,39.5176],[140.7275,39.5082],[140.7167,39.4912],[140.7222,39.4819],[140.7157,39.4729],[140.7061,39.4671]]]}},{"type":"Feature","properties":{"id":3023},"geometry":{"type":"Polygon","coordinates":[[[141.8568,40.0545],[141.8494,40.0592],[141.8412,40.0692],[141.8336,40.075],[141.833,40.0798],[141.8303,40.082],[141.8294,40.0889],[141.8316,40.0922],[141.8271,40.0964],[141.8258,40.1035],[141.8281,40.1133],[141.8305,40.1155],[141.837,40.1168],[141.8353,40.121],[141.8418,40.1297],[141.8318,40.128],[141.8162,40.1276],[141.8112,40.1224],[141.808,40.1129],[141.8008,40.1086],[141.795,40.1072],[141.7745,40.1043],[141.756,40.0981],[141.748,40.0941],[141.7405,40.0804],[141.74,40.0757],[141.7421,40.0672],[141.7483,40.0573],[141.7581,40.0499],[141.7619,40.046],[141.7593,40.0373],[141.758,40.0239],[141.7653,40.0261],[141.7756,40.0269],[141.7819,40.0259],[141.7875,40.0234],[141.7956,40.018],[141.8027,40.0163],[141.8164,40.0183],[141.8351,40.0245],[141.8375,40.0277],[141.8382,40.0383],[141.8402,40.0435],[141.8485,40.0504],[141.8568,40.0545]]]}},{"type":"Feature","properties":{"id":3024},"geometry":{"type":"Polygon","coordinates":[[[141.9223,39.1837],[141.9153,39.1799],[141.8991,39.1734],[141.8934,39.1728],[141.8652,39.1726],[141.8544,39.1733],[141.8412,39.1764],[141.8312,39.177],[141.7979,39.1768],[141.7856,39.178],[141.7668,39.1783],[141.7604,39.1803],[141.7504,39.1813],[141.7404,39.1878],[141.7308,39.1981],[141.7182,39.2091],[141.7124,39.2007],[141.698,39.1882],[141.6923,39.1814],[141.6876,39.1805],[141.6706,39.1805],[141.6637,39.1795],[141.6595,39.1765],[141.6523,39.1673],[141.641,39.1504],[141.6292,39.1253],[141.6274,39.1182],[141.6202,39.1047],[141.6271,39.0975],[141.6294,39.0896],[141.6369,39.0757],[141.6426,39.0702],[141.645,39.0661],[141.651,39.0608],[141.6564,39.054],[141.6622,39.0492],[141.668,39.0419],[141.682,39.0307],[141.6932,39.0167],[141.6948,39.0123],[141.6996,39.0069],[141.712,38.9969],[141.7202,38.9964],[141.7236,38.9918],[141.7332,38.9878],[141.7377,38.9887],[141.7415,38.9851],[141.7449,38.9902],[141.7442,38.9948],[141.7387,39.0034],[141.7324,39.0109],[141.7249,39.0178],[141.7185,39.0192],[141.7117,39.0226],[141.7101,39.0251],[141.7147,39.0287],[141.718,39.034],[141.7226,39.036],[141.7252,39.0414],[141.7222,39.0528],[141.7234,39.0574],[141.7265,39.0615],[141.7238,39.0636],[141.7319,39.069],[141.7384,39.0631],[141.7396,39.0587],[141.734,39.0544],[141.7365,39.048],[141.7331,39.0449],[141.7379,39.0384],[141.7375,39.036],[141.7316,39.0348],[141.7315,39.0282],[141.7295,39.024],[141.7358,39.0216],[141.7451,39.0244],[141.75,39.0191],[141.7545,39.0185],[141.7631,39.0201],[141.7625,39.0243],[141.7654,39.0266],[141.7698,39.0343],[141.7759,39.0287],[141.7838,39.0285],[141.7846,39.0323],[141.7939,39.0387],[141.7945,39.0298],[141.796,39.0259],[141.8017,39.0243],[141.8052,39.0266],[141.819,39.0231],[141.8252,39.0264],[141.8379,39.0243],[141.8429,39.0266],[141.8458,39.0256],[141.8533,39.03],[141.8482,39.038],[141.8429,39.0405],[141.8244,39.0464],[141.8166,39.0512],[141.8177,39.0541],[141.8142,39.0581],[141.8196,39.0591],[141.8236,39.0578],[141.8302,39.0581],[141.8355,39.0602],[141.8407,39.0602],[141.8492,39.0579],[141.8582,39.0613],[141.8662,39.0591],[141.8677,39.0623],[141.8742,39.0625],[141.8732,39.0679],[141.87,39.0723],[141.858,39.0713],[141.8559,39.0733],[141.8489,39.0734],[141.8445,39.0762],[141.8357,39.0735],[141.8341,39.0749],[141.8243,39.0752],[141.8212,39.0821],[141.8234,39.0864],[141.816,39.086],[141.8095,39.0896],[141.8096,39.0927],[141.8156,39.0947],[141.8123,39.101],[141.8143,39.1076],[141.8108,39.11],[141.816,39.1146],[141.8247,39.1111],[141.83,39.1064],[141.8398,39.1033],[141.8568,39.1047],[141.8605,39.103],[141.8627,39.0963],[141.8681,39.0969],[141.8748,39.0926],[141.8775,39.0926],[141.8786,39.0842],[141.8823,39.0848],[141.8831,39.089],[141.89,39.0892],[141.8923,39.0963],[141.8967,39.096],[141.9031,39.1006],[141.9113,39.1032],[141.9166,39.1066],[141.9091,39.1108],[141.9061,39.1162],[141.9003,39.1202],[141.8858,39.1158],[141.8727,39.1168],[141.8744,39.1215],[141.8705,39.1241],[141.874,39.1283],[141.867,39.1335],[141.8615,39.1338],[141.8531,39.1362],[141.8487,39.1412],[141.8368,39.1471],[141.8402,39.1491],[141.8459,39.1554],[141.8554,39.1572],[141.8602,39.1562],[141.8654,39.1531],[141.8731,39.1534],[141.8778,39.1552],[141.8829,39.154],[141.8922,39.1584],[141.8965,39.163],[141.9,39.1637],[141.9069,39.1688],[141.9156,39.1723],[141.9206,39.1766],[141.9223,39.1837]]]}},{"type":"Feature","properties":{"id":3025},"geometry":{"type":"Polygon","coordinates":[[[140.7858,39.0112],[140.8194,39.0112],[140.8267,39.0119],[140.8361,39.0151],[140.8488,39.0204],[140.8549,39.0269],[140.8604,39.0379],[140.8651,39.0416],[140.8728,39.0435],[140.8915,39.0436],[140.8965,39.0423],[140.901,39.0388],[140.9086,39.0284],[140.9202,39.0073],[140.9222,39.0008],[140.9261,38.9962],[140.9374,38.9885],[140.9415,38.9874],[140.947,38.9887],[140.9529,38.993],[140.9613,38.9942],[140.9805,38.9942],[140.9871,38.9932],[141.0038,38.986],[141.0102,38.9859],[141.0245,38.9893],[141.0394,38.9937],[141.0522,38.9952],[141.0591,38.9972],[141.0804,38.9999],[141.0986,39.0044],[141.1064,39.0069],[141.1209,39.0087],[141.1649,39.009],[141.1763,39.0095],[141.1891,39.0147],[141.1991,39.0218],[141.2035,39.0234],[141.2062,39.0282],[141.2048,39.0394],[141.2066,39.0433],[141.2134,39.0468],[141.2266,39.0509],[141.2316,39.0541],[141.2621,39.0786],[141.2718,39.086],[141.2772,39.0871],[141.2961,39.0866],[141.3106,39.0842],[141.3144,39.0889],[141.3117,39.0959],[141.3084,39.1089],[141.305,39.1166],[141.3052,39.1243],[141.3104,39.1296],[141.3244,39.1327],[141.3306,39.1324],[141.3412,39.13],[141.3491,39.1293],[141.3547,39.1316],[141.3567,39.1357],[141.3576,39.1432],[141.3609,39.1477],[141.3684,39.1491],[141.379,39.148],[141.3846,39.1509],[141.3911,39.1593],[141.3887,39.174],[141.3788,39.1847],[141.3804,39.1908],[141.3922,39.1965],[141.407,39.2003],[141.3982,39.2099],[141.3899,39.2233],[141.3885,39.2285],[141.3787,39.2455],[141.3768,39.2497],[141.3686,39.2571],[141.3549,39.2608],[141.3481,39.2641],[141.3457,39.2681],[141.343,39.2782],[141.3371,39.2794],[141.3259,39.2774],[141.3217,39.2756],[141.3152,39.2752],[141.3107,39.2781],[141.3101,39.2935],[141.3038,39.3101],[141.2994,39.3165],[141.2899,39.3201],[141.2806,39.3209],[141.2746,39.323],[141.2668,39.3224],[141.2511,39.3151],[141.2329,39.3087],[141.2455,39.2979],[141.2481,39.2939],[141.254,39.2884],[141.2554,39.2814],[141.2534,39.277],[141.2455,39.2678],[141.2406,39.2648],[141.2302,39.2637],[141.2182,39.2643],[141.2104,39.2659],[141.1976,39.271],[141.1854,39.2709],[141.1757,39.2678],[141.1718,39.2646],[141.1685,39.2571],[141.1614,39.2546],[141.1475,39.2535],[141.1452,39.2507],[141.1426,39.2423],[141.1381,39.2385],[141.1214,39.2342],[141.1101,39.2307],[141.1234,39.2179],[141.1312,39.209],[141.1353,39.2023],[141.1369,39.1914],[141.1315,39.1811],[141.1245,39.1773],[141.1185,39.1791],[141.1136,39.1789],[141.1067,39.1763],[141.096,39.1686],[141.0866,39.1638],[141.0729,39.1527],[141.0639,39.1483],[141.0539,39.141],[141.0291,39.1312],[141.01,39.1307],[141.0045,39.1317],[140.9894,39.1391],[140.97,39.1448],[140.9502,39.1485],[140.9344,39.1482],[140.9276,39.15],[140.9259,39.1548],[140.9253,39.1684],[140.9211,39.1723],[140.8986,39.1775],[140.8909,39.1799],[140.861,39.1796],[140.8578,39.176],[140.8426,39.1637],[140.8361,39.1643],[140.8308,39.171],[140.8156,39.1839],[140.8099,39.1789],[140.7912,39.1674],[140.7806,39.1657],[140.7742,39.1565],[140.7566,39.1329],[140.7704,39.1241],[140.7641,39.1155],[140.766,39.105],[140.7599,39.0952],[140.7562,39.0857],[140.7659,39.0786],[140.7755,39.0758],[140.7859,39.078],[140.8055,39.0708],[140.803,39.0594],[140.8128,39.0551],[140.7976,39.0391],[140.798,39.0281],[140.7912,39.0196],[140.7858,39.0112]]]}},{"type":"Feature","properties":{"id":3026},"geometry":{"type":"Polygon","coordinates":[[[141.7429,39.4126],[141.7475,39.4061],[141.7567,39.3981],[141.7621,39.3918],[141.7679,39.3891],[141.7759,39.3886],[141.7898,39.3889],[141.7972,39.3877],[141.8008,39.3805],[141.8047,39.376],[141.8345,39.3687],[141.8496,39.3615],[141.8558,39.3597],[141.866,39.355],[141.8833,39.3505],[141.9043,39.3502],[141.9127,39.3509],[141.9093,39.3541],[141.915,39.3559],[141.9209,39.3549],[141.9255,39.3524],[141.935,39.3508],[141.9397,39.3479],[141.9427,39.3505],[141.9473,39.3507],[141.9577,39.3559],[141.9564,39.3616],[141.963,39.3659],[141.9689,39.3728],[141.9645,39.3787],[141.957,39.3761],[141.9515,39.3717],[141.9475,39.3709],[141.9436,39.3733],[141.9435,39.3763],[141.9396,39.381],[141.939,39.3864],[141.95,39.3954],[141.9493,39.404],[141.9343,39.4048],[141.9109,39.4048],[141.8935,39.4061],[141.8841,39.4101],[141.8705,39.422],[141.868,39.4261],[141.8621,39.4315],[141.8486,39.4488],[141.8429,39.4532],[141.8294,39.4592],[141.8169,39.4635],[141.8092,39.4696],[141.8065,39.4779],[141.7987,39.4925],[141.7832,39.5046],[141.7697,39.512],[141.7467,39.5301],[141.741,39.5241],[141.7292,39.515],[141.724,39.5131],[141.7099,39.5048],[141.7072,39.4972],[141.7076,39.4581],[141.7115,39.442],[141.7214,39.4379],[141.726,39.4345],[141.7332,39.4268],[141.7429,39.4126]]]}},{"type":"Feature","properties":{"id":3027},"geometry":{"type":"Polygon","coordinates":[[[141.4889,38.982],[141.4897,38.9851],[141.4995,38.9957],[141.5116,38.9991],[141.5304,38.9896],[141.5404,38.9923],[141.5505,38.9931],[141.5728,38.9907],[141.632,38.9712],[141.6331,38.9745],[141.6278,38.978],[141.6249,38.9912],[141.6243,39.001],[141.6365,39.0061],[141.6441,39.0071],[141.6577,39.0049],[141.6596,39.0003],[141.6651,39.0046],[141.6702,39.0048],[141.6803,38.998],[141.6778,38.9935],[141.6667,38.9892],[141.6682,38.9837],[141.6664,38.9817],[141.6722,38.9727],[141.6774,38.9712],[141.677,38.9687],[141.6837,38.9685],[141.6888,38.9645],[141.6867,38.9608],[141.6917,38.9552],[141.6919,38.9522],[141.6883,38.95],[141.6893,38.9468],[141.6957,38.9474],[141.6987,38.9445],[141.6958,38.9422],[141.7028,38.9379],[141.7071,38.9407],[141.7064,38.9446],[141.7128,38.9454],[141.7194,38.9522],[141.7225,38.95],[141.7275,38.9509],[141.7276,38.9547],[141.7246,38.9567],[141.7226,38.9641],[141.7128,38.9677],[141.7076,38.9671],[141.7031,38.9643],[141.697,38.9685],[141.6962,38.9712],[141.6991,38.9754],[141.7052,38.9783],[141.7096,38.978],[141.7084,38.9827],[141.7118,38.9842],[141.7161,38.9804],[141.712,38.9969],[141.6996,39.0069],[141.6948,39.0123],[141.6932,39.0167],[141.682,39.0307],[141.668,39.0419],[141.6622,39.0492],[141.6564,39.054],[141.651,39.0608],[141.645,39.0661],[141.6426,39.0702],[141.6369,39.0757],[141.6294,39.0896],[141.6271,39.0975],[141.6202,39.1047],[141.6118,39.1039],[141.6009,39.1006],[141.5959,39.1003],[141.5909,39.1019],[141.5798,39.111],[141.575,39.1118],[141.5665,39.1112],[141.5596,39.1054],[141.5532,39.0953],[141.5468,39.0932],[141.5368,39.0932],[141.5296,39.0957],[141.5235,39.1059],[141.5195,39.1088],[141.5131,39.1092],[141.5051,39.1074],[141.4947,39.1103],[141.4841,39.1185],[141.4734,39.1219],[141.4673,39.1182],[141.4634,39.1107],[141.4624,39.1047],[141.466,39.1001],[141.4774,39.0819],[141.4836,39.0563],[141.4835,39.0507],[141.479,39.0387],[141.4745,39.0195],[141.4783,39.0084],[141.4776,39.0013],[141.4708,38.9911],[141.4753,38.9857],[141.4889,38.982]]]}},{"type":"Feature","properties":{"id":3028},"geometry":{"type":"Polygon","coordinates":[[[141.3091,39.5781],[141.3033,39.5829],[141.2911,39.5987],[141.2851,39.5999],[141.281,39.5982],[141.2677,39.5807],[141.2614,39.5811],[141.256,39.5894],[141.2479,39.5956],[141.2375,39.5982],[141.224,39.599],[141.2142,39.6004],[141.2016,39.6038],[141.1926,39.5977],[141.179,39.587],[141.1675,39.581],[141.149,39.5747],[141.139,39.5736],[141.1321,39.5713],[141.1235,39.5716],[141.1174,39.5758],[141.1121,39.5776],[141.1059,39.5818],[141.1005,39.5836],[141.0895,39.5891],[141.0756,39.5981],[141.0625,39.5911],[141.0552,39.5859],[141.0466,39.5816],[141.0293,39.5679],[141.0229,39.5667],[141.0057,39.5695],[140.9956,39.5702],[140.9897,39.5723],[140.9793,39.5733],[140.9731,39.5694],[140.9712,39.5592],[140.973,39.5508],[140.977,39.5445],[140.9825,39.5417],[140.9982,39.537],[141.0061,39.5357],[141.0162,39.5279],[141.0217,39.525],[141.0285,39.5245],[141.0615,39.5249],[141.0685,39.5242],[141.0785,39.5196],[141.0908,39.5151],[141.1015,39.5075],[141.113,39.5041],[141.1185,39.5037],[141.1391,39.5071],[141.1631,39.5075],[141.1702,39.5071],[141.1802,39.5039],[141.1893,39.4994],[141.2039,39.4932],[141.2132,39.4901],[141.2236,39.4878],[141.244,39.4812],[141.2513,39.4806],[141.2715,39.4808],[141.277,39.4832],[141.2832,39.4908],[141.2903,39.5009],[141.2919,39.5112],[141.286,39.5329],[141.2864,39.5419],[141.2887,39.5474],[141.3023,39.5661],[141.3091,39.5781]]]}},{"type":"Feature","properties":{"id":3029},"geometry":{"type":"Polygon","coordinates":[[[140.799,39.6002],[140.7998,39.599],[140.8115,39.599],[140.8423,39.5959],[140.8486,39.5926],[140.8561,39.5838],[140.8607,39.5709],[140.8633,39.5566],[140.8679,39.5446],[140.8693,39.5382],[140.8718,39.5341],[140.8782,39.5188],[140.8852,39.526],[140.9011,39.5387],[140.9075,39.5414],[140.9153,39.5423],[140.9275,39.5419],[140.9507,39.5306],[140.9563,39.5311],[140.9715,39.5403],[140.977,39.5445],[140.973,39.5508],[140.9712,39.5592],[140.9731,39.5694],[140.9793,39.5733],[140.9897,39.5723],[140.9956,39.5702],[141.0057,39.5695],[141.0229,39.5667],[141.0293,39.5679],[141.0466,39.5816],[141.0552,39.5859],[141.0625,39.5911],[141.0756,39.5981],[141.0696,39.6014],[141.0543,39.6135],[141.052,39.6223],[141.0463,39.6375],[141.0434,39.6431],[141.0388,39.6439],[141.0226,39.6508],[141.0148,39.6524],[141.0058,39.6569],[141.0045,39.6624],[141.0073,39.6744],[141.0117,39.6812],[141.0174,39.6867],[141.0212,39.6928],[141.0254,39.7021],[141.0254,39.7107],[141.0219,39.7285],[141.0218,39.7541],[141.0205,39.7601],[141.0072,39.7707],[141.0042,39.78],[141.006,39.793],[141.0062,39.8104],[141.0096,39.8186],[141.0096,39.8274],[141.0009,39.8451],[140.9969,39.8509],[140.9903,39.8442],[140.9852,39.8428],[140.9812,39.8438],[140.97,39.8489],[140.9609,39.8476],[140.9511,39.84],[140.946,39.8382],[140.9374,39.8375],[140.9132,39.8377],[140.9072,39.84],[140.9011,39.8473],[140.8917,39.8549],[140.8813,39.8716],[140.8639,39.8677],[140.8528,39.8644],[140.8374,39.8783],[140.8278,39.8831],[140.8191,39.8777],[140.8038,39.8784],[140.7958,39.8718],[140.7864,39.8655],[140.7894,39.8549],[140.7913,39.8439],[140.7891,39.8341],[140.7899,39.8239],[140.8067,39.8124],[140.8176,39.8141],[140.8382,39.8038],[140.8469,39.7982],[140.8444,39.7864],[140.837,39.7777],[140.8288,39.7718],[140.8209,39.7643],[140.8143,39.7566],[140.8052,39.7407],[140.7954,39.7365],[140.7853,39.7351],[140.7867,39.7243],[140.7926,39.716],[140.7974,39.7068],[140.8078,39.7078],[140.819,39.6891],[140.8248,39.6684],[140.8255,39.6468],[140.8175,39.6391],[140.8106,39.6289],[140.8079,39.618],[140.8068,39.6073],[140.799,39.6002]]]}},{"type":"Feature","properties":{"id":3030},"geometry":{"type":"Polygon","coordinates":[[[141.4624,39.1047],[141.4634,39.1107],[141.4673,39.1182],[141.4734,39.1219],[141.4841,39.1185],[141.4947,39.1103],[141.5051,39.1074],[141.5131,39.1092],[141.5195,39.1088],[141.5235,39.1059],[141.5296,39.0957],[141.5368,39.0932],[141.5468,39.0932],[141.5532,39.0953],[141.5596,39.1054],[141.5665,39.1112],[141.575,39.1118],[141.5798,39.111],[141.5909,39.1019],[141.5959,39.1003],[141.6009,39.1006],[141.6118,39.1039],[141.6202,39.1047],[141.6274,39.1182],[141.6292,39.1253],[141.641,39.1504],[141.6523,39.1673],[141.6595,39.1765],[141.6637,39.1795],[141.6706,39.1805],[141.6876,39.1805],[141.6923,39.1814],[141.698,39.1882],[141.7124,39.2007],[141.7182,39.2091],[141.7094,39.2146],[141.7049,39.2188],[141.7034,39.2245],[141.705,39.2322],[141.7084,39.2391],[141.7082,39.2442],[141.705,39.2504],[141.7043,39.2642],[141.7028,39.2719],[141.6941,39.2676],[141.688,39.2632],[141.6756,39.2587],[141.6715,39.2557],[141.6656,39.2455],[141.6596,39.2434],[141.6555,39.2446],[141.6458,39.2521],[141.6399,39.253],[141.6185,39.2529],[141.6096,39.2517],[141.6022,39.2468],[141.5952,39.2457],[141.5827,39.2505],[141.5733,39.2574],[141.5659,39.2589],[141.5625,39.2582],[141.552,39.2486],[141.5459,39.2464],[141.5296,39.2425],[141.5213,39.2391],[141.5157,39.2353],[141.5076,39.2338],[141.4891,39.2339],[141.4824,39.232],[141.4747,39.2231],[141.4689,39.212],[141.4645,39.207],[141.4548,39.2034],[141.4426,39.2019],[141.415,39.2014],[141.407,39.2003],[141.3922,39.1965],[141.3804,39.1908],[141.3788,39.1847],[141.3887,39.174],[141.3911,39.1593],[141.3949,39.1525],[141.4005,39.138],[141.4023,39.1306],[141.411,39.1122],[141.4169,39.1105],[141.4321,39.1106],[141.446,39.1088],[141.4624,39.1047]]]}},{"type":"Feature","properties":{"id":3031},"geometry":{"type":"Polygon","coordinates":[[[140.9969,39.8509],[141.0009,39.8451],[141.0096,39.8274],[141.0096,39.8186],[141.0062,39.8104],[141.006,39.793],[141.0042,39.78],[141.0072,39.7707],[141.0205,39.7601],[141.0218,39.7541],[141.0219,39.7285],[141.0254,39.7107],[141.0254,39.7021],[141.0415,39.698],[141.0506,39.6968],[141.0569,39.6946],[141.0661,39.694],[141.0746,39.6967],[141.0789,39.7009],[141.0842,39.7143],[141.0875,39.7178],[141.1034,39.7305],[141.1129,39.7352],[141.1208,39.7412],[141.1248,39.7467],[141.1296,39.7574],[141.1346,39.7616],[141.1422,39.7646],[141.1519,39.7663],[141.1658,39.7662],[141.1712,39.767],[141.1734,39.7717],[141.1651,39.784],[141.1596,39.7936],[141.1488,39.8057],[141.1355,39.8243],[141.1303,39.8293],[141.1281,39.834],[141.1217,39.8419],[141.1086,39.8606],[141.1013,39.8681],[141.0843,39.8668],[141.0729,39.8633],[141.0543,39.8587],[141.042,39.8576],[141.0217,39.8538],[140.9969,39.8509]]]}},{"type":"Feature","properties":{"id":3032},"geometry":{"type":"Polygon","coordinates":[[[141.8036,39.9699],[141.7989,39.9625],[141.7968,39.9555],[141.7928,39.9489],[141.789,39.9369],[141.7864,39.9165],[141.7852,39.9122],[141.7775,39.8983],[141.7777,39.8934],[141.7814,39.8915],[141.7985,39.892],[141.8055,39.8939],[141.8143,39.8985],[141.8209,39.8977],[141.8241,39.8939],[141.8297,39.883],[141.8373,39.8725],[141.8436,39.8673],[141.8534,39.8634],[141.8593,39.8621],[141.8755,39.8623],[141.8845,39.8661],[141.8917,39.8644],[141.8952,39.8584],[141.8991,39.8567],[141.9057,39.858],[141.92,39.8647],[141.9263,39.869],[141.9354,39.8737],[141.9455,39.8813],[141.9594,39.8878],[141.9558,39.8904],[141.9534,39.8956],[141.9499,39.9084],[141.9466,39.9135],[141.9418,39.9163],[141.9402,39.9206],[141.943,39.9259],[141.9433,39.9298],[141.9386,39.9317],[141.9422,39.9347],[141.9435,39.9442],[141.952,39.9458],[141.9561,39.9439],[141.9614,39.9481],[141.9642,39.9528],[141.9583,39.9542],[141.9557,39.96],[141.9564,39.9675],[141.9547,39.9714],[141.9573,39.9775],[141.9564,39.9827],[141.9536,39.9867],[141.9485,39.9898],[141.9464,39.9936],[141.9373,39.9845],[141.9314,39.9737],[141.9246,39.9699],[141.9002,39.9694],[141.8804,39.966],[141.874,39.9674],[141.8651,39.9718],[141.8565,39.9729],[141.844,39.972],[141.8328,39.9692],[141.8125,39.9691],[141.8036,39.9699]]]}},{"type":"Feature","properties":{"id":3033},"geometry":{"type":"Polygon","coordinates":[[[141.3686,39.2571],[141.3768,39.2497],[141.3787,39.2455],[141.3885,39.2285],[141.3899,39.2233],[141.3982,39.2099],[141.407,39.2003],[141.415,39.2014],[141.4426,39.2019],[141.4548,39.2034],[141.4645,39.207],[141.4689,39.212],[141.4747,39.2231],[141.4824,39.232],[141.4891,39.2339],[141.5076,39.2338],[141.5157,39.2353],[141.5213,39.2391],[141.5296,39.2425],[141.5459,39.2464],[141.552,39.2486],[141.5625,39.2582],[141.5659,39.2589],[141.5733,39.2574],[141.5827,39.2505],[141.5952,39.2457],[141.6022,39.2468],[141.6096,39.2517],[141.6185,39.2529],[141.6399,39.253],[141.6458,39.2521],[141.6555,39.2446],[141.6596,39.2434],[141.6656,39.2455],[141.6715,39.2557],[141.6756,39.2587],[141.688,39.2632],[141.6941,39.2676],[141.7028,39.2719],[141.6975,39.279],[141.686,39.2972],[141.6852,39.3015],[141.6853,39.3149],[141.6835,39.3197],[141.6792,39.3213],[141.6686,39.3223],[141.6632,39.3281],[141.6589,39.3365],[141.6565,39.3496],[141.6564,39.3555],[141.6585,39.3716],[141.6715,39.4042],[141.683,39.4088],[141.7048,39.4122],[141.7429,39.4126],[141.7332,39.4268],[141.726,39.4345],[141.7214,39.4379],[141.7115,39.442],[141.6961,39.4408],[141.6863,39.4387],[141.6752,39.4467],[141.6637,39.4527],[141.6572,39.4553],[141.6469,39.455],[141.64,39.4564],[141.6315,39.4626],[141.6256,39.4701],[141.5794,39.5063],[141.5609,39.5155],[141.5477,39.5196],[141.5405,39.5228],[141.5105,39.5318],[141.5045,39.5347],[141.5003,39.5383],[141.4668,39.53],[141.4574,39.5255],[141.4471,39.5127],[141.4429,39.5029],[141.4397,39.4754],[141.436,39.4654],[141.4326,39.4611],[141.4242,39.4567],[141.4174,39.4519],[141.4087,39.4476],[141.3913,39.4338],[141.3852,39.4311],[141.3654,39.4271],[141.3383,39.4268],[141.3315,39.425],[141.3206,39.4119],[141.3163,39.4038],[141.313,39.395],[141.3092,39.3875],[141.305,39.3703],[141.3143,39.3542],[141.3169,39.3487],[141.33,39.3379],[141.3324,39.3337],[141.3416,39.3228],[141.3439,39.3186],[141.3532,39.3108],[141.3591,39.3033],[141.3766,39.2899],[141.3784,39.2865],[141.3777,39.2689],[141.3765,39.2642],[141.3686,39.2571]]]}},{"type":"Feature","properties":{"id":3034},"geometry":{"type":"Polygon","coordinates":[[[141.0434,39.6431],[141.0463,39.6375],[141.052,39.6223],[141.0543,39.6135],[141.0696,39.6014],[141.0756,39.5981],[141.0895,39.5891],[141.1005,39.5836],[141.1059,39.5818],[141.1121,39.5776],[141.1174,39.5758],[141.1235,39.5716],[141.1321,39.5713],[141.139,39.5736],[141.149,39.5747],[141.1675,39.581],[141.179,39.587],[141.1926,39.5977],[141.2016,39.6038],[141.1855,39.6109],[141.1788,39.6158],[141.1702,39.6199],[141.1633,39.6246],[141.1539,39.6292],[141.1365,39.6426],[141.1314,39.6436],[141.1178,39.6424],[141.1026,39.6349],[141.0981,39.6342],[141.0848,39.6341],[141.0743,39.6359],[141.0546,39.641],[141.0434,39.6431]]]}},{"type":"Feature","properties":{"id":3035},"geometry":{"type":"MultiPolygon","coordinates":[[[[142.0011,39.406],[141.9931,39.4008],[141.9986,39.3998],[142.0011,39.406]]],[[[142.0144,39.5011],[142.0085,39.5046],[141.9988,39.5121],[141.9851,39.5195],[141.968,39.5331],[141.9631,39.5362],[141.9477,39.5422],[141.9325,39.5442],[141.9102,39.544],[141.9012,39.5459],[141.883,39.5596],[141.8704,39.5644],[141.8603,39.5626],[141.8407,39.552],[141.8331,39.549],[141.8254,39.548],[141.803,39.5479],[141.7921,39.5472],[141.7731,39.5435],[141.7602,39.5431],[141.7538,39.5414],[141.7508,39.5389],[141.7467,39.5301],[141.7697,39.512],[141.7832,39.5046],[141.7987,39.4925],[141.8065,39.4779],[141.8092,39.4696],[141.8169,39.4635],[141.8294,39.4592],[141.8429,39.4532],[141.8486,39.4488],[141.8621,39.4315],[141.868,39.4261],[141.8705,39.422],[141.8841,39.4101],[141.8935,39.4061],[141.9109,39.4048],[141.9343,39.4048],[141.9493,39.404],[141.95,39.3954],[141.9556,39.4006],[141.958,39.405],[141.963,39.4093],[141.975,39.4234],[141.9743,39.4257],[141.9805,39.4272],[141.9853,39.418],[141.9814,39.4142],[141.9813,39.4089],[141.9909,39.4084],[142.0005,39.4103],[142.0056,39.4097],[142.0061,39.4136],[142.0113,39.4159],[142.0071,39.4208],[142.0105,39.4261],[142.0167,39.4244],[142.0265,39.4151],[142.0331,39.4175],[142.0397,39.4184],[142.0386,39.424],[142.0444,39.4254],[142.0436,39.4328],[142.04,39.4361],[142.0442,39.4408],[142.04,39.4458],[142.0472,39.4483],[142.0508,39.4539],[142.0494,39.4561],[142.0561,39.4614],[142.0606,39.4681],[142.0592,39.4716],[142.0497,39.4797],[142.0525,39.4819],[142.0503,39.4853],[142.0464,39.4831],[142.0353,39.4833],[142.0239,39.4728],[142.0125,39.4682],[142.0044,39.4596],[142.0025,39.4558],[142.0028,39.4464],[141.9958,39.4522],[141.9865,39.4483],[141.9822,39.4422],[141.978,39.4389],[141.9725,39.4412],[141.9723,39.4463],[141.9695,39.4491],[141.9623,39.4478],[141.9619,39.4542],[141.9579,39.4563],[141.9616,39.4595],[141.9572,39.4616],[141.954,39.4681],[141.9565,39.4751],[141.9644,39.4769],[141.9727,39.4816],[141.9791,39.4826],[141.981,39.48],[141.9891,39.4832],[141.9929,39.483],[141.9997,39.4788],[142.0058,39.4791],[142.0089,39.4758],[142.0125,39.4789],[142.0099,39.4938],[142.0144,39.5011]]]]}}]}