{"type":"FeatureCollection","features":[{"type":"Feature","properties":{"id":30001},"geometry":{"type":"MultiPolygon","coordinates":[[[[135.186,34.0569],[135.1983,34.0686],[135.1984,34.0701],[135.193,34.0792],[135.1908,34.0873],[135.1903,34.0939],[135.1842,34.0977],[135.1757,34.0979],[135.1671,34.0939],[135.1615,34.0927],[135.1406,34.0928],[135.1369,34.0954],[135.1324,34.1024],[135.1216,34.11],[135.1126,34.1149],[135.1139,34.1083],[135.1075,34.0973],[135.1037,34.096],[135.101,34.0904],[135.0975,34.0936],[135.0958,34.085],[135.1128,34.085],[135.1255,34.0831],[135.125,34.0812],[135.1161,34.0819],[135.096,34.0805],[135.093,34.074],[135.087,34.0726],[135.0885,34.0666],[135.0983,34.0697],[135.1101,34.0702],[135.113,34.068],[135.1226,34.067],[135.1236,34.0653],[135.1364,34.0641],[135.1381,34.0582],[135.1474,34.0556],[135.1523,34.0566],[135.1594,34.0599],[135.1619,34.0592],[135.1689,34.0533],[135.1763,34.0532],[135.186,34.0569]]],[[[135.0807,34.1149],[135.0759,34.1121],[135.0797,34.109],[135.0841,34.1134],[135.0807,34.1149]]],[[[135.1041,34.1172],[135.0975,34.1153],[135.0972,34.1122],[135.1007,34.1076],[135.1054,34.1099],[135.1018,34.1145],[135.1041,34.1172]]]]}},{"type":"Feature","properties":{"id":30002},"geometry":{"type":"Polygon","coordinates":[[[135.5498,34.0925],[135.5388,34.0979],[135.5321,34.1114],[135.5152,34.1259],[135.5083,34.138],[135.5041,34.1418],[135.4947,34.1477],[135.4846,34.1472],[135.4771,34.1451],[135.4691,34.1402],[135.4377,34.1143],[135.4296,34.1131],[135.4097,34.1181],[135.3916,34.1182],[135.3849,34.1172],[135.3793,34.113],[135.3723,34.1109],[135.3687,34.1121],[135.3523,34.1134],[135.3432,34.1125],[135.3401,34.1105],[135.3348,34.1035],[135.3237,34.1012],[135.3181,34.1031],[135.312,34.1081],[135.3119,34.1187],[135.3107,34.1226],[135.3005,34.1329],[135.2927,34.1219],[135.2797,34.1165],[135.2664,34.1142],[135.2543,34.1167],[135.2425,34.1203],[135.2356,34.1177],[135.229,34.1056],[135.2255,34.1048],[135.2152,34.1058],[135.2063,34.0986],[135.195,34.096],[135.1903,34.0939],[135.1908,34.0873],[135.193,34.0792],[135.1984,34.0701],[135.1983,34.0686],[135.186,34.0569],[135.1979,34.0472],[135.1998,34.0386],[135.2022,34.0348],[135.2256,34.0288],[135.234,34.0236],[135.243,34.0114],[135.2576,34.0139],[135.2672,34.0137],[135.276,34.0037],[135.2957,34.0059],[135.3068,34.0037],[135.3432,34.0035],[135.3492,34.0019],[135.3579,34.0019],[135.3674,34.0095],[135.3711,34.0103],[135.3843,34.0063],[135.3887,34.0071],[135.4008,34.0122],[135.4043,34.0147],[135.4183,34.0204],[135.4246,34.022],[135.4387,34.0269],[135.4414,34.0291],[135.4451,34.0369],[135.4541,34.0361],[135.4648,34.0318],[135.4703,34.0309],[135.48,34.033],[135.4887,34.0331],[135.4991,34.0377],[135.5063,34.04],[135.5117,34.0429],[135.5226,34.0454],[135.5352,34.0466],[135.5397,34.0492],[135.5441,34.0553],[135.5476,34.0641],[135.5474,34.0688],[135.5428,34.0715],[135.5525,34.0837],[135.5498,34.0925]]]}},{"type":"Feature","properties":{"id":30003},"geometry":{"type":"MultiPolygon","coordinates":[[[[135.1565,33.8605],[135.1545,33.8619],[135.1464,33.8603],[135.1494,33.857],[135.1546,33.8581],[135.1565,33.8605]]],[[[135.2011,33.8783],[135.2005,33.8901],[135.1971,33.8978],[135.1912,33.9029],[135.1827,33.9069],[135.1783,33.9106],[135.1738,33.9191],[135.1744,33.9289],[135.1799,33.9362],[135.1793,33.9432],[135.1726,33.9513],[135.1671,33.9511],[135.1629,33.9478],[135.1618,33.9432],[135.1618,33.9278],[135.1593,33.9204],[135.155,33.9174],[135.1409,33.9115],[135.1438,33.8991],[135.1488,33.8912],[135.1515,33.8774],[135.1579,33.8801],[135.1603,33.8846],[135.1706,33.8945],[135.1715,33.8928],[135.166,33.8875],[135.1653,33.8849],[135.1601,33.8804],[135.1582,33.8751],[135.154,33.8754],[135.1577,33.8693],[135.1575,33.8644],[135.1597,33.8625],[135.1605,33.8575],[135.1651,33.8528],[135.1671,33.8472],[135.1653,33.8437],[135.1746,33.8403],[135.1743,33.8315],[135.1856,33.8259],[135.185,33.8223],[135.188,33.8174],[135.1951,33.8169],[135.1976,33.8132],[135.2029,33.8202],[135.2088,33.8315],[135.2063,33.8448],[135.2032,33.852],[135.1897,33.8534],[135.1836,33.8618],[135.1855,33.865],[135.1949,33.8669],[135.2011,33.8783]]]]}},{"type":"Feature","properties":{"id":30004},"geometry":{"type":"Polygon","coordinates":[[[135.6458,34.3804],[135.6352,34.3793],[135.6247,34.3809],[135.6113,34.3742],[135.6013,34.3769],[135.5915,34.3722],[135.5801,34.3727],[135.571,34.3682],[135.5535,34.355],[135.5409,34.353],[135.5345,34.3495],[135.534,34.3416],[135.5313,34.3293],[135.532,34.326],[135.5413,34.3132],[135.5463,34.301],[135.5559,34.2907],[135.5596,34.2891],[135.5668,34.29],[135.5722,34.2927],[135.5759,34.2917],[135.5781,34.2837],[135.582,34.2803],[135.5986,34.2763],[135.6043,34.2767],[135.615,34.2823],[135.619,34.288],[135.624,34.287],[135.6335,34.2755],[135.6416,34.2618],[135.642,34.2461],[135.6548,34.2392],[135.6613,34.2392],[135.6694,34.2413],[135.6737,34.2465],[135.6781,34.2582],[135.6786,34.2623],[135.6819,34.2709],[135.6762,34.2793],[135.6767,34.2898],[135.6713,34.2984],[135.6713,34.3134],[135.6635,34.3239],[135.664,34.341],[135.6664,34.3516],[135.6605,34.3603],[135.6568,34.3704],[135.6458,34.3804]]]}},{"type":"Feature","properties":{"id":30005},"geometry":{"type":"Polygon","coordinates":[[[135.1409,33.9115],[135.155,33.9174],[135.1593,33.9204],[135.1618,33.9278],[135.1618,33.9432],[135.1629,33.9478],[135.1671,33.9511],[135.1726,33.9513],[135.1807,33.9571],[135.1783,33.965],[135.1786,33.9696],[135.1755,33.9784],[135.1661,33.9753],[135.1524,33.9686],[135.1423,33.9602],[135.1375,33.9528],[135.1331,33.9494],[135.1229,33.9458],[135.1159,33.9443],[135.1122,33.9451],[135.1082,33.9487],[135.1047,33.9553],[135.1013,33.9504],[135.0969,33.949],[135.089,33.9489],[135.0888,33.946],[135.0837,33.9421],[135.0863,33.9382],[135.076,33.9346],[135.0733,33.9316],[135.0696,33.9312],[135.0657,33.9277],[135.0713,33.9234],[135.075,33.9277],[135.0787,33.9236],[135.0757,33.9174],[135.0832,33.9115],[135.0823,33.9073],[135.0785,33.9038],[135.0728,33.9056],[135.0601,33.9055],[135.0585,33.9013],[135.0643,33.8964],[135.0646,33.8926],[135.0575,33.8887],[135.0583,33.8799],[135.0611,33.8831],[135.0716,33.8916],[135.0837,33.8982],[135.0951,33.9012],[135.1241,33.9011],[135.129,33.9038],[135.1316,33.9112],[135.1364,33.9125],[135.1409,33.9115]]]}},{"type":"Feature","properties":{"id":30006},"geometry":{"type":"Polygon","coordinates":[[[135.276,34.0037],[135.2661,33.9924],[135.2594,33.9868],[135.2585,33.984],[135.2579,33.9707],[135.2501,33.9605],[135.2413,33.9582],[135.2335,33.9551],[135.23,33.9508],[135.2247,33.9504],[135.2159,33.9532],[135.2114,33.9536],[135.1971,33.9516],[135.1848,33.9548],[135.1807,33.9571],[135.1726,33.9513],[135.1793,33.9432],[135.1799,33.9362],[135.1744,33.9289],[135.1738,33.9191],[135.1783,33.9106],[135.1827,33.9069],[135.1912,33.9029],[135.1971,33.8978],[135.2005,33.8901],[135.2011,33.8783],[135.2172,33.877],[135.235,33.8745],[135.2441,33.8723],[135.25,33.8686],[135.2542,33.868],[135.2674,33.8715],[135.2755,33.8783],[135.2785,33.8823],[135.2851,33.8875],[135.2932,33.8902],[135.3004,33.8905],[135.308,33.8931],[135.3119,33.8994],[135.3219,33.9004],[135.3336,33.9047],[135.3397,33.9099],[135.3483,33.9117],[135.3659,33.9129],[135.3779,33.9148],[135.3874,33.9151],[135.3938,33.9143],[135.3972,33.9242],[135.4011,33.9277],[135.4159,33.9312],[135.4273,33.9425],[135.4343,33.9405],[135.4429,33.9422],[135.4491,33.9423],[135.4727,33.9375],[135.4777,33.938],[135.5006,33.9471],[135.5188,33.952],[135.5351,33.9551],[135.5433,33.9611],[135.5463,33.9682],[135.5437,33.9795],[135.5334,33.9969],[135.5372,34.0037],[135.5378,34.0076],[135.5356,34.014],[135.5285,34.019],[135.5151,34.0215],[135.5103,34.0253],[135.5063,34.04],[135.4991,34.0377],[135.4887,34.0331],[135.48,34.033],[135.4703,34.0309],[135.4648,34.0318],[135.4541,34.0361],[135.4451,34.0369],[135.4414,34.0291],[135.4387,34.0269],[135.4246,34.022],[135.4183,34.0204],[135.4043,34.0147],[135.4008,34.0122],[135.3887,34.0071],[135.3843,34.0063],[135.3711,34.0103],[135.3674,34.0095],[135.3579,34.0019],[135.3492,34.0019],[135.3432,34.0035],[135.3068,34.0037],[135.2957,34.0059],[135.276,34.0037]]]}},{"type":"Feature","properties":{"id":30007},"geometry":{"type":"Polygon","coordinates":[[[135.276,34.0037],[135.2672,34.0137],[135.2576,34.0139],[135.243,34.0114],[135.2309,34.0075],[135.2234,34.0065],[135.2156,34.0074],[135.2059,34.0154],[135.1882,34.0256],[135.1756,34.03],[135.1728,34.0287],[135.1697,34.026],[135.1653,34.0288],[135.1572,34.0245],[135.1509,34.0247],[135.15,34.0179],[135.1411,34.02],[135.1427,34.0156],[135.1466,34.0112],[135.1515,34.0094],[135.1485,34.0054],[135.1433,34.0059],[135.1374,34.0008],[135.1339,33.9997],[135.1405,33.9947],[135.1489,33.992],[135.163,33.9938],[135.1752,33.9905],[135.1793,33.9872],[135.1795,33.9837],[135.1755,33.9784],[135.1786,33.9696],[135.1783,33.965],[135.1807,33.9571],[135.1848,33.9548],[135.1971,33.9516],[135.2114,33.9536],[135.2159,33.9532],[135.2247,33.9504],[135.23,33.9508],[135.2335,33.9551],[135.2413,33.9582],[135.2501,33.9605],[135.2579,33.9707],[135.2585,33.984],[135.2594,33.9868],[135.2661,33.9924],[135.276,34.0037]]]}},{"type":"Feature","properties":{"id":30008},"geometry":{"type":"Polygon","coordinates":[[[135.1976,33.8132],[135.2069,33.8116],[135.2105,33.8089],[135.2148,33.8132],[135.2177,33.8129],[135.2237,33.8029],[135.2269,33.8029],[135.2358,33.7995],[135.2384,33.7919],[135.2338,33.7897],[135.2343,33.7824],[135.2367,33.7803],[135.2449,33.7797],[135.2572,33.7824],[135.2678,33.7828],[135.2671,33.7882],[135.2639,33.7953],[135.264,33.8004],[135.2682,33.8084],[135.2762,33.8152],[135.2804,33.8171],[135.2902,33.8175],[135.2975,33.8196],[135.3032,33.827],[135.3087,33.8383],[135.3126,33.8526],[135.3167,33.862],[135.3349,33.877],[135.3474,33.8778],[135.355,33.8838],[135.3581,33.8848],[135.3705,33.8839],[135.3916,33.8804],[135.3984,33.883],[135.4011,33.8858],[135.396,33.9005],[135.3938,33.9143],[135.3874,33.9151],[135.3779,33.9148],[135.3659,33.9129],[135.3483,33.9117],[135.3397,33.9099],[135.3336,33.9047],[135.3219,33.9004],[135.3119,33.8994],[135.308,33.8931],[135.3004,33.8905],[135.2932,33.8902],[135.2851,33.8875],[135.2785,33.8823],[135.2755,33.8783],[135.2674,33.8715],[135.2542,33.868],[135.25,33.8686],[135.2441,33.8723],[135.235,33.8745],[135.2172,33.877],[135.2011,33.8783],[135.1949,33.8669],[135.1855,33.865],[135.1836,33.8618],[135.1897,33.8534],[135.2032,33.852],[135.2063,33.8448],[135.2088,33.8315],[135.2029,33.8202],[135.1976,33.8132]]]}},{"type":"Feature","properties":{"id":30009},"geometry":{"type":"Polygon","coordinates":[[[135.2734,34.3094],[135.2738,34.3054],[135.278,34.2928],[135.2809,34.2739],[135.2783,34.2632],[135.2784,34.258],[135.2827,34.2511],[135.2908,34.2475],[135.2955,34.2474],[135.3029,34.2492],[135.3077,34.2487],[135.3254,34.2419],[135.3366,34.2476],[135.3393,34.2541],[135.3407,34.2613],[135.3357,34.2744],[135.3358,34.2959],[135.3372,34.3003],[135.3416,34.3037],[135.3493,34.3026],[135.3527,34.3045],[135.3494,34.3121],[135.3536,34.319],[135.3536,34.3282],[135.3436,34.3311],[135.3414,34.332],[135.3325,34.3138],[135.3093,34.3111],[135.3041,34.3008],[135.2951,34.2957],[135.2893,34.3041],[135.2847,34.3142],[135.2734,34.3094]]]}},{"type":"Feature","properties":{"id":30010},"geometry":{"type":"Polygon","coordinates":[[[135.1903,34.0939],[135.195,34.096],[135.2063,34.0986],[135.2152,34.1058],[135.2255,34.1048],[135.229,34.1056],[135.2356,34.1177],[135.2425,34.1203],[135.2543,34.1167],[135.2664,34.1142],[135.2797,34.1165],[135.2927,34.1219],[135.3005,34.1329],[135.3053,34.1449],[135.3051,34.1527],[135.3002,34.1569],[135.2987,34.1623],[135.3002,34.1661],[135.3084,34.1727],[135.3165,34.1776],[135.3193,34.1853],[135.3194,34.1979],[135.3163,34.1988],[135.3057,34.1969],[135.2917,34.1979],[135.2845,34.1993],[135.2818,34.1942],[135.2809,34.1862],[135.284,34.1795],[135.2833,34.1771],[135.2775,34.1738],[135.2706,34.172],[135.2492,34.1745],[135.2408,34.1767],[135.2362,34.1767],[135.2264,34.1722],[135.2127,34.1684],[135.2002,34.1616],[135.1945,34.1576],[135.1862,34.148],[135.1933,34.1475],[135.1992,34.1492],[135.202,34.1519],[135.2086,34.1524],[135.2092,34.1493],[135.2027,34.15],[135.1986,34.1429],[135.1946,34.1444],[135.1812,34.142],[135.1733,34.1375],[135.1696,34.1337],[135.1649,34.1369],[135.159,34.1362],[135.1555,34.1391],[135.1472,34.1384],[135.1326,34.1386],[135.1247,34.1359],[135.1255,34.1333],[135.1224,34.1295],[135.1279,34.1276],[135.1334,34.1318],[135.1343,34.1276],[135.1315,34.1224],[135.1354,34.118],[135.1404,34.1185],[135.1449,34.1156],[135.1453,34.1112],[135.139,34.1101],[135.1349,34.1134],[135.1239,34.115],[135.1211,34.1186],[135.1168,34.1201],[135.1126,34.1149],[135.1216,34.11],[135.1324,34.1024],[135.1369,34.0954],[135.1406,34.0928],[135.1615,34.0927],[135.1671,34.0939],[135.1757,34.0979],[135.1842,34.0977],[135.1903,34.0939]]]}},{"type":"Feature","properties":{"id":30011},"geometry":{"type":"Polygon","coordinates":[[[135.5133,33.7038],[135.4963,33.7041],[135.4847,33.7078],[135.4769,33.7138],[135.4767,33.7169],[135.4819,33.731],[135.4827,33.735],[135.4899,33.7463],[135.4883,33.7521],[135.4744,33.7638],[135.4702,33.7632],[135.4658,33.7531],[135.4597,33.7481],[135.4482,33.745],[135.4428,33.7379],[135.4355,33.7247],[135.4193,33.7113],[135.409,33.7059],[135.4068,33.7028],[135.4081,33.6983],[135.4119,33.6958],[135.4091,33.6912],[135.3973,33.686],[135.4057,33.676],[135.4097,33.6767],[135.4142,33.6819],[135.4267,33.6837],[135.438,33.6802],[135.4422,33.6749],[135.4466,33.6737],[135.4647,33.6734],[135.4697,33.6715],[135.4889,33.6714],[135.4935,33.6724],[135.4979,33.676],[135.5004,33.6828],[135.5055,33.6875],[135.5133,33.7038]]]}},{"type":"Feature","properties":{"id":30012},"geometry":{"type":"Polygon","coordinates":[[[135.6069,34.1502],[135.5919,34.1522],[135.5818,34.1547],[135.5785,34.1579],[135.5809,34.1655],[135.5786,34.1716],[135.5708,34.1802],[135.5663,34.1792],[135.5628,34.1661],[135.5586,34.1596],[135.5473,34.1543],[135.5435,34.1536],[135.5255,34.1577],[135.5214,34.1611],[135.5153,34.1716],[135.515,34.1791],[135.5177,34.1832],[135.526,34.1901],[135.5289,34.1938],[135.5289,34.1987],[135.52,34.2045],[135.5188,34.2072],[135.5229,34.2155],[135.5242,34.2218],[135.5244,34.2308],[135.5265,34.2337],[135.5406,34.2366],[135.5335,34.2463],[135.5334,34.2555],[135.5362,34.2661],[135.5337,34.2732],[135.5422,34.293],[135.5463,34.301],[135.5413,34.3132],[135.532,34.326],[135.5313,34.3293],[135.534,34.3416],[135.5345,34.3495],[135.5193,34.3388],[135.5061,34.34],[135.4908,34.3565],[135.4881,34.3594],[135.4756,34.3498],[135.466,34.345],[135.4556,34.3468],[135.4529,34.3465],[135.4516,34.3345],[135.4541,34.3286],[135.4629,34.3233],[135.4691,34.3129],[135.4688,34.3058],[135.4631,34.2976],[135.4556,34.2894],[135.4552,34.2789],[135.4577,34.2739],[135.4629,34.2688],[135.4657,34.2606],[135.467,34.2505],[135.4682,34.2484],[135.4764,34.2442],[135.4843,34.2392],[135.4907,34.2273],[135.485,34.215],[135.4836,34.2043],[135.4812,34.1956],[135.4893,34.1829],[135.4994,34.1746],[135.5061,34.1719],[135.5065,34.1691],[135.4978,34.1614],[135.4949,34.1518],[135.4947,34.1477],[135.5041,34.1418],[135.5083,34.138],[135.5152,34.1259],[135.5321,34.1114],[135.5388,34.0979],[135.5498,34.0925],[135.5492,34.0944],[135.5584,34.0992],[135.5655,34.1068],[135.575,34.1109],[135.5833,34.1193],[135.5877,34.1292],[135.5903,34.1398],[135.6069,34.1502]]]}},{"type":"Feature","properties":{"id":30013},"geometry":{"type":"Polygon","coordinates":[[[135.4947,34.1477],[135.4949,34.1518],[135.4978,34.1614],[135.5065,34.1691],[135.5061,34.1719],[135.4994,34.1746],[135.4893,34.1829],[135.4812,34.1956],[135.4685,34.1915],[135.4584,34.1901],[135.4516,34.1876],[135.446,34.1817],[135.4327,34.1813],[135.4106,34.1862],[135.4074,34.1859],[135.3949,34.1815],[135.3762,34.1813],[135.3628,34.1795],[135.3603,34.1804],[135.3479,34.1909],[135.3423,34.1913],[135.3255,34.1881],[135.3193,34.1853],[135.3165,34.1776],[135.3084,34.1727],[135.3002,34.1661],[135.2987,34.1623],[135.3002,34.1569],[135.3051,34.1527],[135.3053,34.1449],[135.3005,34.1329],[135.3107,34.1226],[135.3119,34.1187],[135.312,34.1081],[135.3181,34.1031],[135.3237,34.1012],[135.3348,34.1035],[135.3401,34.1105],[135.3432,34.1125],[135.3523,34.1134],[135.3687,34.1121],[135.3723,34.1109],[135.3793,34.113],[135.3849,34.1172],[135.3916,34.1182],[135.4097,34.1181],[135.4296,34.1131],[135.4377,34.1143],[135.4691,34.1402],[135.4771,34.1451],[135.4846,34.1472],[135.4947,34.1477]]]}},{"type":"Feature","properties":{"id":30014},"geometry":{"type":"Polygon","coordinates":[[[135.3536,34.3282],[135.3536,34.319],[135.3494,34.3121],[135.3527,34.3045],[135.3493,34.3026],[135.3416,34.3037],[135.3372,34.3003],[135.3358,34.2959],[135.3357,34.2744],[135.3407,34.2613],[135.3393,34.2541],[135.3366,34.2476],[135.3254,34.2419],[135.3171,34.2324],[135.3018,34.2275],[135.2971,34.2267],[135.289,34.2234],[135.2803,34.2167],[135.2783,34.2121],[135.2845,34.1993],[135.2917,34.1979],[135.3057,34.1969],[135.3163,34.1988],[135.3194,34.1979],[135.3193,34.1853],[135.3255,34.1881],[135.3423,34.1913],[135.3479,34.1909],[135.3603,34.1804],[135.3628,34.1795],[135.3762,34.1813],[135.3949,34.1815],[135.4074,34.1859],[135.4106,34.1862],[135.4327,34.1813],[135.446,34.1817],[135.4516,34.1876],[135.4584,34.1901],[135.4685,34.1915],[135.4812,34.1956],[135.4836,34.2043],[135.485,34.215],[135.4907,34.2273],[135.4843,34.2392],[135.4764,34.2442],[135.4682,34.2484],[135.467,34.2505],[135.4657,34.2606],[135.4629,34.2688],[135.4577,34.2739],[135.4552,34.2789],[135.4556,34.2894],[135.4631,34.2976],[135.4688,34.3058],[135.4691,34.3129],[135.4629,34.3233],[135.4541,34.3286],[135.4516,34.3345],[135.4529,34.3465],[135.4445,34.3457],[135.4371,34.3449],[135.4293,34.3375],[135.4147,34.3386],[135.4118,34.3389],[135.3962,34.3283],[135.3862,34.326],[135.3724,34.3271],[135.3616,34.3294],[135.3536,34.3282]]]}},{"type":"Feature","properties":{"id":30015},"geometry":{"type":"Polygon","coordinates":[[[135.6819,34.2709],[135.6786,34.2623],[135.6781,34.2582],[135.6737,34.2465],[135.6694,34.2413],[135.6613,34.2392],[135.6548,34.2392],[135.642,34.2461],[135.6305,34.2403],[135.6188,34.2326],[135.6122,34.2328],[135.6072,34.2371],[135.5914,34.2414],[135.5877,34.2445],[135.5865,34.2529],[135.5844,34.2572],[135.5796,34.2596],[135.5726,34.2584],[135.5726,34.2497],[135.5711,34.2448],[135.5673,34.2418],[135.5598,34.2401],[135.5552,34.2362],[135.5406,34.2366],[135.5265,34.2337],[135.5244,34.2308],[135.5242,34.2218],[135.5229,34.2155],[135.5188,34.2072],[135.52,34.2045],[135.5289,34.1987],[135.5289,34.1938],[135.526,34.1901],[135.5177,34.1832],[135.515,34.1791],[135.5153,34.1716],[135.5214,34.1611],[135.5255,34.1577],[135.5435,34.1536],[135.5473,34.1543],[135.5586,34.1596],[135.5628,34.1661],[135.5663,34.1792],[135.5708,34.1802],[135.5786,34.1716],[135.5809,34.1655],[135.5785,34.1579],[135.5818,34.1547],[135.5919,34.1522],[135.6069,34.1502],[135.625,34.1555],[135.6261,34.1666],[135.6353,34.1743],[135.6442,34.1796],[135.6417,34.1907],[135.6372,34.201],[135.6437,34.2098],[135.6521,34.2154],[135.6624,34.2149],[135.6714,34.2212],[135.6817,34.2194],[135.7004,34.2089],[135.7125,34.2055],[135.7154,34.208],[135.7209,34.2126],[135.7301,34.2183],[135.7322,34.2307],[135.7263,34.2401],[135.7216,34.2583],[135.7039,34.2721],[135.6937,34.2731],[135.6819,34.2709]]]}},{"type":"Feature","properties":{"id":30016},"geometry":{"type":"Polygon","coordinates":[[[135.6292,33.5748],[135.642,33.5695],[135.6476,33.5683],[135.6536,33.5644],[135.6599,33.5578],[135.6635,33.5462],[135.6668,33.5391],[135.6732,33.5303],[135.6823,33.5253],[135.6877,33.5235],[135.6977,33.5223],[135.7033,33.5282],[135.7151,33.5315],[135.7207,33.5311],[135.737,33.5237],[135.7455,33.5223],[135.7761,33.5218],[135.7836,33.5249],[135.7974,33.5325],[135.8052,33.5338],[135.8104,33.5325],[135.8167,33.527],[135.8195,33.5257],[135.8248,33.5285],[135.8286,33.5337],[135.8327,33.5443],[135.8325,33.5475],[135.8278,33.5515],[135.8273,33.5573],[135.8348,33.569],[135.8393,33.5798],[135.8278,33.5837],[135.8237,33.587],[135.8226,33.5902],[135.8241,33.5975],[135.8244,33.6063],[135.8232,33.6138],[135.8208,33.6181],[135.812,33.6292],[135.8059,33.6389],[135.8046,33.6441],[135.8043,33.6524],[135.7988,33.6605],[135.7971,33.6702],[135.7857,33.6783],[135.7829,33.6835],[135.7827,33.7004],[135.7667,33.6999],[135.7558,33.6979],[135.7527,33.701],[135.7532,33.7055],[135.751,33.7107],[135.7453,33.717],[135.72,33.728],[135.7159,33.726],[135.7145,33.7169],[135.7124,33.7132],[135.6971,33.7132],[135.6915,33.7106],[135.6888,33.7039],[135.6826,33.6952],[135.6729,33.6884],[135.6649,33.688],[135.6607,33.6863],[135.6574,33.6829],[135.6568,33.6788],[135.6568,33.6625],[135.6559,33.6583],[135.6681,33.6505],[135.6666,33.6446],[135.6512,33.6373],[135.6458,33.6318],[135.6445,33.6251],[135.6529,33.611],[135.662,33.5972],[135.6623,33.5817],[135.6553,33.5775],[135.6453,33.5776],[135.6422,33.5788],[135.6334,33.5789],[135.6292,33.5748]]]}},{"type":"Feature","properties":{"id":30017},"geometry":{"type":"Polygon","coordinates":[[[135.5463,34.301],[135.5422,34.293],[135.5337,34.2732],[135.5362,34.2661],[135.5334,34.2555],[135.5335,34.2463],[135.5406,34.2366],[135.5552,34.2362],[135.5598,34.2401],[135.5673,34.2418],[135.5711,34.2448],[135.5726,34.2497],[135.5726,34.2584],[135.5796,34.2596],[135.5844,34.2572],[135.5865,34.2529],[135.5877,34.2445],[135.5914,34.2414],[135.6072,34.2371],[135.6122,34.2328],[135.6188,34.2326],[135.6305,34.2403],[135.642,34.2461],[135.6416,34.2618],[135.6335,34.2755],[135.624,34.287],[135.619,34.288],[135.615,34.2823],[135.6043,34.2767],[135.5986,34.2763],[135.582,34.2803],[135.5781,34.2837],[135.5759,34.2917],[135.5722,34.2927],[135.5668,34.29],[135.5596,34.2891],[135.5559,34.2907],[135.5463,34.301]]]}},{"type":"Feature","properties":{"id":30018},"geometry":{"type":"MultiPolygon","coordinates":[[[[135.8205,33.4503],[135.816,33.4515],[135.8131,33.4494],[135.8165,33.4459],[135.8205,33.4503]]],[[[135.8167,33.527],[135.8104,33.5325],[135.8052,33.5338],[135.7974,33.5325],[135.7836,33.5249],[135.7761,33.5218],[135.7455,33.5223],[135.737,33.5237],[135.7207,33.5311],[135.7151,33.5315],[135.7033,33.5282],[135.6977,33.5223],[135.6877,33.5235],[135.6823,33.5253],[135.6732,33.5303],[135.6668,33.5391],[135.6635,33.5462],[135.6599,33.5578],[135.6536,33.5644],[135.6476,33.5683],[135.642,33.5695],[135.6292,33.5748],[135.6292,33.5631],[135.6316,33.5546],[135.6314,33.5426],[135.6266,33.5383],[135.6284,33.5308],[135.6373,33.5198],[135.6373,33.5173],[135.6313,33.5077],[135.6348,33.507],[135.64,33.503],[135.6556,33.4989],[135.6641,33.4937],[135.6646,33.4902],[135.6698,33.4916],[135.6745,33.4899],[135.6826,33.4899],[135.692,33.4874],[135.7016,33.4901],[135.705,33.4877],[135.7136,33.4857],[135.7163,33.4823],[135.7228,33.4778],[135.7278,33.4776],[135.7301,33.4804],[135.7369,33.4832],[135.7384,33.4778],[135.7515,33.4803],[135.7592,33.4843],[135.7615,33.4813],[135.7669,33.4817],[135.7711,33.4788],[135.7723,33.4744],[135.7767,33.4659],[135.7765,33.4612],[135.7656,33.4561],[135.7622,33.4562],[135.7529,33.451],[135.7506,33.4479],[135.7551,33.4458],[135.7564,33.4414],[135.7547,33.4366],[135.7642,33.4353],[135.7662,33.437],[135.7685,33.4446],[135.7732,33.4464],[135.7791,33.4457],[135.7838,33.4398],[135.7876,33.4398],[135.7924,33.4485],[135.7932,33.4526],[135.79,33.4582],[135.784,33.4636],[135.7823,33.4693],[135.7892,33.4775],[135.7895,33.4826],[135.7937,33.4853],[135.7984,33.4984],[135.8067,33.5027],[135.8115,33.5018],[135.818,33.5068],[135.8197,33.5108],[135.8255,33.5145],[135.8215,33.5217],[135.8167,33.527]]],[[[135.8142,33.4796],[135.8088,33.4797],[135.8013,33.4725],[135.8001,33.4669],[135.7977,33.4634],[135.8018,33.4616],[135.8084,33.4658],[135.816,33.4618],[135.8236,33.4615],[135.8227,33.4527],[135.8296,33.4494],[135.8326,33.4499],[135.83,33.4563],[135.8371,33.453],[135.8409,33.4598],[135.8451,33.4581],[135.8497,33.4613],[135.854,33.4607],[135.8544,33.466],[135.8576,33.4701],[135.8486,33.4718],[135.8445,33.475],[135.8377,33.4746],[135.8364,33.4771],[135.8284,33.4774],[135.8226,33.4759],[135.8149,33.4769],[135.8142,33.4796]]],[[[135.8393,33.5798],[135.8348,33.569],[135.8273,33.5573],[135.8278,33.5515],[135.8325,33.5475],[135.8327,33.5443],[135.8286,33.5337],[135.8248,33.5285],[135.8195,33.5257],[135.8258,33.5202],[135.8282,33.5143],[135.843,33.5137],[135.8424,33.5174],[135.8475,33.5208],[135.8568,33.5229],[135.8593,33.5262],[135.8631,33.5265],[135.8759,33.5335],[135.8786,33.5288],[135.8821,33.5348],[135.8872,33.5353],[135.8881,33.5396],[135.8935,33.5391],[135.8943,33.5418],[135.9012,33.5453],[135.8857,33.5602],[135.8811,33.5772],[135.877,33.5826],[135.8729,33.5859],[135.8617,33.5905],[135.856,33.5894],[135.8447,33.582],[135.8393,33.5798]]]]}},{"type":"Feature","properties":{"id":30019},"geometry":{"type":"Polygon","coordinates":[[[135.5474,34.0688],[135.5476,34.0641],[135.5441,34.0553],[135.5397,34.0492],[135.5352,34.0466],[135.5226,34.0454],[135.5117,34.0429],[135.5063,34.04],[135.5103,34.0253],[135.5151,34.0215],[135.5285,34.019],[135.5356,34.014],[135.5378,34.0076],[135.5372,34.0037],[135.5334,33.9969],[135.5437,33.9795],[135.5463,33.9682],[135.5433,33.9611],[135.5351,33.9551],[135.5188,33.952],[135.5006,33.9471],[135.4777,33.938],[135.4727,33.9375],[135.4491,33.9423],[135.4429,33.9422],[135.4343,33.9405],[135.4273,33.9425],[135.4159,33.9312],[135.4011,33.9277],[135.3972,33.9242],[135.3938,33.9143],[135.396,33.9005],[135.4011,33.8858],[135.4057,33.8826],[135.4177,33.8775],[135.4299,33.8769],[135.4316,33.8755],[135.433,33.8644],[135.4363,33.8622],[135.4442,33.8615],[135.449,33.856],[135.4529,33.8536],[135.4578,33.8532],[135.4611,33.8502],[135.4607,33.8439],[135.4586,33.8381],[135.4537,33.8366],[135.4306,33.8367],[135.42,33.8323],[135.417,33.8323],[135.4046,33.8356],[135.3957,33.8387],[135.3909,33.8382],[135.3688,33.8198],[135.3614,33.8109],[135.3493,33.8091],[135.3475,33.8075],[135.346,33.7985],[135.3458,33.7795],[135.3443,33.7656],[135.3399,33.7526],[135.3393,33.7456],[135.3459,33.7446],[135.3512,33.7478],[135.3585,33.7388],[135.3519,33.7334],[135.3525,33.7268],[135.3542,33.7252],[135.3635,33.7323],[135.3716,33.7306],[135.3789,33.7255],[135.3811,33.7192],[135.3898,33.715],[135.3946,33.7161],[135.3929,33.7085],[135.3943,33.7026],[135.3875,33.7006],[135.3883,33.6953],[135.3811,33.6999],[135.3775,33.6953],[135.3811,33.6904],[135.3851,33.6878],[135.3973,33.686],[135.4091,33.6912],[135.4119,33.6958],[135.4081,33.6983],[135.4068,33.7028],[135.409,33.7059],[135.4193,33.7113],[135.4355,33.7247],[135.4428,33.7379],[135.4482,33.745],[135.4597,33.7481],[135.4658,33.7531],[135.4702,33.7632],[135.4744,33.7638],[135.4883,33.7521],[135.4899,33.7463],[135.4827,33.735],[135.4819,33.731],[135.4767,33.7169],[135.4769,33.7138],[135.4847,33.7078],[135.4963,33.7041],[135.5133,33.7038],[135.5173,33.7069],[135.5224,33.7063],[135.5267,33.6956],[135.5292,33.6939],[135.5418,33.6931],[135.5536,33.6862],[135.5597,33.6754],[135.5597,33.6721],[135.5548,33.6634],[135.5588,33.6594],[135.5642,33.6584],[135.5735,33.6604],[135.5826,33.6606],[135.5859,33.6593],[135.5934,33.6509],[135.6031,33.6481],[135.6143,33.6503],[135.6251,33.6494],[135.6336,33.6459],[135.6417,33.6481],[135.6478,33.6514],[135.6559,33.6583],[135.6568,33.6625],[135.6568,33.6788],[135.6574,33.6829],[135.6607,33.6863],[135.6649,33.688],[135.6729,33.6884],[135.6826,33.6952],[135.6888,33.7039],[135.6915,33.7106],[135.6971,33.7132],[135.7124,33.7132],[135.7145,33.7169],[135.7159,33.726],[135.72,33.728],[135.7281,33.7344],[135.7428,33.7367],[135.7532,33.7453],[135.7585,33.756],[135.7645,33.761],[135.7706,33.7629],[135.7899,33.7669],[135.7976,33.7702],[135.8101,33.7798],[135.8178,33.787],[135.8218,33.792],[135.8336,33.811],[135.8346,33.8162],[135.8347,33.834],[135.834,33.838],[135.831,33.8411],[135.8297,33.8461],[135.8293,33.8628],[135.8315,33.869],[135.8376,33.8781],[135.8416,33.8926],[135.8387,33.8923],[135.8191,33.9021],[135.8091,33.9013],[135.8049,33.8921],[135.792,33.8894],[135.7808,33.8848],[135.7698,33.8874],[135.7605,33.8824],[135.745,33.8871],[135.7358,33.8929],[135.7273,33.8997],[135.7164,33.8993],[135.7055,33.9003],[135.6935,33.9],[135.6842,33.8959],[135.6739,33.897],[135.6655,33.8894],[135.6595,33.881],[135.6468,33.8738],[135.6351,33.8712],[135.625,33.8748],[135.6285,33.8846],[135.6243,33.8955],[135.6052,33.9012],[135.6145,33.9166],[135.6158,33.9265],[135.6197,33.9359],[135.624,33.9498],[135.6344,33.9462],[135.6394,33.9568],[135.6425,33.9672],[135.6414,33.9786],[135.6379,33.988],[135.6272,34],[135.6181,34.006],[135.6081,34.0092],[135.5975,34.0087],[135.5979,34.02],[135.6008,34.0309],[135.597,34.0413],[135.5879,34.0465],[135.5824,34.055],[135.5721,34.0547],[135.5634,34.0603],[135.5539,34.065],[135.5474,34.0688]]]}},{"type":"Feature","properties":{"id":30020},"geometry":{"type":"Polygon","coordinates":[[[135.1409,33.9115],[135.1364,33.9125],[135.1316,33.9112],[135.129,33.9038],[135.1241,33.9011],[135.0951,33.9012],[135.0837,33.8982],[135.0716,33.8916],[135.0611,33.8831],[135.0583,33.8799],[135.0666,33.8815],[135.072,33.8864],[135.0813,33.8907],[135.0849,33.8866],[135.0891,33.8864],[135.1003,33.8881],[135.114,33.8933],[135.1235,33.8913],[135.1379,33.8866],[135.1431,33.8842],[135.1515,33.8774],[135.1488,33.8912],[135.1438,33.8991],[135.1409,33.9115]]]}},{"type":"Feature","properties":{"id":30021},"geometry":{"type":"Polygon","coordinates":[[[135.4011,33.8858],[135.3984,33.883],[135.3916,33.8804],[135.3705,33.8839],[135.3581,33.8848],[135.355,33.8838],[135.3474,33.8778],[135.3349,33.877],[135.3167,33.862],[135.3126,33.8526],[135.3087,33.8383],[135.3032,33.827],[135.2975,33.8196],[135.2902,33.8175],[135.2804,33.8171],[135.2762,33.8152],[135.2682,33.8084],[135.264,33.8004],[135.2639,33.7953],[135.2671,33.7882],[135.2678,33.7828],[135.2713,33.7828],[135.2805,33.7795],[135.2876,33.7725],[135.2944,33.7723],[135.3008,33.7659],[135.3072,33.7674],[135.3088,33.7694],[135.3147,33.7687],[135.3229,33.7639],[135.3255,33.7547],[135.3241,33.752],[135.331,33.744],[135.3393,33.7456],[135.3399,33.7526],[135.3443,33.7656],[135.3458,33.7795],[135.346,33.7985],[135.3475,33.8075],[135.3493,33.8091],[135.3614,33.8109],[135.3688,33.8198],[135.3909,33.8382],[135.3957,33.8387],[135.4046,33.8356],[135.417,33.8323],[135.42,33.8323],[135.4306,33.8367],[135.4537,33.8366],[135.4586,33.8381],[135.4607,33.8439],[135.4611,33.8502],[135.4578,33.8532],[135.4529,33.8536],[135.449,33.856],[135.4442,33.8615],[135.4363,33.8622],[135.433,33.8644],[135.4316,33.8755],[135.4299,33.8769],[135.4177,33.8775],[135.4057,33.8826],[135.4011,33.8858]]]}},{"type":"Feature","properties":{"id":30022},"geometry":{"type":"Polygon","coordinates":[[[135.7827,33.7004],[135.7829,33.6835],[135.7857,33.6783],[135.7971,33.6702],[135.7988,33.6605],[135.8043,33.6524],[135.8046,33.6441],[135.8059,33.6389],[135.812,33.6292],[135.8208,33.6181],[135.8232,33.6138],[135.8244,33.6063],[135.8241,33.5975],[135.8226,33.5902],[135.8237,33.587],[135.8278,33.5837],[135.8393,33.5798],[135.8447,33.582],[135.856,33.5894],[135.8617,33.5905],[135.8729,33.5859],[135.877,33.5826],[135.8811,33.5772],[135.8857,33.5602],[135.9012,33.5453],[135.9119,33.5491],[135.9169,33.5541],[135.9169,33.5577],[135.9214,33.5594],[135.9187,33.5625],[135.9082,33.5619],[135.9037,33.5584],[135.8976,33.5576],[135.9002,33.5627],[135.9048,33.5626],[135.9072,33.5658],[135.9161,33.5709],[135.9201,33.5693],[135.9229,33.5762],[135.9289,33.5767],[135.9355,33.5732],[135.9385,33.5731],[135.9413,33.5781],[135.9393,33.5824],[135.9276,33.5869],[135.9222,33.5947],[135.9228,33.5978],[135.9293,33.6017],[135.9297,33.6044],[135.9258,33.6088],[135.9331,33.6106],[135.9463,33.6181],[135.9432,33.6195],[135.9428,33.6235],[135.9489,33.6275],[135.9526,33.6184],[135.9537,33.6321],[135.9469,33.6338],[135.9407,33.634],[135.9362,33.6402],[135.9378,33.6445],[135.9435,33.6458],[135.9497,33.6494],[135.9588,33.65],[135.9621,33.6541],[135.9721,33.6515],[135.9714,33.6544],[135.9755,33.6571],[135.9794,33.6496],[135.9866,33.656],[135.9835,33.6607],[135.9809,33.6582],[135.9771,33.6588],[135.9738,33.6651],[135.9747,33.6676],[135.9721,33.6717],[135.945,33.6824],[135.9378,33.6864],[135.9289,33.687],[135.9226,33.6806],[135.92,33.6796],[135.9108,33.6803],[135.9041,33.684],[135.906,33.6915],[135.9011,33.6963],[135.8909,33.6978],[135.8837,33.7085],[135.8714,33.7172],[135.8648,33.7194],[135.8551,33.7172],[135.8429,33.7123],[135.8368,33.7056],[135.8387,33.6947],[135.8353,33.6923],[135.828,33.6923],[135.8207,33.6943],[135.8141,33.6999],[135.8114,33.7072],[135.8048,33.7074],[135.7907,33.7013],[135.7827,33.7004]]]}},{"type":"Feature","properties":{"id":30023},"geometry":{"type":"Polygon","coordinates":[[[135.9009,33.7824],[135.8994,33.7856],[135.8876,33.7981],[135.8659,33.8079],[135.859,33.8158],[135.8613,33.8276],[135.863,33.8422],[135.8568,33.8595],[135.856,33.8741],[135.8624,33.8969],[135.8492,33.8934],[135.8416,33.8926],[135.8376,33.8781],[135.8315,33.869],[135.8293,33.8628],[135.8297,33.8461],[135.831,33.8411],[135.834,33.838],[135.8347,33.834],[135.8346,33.8162],[135.8336,33.811],[135.8218,33.792],[135.8178,33.787],[135.8101,33.7798],[135.7976,33.7702],[135.7899,33.7669],[135.7706,33.7629],[135.7645,33.761],[135.7585,33.756],[135.7532,33.7453],[135.7428,33.7367],[135.7281,33.7344],[135.72,33.728],[135.7453,33.717],[135.751,33.7107],[135.7532,33.7055],[135.7527,33.701],[135.7558,33.6979],[135.7667,33.6999],[135.7827,33.7004],[135.7907,33.7013],[135.8048,33.7074],[135.8114,33.7072],[135.8141,33.6999],[135.8207,33.6943],[135.828,33.6923],[135.8353,33.6923],[135.8387,33.6947],[135.8368,33.7056],[135.8429,33.7123],[135.8551,33.7172],[135.8648,33.7194],[135.8714,33.7172],[135.8837,33.7085],[135.8909,33.6978],[135.9011,33.6963],[135.906,33.6915],[135.9041,33.684],[135.9108,33.6803],[135.92,33.6796],[135.9226,33.6806],[135.9289,33.687],[135.9378,33.6864],[135.945,33.6824],[135.9721,33.6717],[135.9725,33.675],[135.9759,33.6794],[135.9831,33.6803],[135.9894,33.6847],[135.987,33.6891],[135.9938,33.6956],[135.9936,33.703],[135.9992,33.7103],[136.0039,33.7142],[136.0103,33.722],[135.9912,33.7318],[135.9789,33.734],[135.9587,33.7252],[135.9451,33.7335],[135.9346,33.751],[135.9209,33.762],[135.9098,33.7636],[135.9009,33.7824]]]}},{"type":"Feature","properties":{"id":30024},"geometry":{"type":"Polygon","coordinates":[[[135.5133,33.7038],[135.5055,33.6875],[135.5004,33.6828],[135.4979,33.676],[135.4935,33.6724],[135.4889,33.6714],[135.4697,33.6715],[135.4647,33.6734],[135.4466,33.6737],[135.4422,33.6749],[135.438,33.6802],[135.4267,33.6837],[135.4142,33.6819],[135.4097,33.6767],[135.4057,33.676],[135.3973,33.686],[135.3851,33.6878],[135.3811,33.6904],[135.3737,33.6891],[135.3697,33.6866],[135.3629,33.6795],[135.3562,33.6913],[135.3499,33.6936],[135.3427,33.6933],[135.34,33.6905],[135.3453,33.6876],[135.3455,33.6818],[135.342,33.6769],[135.3369,33.6766],[135.3309,33.6721],[135.3321,33.6674],[135.3418,33.6611],[135.3429,33.6591],[135.3542,33.6547],[135.3672,33.6523],[135.3824,33.6508],[135.3854,33.6471],[135.3919,33.6437],[135.3958,33.6379],[135.3926,33.6372],[135.3914,33.633],[135.3975,33.6279],[135.3913,33.6174],[135.3959,33.6181],[135.3975,33.6154],[135.3886,33.6083],[135.3894,33.6041],[135.3881,33.5995],[135.3939,33.5887],[135.4031,33.5833],[135.4046,33.5793],[135.4089,33.5764],[135.4171,33.5771],[135.4198,33.5718],[135.433,33.5677],[135.4367,33.5676],[135.4468,33.5615],[135.4492,33.5683],[135.4578,33.5736],[135.4603,33.5731],[135.4553,33.5654],[135.4494,33.5604],[135.4443,33.5587],[135.4481,33.555],[135.4469,33.5496],[135.4523,33.5486],[135.458,33.5527],[135.4627,33.5484],[135.4655,33.5537],[135.4707,33.56],[135.4807,33.5744],[135.4875,33.5866],[135.4881,33.5959],[135.5039,33.614],[135.5072,33.6151],[135.5233,33.6111],[135.5295,33.6138],[135.5344,33.6243],[135.5466,33.6344],[135.5509,33.6356],[135.5631,33.634],[135.5726,33.6338],[135.5877,33.6324],[135.5968,33.6283],[135.5994,33.6282],[135.6089,33.6341],[135.6119,33.6341],[135.6187,33.6268],[135.6246,33.6235],[135.6297,33.6228],[135.6445,33.6251],[135.6458,33.6318],[135.6512,33.6373],[135.6666,33.6446],[135.6681,33.6505],[135.6559,33.6583],[135.6478,33.6514],[135.6417,33.6481],[135.6336,33.6459],[135.6251,33.6494],[135.6143,33.6503],[135.6031,33.6481],[135.5934,33.6509],[135.5859,33.6593],[135.5826,33.6606],[135.5735,33.6604],[135.5642,33.6584],[135.5588,33.6594],[135.5548,33.6634],[135.5597,33.6721],[135.5597,33.6754],[135.5536,33.6862],[135.5418,33.6931],[135.5292,33.6939],[135.5267,33.6956],[135.5224,33.7063],[135.5173,33.7069],[135.5133,33.7038]]]}},{"type":"Feature","properties":{"id":30025},"geometry":{"type":"Polygon","coordinates":[[[135.6292,33.5748],[135.6334,33.5789],[135.6422,33.5788],[135.6453,33.5776],[135.6553,33.5775],[135.6623,33.5817],[135.662,33.5972],[135.6529,33.611],[135.6445,33.6251],[135.6297,33.6228],[135.6246,33.6235],[135.6187,33.6268],[135.6119,33.6341],[135.6089,33.6341],[135.5994,33.6282],[135.5968,33.6283],[135.5877,33.6324],[135.5726,33.6338],[135.5631,33.634],[135.5509,33.6356],[135.5466,33.6344],[135.5344,33.6243],[135.5295,33.6138],[135.5233,33.6111],[135.5072,33.6151],[135.5039,33.614],[135.4881,33.5959],[135.4875,33.5866],[135.4807,33.5744],[135.4707,33.56],[135.4655,33.5537],[135.4627,33.5484],[135.4681,33.5464],[135.4745,33.5505],[135.4837,33.547],[135.4935,33.5486],[135.4943,33.5448],[135.499,33.541],[135.5005,33.5361],[135.5103,33.5348],[135.5148,33.5311],[135.5115,33.5281],[135.5184,33.5216],[135.5244,33.5227],[135.5311,33.5197],[135.5453,33.5201],[135.5492,33.5159],[135.5577,33.5164],[135.5637,33.5146],[135.5695,33.517],[135.5748,33.5155],[135.5784,33.5076],[135.5828,33.5082],[135.5904,33.5057],[135.5975,33.5066],[135.6004,33.5035],[135.6035,33.508],[135.6068,33.5094],[135.6109,33.5068],[135.6185,33.5053],[135.6248,33.5021],[135.6313,33.5077],[135.6373,33.5173],[135.6373,33.5198],[135.6284,33.5308],[135.6266,33.5383],[135.6314,33.5426],[135.6316,33.5546],[135.6292,33.5631],[135.6292,33.5748]]]}},{"type":"Feature","properties":{"id":30026},"geometry":{"type":"Polygon","coordinates":[[[135.9413,33.5781],[135.947,33.5788],[135.9538,33.5773],[135.9599,33.5818],[135.9612,33.5953],[135.9562,33.5915],[135.9495,33.5927],[135.9463,33.5987],[135.9454,33.6038],[135.9378,33.6004],[135.9356,33.5953],[135.9315,33.5962],[135.9325,33.5999],[135.9293,33.6017],[135.9228,33.5978],[135.9222,33.5947],[135.9276,33.5869],[135.9393,33.5824],[135.9413,33.5781]]]}},{"type":"Feature","properties":{"id":30027},"geometry":{"type":"MultiPolygon","coordinates":[[[[135.2734,34.3094],[135.2599,34.3124],[135.25,34.31],[135.2418,34.304],[135.232,34.2987],[135.2108,34.305],[135.2101,34.3031],[135.2074,34.2955],[135.2067,34.2848],[135.1953,34.2835],[135.1876,34.2768],[135.177,34.2767],[135.1664,34.2754],[135.1516,34.2798],[135.1418,34.2772],[135.1349,34.2691],[135.125,34.2715],[135.113,34.2705],[135.1106,34.281],[135.1017,34.287],[135.1046,34.2977],[135.1062,34.3078],[135.0925,34.3114],[135.0846,34.3066],[135.0807,34.309],[135.0761,34.3071],[135.0694,34.2976],[135.0679,34.2918],[135.0745,34.2816],[135.0735,34.2762],[135.0668,34.2745],[135.0646,34.2688],[135.061,34.2643],[135.0649,34.2613],[135.0738,34.2601],[135.0779,34.261],[135.0902,34.2614],[135.096,34.2588],[135.0971,34.2525],[135.1096,34.2459],[135.1152,34.2445],[135.1175,34.2461],[135.1237,34.2404],[135.1317,34.2298],[135.1261,34.2247],[135.1369,34.2249],[135.1489,34.2292],[135.1514,34.2292],[135.1593,34.2363],[135.1625,34.2337],[135.1587,34.2289],[135.1539,34.2256],[135.1467,34.2232],[135.1442,34.2192],[135.1443,34.2119],[135.1461,34.2075],[135.1489,34.2075],[135.1499,34.1947],[135.1409,34.1946],[135.1401,34.1881],[135.1433,34.1867],[135.1473,34.1885],[135.1478,34.1826],[135.1544,34.1835],[135.1625,34.1884],[135.1676,34.1873],[135.18,34.1868],[135.1818,34.1835],[135.1784,34.1799],[135.1832,34.1704],[135.1841,34.1622],[135.1832,34.158],[135.1868,34.1555],[135.1862,34.148],[135.1945,34.1576],[135.2002,34.1616],[135.2127,34.1684],[135.2264,34.1722],[135.2362,34.1767],[135.2408,34.1767],[135.2492,34.1745],[135.2706,34.172],[135.2775,34.1738],[135.2833,34.1771],[135.284,34.1795],[135.2809,34.1862],[135.2818,34.1942],[135.2845,34.1993],[135.2783,34.2121],[135.2803,34.2167],[135.289,34.2234],[135.2971,34.2267],[135.3018,34.2275],[135.3171,34.2324],[135.3254,34.2419],[135.3077,34.2487],[135.3029,34.2492],[135.2955,34.2474],[135.2908,34.2475],[135.2827,34.2511],[135.2784,34.258],[135.2783,34.2632],[135.2809,34.2739],[135.278,34.2928],[135.2738,34.3054],[135.2734,34.3094]]],[[[135.0281,34.2933],[135.02,34.2933],[135.0119,34.2841],[135.0039,34.2853],[134.9987,34.2807],[135.0063,34.2769],[135.0124,34.2766],[135.0125,34.2794],[135.0169,34.2806],[135.0206,34.2861],[135.0217,34.2917],[135.0281,34.2933]]],[[[135.0534,34.2988],[135.0481,34.2978],[135.0371,34.2989],[135.0345,34.2946],[135.0431,34.2917],[135.0487,34.2926],[135.0559,34.2969],[135.0534,34.2988]]]]}},{"type":"Feature","properties":{"id":30028},"geometry":{"type":"Polygon","coordinates":[[[135.1474,34.0556],[135.1479,34.0488],[135.1468,34.045],[135.1528,34.0448],[135.1585,34.0468],[135.1617,34.0458],[135.1629,34.0403],[135.1601,34.037],[135.168,34.037],[135.1728,34.0287],[135.1756,34.03],[135.1882,34.0256],[135.2059,34.0154],[135.2156,34.0074],[135.2234,34.0065],[135.2309,34.0075],[135.243,34.0114],[135.234,34.0236],[135.2256,34.0288],[135.2022,34.0348],[135.1998,34.0386],[135.1979,34.0472],[135.186,34.0569],[135.1763,34.0532],[135.1689,34.0533],[135.1619,34.0592],[135.1594,34.0599],[135.1523,34.0566],[135.1474,34.0556]]]}},{"type":"Feature","properties":{"id":30029},"geometry":{"type":"Polygon","coordinates":[[[135.1047,33.9553],[135.1082,33.9487],[135.1122,33.9451],[135.1159,33.9443],[135.1229,33.9458],[135.1331,33.9494],[135.1375,33.9528],[135.1423,33.9602],[135.1524,33.9686],[135.1661,33.9753],[135.1755,33.9784],[135.1795,33.9837],[135.1793,33.9872],[135.1752,33.9905],[135.163,33.9938],[135.1489,33.992],[135.1405,33.9947],[135.1339,33.9997],[135.13,34.0008],[135.126,33.9974],[135.1193,33.9989],[135.1128,33.9961],[135.1112,33.9896],[135.1069,33.9887],[135.1043,33.993],[135.0915,33.9915],[135.0902,33.9872],[135.0913,33.9836],[135.0885,33.9792],[135.0747,33.979],[135.0762,33.9734],[135.0863,33.968],[135.0844,33.962],[135.0787,33.9602],[135.0784,33.9565],[135.0836,33.9554],[135.0919,33.9577],[135.0961,33.9573],[135.106,33.9636],[135.1133,33.9562],[135.1047,33.9553]]]}}]}