{"type":"FeatureCollection","features":[{"type":"Feature","properties":{"id":31001},"geometry":{"type":"Polygon","coordinates":[[[134.2815,35.1948],[134.2843,35.1937],[134.2982,35.1973],[134.3195,35.1991],[134.3296,35.2035],[134.3378,35.2101],[134.3452,35.2173],[134.3556,35.2213],[134.3653,35.2262],[134.3754,35.2415],[134.3888,35.2467],[134.3891,35.2605],[134.3911,35.2737],[134.3859,35.2825],[134.378,35.2904],[134.3672,35.2933],[134.3536,35.3052],[134.3425,35.3049],[134.3204,35.3094],[134.3153,35.3091],[134.2961,35.3055],[134.2873,35.3008],[134.2787,35.3008],[134.2708,35.3088],[134.2546,35.2947],[134.248,35.2924],[134.2445,35.2926],[134.2366,35.2959],[134.2176,35.2924],[134.2126,35.2903],[134.2012,35.2829],[134.1908,35.2745],[134.1746,35.2704],[134.1664,35.2706],[134.1516,35.2738],[134.1374,35.274],[134.1465,35.2605],[134.1473,35.25],[134.1402,35.2351],[134.1481,35.2283],[134.1603,35.2313],[134.1651,35.2221],[134.1638,35.2117],[134.1575,35.2034],[134.1557,35.1926],[134.165,35.1867],[134.1743,35.1744],[134.1818,35.1666],[134.1909,35.1715],[134.1964,35.1811],[134.2053,35.1856],[134.2155,35.1876],[134.2231,35.1903],[134.2386,35.196],[134.25,35.1968],[134.257,35.205],[134.2676,35.2052],[134.2742,35.1976],[134.2815,35.1948]]]}},{"type":"Feature","properties":{"id":31002},"geometry":{"type":"Polygon","coordinates":[[[133.431,35.4734],[133.4501,35.461],[133.4589,35.4587],[133.4623,35.452],[133.4692,35.4462],[133.4783,35.4415],[133.4816,35.4386],[133.483,35.4321],[133.4814,35.4291],[133.4762,35.4261],[133.4682,35.4127],[133.4623,35.4124],[133.455,35.4138],[133.4427,35.4117],[133.4419,35.4069],[133.4444,35.4032],[133.4521,35.3981],[133.4626,35.398],[133.4763,35.3994],[133.4906,35.4025],[133.4964,35.4022],[133.5085,35.3982],[133.5167,35.3945],[133.5238,35.3891],[133.5265,35.3855],[133.5246,35.3769],[133.5299,35.3619],[133.5368,35.3561],[133.549,35.3485],[133.5511,35.3466],[133.5577,35.347],[133.564,35.3567],[133.5684,35.3607],[133.5682,35.3688],[133.571,35.3721],[133.5766,35.3748],[133.5855,35.3821],[133.5882,35.3876],[133.5908,35.3989],[133.5907,35.4049],[133.5874,35.4154],[133.587,35.4226],[133.5884,35.4281],[133.5971,35.4372],[133.6033,35.4462],[133.6073,35.4641],[133.6072,35.4777],[133.6089,35.4965],[133.6074,35.5048],[133.6109,35.5219],[133.6041,35.5239],[133.6003,35.5268],[133.5945,35.5273],[133.59,35.5317],[133.5795,35.5303],[133.5661,35.53],[133.5591,35.5269],[133.5582,35.525],[133.5457,35.5215],[133.5346,35.5234],[133.5303,35.5192],[133.5172,35.52],[133.5113,35.5178],[133.4953,35.5143],[133.4945,35.5119],[133.483,35.5041],[133.4714,35.4985],[133.4603,35.4987],[133.4522,35.4953],[133.4461,35.4941],[133.443,35.4885],[133.4317,35.481],[133.4341,35.4781],[133.431,35.4734]]]}},{"type":"Feature","properties":{"id":31003},"geometry":{"type":"Polygon","coordinates":[[[133.3889,35.4541],[133.3757,35.456],[133.3711,35.4478],[133.3699,35.4388],[133.3742,35.4329],[133.3848,35.4331],[133.3893,35.4382],[133.3889,35.4541]]]}},{"type":"Feature","properties":{"id":31004},"geometry":{"type":"Polygon","coordinates":[[[133.5245,35.1849],[133.524,35.2004],[133.5218,35.2103],[133.5144,35.2179],[133.5112,35.2302],[133.5031,35.2336],[133.4918,35.2319],[133.4775,35.2318],[133.4738,35.2326],[133.4709,35.2368],[133.4681,35.2482],[133.4661,35.2515],[133.4508,35.2604],[133.4463,35.2706],[133.4366,35.2635],[133.429,35.2568],[133.4208,35.254],[133.414,35.2483],[133.4034,35.2346],[133.3972,35.2324],[133.3822,35.2323],[133.3792,35.2347],[133.3738,35.2481],[133.3715,35.2518],[133.3628,35.2594],[133.3591,35.2431],[133.3555,35.2364],[133.3504,35.2327],[133.3537,35.2221],[133.3539,35.2177],[133.3506,35.2136],[133.3409,35.2109],[133.3353,35.2067],[133.3211,35.2042],[133.3133,35.2046],[133.3071,35.2074],[133.3041,35.2073],[133.2971,35.2013],[133.2951,35.1933],[133.3094,35.1818],[133.3253,35.1749],[133.3299,35.1671],[133.3343,35.1618],[133.3395,35.1593],[133.3515,35.1611],[133.3597,35.1557],[133.3641,35.1558],[133.3699,35.1614],[133.375,35.1691],[133.3792,35.1711],[133.3987,35.1725],[133.3989,35.1717],[133.4016,35.1774],[133.4105,35.1826],[133.4209,35.1788],[133.4302,35.1739],[133.4399,35.1706],[133.4498,35.1689],[133.4705,35.1723],[133.4788,35.1785],[133.4893,35.1833],[133.5016,35.1857],[133.511,35.1893],[133.5246,35.182],[133.5245,35.1849]]]}},{"type":"Feature","properties":{"id":31005},"geometry":{"type":"Polygon","coordinates":[[[133.4521,35.3981],[133.4486,35.3922],[133.4454,35.3906],[133.4279,35.3904],[133.4151,35.3891],[133.4062,35.39],[133.399,35.3931],[133.3931,35.3933],[133.3903,35.3843],[133.3831,35.3839],[133.376,35.3794],[133.3878,35.3731],[133.3973,35.3702],[133.4021,35.3636],[133.4056,35.3567],[133.4085,35.3542],[133.4153,35.3523],[133.4253,35.3521],[133.4301,35.3511],[133.4305,35.3469],[133.4255,35.3395],[133.4196,35.3344],[133.4168,35.3282],[133.4118,35.3226],[133.4063,35.3205],[133.3953,35.3206],[133.3865,35.3237],[133.3838,35.3193],[133.3853,35.3046],[133.3875,35.2953],[133.3875,35.2748],[133.378,35.2664],[133.366,35.2617],[133.3628,35.2594],[133.3715,35.2518],[133.3738,35.2481],[133.3792,35.2347],[133.3822,35.2323],[133.3972,35.2324],[133.4034,35.2346],[133.414,35.2483],[133.4208,35.254],[133.429,35.2568],[133.4366,35.2635],[133.4463,35.2706],[133.4518,35.2759],[133.4537,35.281],[133.4509,35.2898],[133.451,35.2928],[133.4551,35.2974],[133.4763,35.3075],[133.4831,35.3132],[133.4887,35.3228],[133.4976,35.3246],[133.5124,35.3234],[133.517,35.3241],[133.5265,35.3318],[133.53,35.3365],[133.5392,35.3438],[133.549,35.3485],[133.5368,35.3561],[133.5299,35.3619],[133.5246,35.3769],[133.5265,35.3855],[133.5238,35.3891],[133.5167,35.3945],[133.5085,35.3982],[133.4964,35.4022],[133.4906,35.4025],[133.4763,35.3994],[133.4626,35.398],[133.4521,35.3981]]]}},{"type":"Feature","properties":{"id":31006},"geometry":{"type":"Polygon","coordinates":[[[133.7331,35.5021],[133.7278,35.4788],[133.7319,35.4708],[133.7336,35.4625],[133.7323,35.458],[133.7204,35.4497],[133.7081,35.4431],[133.699,35.4374],[133.6922,35.4318],[133.691,35.4295],[133.683,35.4224],[133.6799,35.4185],[133.6942,35.4185],[133.7166,35.427],[133.7344,35.4347],[133.7503,35.4442],[133.7572,35.4515],[133.7594,35.4553],[133.761,35.4621],[133.7645,35.4648],[133.781,35.465],[133.8047,35.4628],[133.8099,35.4616],[133.8181,35.4551],[133.8214,35.4544],[133.8262,35.4569],[133.8308,35.4612],[133.8355,35.4692],[133.8373,35.4795],[133.8449,35.4791],[133.8456,35.4806],[133.8491,35.4897],[133.855,35.4954],[133.8561,35.5014],[133.8546,35.5041],[133.835,35.5025],[133.8021,35.5007],[133.7684,35.5003],[133.7558,35.5005],[133.7331,35.5021]]]}},{"type":"Feature","properties":{"id":31007},"geometry":{"type":"Polygon","coordinates":[[[134.3694,35.613],[134.3706,35.6047],[134.3661,35.6019],[134.3575,35.6003],[134.3523,35.6018],[134.3486,35.6006],[134.3442,35.6031],[134.3449,35.6091],[134.3386,35.6074],[134.3404,35.604],[134.3381,35.6017],[134.3372,35.5942],[134.3322,35.5911],[134.3242,35.5903],[134.3167,35.5935],[134.3117,35.5936],[134.3083,35.5914],[134.3024,35.5923],[134.3022,35.5894],[134.2939,35.5892],[134.2906,35.5844],[134.2905,35.5744],[134.2825,35.5744],[134.2767,35.5714],[134.2758,35.5683],[134.2888,35.5622],[134.2934,35.5584],[134.2991,35.5486],[134.3087,35.5407],[134.3143,35.5378],[134.3265,35.5283],[134.3261,35.5187],[134.3234,35.5074],[134.3231,35.4986],[134.3197,35.4864],[134.3213,35.4842],[134.3369,35.4788],[134.3479,35.4782],[134.3527,35.4788],[134.3654,35.4844],[134.3762,35.4929],[134.3858,35.4948],[134.3927,35.4929],[134.4026,35.4857],[134.414,35.4833],[134.4228,35.4795],[134.4326,35.4689],[134.4372,35.4676],[134.4371,35.4788],[134.433,35.4888],[134.4313,35.5022],[134.4233,35.5088],[134.4178,35.5175],[134.4229,35.527],[134.4281,35.5384],[134.4278,35.5487],[134.4239,35.5598],[134.4105,35.562],[134.4098,35.5733],[134.4045,35.5915],[134.3957,35.5982],[134.3694,35.613]]]}},{"type":"Feature","properties":{"id":31008},"geometry":{"type":"Polygon","coordinates":[[[133.6016,35.3409],[133.6001,35.3471],[133.5979,35.3493],[133.5849,35.3553],[133.5754,35.3545],[133.5684,35.3607],[133.564,35.3567],[133.5577,35.347],[133.5511,35.3466],[133.549,35.3485],[133.5392,35.3438],[133.53,35.3365],[133.5265,35.3318],[133.517,35.3241],[133.5124,35.3234],[133.4976,35.3246],[133.4887,35.3228],[133.4831,35.3132],[133.4763,35.3075],[133.4551,35.2974],[133.451,35.2928],[133.4509,35.2898],[133.4537,35.281],[133.4518,35.2759],[133.4463,35.2706],[133.4508,35.2604],[133.4661,35.2515],[133.4681,35.2482],[133.4709,35.2368],[133.4738,35.2326],[133.4775,35.2318],[133.4918,35.2319],[133.5031,35.2336],[133.5112,35.2302],[133.5195,35.2373],[133.5294,35.2352],[133.5395,35.2343],[133.5484,35.2402],[133.5597,35.2407],[133.562,35.2447],[133.565,35.25],[133.5739,35.2715],[133.5736,35.2824],[133.5791,35.2925],[133.5787,35.3029],[133.5833,35.3134],[133.5906,35.3216],[133.5914,35.3333],[133.5992,35.3417],[133.6016,35.3409]]]}},{"type":"Feature","properties":{"id":31009},"geometry":{"type":"Polygon","coordinates":[[[133.5684,35.3607],[133.5754,35.3545],[133.5849,35.3553],[133.5874,35.3661],[133.6001,35.3673],[133.6181,35.374],[133.6216,35.3746],[133.645,35.3839],[133.6483,35.3883],[133.6486,35.3942],[133.6507,35.3992],[133.6557,35.4037],[133.6658,35.4084],[133.6738,35.415],[133.6799,35.4185],[133.683,35.4224],[133.691,35.4295],[133.6922,35.4318],[133.699,35.4374],[133.7081,35.4431],[133.7204,35.4497],[133.7323,35.458],[133.7336,35.4625],[133.7319,35.4708],[133.7278,35.4788],[133.7331,35.5021],[133.7167,35.5037],[133.7078,35.5054],[133.7036,35.5075],[133.699,35.5065],[133.688,35.5073],[133.6694,35.5065],[133.6566,35.5094],[133.6524,35.5141],[133.6432,35.5149],[133.6392,35.5184],[133.6207,35.5197],[133.6109,35.5219],[133.6074,35.5048],[133.6089,35.4965],[133.6072,35.4777],[133.6073,35.4641],[133.6033,35.4462],[133.5971,35.4372],[133.5884,35.4281],[133.587,35.4226],[133.5874,35.4154],[133.5907,35.4049],[133.5908,35.3989],[133.5882,35.3876],[133.5855,35.3821],[133.5766,35.3748],[133.571,35.3721],[133.5682,35.3688],[133.5684,35.3607]]]}},{"type":"Feature","properties":{"id":31010},"geometry":{"type":"Polygon","coordinates":[[[133.7585,35.3067],[133.7724,35.3127],[133.7862,35.3201],[133.7916,35.3263],[133.797,35.3305],[133.8044,35.3333],[133.8148,35.3415],[133.8377,35.3522],[133.8393,35.3714],[133.8417,35.3794],[133.8476,35.3899],[133.8528,35.4013],[133.8578,35.4052],[133.8679,35.4081],[133.8755,35.4162],[133.8804,35.4179],[133.8946,35.4188],[133.8909,35.4274],[133.8813,35.4352],[133.8735,35.4382],[133.8707,35.4409],[133.8683,35.4477],[133.8684,35.4545],[133.8729,35.4671],[133.8674,35.4747],[133.8626,35.4771],[133.8501,35.477],[133.8449,35.4791],[133.8373,35.4795],[133.8355,35.4692],[133.8308,35.4612],[133.8262,35.4569],[133.8214,35.4544],[133.8181,35.4551],[133.8099,35.4616],[133.8047,35.4628],[133.781,35.465],[133.7645,35.4648],[133.761,35.4621],[133.7594,35.4553],[133.7572,35.4515],[133.7503,35.4442],[133.7344,35.4347],[133.7166,35.427],[133.6942,35.4185],[133.6799,35.4185],[133.6738,35.415],[133.6658,35.4084],[133.6557,35.4037],[133.6507,35.3992],[133.6486,35.3942],[133.6483,35.3883],[133.645,35.3839],[133.6216,35.3746],[133.6181,35.374],[133.6001,35.3673],[133.5874,35.3661],[133.5849,35.3553],[133.5979,35.3493],[133.6001,35.3471],[133.6016,35.3409],[133.6095,35.3383],[133.62,35.3365],[133.6412,35.336],[133.6548,35.3315],[133.6652,35.3232],[133.6756,35.3202],[133.6854,35.3156],[133.6942,35.3208],[133.7058,35.3214],[133.7178,35.3189],[133.7281,35.316],[133.75,35.315],[133.7585,35.3067]]]}},{"type":"Feature","properties":{"id":31011},"geometry":{"type":"Polygon","coordinates":[[[134.0109,35.3474],[134.0209,35.3475],[134.0316,35.3644],[134.0382,35.3668],[134.043,35.3722],[134.0426,35.3773],[134.0279,35.3828],[134.0179,35.3846],[134.0054,35.3853],[133.9996,35.3904],[133.9992,35.3941],[134.0022,35.4028],[134.0056,35.408],[134.004,35.4177],[133.9979,35.4207],[133.9712,35.4209],[133.9613,35.4259],[133.957,35.4272],[133.9336,35.4255],[133.9164,35.4252],[133.8946,35.4188],[133.8804,35.4179],[133.8755,35.4162],[133.8679,35.4081],[133.8578,35.4052],[133.8528,35.4013],[133.8476,35.3899],[133.8417,35.3794],[133.8393,35.3714],[133.8377,35.3522],[133.8148,35.3415],[133.8044,35.3333],[133.797,35.3305],[133.7916,35.3263],[133.7862,35.3201],[133.7724,35.3127],[133.7585,35.3067],[133.7742,35.3005],[133.7833,35.2953],[133.7945,35.2899],[133.8044,35.2842],[133.8105,35.2751],[133.8142,35.2641],[133.821,35.2553],[133.8281,35.2489],[133.8307,35.2464],[133.8465,35.2498],[133.8544,35.2583],[133.8642,35.2673],[133.8689,35.2815],[133.8743,35.2899],[133.8861,35.2914],[133.8952,35.2967],[133.9049,35.3006],[133.9331,35.3104],[133.9306,35.3209],[133.9346,35.3303],[133.9447,35.3307],[133.9591,35.339],[133.9691,35.3432],[133.9806,35.3409],[133.9901,35.3444],[134,35.3498],[134.0109,35.3474]]]}},{"type":"Feature","properties":{"id":31012},"geometry":{"type":"Polygon","coordinates":[[[133.3098,35.2675],[133.3151,35.2646],[133.3317,35.2581],[133.3352,35.2542],[133.337,35.2404],[133.3391,35.2378],[133.3504,35.2327],[133.3555,35.2364],[133.3591,35.2431],[133.3628,35.2594],[133.366,35.2617],[133.378,35.2664],[133.3875,35.2748],[133.3875,35.2953],[133.3853,35.3046],[133.3838,35.3193],[133.3865,35.3237],[133.3953,35.3206],[133.4063,35.3205],[133.4118,35.3226],[133.4168,35.3282],[133.4196,35.3344],[133.4255,35.3395],[133.4305,35.3469],[133.4301,35.3511],[133.4253,35.3521],[133.4153,35.3523],[133.4085,35.3542],[133.4056,35.3567],[133.4021,35.3636],[133.3973,35.3702],[133.3878,35.3731],[133.376,35.3794],[133.3685,35.3808],[133.356,35.3843],[133.3486,35.3881],[133.3349,35.3826],[133.322,35.3784],[133.3191,35.3637],[133.3076,35.3578],[133.3009,35.3487],[133.2977,35.3378],[133.3004,35.3232],[133.3008,35.31],[133.3068,35.3017],[133.3034,35.2914],[133.3116,35.2701],[133.3098,35.2675]]]}},{"type":"Feature","properties":{"id":31013},"geometry":{"type":"Polygon","coordinates":[[[133.2721,35.0546],[133.2795,35.0626],[133.2903,35.0652],[133.2926,35.0833],[133.2931,35.0941],[133.3023,35.1001],[133.3114,35.0947],[133.3218,35.0908],[133.3315,35.0938],[133.3396,35.102],[133.3503,35.102],[133.3601,35.0987],[133.375,35.1093],[133.3859,35.1115],[133.3975,35.1104],[133.4134,35.1172],[133.4144,35.128],[133.4109,35.1383],[133.4055,35.1478],[133.4022,35.1575],[133.3966,35.1666],[133.3989,35.1717],[133.3987,35.1725],[133.3792,35.1711],[133.375,35.1691],[133.3699,35.1614],[133.3641,35.1558],[133.3597,35.1557],[133.3515,35.1611],[133.3395,35.1593],[133.3343,35.1618],[133.3299,35.1671],[133.3253,35.1749],[133.3094,35.1818],[133.2951,35.1933],[133.2971,35.2013],[133.3041,35.2073],[133.3071,35.2074],[133.3133,35.2046],[133.3211,35.2042],[133.3353,35.2067],[133.3409,35.2109],[133.3506,35.2136],[133.3539,35.2177],[133.3537,35.2221],[133.3504,35.2327],[133.3391,35.2378],[133.337,35.2404],[133.3352,35.2542],[133.3317,35.2581],[133.3151,35.2646],[133.3098,35.2675],[133.3044,35.2601],[133.2937,35.2579],[133.283,35.2582],[133.2722,35.2557],[133.2621,35.2579],[133.2531,35.2536],[133.2396,35.2459],[133.2286,35.2458],[133.219,35.2416],[133.2085,35.2389],[133.1933,35.2335],[133.1828,35.2304],[133.1735,35.2239],[133.1639,35.2197],[133.1543,35.2127],[133.1549,35.205],[133.1553,35.2008],[133.1653,35.2033],[133.177,35.202],[133.186,35.1954],[133.1845,35.185],[133.1934,35.1769],[133.1975,35.1666],[133.1912,35.1582],[133.1828,35.1526],[133.1614,35.1458],[133.1524,35.1376],[133.1478,35.1274],[133.1453,35.1174],[133.1469,35.1064],[133.1425,35.0966],[133.1397,35.0868],[133.144,35.0732],[133.1442,35.0623],[133.1632,35.0707],[133.1716,35.0646],[133.1825,35.0651],[133.2039,35.0691],[133.2156,35.0705],[133.2312,35.0647],[133.2348,35.074],[133.251,35.0754],[133.2636,35.0606],[133.2721,35.0546]]]}},{"type":"Feature","properties":{"id":31014},"geometry":{"type":"Polygon","coordinates":[[[134.4372,35.4676],[134.4326,35.4689],[134.4228,35.4795],[134.414,35.4833],[134.4026,35.4857],[134.3927,35.4929],[134.3858,35.4948],[134.3762,35.4929],[134.3654,35.4844],[134.3527,35.4788],[134.3479,35.4782],[134.3369,35.4788],[134.3213,35.4842],[134.3197,35.4864],[134.3231,35.4986],[134.3234,35.5074],[134.3261,35.5187],[134.3265,35.5283],[134.3143,35.5378],[134.3087,35.5407],[134.2991,35.5486],[134.2934,35.5584],[134.2888,35.5622],[134.2758,35.5683],[134.275,35.5633],[134.2722,35.5606],[134.2653,35.5572],[134.2372,35.5483],[134.2214,35.5439],[134.1972,35.5403],[134.1911,35.5406],[134.1911,35.5358],[134.1846,35.5385],[134.1775,35.5353],[134.1603,35.5317],[134.1544,35.5318],[134.1431,35.5292],[134.1245,35.5267],[134.1136,35.5261],[134.1056,35.5247],[134.1016,35.5269],[134.0967,35.5239],[134.09,35.5255],[134.0833,35.525],[134.078,35.5214],[134.0648,35.5193],[134.0536,35.5186],[134.0305,35.5183],[134.0214,35.5195],[134.0116,35.5349],[134.0091,35.5373],[134.0045,35.5356],[134.0021,35.5318],[134.0018,35.5268],[133.9966,35.5241],[133.9928,35.5259],[133.9892,35.5235],[133.9839,35.5237],[133.9725,35.5221],[133.9726,35.5071],[133.9624,35.4951],[133.9553,35.4857],[133.9543,35.4798],[133.9558,35.4722],[133.9523,35.4611],[133.9538,35.4521],[133.9513,35.4441],[133.9513,35.4404],[133.955,35.4336],[133.957,35.4272],[133.9613,35.4259],[133.9712,35.4209],[133.9979,35.4207],[134.004,35.4177],[134.0056,35.408],[134.0022,35.4028],[133.9992,35.3941],[133.9996,35.3904],[134.0054,35.3853],[134.0179,35.3846],[134.0279,35.3828],[134.0426,35.3773],[134.043,35.3722],[134.0382,35.3668],[134.0316,35.3644],[134.0209,35.3475],[134.0109,35.3474],[134.0137,35.3373],[134.0074,35.321],[134.0029,35.3111],[134.0126,35.3042],[134.0352,35.3017],[134.0437,35.3006],[134.0528,35.2954],[134.0627,35.2988],[134.0795,35.2995],[134.0895,35.304],[134.1003,35.3024],[134.1055,35.2933],[134.114,35.2872],[134.1209,35.2798],[134.1351,35.2778],[134.1374,35.274],[134.1516,35.2738],[134.1664,35.2706],[134.1746,35.2704],[134.1908,35.2745],[134.2012,35.2829],[134.2126,35.2903],[134.2176,35.2924],[134.2366,35.2959],[134.2445,35.2926],[134.248,35.2924],[134.2546,35.2947],[134.2708,35.3088],[134.2583,35.3202],[134.2463,35.3278],[134.2447,35.3353],[134.2442,35.3497],[134.2343,35.3639],[134.2344,35.367],[134.2381,35.3754],[134.2384,35.3791],[134.2332,35.3916],[134.2285,35.3954],[134.2192,35.4009],[134.2113,35.402],[134.2093,35.4052],[134.2106,35.4103],[134.2195,35.4128],[134.2293,35.4127],[134.2332,35.4138],[134.2364,35.4179],[134.2456,35.4253],[134.2594,35.4279],[134.2671,35.4339],[134.2728,35.4422],[134.2762,35.4444],[134.2845,35.4414],[134.3011,35.4385],[134.32,35.4308],[134.3283,35.4263],[134.3334,35.4254],[134.341,35.4262],[134.3562,35.4252],[134.3627,35.4258],[134.3768,35.4298],[134.3811,35.4326],[134.3914,35.4341],[134.4075,35.4339],[134.419,35.4315],[134.4312,35.4337],[134.4385,35.4399],[134.4426,35.4411],[134.4411,35.451],[134.4372,35.4676]]]}},{"type":"Feature","properties":{"id":31015},"geometry":{"type":"Polygon","coordinates":[[[134.478,35.4266],[134.4706,35.4299],[134.4597,35.4333],[134.4438,35.4394],[134.4473,35.4299],[134.4444,35.415],[134.4423,35.4083],[134.4374,35.3999],[134.4333,35.3946],[134.4288,35.3922],[134.4174,35.3885],[134.4045,35.3856],[134.3959,35.3794],[134.3919,35.3743],[134.3913,35.3653],[134.3877,35.3516],[134.3736,35.3395],[134.3642,35.3355],[134.3614,35.3332],[134.3598,35.3278],[134.3594,35.3161],[134.3536,35.3052],[134.3672,35.2933],[134.378,35.2904],[134.3859,35.2825],[134.3911,35.2737],[134.3891,35.2605],[134.3888,35.2467],[134.4004,35.247],[134.4057,35.2377],[134.4262,35.2322],[134.4352,35.2268],[134.4548,35.2344],[134.4742,35.246],[134.4838,35.2503],[134.4899,35.2594],[134.5097,35.2693],[134.5183,35.2747],[134.5145,35.2849],[134.5135,35.2953],[134.5157,35.306],[134.5078,35.3132],[134.5051,35.3236],[134.5126,35.3408],[134.5109,35.3534],[134.5091,35.3552],[134.5,35.3641],[134.4889,35.3663],[134.4796,35.3715],[134.4756,35.3807],[134.4832,35.4007],[134.4793,35.411],[134.4801,35.4257],[134.478,35.4266]]]}},{"type":"Feature","properties":{"id":31016},"geometry":{"type":"Polygon","coordinates":[[[134.4426,35.4411],[134.4385,35.4399],[134.4312,35.4337],[134.419,35.4315],[134.4075,35.4339],[134.3914,35.4341],[134.3811,35.4326],[134.3768,35.4298],[134.3627,35.4258],[134.3562,35.4252],[134.341,35.4262],[134.3334,35.4254],[134.3283,35.4263],[134.32,35.4308],[134.3011,35.4385],[134.2845,35.4414],[134.2762,35.4444],[134.2728,35.4422],[134.2671,35.4339],[134.2594,35.4279],[134.2456,35.4253],[134.2364,35.4179],[134.2332,35.4138],[134.2293,35.4127],[134.2195,35.4128],[134.2106,35.4103],[134.2093,35.4052],[134.2113,35.402],[134.2192,35.4009],[134.2285,35.3954],[134.2332,35.3916],[134.2384,35.3791],[134.2381,35.3754],[134.2344,35.367],[134.2343,35.3639],[134.2442,35.3497],[134.2447,35.3353],[134.2463,35.3278],[134.2583,35.3202],[134.2708,35.3088],[134.2787,35.3008],[134.2873,35.3008],[134.2961,35.3055],[134.3153,35.3091],[134.3204,35.3094],[134.3425,35.3049],[134.3536,35.3052],[134.3594,35.3161],[134.3598,35.3278],[134.3614,35.3332],[134.3642,35.3355],[134.3736,35.3395],[134.3877,35.3516],[134.3913,35.3653],[134.3919,35.3743],[134.3959,35.3794],[134.4045,35.3856],[134.4174,35.3885],[134.4288,35.3922],[134.4333,35.3946],[134.4374,35.3999],[134.4423,35.4083],[134.4444,35.415],[134.4473,35.4299],[134.4438,35.4394],[134.4426,35.4411]]]}},{"type":"Feature","properties":{"id":31017},"geometry":{"type":"Polygon","coordinates":[[[133.322,35.3784],[133.3349,35.3826],[133.3486,35.3881],[133.356,35.3843],[133.3685,35.3808],[133.376,35.3794],[133.3831,35.3839],[133.3903,35.3843],[133.3931,35.3933],[133.399,35.3931],[133.4062,35.39],[133.4151,35.3891],[133.4279,35.3904],[133.4454,35.3906],[133.4486,35.3922],[133.4521,35.3981],[133.4444,35.4032],[133.4419,35.4069],[133.4427,35.4117],[133.455,35.4138],[133.4623,35.4124],[133.4682,35.4127],[133.4762,35.4261],[133.4814,35.4291],[133.483,35.4321],[133.4816,35.4386],[133.4783,35.4415],[133.4692,35.4462],[133.4623,35.452],[133.4589,35.4587],[133.4501,35.461],[133.431,35.4734],[133.4284,35.4659],[133.4251,35.4597],[133.421,35.4576],[133.4086,35.4537],[133.4011,35.4529],[133.3889,35.4541],[133.3893,35.4382],[133.3848,35.4331],[133.3742,35.4329],[133.3699,35.4388],[133.3701,35.4506],[133.3723,35.4552],[133.3631,35.4591],[133.3399,35.4622],[133.3272,35.465],[133.3247,35.4532],[133.3212,35.432],[133.3218,35.4092],[133.3241,35.3991],[133.3179,35.3887],[133.322,35.3784]]]}},{"type":"Feature","properties":{"id":31018},"geometry":{"type":"Polygon","coordinates":[[[133.8449,35.4791],[133.8501,35.477],[133.8626,35.4771],[133.8674,35.4747],[133.8729,35.4671],[133.8684,35.4545],[133.8683,35.4477],[133.8707,35.4409],[133.8735,35.4382],[133.8813,35.4352],[133.8909,35.4274],[133.8946,35.4188],[133.9164,35.4252],[133.9336,35.4255],[133.957,35.4272],[133.955,35.4336],[133.9513,35.4404],[133.9513,35.4441],[133.9538,35.4521],[133.9523,35.4611],[133.9558,35.4722],[133.9543,35.4798],[133.9553,35.4857],[133.9624,35.4951],[133.9726,35.5071],[133.9725,35.5221],[133.9626,35.5232],[133.9591,35.5192],[133.9505,35.5173],[133.9481,35.5196],[133.9398,35.5182],[133.9345,35.5129],[133.9256,35.5101],[133.9136,35.5083],[133.9066,35.5099],[133.9007,35.5094],[133.8977,35.5075],[133.8865,35.5082],[133.8665,35.5051],[133.8592,35.5047],[133.8564,35.4931],[133.8456,35.4806],[133.8449,35.4791]]]}}]}