{"type":"FeatureCollection","features":[{"type":"Feature","properties":{"id":32001},"geometry":{"type":"MultiPolygon","coordinates":[[[[133.1146,36.1179],[133.1125,36.1206],[133.1022,36.1172],[133.094,36.1172],[133.0909,36.1139],[133.095,36.1062],[133.0906,36.102],[133.0858,36.1036],[133.0886,36.1078],[133.0869,36.1113],[133.0821,36.1138],[133.0808,36.1097],[133.0703,36.1047],[133.0681,36.1006],[133.0642,36.1014],[133.0647,36.0942],[133.0722,36.0851],[133.0714,36.0728],[133.076,36.0748],[133.0783,36.0722],[133.0744,36.0664],[133.0754,36.0625],[133.0701,36.0586],[133.0706,36.0461],[133.0681,36.0414],[133.0697,36.0386],[133.0797,36.0376],[133.0815,36.0399],[133.0772,36.0441],[133.0808,36.0465],[133.0877,36.0459],[133.0868,36.0506],[133.0902,36.0524],[133.1,36.049],[133.1034,36.0498],[133.0967,36.0572],[133.1019,36.0569],[133.1071,36.0609],[133.1084,36.0639],[133.1028,36.07],[133.1152,36.065],[133.1222,36.0742],[133.1319,36.0735],[133.1369,36.0814],[133.1401,36.0809],[133.1442,36.0747],[133.1528,36.0747],[133.1469,36.0794],[133.1449,36.0825],[133.1358,36.0859],[133.1311,36.0831],[133.1194,36.0818],[133.1187,36.0849],[133.1251,36.0874],[133.1277,36.093],[133.1276,36.0984],[133.1336,36.1],[133.1322,36.1046],[133.1261,36.1053],[133.1311,36.1092],[133.1146,36.1179]]],[[[133.1678,36.1069],[133.1671,36.1136],[133.1625,36.1142],[133.1558,36.1056],[133.1669,36.1003],[133.1678,36.1069]]],[[[133.1778,36.1406],[133.1745,36.1409],[133.1681,36.1336],[133.1721,36.1323],[133.1794,36.1364],[133.1778,36.1406]]]]}},{"type":"Feature","properties":{"id":32002},"geometry":{"type":"MultiPolygon","coordinates":[[[[133.0537,35.9995],[133.0481,35.9989],[133.052,35.9934],[133.0537,35.9995]]],[[[133.0106,36.0322],[133.0011,36.0328],[132.9992,36.0314],[133.0044,36.0233],[133.0037,36.0156],[133.0091,36.0095],[133.0059,36.0041],[133.0123,36.002],[133.0242,36.0067],[133.0283,36.0042],[133.0325,36.0056],[133.0358,36.0017],[133.0402,36.0036],[133.043,36.0112],[133.0469,36.0091],[133.0478,36.0043],[133.0572,36.0034],[133.0551,35.9971],[133.057,35.9946],[133.065,35.9953],[133.065,36.0044],[133.0693,36.006],[133.0731,36.0108],[133.0661,36.0119],[133.0636,36.0102],[133.0551,36.0131],[133.0511,36.0166],[133.0446,36.0191],[133.0428,36.0226],[133.0359,36.0283],[133.0309,36.0291],[133.0274,36.0318],[133.0232,36.0298],[133.0174,36.0317],[133.0106,36.0322]]]]}},{"type":"Feature","properties":{"id":32003},"geometry":{"type":"Polygon","coordinates":[[[132.4682,34.9464],[132.4659,34.9565],[132.4636,34.9605],[132.4591,34.9626],[132.448,34.9644],[132.4299,34.9732],[132.4131,34.9737],[132.4035,34.977],[132.3998,34.9803],[132.3977,34.985],[132.396,34.998],[132.3891,35.0028],[132.3795,35.0078],[132.3757,35.0129],[132.3728,35.0214],[132.3666,35.0345],[132.3604,35.0397],[132.3539,35.0465],[132.3448,35.0502],[132.3341,35.0505],[132.3297,35.0532],[132.3249,35.0593],[132.3184,35.0706],[132.3163,35.066],[132.3111,35.061],[132.311,35.0579],[132.3006,35.0514],[132.2898,35.0479],[132.2855,35.0482],[132.2793,35.0429],[132.266,35.0383],[132.2599,35.0385],[132.2554,35.0421],[132.2437,35.0349],[132.2342,35.0336],[132.2304,35.0303],[132.231,35.0173],[132.2299,35.0105],[132.224,35.0232],[132.2125,35.0144],[132.2039,35.0064],[132.1958,35.0017],[132.1883,34.9928],[132.1711,34.9822],[132.1589,34.9764],[132.152,34.977],[132.149,34.9666],[132.1464,34.9642],[132.1543,34.953],[132.1588,34.9506],[132.1649,34.95],[132.1803,34.9464],[132.1934,34.9483],[132.1985,34.9466],[132.2013,34.9405],[132.2024,34.927],[132.2054,34.9228],[132.2179,34.9185],[132.2278,34.9168],[132.2331,34.9182],[132.2376,34.9223],[132.2434,34.9302],[132.2479,34.9315],[132.2511,34.9293],[132.2534,34.9225],[132.2571,34.9183],[132.263,34.9155],[132.2681,34.901],[132.2746,34.8992],[132.2879,34.9013],[132.2958,34.9],[132.3124,34.8913],[132.3119,34.8951],[132.3135,34.9034],[132.3183,34.9073],[132.3257,34.9089],[132.3387,34.9149],[132.3523,34.9177],[132.3587,34.9219],[132.3662,34.9341],[132.3702,34.9381],[132.3763,34.9405],[132.4008,34.938],[132.4081,34.9352],[132.4178,34.9268],[132.431,34.9258],[132.4341,34.9274],[132.4424,34.9377],[132.4503,34.942],[132.4682,34.9464]]]}},{"type":"Feature","properties":{"id":32004},"geometry":{"type":"MultiPolygon","coordinates":[[[[132.1398,34.7007],[132.1431,34.7065],[132.1513,34.7147],[132.1708,34.726],[132.1795,34.7319],[132.1895,34.7309],[132.199,34.7361],[132.205,34.7455],[132.2155,34.7417],[132.2248,34.7505],[132.2283,34.7607],[132.2351,34.7699],[132.2428,34.7767],[132.2449,34.7878],[132.2407,34.7983],[132.2538,34.8039],[132.2807,34.7936],[132.282,34.7818],[132.2911,34.7763],[132.3012,34.7737],[132.306,34.7838],[132.312,34.7923],[132.3221,34.7941],[132.331,34.7883],[132.3438,34.7884],[132.3525,34.7934],[132.3643,34.797],[132.375,34.7978],[132.3779,34.7961],[132.3878,34.7966],[132.3908,34.8046],[132.3961,34.8156],[132.403,34.8388],[132.4031,34.8467],[132.4009,34.8546],[132.3959,34.8589],[132.3828,34.8599],[132.3631,34.8601],[132.3478,34.8624],[132.3421,34.8641],[132.3327,34.8722],[132.316,34.8895],[132.3124,34.8913],[132.2958,34.9],[132.2879,34.9013],[132.2746,34.8992],[132.2681,34.901],[132.263,34.9155],[132.2571,34.9183],[132.2534,34.9225],[132.2511,34.9293],[132.2479,34.9315],[132.2434,34.9302],[132.2376,34.9223],[132.2331,34.9182],[132.2278,34.9168],[132.2179,34.9185],[132.2054,34.9228],[132.2024,34.927],[132.2013,34.9405],[132.1985,34.9466],[132.1934,34.9483],[132.1803,34.9464],[132.1649,34.95],[132.1588,34.9506],[132.1543,34.953],[132.1464,34.9642],[132.1353,34.9572],[132.1319,34.9564],[132.1208,34.9503],[132.1148,34.9509],[132.1064,34.9459],[132.1085,34.938],[132.1013,34.9321],[132.0959,34.934],[132.0851,34.9307],[132.0848,34.9254],[132.0737,34.9183],[132.0728,34.9105],[132.0752,34.9102],[132.0763,34.9043],[132.07,34.9083],[132.061,34.9033],[132.0582,34.8996],[132.0642,34.8918],[132.0575,34.8879],[132.0596,34.8829],[132.058,34.8751],[132.0545,34.8714],[132.0479,34.8712],[132.0411,34.8737],[132.0435,34.8784],[132.0359,34.8815],[132.0353,34.8793],[132.029,34.8787],[132.0257,34.8735],[132.0182,34.8686],[132.0151,34.8705],[132.0075,34.8672],[132.0077,34.863],[132.0154,34.8582],[132.0078,34.8492],[132.0078,34.8473],[132.0004,34.8433],[131.9949,34.8422],[131.9934,34.8355],[131.988,34.8269],[131.9831,34.8261],[131.9753,34.8208],[131.9708,34.8224],[131.968,34.8204],[131.9622,34.8211],[131.9569,34.8189],[131.9564,34.8126],[131.953,34.8092],[131.9518,34.8029],[131.9489,34.8013],[131.9477,34.7945],[131.9403,34.7887],[131.9352,34.7896],[131.9324,34.7881],[131.9319,34.7826],[131.9246,34.7807],[131.9198,34.7752],[131.9124,34.773],[131.9076,34.7751],[131.9005,34.7741],[131.8971,34.7753],[131.8942,34.7704],[131.8936,34.762],[131.9043,34.7558],[131.9172,34.7516],[131.9326,34.7438],[131.9451,34.7348],[131.9562,34.7234],[131.964,34.7172],[131.9724,34.7147],[131.9825,34.714],[131.9936,34.7144],[132.0023,34.7159],[132.0084,34.7156],[132.0177,34.7073],[132.0254,34.7068],[132.0413,34.7096],[132.0515,34.71],[132.0646,34.709],[132.0763,34.7048],[132.0824,34.705],[132.0907,34.7074],[132.1088,34.7179],[132.1134,34.7188],[132.122,34.7148],[132.1322,34.7075],[132.1378,34.7045],[132.1398,34.7007]]],[[[132.0511,34.9058],[132.0452,34.9044],[132.0452,34.9012],[132.0519,34.9031],[132.0511,34.9058]]]]}},{"type":"Feature","properties":{"id":32005},"geometry":{"type":"Polygon","coordinates":[[[133.1783,35.4362],[133.1693,35.4412],[133.1659,35.4445],[133.1612,35.4449],[133.1521,35.4379],[133.1472,35.4356],[133.1411,35.4358],[133.1351,35.4387],[133.1165,35.4303],[133.1078,35.4233],[133.1054,35.4195],[133.1062,35.4167],[133.118,35.4057],[133.1305,35.3893],[133.1412,35.3781],[133.1486,35.3826],[133.1562,35.3852],[133.1639,35.389],[133.1681,35.3963],[133.176,35.4075],[133.1768,35.4189],[133.1762,35.4262],[133.1783,35.4362]]]}},{"type":"Feature","properties":{"id":32006},"geometry":{"type":"Polygon","coordinates":[[[132.8671,35.3345],[132.8688,35.3485],[132.8754,35.361],[132.8843,35.3669],[132.8759,35.3808],[132.875,35.3845],[132.8824,35.3944],[132.889,35.4004],[132.8979,35.4289],[132.8949,35.4383],[132.8744,35.4318],[132.8541,35.4262],[132.8358,35.4222],[132.8157,35.4145],[132.8064,35.4084],[132.8008,35.4062],[132.7945,35.4021],[132.7895,35.3952],[132.7854,35.3809],[132.7857,35.3726],[132.7896,35.3535],[132.7921,35.3502],[132.7973,35.3475],[132.8076,35.3446],[132.8222,35.3417],[132.836,35.3401],[132.8441,35.34],[132.8526,35.3414],[132.8601,35.3395],[132.8671,35.3345]]]}},{"type":"Feature","properties":{"id":32007},"geometry":{"type":"Polygon","coordinates":[[[132.7719,34.9894],[132.7744,34.9942],[132.7839,35],[132.7896,35.0102],[132.7992,35.0176],[132.8083,35.0233],[132.8149,35.0322],[132.8219,35.0401],[132.8318,35.0439],[132.8302,35.0578],[132.8377,35.0662],[132.8471,35.0738],[132.854,35.0816],[132.8623,35.0894],[132.8738,35.0979],[132.8533,35.0942],[132.8513,35.1008],[132.8468,35.1049],[132.8427,35.1054],[132.8273,35.1044],[132.8195,35.1059],[132.8155,35.1079],[132.8123,35.1118],[132.8095,35.1208],[132.8068,35.1243],[132.8027,35.1249],[132.7917,35.1227],[132.7744,35.1179],[132.7661,35.1117],[132.7615,35.1109],[132.7477,35.1182],[132.7365,35.1199],[132.7256,35.123],[132.7208,35.1261],[132.7164,35.1317],[132.71,35.1419],[132.7079,35.1471],[132.7046,35.1597],[132.6876,35.1672],[132.6749,35.1719],[132.6627,35.1629],[132.6541,35.1528],[132.6478,35.1488],[132.6416,35.1467],[132.6398,35.1438],[132.641,35.1397],[132.6494,35.1251],[132.6587,35.1198],[132.6655,35.1147],[132.6737,35.1125],[132.6762,35.1065],[132.6711,35.0877],[132.6789,35.0762],[132.691,35.0714],[132.7026,35.0691],[132.7057,35.0661],[132.7152,35.0609],[132.7236,35.0545],[132.7256,35.052],[132.723,35.038],[132.7257,35.0256],[132.7236,35.0229],[132.7168,35.0208],[132.7122,35.0213],[132.7058,35.0244],[132.7009,35.0247],[132.6955,35.0228],[132.6819,35.0123],[132.6743,35.0024],[132.6721,34.9923],[132.6695,34.9882],[132.6623,34.9831],[132.6642,34.976],[132.6706,34.9684],[132.6842,34.9615],[132.6882,34.958],[132.693,34.9489],[132.7136,34.9508],[132.723,34.9449],[132.7304,34.9533],[132.7403,34.9571],[132.7528,34.9595],[132.7538,34.9751],[132.766,34.9779],[132.7719,34.9894]]]}},{"type":"Feature","properties":{"id":32008},"geometry":{"type":"Polygon","coordinates":[[[132.8949,35.4383],[132.9121,35.4437],[132.9097,35.4626],[132.9008,35.4945],[132.8988,35.5126],[132.8935,35.5124],[132.8893,35.5102],[132.8786,35.5109],[132.8692,35.5107],[132.8647,35.5133],[132.8605,35.5077],[132.8561,35.5099],[132.8523,35.5068],[132.8464,35.5062],[132.84,35.502],[132.8364,35.5043],[132.8312,35.5043],[132.8255,35.4994],[132.8256,35.4977],[132.8127,35.4968],[132.8068,35.4934],[132.8016,35.4881],[132.8005,35.4834],[132.7941,35.484],[132.7895,35.4807],[132.7832,35.4807],[132.779,35.4786],[132.7757,35.4801],[132.7701,35.4778],[132.7629,35.4775],[132.7585,35.475],[132.7536,35.4763],[132.7471,35.4722],[132.7423,35.4721],[132.7275,35.4689],[132.7355,35.4663],[132.7561,35.4564],[132.757,35.4493],[132.753,35.4473],[132.7484,35.4493],[132.7443,35.447],[132.7275,35.4458],[132.7225,35.4468],[132.7104,35.4415],[132.7048,35.4426],[132.7022,35.4473],[132.6969,35.4499],[132.6868,35.4504],[132.6831,35.4494],[132.6863,35.4436],[132.6793,35.4442],[132.6783,35.4474],[132.6715,35.4452],[132.6624,35.4437],[132.6541,35.4435],[132.653,35.44],[132.6419,35.4417],[132.6457,35.4363],[132.6449,35.4342],[132.6385,35.4342],[132.6339,35.4321],[132.6312,35.4349],[132.6276,35.4337],[132.6281,35.4297],[132.6231,35.4225],[132.6227,35.4182],[132.6279,35.4169],[132.6329,35.4186],[132.6445,35.4152],[132.6501,35.4106],[132.6612,35.4066],[132.6642,35.4036],[132.6707,35.4025],[132.6727,35.4006],[132.6733,35.3922],[132.675,35.3897],[132.6753,35.3758],[132.6734,35.362],[132.6689,35.3451],[132.665,35.335],[132.6547,35.3158],[132.6443,35.3026],[132.6379,35.2974],[132.6306,35.2893],[132.6239,35.285],[132.6138,35.2806],[132.5962,35.2758],[132.5864,35.2754],[132.5828,35.2717],[132.5879,35.2574],[132.5912,35.2502],[132.5969,35.231],[132.601,35.2237],[132.6081,35.2186],[132.618,35.2168],[132.6433,35.2043],[132.6551,35.2022],[132.6625,35.2002],[132.6672,35.1958],[132.6703,35.1909],[132.6741,35.1789],[132.6749,35.1719],[132.6876,35.1672],[132.7046,35.1597],[132.7131,35.165],[132.7224,35.1696],[132.7359,35.1698],[132.7419,35.1728],[132.7461,35.1789],[132.7534,35.1823],[132.7603,35.1913],[132.7633,35.1985],[132.7716,35.2094],[132.7695,35.2236],[132.7743,35.2299],[132.7809,35.2351],[132.7856,35.2414],[132.7864,35.2454],[132.7915,35.2565],[132.7969,35.2763],[132.815,35.2932],[132.8209,35.2955],[132.8378,35.2985],[132.8437,35.3027],[132.8438,35.3065],[132.8414,35.3159],[132.843,35.3181],[132.8501,35.3195],[132.8618,35.3182],[132.8658,35.321],[132.8684,35.3317],[132.8671,35.3345],[132.8601,35.3395],[132.8526,35.3414],[132.8441,35.34],[132.836,35.3401],[132.8222,35.3417],[132.8076,35.3446],[132.7973,35.3475],[132.7921,35.3502],[132.7896,35.3535],[132.7857,35.3726],[132.7854,35.3809],[132.7895,35.3952],[132.7945,35.4021],[132.8008,35.4062],[132.8064,35.4084],[132.8157,35.4145],[132.8358,35.4222],[132.8541,35.4262],[132.8744,35.4318],[132.8949,35.4383]]]}},{"type":"Feature","properties":{"id":32009},"geometry":{"type":"Polygon","coordinates":[[[132.4682,34.9464],[132.4905,34.9472],[132.4982,34.9494],[132.5031,34.9489],[132.5145,34.9373],[132.5198,34.9375],[132.5255,34.9416],[132.5277,34.945],[132.53,34.954],[132.5343,34.9568],[132.5444,34.9571],[132.5502,34.9557],[132.5585,34.9513],[132.5656,34.9451],[132.5727,34.9475],[132.5752,34.9565],[132.5784,34.9599],[132.5764,34.9706],[132.5728,34.9752],[132.5706,34.9809],[132.5703,34.9879],[132.5679,34.9903],[132.5627,34.9905],[132.5501,34.9884],[132.5392,34.9902],[132.5301,35.0055],[132.5219,35.0132],[132.5159,35.0169],[132.5076,35.0295],[132.5056,35.0377],[132.5062,35.045],[132.5046,35.0497],[132.4929,35.0543],[132.4866,35.0559],[132.4863,35.0451],[132.4813,35.0374],[132.4748,35.0322],[132.4663,35.0212],[132.4621,35.0188],[132.449,35.0162],[132.4422,35.0166],[132.423,35.02],[132.417,35.0192],[132.405,35.0112],[132.396,34.998],[132.3977,34.985],[132.3998,34.9803],[132.4035,34.977],[132.4131,34.9737],[132.4299,34.9732],[132.448,34.9644],[132.4591,34.9626],[132.4636,34.9605],[132.4659,34.9565],[132.4682,34.9464]]]}},{"type":"Feature","properties":{"id":32010},"geometry":{"type":"Polygon","coordinates":[[[132.14,34.6485],[132.15,34.6595],[132.157,34.6722],[132.1642,34.6801],[132.157,34.6898],[132.1447,34.6885],[132.1363,34.6943],[132.1398,34.7007],[132.1378,34.7045],[132.1322,34.7075],[132.122,34.7148],[132.1134,34.7188],[132.1088,34.7179],[132.0907,34.7074],[132.0824,34.705],[132.0763,34.7048],[132.0646,34.709],[132.0515,34.71],[132.0413,34.7096],[132.0254,34.7068],[132.0177,34.7073],[132.0084,34.7156],[132.0023,34.7159],[131.9936,34.7144],[131.9825,34.714],[131.9724,34.7147],[131.964,34.7172],[131.9562,34.7234],[131.9451,34.7348],[131.9326,34.7438],[131.9172,34.7516],[131.9043,34.7558],[131.8936,34.762],[131.89,34.7582],[131.8857,34.7569],[131.8739,34.7597],[131.8691,34.7564],[131.8646,34.7552],[131.8698,34.745],[131.8741,34.7434],[131.8694,34.7363],[131.8717,34.733],[131.865,34.7284],[131.8651,34.7251],[131.8619,34.7225],[131.8558,34.7222],[131.8548,34.7169],[131.8495,34.7115],[131.8418,34.7076],[131.8325,34.7012],[131.8247,34.6982],[131.8294,34.6908],[131.827,34.6889],[131.8233,34.6925],[131.8138,34.6928],[131.8057,34.6898],[131.7939,34.6867],[131.7894,34.6867],[131.7753,34.6824],[131.7677,34.6807],[131.7619,34.6782],[131.7577,34.6781],[131.7428,34.6743],[131.7303,34.6735],[131.7228,34.6763],[131.7145,34.6734],[131.7097,34.6767],[131.7035,34.6722],[131.699,34.6761],[131.6915,34.6778],[131.6847,34.6755],[131.6915,34.6544],[131.6977,34.6454],[131.6999,34.6357],[131.6971,34.6233],[131.7021,34.6135],[131.713,34.6113],[131.7196,34.6032],[131.7216,34.5934],[131.7225,34.5833],[131.7269,34.5689],[131.7191,34.5642],[131.7192,34.5628],[131.7321,34.5603],[131.7381,34.56],[131.7526,34.564],[131.761,34.5712],[131.7641,34.5783],[131.7733,34.5824],[131.7973,34.5865],[131.8028,34.5857],[131.8122,34.581],[131.8228,34.5815],[131.8276,34.5795],[131.8341,34.5741],[131.8389,34.5722],[131.8523,34.5693],[131.8558,34.5701],[131.8645,34.5813],[131.8752,34.5876],[131.8864,34.5902],[131.8932,34.5907],[131.8982,34.5886],[131.904,34.5808],[131.9078,34.5797],[131.9145,34.5837],[131.9204,34.582],[131.92,34.5777],[131.9173,34.5723],[131.9184,34.5686],[131.9243,34.5649],[131.9253,34.5586],[131.9227,34.5554],[131.9082,34.5464],[131.9066,34.537],[131.9105,34.5226],[131.9127,34.5173],[131.9218,34.5085],[131.9241,34.5076],[131.9424,34.5075],[131.9558,34.5114],[131.9589,34.511],[131.9645,34.5058],[131.9668,34.4968],[131.9655,34.4819],[131.9666,34.4705],[131.977,34.4733],[131.9817,34.4737],[131.986,34.4714],[131.9914,34.4528],[131.9969,34.449],[132.0012,34.4503],[132.015,34.4623],[132.0266,34.4686],[132.0356,34.4702],[132.0493,34.4691],[132.059,34.4661],[132.0655,34.4735],[132.0598,34.4824],[132.0566,34.4926],[132.0409,34.5],[132.0484,34.5079],[132.0503,34.5182],[132.0561,34.5268],[132.0659,34.5303],[132.0765,34.5318],[132.0863,34.5342],[132.093,34.5423],[132.1013,34.5496],[132.1181,34.5625],[132.1208,34.5739],[132.1249,34.5799],[132.1271,34.5833],[132.1253,34.5968],[132.1195,34.6054],[132.1249,34.6192],[132.1328,34.6266],[132.1289,34.6371],[132.14,34.6485]]]}},{"type":"Feature","properties":{"id":32011},"geometry":{"type":"MultiPolygon","coordinates":[[[[133.1412,35.3781],[133.1305,35.3893],[133.118,35.4057],[133.1062,35.4167],[133.1054,35.4195],[133.1078,35.4233],[133.1165,35.4303],[133.1351,35.4387],[133.1315,35.4452],[133.1249,35.4491],[133.1141,35.4505],[133.1256,35.4639],[133.1349,35.4695],[133.1363,35.476],[133.1338,35.4803],[133.1323,35.4906],[133.1275,35.5071],[133.1285,35.5127],[133.138,35.5181],[133.1434,35.5233],[133.1508,35.5331],[133.1542,35.5362],[133.1595,35.5371],[133.1649,35.5353],[133.1732,35.5286],[133.1784,35.527],[133.1863,35.5283],[133.1924,35.5308],[133.2058,35.5405],[133.2138,35.5427],[133.2353,35.5466],[133.2456,35.5491],[133.2567,35.5537],[133.2655,35.5556],[133.2739,35.5553],[133.2908,35.5581],[133.2996,35.5569],[133.3051,35.5577],[133.321,35.5632],[133.3263,35.5666],[133.3237,35.5695],[133.3146,35.5699],[133.3079,35.5759],[133.3025,35.5732],[133.2908,35.5746],[133.2831,35.5779],[133.2791,35.5743],[133.2677,35.5782],[133.2629,35.5744],[133.2589,35.5748],[133.2558,35.5699],[133.2511,35.5754],[133.2446,35.5705],[133.2366,35.5701],[133.2322,35.5717],[133.2247,35.5712],[133.2277,35.5778],[133.2244,35.5792],[133.2157,35.5791],[133.2152,35.5727],[133.2109,35.5677],[133.2061,35.5692],[133.1947,35.5694],[133.1961,35.5761],[133.1911,35.5803],[133.1861,35.5772],[133.1896,35.5737],[133.189,35.5617],[133.1842,35.5675],[133.1807,35.5668],[133.1754,35.5685],[133.1755,35.5645],[133.1662,35.5631],[133.1649,35.5692],[133.1613,35.5717],[133.1573,35.5667],[133.1589,35.5637],[133.1557,35.5604],[133.1517,35.5592],[133.1492,35.5619],[133.1412,35.5606],[133.139,35.5634],[133.1409,35.5669],[133.1344,35.5719],[133.13,35.5773],[133.1398,35.5792],[133.1391,35.5815],[133.1288,35.5798],[133.1261,35.577],[133.1188,35.5802],[133.1154,35.5868],[133.1122,35.5885],[133.1142,35.5944],[133.1111,35.5978],[133.0981,35.5982],[133.0954,35.6045],[133.0851,35.6021],[133.0846,35.5997],[133.0903,35.5971],[133.0951,35.5902],[133.0929,35.5838],[133.0975,35.5828],[133.0978,35.5796],[133.0922,35.5782],[133.09,35.581],[133.0832,35.5809],[133.076,35.5832],[133.0689,35.5837],[133.0671,35.5806],[133.0592,35.5814],[133.0578,35.5787],[133.0524,35.5775],[133.053,35.5743],[133.0601,35.5718],[133.0594,35.564],[133.0528,35.5635],[133.0478,35.5542],[133.0416,35.5538],[133.0403,35.56],[133.0314,35.5575],[133.0266,35.553],[133.0306,35.5466],[133.0298,35.5406],[133.0144,35.5413],[133.0083,35.5386],[133.0064,35.5403],[132.9983,35.5414],[132.9914,35.5446],[132.9875,35.5434],[132.9819,35.5464],[132.9758,35.5422],[132.9716,35.5447],[132.9685,35.5436],[132.969,35.5324],[132.971,35.5266],[132.9747,35.5256],[132.9747,35.5196],[132.9724,35.5164],[132.9662,35.5148],[132.9619,35.5152],[132.9531,35.5185],[132.9401,35.515],[132.9354,35.5163],[132.9263,35.5162],[132.9206,35.518],[132.9138,35.5137],[132.9056,35.5113],[132.8988,35.5126],[132.9008,35.4945],[132.9097,35.4626],[132.9121,35.4437],[132.8949,35.4383],[132.8979,35.4289],[132.889,35.4004],[132.8824,35.3944],[132.875,35.3845],[132.8759,35.3808],[132.8843,35.3669],[132.9103,35.3723],[132.9234,35.3727],[132.933,35.3705],[132.9391,35.3704],[132.9499,35.3682],[132.9585,35.3672],[132.9712,35.3676],[133.0081,35.3743],[133.0318,35.3746],[133.0386,35.3739],[133.0431,35.3703],[133.05,35.3464],[133.0548,35.3361],[133.0605,35.3262],[133.0697,35.3329],[133.0745,35.3352],[133.0882,35.3447],[133.1073,35.3537],[133.1159,35.3564],[133.1264,35.3638],[133.1329,35.372],[133.1412,35.3781]]],[[[133.125,35.5875],[133.1241,35.5961],[133.1185,35.5894],[133.125,35.5875]]],[[[133.1835,35.5046],[133.1926,35.5063],[133.1948,35.5083],[133.1941,35.5161],[133.19,35.5204],[133.1857,35.5213],[133.1818,35.5196],[133.1799,35.5161],[133.1812,35.5098],[133.1788,35.5067],[133.1676,35.5069],[133.1564,35.5051],[133.1539,35.5034],[133.1525,35.4963],[133.155,35.4896],[133.1623,35.4839],[133.1657,35.4829],[133.176,35.4824],[133.182,35.4835],[133.1892,35.4876],[133.1901,35.4902],[133.1868,35.5003],[133.1835,35.5046]]]]}},{"type":"Feature","properties":{"id":32012},"geometry":{"type":"Polygon","coordinates":[[[132.693,34.9489],[132.6882,34.958],[132.6842,34.9615],[132.6706,34.9684],[132.6642,34.976],[132.6623,34.9831],[132.6695,34.9882],[132.6721,34.9923],[132.6743,35.0024],[132.6819,35.0123],[132.6955,35.0228],[132.7009,35.0247],[132.7058,35.0244],[132.7122,35.0213],[132.7168,35.0208],[132.7236,35.0229],[132.7257,35.0256],[132.723,35.038],[132.7256,35.052],[132.7236,35.0545],[132.7152,35.0609],[132.7057,35.0661],[132.7026,35.0691],[132.691,35.0714],[132.6789,35.0762],[132.6711,35.0877],[132.6635,35.0872],[132.6547,35.0882],[132.6471,35.0934],[132.6421,35.0944],[132.6344,35.091],[132.6275,35.0855],[132.6231,35.0868],[132.6218,35.0915],[132.6219,35.1014],[132.6208,35.1058],[132.6161,35.1112],[132.611,35.1137],[132.5964,35.1165],[132.5799,35.1173],[132.5674,35.1193],[132.5571,35.1182],[132.5522,35.1163],[132.5453,35.1108],[132.5285,35.1022],[132.5136,35.0966],[132.5004,35.0936],[132.4915,35.0881],[132.4865,35.0712],[132.4859,35.0615],[132.4866,35.0559],[132.4929,35.0543],[132.5046,35.0497],[132.5062,35.045],[132.5056,35.0377],[132.5076,35.0295],[132.5159,35.0169],[132.5219,35.0132],[132.5301,35.0055],[132.5392,34.9902],[132.5501,34.9884],[132.5627,34.9905],[132.5679,34.9903],[132.5703,34.9879],[132.5706,34.9809],[132.5728,34.9752],[132.5764,34.9706],[132.5784,34.9599],[132.5824,34.9562],[132.588,34.9442],[132.5937,34.9381],[132.5988,34.9345],[132.6091,34.9291],[132.6177,34.9262],[132.6249,34.9262],[132.6319,34.9249],[132.6395,34.921],[132.6414,34.918],[132.6464,34.9027],[132.6501,34.9002],[132.6491,34.907],[132.6589,34.92],[132.6781,34.9293],[132.6826,34.9384],[132.693,34.9489]]]}},{"type":"Feature","properties":{"id":32013},"geometry":{"type":"Polygon","coordinates":[[[133.0783,36.1425],[133.0728,36.1411],[133.0692,36.1426],[133.0647,36.1365],[133.0609,36.1349],[133.0578,36.1301],[133.055,36.1325],[133.0471,36.1296],[133.0436,36.1345],[133.0362,36.1353],[133.0277,36.1384],[133.0258,36.1367],[133.0188,36.1359],[133.016,36.1377],[133.0121,36.1358],[133.0138,36.1317],[133.0122,36.1158],[133.0078,36.1144],[133.0039,36.1102],[133,36.1144],[132.9903,36.1136],[132.9878,36.1161],[132.9819,36.1178],[132.9717,36.1072],[132.9702,36.104],[132.9647,36.0996],[132.9597,36.0978],[132.9675,36.0947],[132.9664,36.0925],[132.9553,36.0897],[132.9536,36.0858],[132.9468,36.0771],[132.952,36.0745],[132.9501,36.0705],[132.9452,36.0664],[132.9503,36.0614],[132.9578,36.0592],[132.9611,36.0603],[132.9678,36.0572],[132.9727,36.0566],[132.9754,36.0523],[132.985,36.0492],[132.9886,36.0444],[132.9958,36.0403],[132.9997,36.0406],[132.9995,36.0444],[132.9933,36.0517],[132.9942,36.055],[132.9903,36.0603],[132.9763,36.084],[132.9787,36.0879],[132.9845,36.0875],[132.9922,36.0833],[132.9911,36.0917],[132.9961,36.0906],[133.0067,36.0925],[133.0061,36.0834],[133.0102,36.0795],[133.0071,36.0757],[133.009,36.0736],[133.0143,36.0742],[133.0217,36.0639],[133.0364,36.0651],[133.0388,36.0618],[133.0461,36.0606],[133.0524,36.0678],[133.0506,36.0784],[133.0568,36.0833],[133.056,36.0881],[133.0514,36.0951],[133.0438,36.0957],[133.0464,36.099],[133.0427,36.1012],[133.04,36.1067],[133.0422,36.1109],[133.0471,36.1124],[133.0547,36.1115],[133.0594,36.1133],[133.0698,36.1134],[133.075,36.118],[133.0798,36.1201],[133.0838,36.1246],[133.0867,36.1251],[133.0909,36.1344],[133.0892,36.1372],[133.0814,36.14],[133.0783,36.1425]]]}},{"type":"Feature","properties":{"id":32014},"geometry":{"type":"Polygon","coordinates":[[[132.3184,35.0706],[132.3249,35.0593],[132.3297,35.0532],[132.3341,35.0505],[132.3448,35.0502],[132.3539,35.0465],[132.3604,35.0397],[132.3666,35.0345],[132.3728,35.0214],[132.3757,35.0129],[132.3795,35.0078],[132.3891,35.0028],[132.396,34.998],[132.405,35.0112],[132.417,35.0192],[132.423,35.02],[132.4422,35.0166],[132.449,35.0162],[132.4621,35.0188],[132.4663,35.0212],[132.4748,35.0322],[132.4813,35.0374],[132.4863,35.0451],[132.4866,35.0559],[132.4859,35.0615],[132.4865,35.0712],[132.4915,35.0881],[132.5004,35.0936],[132.5136,35.0966],[132.5285,35.1022],[132.5453,35.1108],[132.5522,35.1163],[132.5571,35.1182],[132.5674,35.1193],[132.5799,35.1173],[132.5964,35.1165],[132.611,35.1137],[132.6161,35.1112],[132.6208,35.1058],[132.6219,35.1014],[132.6218,35.0915],[132.6231,35.0868],[132.6275,35.0855],[132.6344,35.091],[132.6421,35.0944],[132.6471,35.0934],[132.6547,35.0882],[132.6635,35.0872],[132.6711,35.0877],[132.6762,35.1065],[132.6737,35.1125],[132.6655,35.1147],[132.6587,35.1198],[132.6494,35.1251],[132.641,35.1397],[132.6398,35.1438],[132.6416,35.1467],[132.6478,35.1488],[132.6541,35.1528],[132.6627,35.1629],[132.6749,35.1719],[132.6741,35.1789],[132.6703,35.1909],[132.6672,35.1958],[132.6625,35.2002],[132.6551,35.2022],[132.6433,35.2043],[132.618,35.2168],[132.6081,35.2186],[132.601,35.2237],[132.5969,35.231],[132.5912,35.2502],[132.5879,35.2574],[132.5828,35.2717],[132.5751,35.2721],[132.5699,35.2684],[132.5614,35.2648],[132.5556,35.264],[132.5511,35.2602],[132.5436,35.2591],[132.5303,35.2519],[132.5263,35.247],[132.5287,35.244],[132.5259,35.2414],[132.5196,35.2395],[132.5164,35.2405],[132.5083,35.2374],[132.504,35.23],[132.4968,35.2266],[132.4917,35.2308],[132.4865,35.2281],[132.4879,35.2247],[132.4817,35.2196],[132.474,35.2174],[132.4675,35.2173],[132.4658,35.21],[132.4612,35.2064],[132.4541,35.2027],[132.4502,35.1987],[132.4434,35.1948],[132.4383,35.1946],[132.4344,35.1909],[132.4281,35.189],[132.4217,35.1889],[132.4211,35.1826],[132.4153,35.1833],[132.4121,35.1756],[132.4068,35.1736],[132.4036,35.1703],[132.4041,35.1605],[132.4006,35.1567],[132.3905,35.1561],[132.3938,35.153],[132.3934,35.1496],[132.3871,35.1435],[132.3914,35.1391],[132.3897,35.1316],[132.3827,35.1262],[132.3753,35.1281],[132.3683,35.1228],[132.3636,35.1211],[132.3652,35.1145],[132.3589,35.1114],[132.3544,35.1065],[132.3514,35.1097],[132.3486,35.1054],[132.3423,35.1024],[132.3349,35.0958],[132.3292,35.0933],[132.3233,35.0889],[132.3219,35.0825],[132.3277,35.0809],[132.3274,35.0759],[132.3188,35.0735],[132.3184,35.0706]]]}},{"type":"Feature","properties":{"id":32015},"geometry":{"type":"Polygon","coordinates":[[[133.2836,36.3459],[133.2802,36.3463],[133.28,36.3412],[133.2704,36.3325],[133.2656,36.3312],[133.2639,36.3285],[133.2588,36.3297],[133.2528,36.3293],[133.2525,36.333],[133.2456,36.3341],[133.2311,36.3281],[133.224,36.3278],[133.2267,36.3218],[133.2318,36.3182],[133.2256,36.314],[133.2183,36.3146],[133.2137,36.311],[133.2076,36.3087],[133.2105,36.3007],[133.2014,36.2987],[133.1959,36.3014],[133.1955,36.2946],[133.1924,36.2904],[133.2006,36.2886],[133.1983,36.2859],[133.1987,36.2801],[133.1864,36.2894],[133.1821,36.2863],[133.1878,36.2827],[133.188,36.2766],[133.1861,36.2661],[133.1772,36.2592],[133.1778,36.2494],[133.1873,36.2487],[133.1916,36.2462],[133.1899,36.2356],[133.1901,36.2298],[133.1836,36.2256],[133.1848,36.2149],[133.1913,36.2144],[133.1956,36.2108],[133.2079,36.209],[133.2083,36.2019],[133.2105,36.196],[133.2178,36.1931],[133.2238,36.1887],[133.2291,36.1884],[133.2362,36.1907],[133.2449,36.1903],[133.2464,36.1853],[133.2427,36.1818],[133.2379,36.1823],[133.2368,36.1788],[133.2406,36.1758],[133.235,36.1705],[133.2366,36.1658],[133.2478,36.1661],[133.2478,36.1625],[133.2531,36.1611],[133.2572,36.1686],[133.2608,36.1686],[133.2617,36.1645],[133.2688,36.1691],[133.2711,36.1681],[133.2782,36.1699],[133.2783,36.1799],[133.2842,36.1784],[133.2892,36.1744],[133.2918,36.1795],[133.3029,36.1735],[133.3076,36.1734],[133.3267,36.1674],[133.3402,36.1719],[133.3373,36.1816],[133.3386,36.1874],[133.3357,36.1928],[133.3358,36.197],[133.3297,36.1974],[133.3276,36.2004],[133.3176,36.1983],[133.3101,36.2012],[133.3122,36.2038],[133.3178,36.2045],[133.3218,36.2028],[133.3249,36.2044],[133.3292,36.2017],[133.3356,36.2031],[133.3385,36.2075],[133.3373,36.2103],[133.3405,36.2157],[133.3394,36.2202],[133.3491,36.2193],[133.3456,36.2151],[133.3491,36.2114],[133.346,36.2039],[133.3389,36.1969],[133.349,36.1955],[133.3551,36.1991],[133.3556,36.2025],[133.3675,36.204],[133.3703,36.2063],[133.3704,36.2154],[133.3723,36.2218],[133.3772,36.23],[133.3759,36.2379],[133.3768,36.2416],[133.3735,36.2439],[133.3763,36.2474],[133.3729,36.2503],[133.3777,36.2576],[133.3761,36.2607],[133.3828,36.2642],[133.3844,36.2691],[133.3757,36.2718],[133.3785,36.2737],[133.3725,36.2805],[133.3675,36.2789],[133.3636,36.28],[133.3609,36.285],[133.3627,36.2898],[133.3579,36.2899],[133.3559,36.2987],[133.3505,36.2976],[133.3454,36.2983],[133.3402,36.3029],[133.3422,36.3114],[133.3342,36.3117],[133.3295,36.309],[133.3248,36.3088],[133.3254,36.3166],[133.3214,36.3167],[133.3186,36.3206],[133.321,36.3251],[133.3192,36.3275],[133.3119,36.3206],[133.3064,36.3229],[133.3099,36.3273],[133.305,36.3286],[133.3028,36.3255],[133.296,36.3293],[133.2963,36.332],[133.2891,36.3356],[133.2836,36.3459]]]}},{"type":"Feature","properties":{"id":32016},"geometry":{"type":"Polygon","coordinates":[[[133.144,35.0732],[133.1397,35.0868],[133.1425,35.0966],[133.1469,35.1064],[133.1453,35.1174],[133.1478,35.1274],[133.1524,35.1376],[133.1614,35.1458],[133.1828,35.1526],[133.1912,35.1582],[133.1975,35.1666],[133.1934,35.1769],[133.1845,35.185],[133.186,35.1954],[133.177,35.202],[133.1653,35.2033],[133.1553,35.2008],[133.1549,35.205],[133.1529,35.2063],[133.1503,35.2134],[133.13,35.2098],[133.1178,35.2091],[133.1121,35.2113],[133.1098,35.2143],[133.1088,35.2206],[133.1095,35.2264],[133.1085,35.2348],[133.1062,35.2388],[133.0976,35.2448],[133.0892,35.2463],[133.0695,35.2453],[133.05,35.242],[133.0362,35.2445],[133.0249,35.2448],[133.0135,35.2437],[133.0064,35.2449],[132.9903,35.2489],[132.9787,35.2498],[132.9688,35.249],[132.9605,35.2467],[132.957,35.2427],[132.9642,35.2304],[132.9669,35.2217],[132.9659,35.2167],[132.9607,35.2133],[132.9484,35.2091],[132.9416,35.2056],[132.9399,35.1992],[132.9479,35.1725],[132.9482,35.1674],[132.9444,35.1592],[132.9395,35.1519],[132.9356,35.1509],[132.9223,35.1511],[132.911,35.1488],[132.9088,35.1464],[132.9079,35.1402],[132.9105,35.1311],[132.9146,35.1253],[132.9174,35.118],[132.9154,35.1141],[132.9092,35.1148],[132.904,35.1184],[132.8992,35.114],[132.8937,35.1015],[132.9032,35.0959],[132.9092,35.0873],[132.9231,35.0808],[132.9333,35.0793],[132.9437,35.0768],[132.953,35.0723],[132.9645,35.0759],[132.9806,35.0833],[132.993,35.098],[133.0082,35.0873],[133.0181,35.0833],[133.0334,35.07],[133.0426,35.0649],[133.0549,35.0673],[133.0616,35.0761],[133.0722,35.078],[133.0828,35.0776],[133.0931,35.0788],[133.1039,35.0793],[133.1147,35.0825],[133.125,35.0802],[133.144,35.0732]]]}},{"type":"Feature","properties":{"id":32017},"geometry":{"type":"Polygon","coordinates":[[[132.7093,34.8521],[132.7116,34.8564],[132.7074,34.8655],[132.7032,34.8787],[132.6926,34.881],[132.678,34.8915],[132.6685,34.8874],[132.6506,34.8969],[132.6501,34.9002],[132.6464,34.9027],[132.6414,34.918],[132.6395,34.921],[132.6319,34.9249],[132.6249,34.9262],[132.6177,34.9262],[132.6091,34.9291],[132.5988,34.9345],[132.5937,34.9381],[132.588,34.9442],[132.5824,34.9562],[132.5784,34.9599],[132.5752,34.9565],[132.5727,34.9475],[132.5656,34.9451],[132.5585,34.9513],[132.5502,34.9557],[132.5444,34.9571],[132.5343,34.9568],[132.53,34.954],[132.5277,34.945],[132.5255,34.9416],[132.5198,34.9375],[132.5145,34.9373],[132.5031,34.9489],[132.4982,34.9494],[132.4905,34.9472],[132.4682,34.9464],[132.4503,34.942],[132.4424,34.9377],[132.4341,34.9274],[132.431,34.9258],[132.4178,34.9268],[132.4081,34.9352],[132.4008,34.938],[132.3763,34.9405],[132.3702,34.9381],[132.3662,34.9341],[132.3587,34.9219],[132.3523,34.9177],[132.3387,34.9149],[132.3257,34.9089],[132.3183,34.9073],[132.3135,34.9034],[132.3119,34.8951],[132.3124,34.8913],[132.316,34.8895],[132.3327,34.8722],[132.3421,34.8641],[132.3478,34.8624],[132.3631,34.8601],[132.3828,34.8599],[132.3959,34.8589],[132.4009,34.8546],[132.4031,34.8467],[132.403,34.8388],[132.3961,34.8156],[132.3908,34.8046],[132.3878,34.7966],[132.3779,34.7961],[132.3856,34.7916],[132.3899,34.7795],[132.4015,34.7802],[132.4093,34.7882],[132.4176,34.7945],[132.4274,34.7983],[132.4237,34.8087],[132.434,34.8123],[132.4445,34.8145],[132.4523,34.808],[132.4569,34.7975],[132.4672,34.7993],[132.4778,34.796],[132.4892,34.7948],[132.5,34.7961],[132.5096,34.7928],[132.5187,34.7993],[132.5397,34.792],[132.5434,34.7948],[132.5495,34.7995],[132.5583,34.8045],[132.569,34.8028],[132.5761,34.8099],[132.5947,34.8203],[132.6013,34.8281],[132.6144,34.8363],[132.6246,34.839],[132.6355,34.8368],[132.6511,34.8367],[132.6624,34.8289],[132.675,34.8416],[132.6839,34.8473],[132.6939,34.844],[132.7039,34.8422],[132.7093,34.8521]]]}},{"type":"Feature","properties":{"id":32018},"geometry":{"type":"Polygon","coordinates":[[[131.7191,34.5642],[131.7172,34.5631],[131.7052,34.5622],[131.7035,34.548],[131.7071,34.5384],[131.7041,34.5275],[131.6957,34.5197],[131.6847,34.5156],[131.6766,34.5092],[131.6708,34.5008],[131.6738,34.4983],[131.6806,34.4927],[131.683,34.4823],[131.6922,34.4768],[131.7023,34.4717],[131.6964,34.4629],[131.6984,34.4511],[131.6965,34.4408],[131.7015,34.4316],[131.7237,34.4254],[131.7341,34.4281],[131.744,34.4259],[131.7519,34.4333],[131.7616,34.4306],[131.7717,34.4326],[131.7939,34.4331],[131.7966,34.4429],[131.8056,34.4476],[131.8258,34.4515],[131.8306,34.4532],[131.8355,34.46],[131.8362,34.4634],[131.8481,34.479],[131.8533,34.4802],[131.8656,34.4783],[131.8735,34.479],[131.8799,34.4769],[131.8827,34.4737],[131.8949,34.4652],[131.8991,34.4652],[131.9134,34.468],[131.9191,34.4679],[131.9284,34.4612],[131.9339,34.4605],[131.9445,34.4652],[131.9554,34.469],[131.9666,34.4705],[131.9655,34.4819],[131.9668,34.4968],[131.9645,34.5058],[131.9589,34.511],[131.9558,34.5114],[131.9424,34.5075],[131.9241,34.5076],[131.9218,34.5085],[131.9127,34.5173],[131.9105,34.5226],[131.9066,34.537],[131.9082,34.5464],[131.9227,34.5554],[131.9253,34.5586],[131.9243,34.5649],[131.9184,34.5686],[131.9173,34.5723],[131.92,34.5777],[131.9204,34.582],[131.9145,34.5837],[131.9078,34.5797],[131.904,34.5808],[131.8982,34.5886],[131.8932,34.5907],[131.8864,34.5902],[131.8752,34.5876],[131.8645,34.5813],[131.8558,34.5701],[131.8523,34.5693],[131.8389,34.5722],[131.8341,34.5741],[131.8276,34.5795],[131.8228,34.5815],[131.8122,34.581],[131.8028,34.5857],[131.7973,34.5865],[131.7733,34.5824],[131.7641,34.5783],[131.761,34.5712],[131.7526,34.564],[131.7381,34.56],[131.7321,34.5603],[131.7192,34.5628],[131.7191,34.5642]]]}},{"type":"Feature","properties":{"id":32019},"geometry":{"type":"Polygon","coordinates":[[[132.8937,35.1015],[132.8992,35.114],[132.904,35.1184],[132.9092,35.1148],[132.9154,35.1141],[132.9174,35.118],[132.9146,35.1253],[132.9105,35.1311],[132.9079,35.1402],[132.9088,35.1464],[132.911,35.1488],[132.9223,35.1511],[132.9356,35.1509],[132.9395,35.1519],[132.9444,35.1592],[132.9482,35.1674],[132.9479,35.1725],[132.9399,35.1992],[132.9416,35.2056],[132.9484,35.2091],[132.9607,35.2133],[132.9659,35.2167],[132.9669,35.2217],[132.9642,35.2304],[132.957,35.2427],[132.9605,35.2467],[132.9688,35.249],[132.9787,35.2498],[132.9903,35.2489],[133.0064,35.2449],[133.0135,35.2437],[133.0249,35.2448],[133.0362,35.2445],[133.05,35.242],[133.0695,35.2453],[133.072,35.2542],[133.0729,35.2647],[133.0651,35.2925],[133.0638,35.3003],[133.065,35.3074],[133.0639,35.3144],[133.0605,35.3262],[133.0548,35.3361],[133.05,35.3464],[133.0431,35.3703],[133.0386,35.3739],[133.0318,35.3746],[133.0081,35.3743],[132.9712,35.3676],[132.9585,35.3672],[132.9499,35.3682],[132.9391,35.3704],[132.933,35.3705],[132.9234,35.3727],[132.9103,35.3723],[132.8843,35.3669],[132.8754,35.361],[132.8688,35.3485],[132.8671,35.3345],[132.8684,35.3317],[132.8658,35.321],[132.8618,35.3182],[132.8501,35.3195],[132.843,35.3181],[132.8414,35.3159],[132.8438,35.3065],[132.8437,35.3027],[132.8378,35.2985],[132.8209,35.2955],[132.815,35.2932],[132.7969,35.2763],[132.7915,35.2565],[132.7864,35.2454],[132.7856,35.2414],[132.7809,35.2351],[132.7743,35.2299],[132.7695,35.2236],[132.7716,35.2094],[132.7633,35.1985],[132.7603,35.1913],[132.7534,35.1823],[132.7461,35.1789],[132.7419,35.1728],[132.7359,35.1698],[132.7224,35.1696],[132.7131,35.165],[132.7046,35.1597],[132.7079,35.1471],[132.71,35.1419],[132.7164,35.1317],[132.7208,35.1261],[132.7256,35.123],[132.7365,35.1199],[132.7477,35.1182],[132.7615,35.1109],[132.7661,35.1117],[132.7744,35.1179],[132.7917,35.1227],[132.8027,35.1249],[132.8068,35.1243],[132.8095,35.1208],[132.8123,35.1118],[132.8155,35.1079],[132.8195,35.1059],[132.8273,35.1044],[132.8427,35.1054],[132.8468,35.1049],[132.8513,35.1008],[132.8533,35.0942],[132.8738,35.0979],[132.8746,35.0985],[132.8937,35.1015]]]}},{"type":"Feature","properties":{"id":32020},"geometry":{"type":"Polygon","coordinates":[[[133.1412,35.3781],[133.1329,35.372],[133.1264,35.3638],[133.1159,35.3564],[133.1073,35.3537],[133.0882,35.3447],[133.0745,35.3352],[133.0697,35.3329],[133.0605,35.3262],[133.0639,35.3144],[133.065,35.3074],[133.0638,35.3003],[133.0651,35.2925],[133.0729,35.2647],[133.072,35.2542],[133.0695,35.2453],[133.0892,35.2463],[133.0976,35.2448],[133.1062,35.2388],[133.1085,35.2348],[133.1095,35.2264],[133.1088,35.2206],[133.1098,35.2143],[133.1121,35.2113],[133.1178,35.2091],[133.13,35.2098],[133.1503,35.2134],[133.1529,35.2063],[133.1549,35.205],[133.1543,35.2127],[133.1639,35.2197],[133.1735,35.2239],[133.1828,35.2304],[133.1933,35.2335],[133.2085,35.2389],[133.219,35.2416],[133.2286,35.2458],[133.2396,35.2459],[133.2531,35.2536],[133.2621,35.2579],[133.2722,35.2557],[133.283,35.2582],[133.2937,35.2579],[133.3044,35.2601],[133.3098,35.2675],[133.3116,35.2701],[133.3034,35.2914],[133.3068,35.3017],[133.3008,35.31],[133.3004,35.3232],[133.2977,35.3378],[133.3009,35.3487],[133.3076,35.3578],[133.3191,35.3637],[133.322,35.3784],[133.3179,35.3887],[133.3124,35.3922],[133.3101,35.4044],[133.3062,35.409],[133.298,35.4134],[133.2953,35.4183],[133.2946,35.4244],[133.2905,35.4269],[133.2809,35.4274],[133.2717,35.4309],[133.2658,35.4317],[133.259,35.431],[133.2489,35.4353],[133.2385,35.4448],[133.2307,35.4488],[133.2202,35.4499],[133.2038,35.4467],[133.1783,35.4362],[133.1762,35.4262],[133.1768,35.4189],[133.176,35.4075],[133.1681,35.3963],[133.1639,35.389],[133.1562,35.3852],[133.1486,35.3826],[133.1412,35.3781]]]}},{"type":"Feature","properties":{"id":32021},"geometry":{"type":"Polygon","coordinates":[[[131.9666,34.4705],[131.9554,34.469],[131.9445,34.4652],[131.9339,34.4605],[131.9284,34.4612],[131.9191,34.4679],[131.9134,34.468],[131.8991,34.4652],[131.8949,34.4652],[131.8827,34.4737],[131.8799,34.4769],[131.8735,34.479],[131.8656,34.4783],[131.8533,34.4802],[131.8481,34.479],[131.8362,34.4634],[131.8355,34.46],[131.8306,34.4532],[131.8258,34.4515],[131.8056,34.4476],[131.7966,34.4429],[131.7939,34.4331],[131.7964,34.4333],[131.7967,34.4232],[131.7893,34.4069],[131.7869,34.3965],[131.777,34.3912],[131.7692,34.3817],[131.7689,34.3678],[131.7717,34.3573],[131.7737,34.3549],[131.7808,34.3463],[131.7775,34.3364],[131.7871,34.3283],[131.7976,34.3239],[131.8015,34.314],[131.8143,34.3092],[131.8215,34.3002],[131.8364,34.308],[131.8475,34.3076],[131.8575,34.303],[131.875,34.3044],[131.885,34.31],[131.8881,34.3118],[131.8933,34.3208],[131.9026,34.3159],[131.9132,34.3237],[131.9224,34.3336],[131.9328,34.3297],[131.9414,34.3238],[131.9491,34.3169],[131.9576,34.3072],[131.9643,34.3152],[131.9742,34.3233],[131.9773,34.3333],[131.9836,34.3414],[131.9921,34.3497],[132.0026,34.3625],[132.0137,34.3634],[132.0144,34.3739],[132.004,34.3922],[132,34.4038],[131.9925,34.4115],[132,34.4248],[132.0102,34.4284],[132.0185,34.4343],[132.0187,34.4455],[132.0245,34.4547],[132.0434,34.4649],[132.0577,34.4646],[132.059,34.4661],[132.0493,34.4691],[132.0356,34.4702],[132.0266,34.4686],[132.015,34.4623],[132.0012,34.4503],[131.9969,34.449],[131.9914,34.4528],[131.986,34.4714],[131.9817,34.4737],[131.977,34.4733],[131.9666,34.4705]]]}}]}