{"type":"FeatureCollection","features":[{"type":"Feature","properties":{"id":33001},"geometry":{"type":"Polygon","coordinates":[[[134.1082,34.7335],[134.1157,34.7405],[134.1195,34.7474],[134.1297,34.7569],[134.1348,34.7599],[134.1497,34.7633],[134.1519,34.7723],[134.1499,34.7783],[134.1433,34.7822],[134.1333,34.7838],[134.1228,34.7871],[134.1085,34.794],[134.0981,34.8037],[134.0918,34.8147],[134.087,34.8188],[134.0784,34.8228],[134.0658,34.8236],[134.0571,34.8296],[134.0487,34.8278],[134.0437,34.8298],[134.0438,34.8352],[134.0484,34.8425],[134.0502,34.8496],[134.0544,34.8529],[134.0672,34.8543],[134.077,34.8585],[134.0852,34.8653],[134.0904,34.8709],[134.0975,34.8727],[134.0998,34.8746],[134.1001,34.8798],[134.0959,34.886],[134.0955,34.896],[134.101,34.9099],[134.1061,34.9171],[134.0968,34.9214],[134.0934,34.9259],[134.0936,34.9357],[134.0916,34.9394],[134.0866,34.9411],[134.0795,34.941],[134.0681,34.935],[134.0565,34.9347],[134.0482,34.938],[134.0419,34.9429],[134.0362,34.9441],[134.0292,34.9436],[134.023,34.941],[134.0135,34.9303],[134.015,34.9261],[134.0161,34.9149],[134.0108,34.904],[134.0076,34.8927],[133.9995,34.8853],[133.9892,34.8811],[133.9807,34.8785],[133.9753,34.873],[133.971,34.8706],[133.9616,34.8686],[133.9681,34.8593],[133.9694,34.8546],[133.9578,34.8261],[133.9745,34.8281],[133.9859,34.8316],[133.9891,34.8265],[133.9888,34.8118],[133.9866,34.806],[133.9779,34.8002],[133.9684,34.7845],[133.9688,34.7815],[133.9814,34.7762],[133.9821,34.7733],[133.98,34.766],[133.9834,34.7567],[133.9811,34.7505],[133.9731,34.7436],[133.9704,34.7379],[133.9697,34.7259],[133.9705,34.7224],[133.9825,34.7122],[133.9895,34.712],[133.9956,34.7142],[134.0095,34.7253],[134.0228,34.7304],[134.0275,34.7332],[134.04,34.7426],[134.0498,34.7508],[134.0537,34.7577],[134.061,34.7659],[134.066,34.77],[134.0733,34.774],[134.0838,34.7744],[134.0943,34.7718],[134.0964,34.7699],[134.0978,34.763],[134.0955,34.7524],[134.1037,34.743],[134.1082,34.7335]]]}},{"type":"Feature","properties":{"id":33002},"geometry":{"type":"Polygon","coordinates":[[[133.5693,34.4841],[133.5752,34.4728],[133.5779,34.469],[133.5803,34.4708],[133.5959,34.4713],[133.6018,34.4734],[133.5916,34.4792],[133.5894,34.4819],[133.5909,34.4863],[133.5978,34.4917],[133.6025,34.4908],[133.606,34.4945],[133.6065,34.5047],[133.6228,34.5128],[133.6283,34.5176],[133.632,34.5241],[133.6357,34.5277],[133.6441,34.542],[133.6469,34.5482],[133.6457,34.5531],[133.641,34.5605],[133.6319,34.5704],[133.6268,34.5772],[133.6161,34.5738],[133.6114,34.5738],[133.599,34.5773],[133.5929,34.5783],[133.5847,34.5874],[133.5792,34.5877],[133.571,34.584],[133.5702,34.5759],[133.5653,34.5589],[133.5602,34.5503],[133.5555,34.5478],[133.5488,34.5468],[133.5465,34.545],[133.546,34.5404],[133.5513,34.5308],[133.5645,34.5328],[133.5719,34.5328],[133.5851,34.5302],[133.5874,34.5268],[133.5865,34.5152],[133.5729,34.4994],[133.5702,34.4929],[133.5693,34.4841]]]}},{"type":"Feature","properties":{"id":33003},"geometry":{"type":"MultiPolygon","coordinates":[[[[134.2944,34.6847],[134.2967,34.68],[134.3022,34.6825],[134.2944,34.6847]]],[[[134.2996,34.73],[134.2931,34.7298],[134.2857,34.7239],[134.2853,34.7183],[134.2805,34.7222],[134.2742,34.7214],[134.2766,34.7177],[134.2754,34.7131],[134.2849,34.706],[134.2912,34.7065],[134.2953,34.7087],[134.3024,34.7083],[134.302,34.7123],[134.3054,34.7139],[134.3089,34.7094],[134.3085,34.7061],[134.317,34.7027],[134.3208,34.7032],[134.325,34.7065],[134.3235,34.709],[134.3271,34.712],[134.3315,34.7086],[134.3367,34.711],[134.3382,34.7068],[134.3472,34.7083],[134.3399,34.7168],[134.3384,34.7205],[134.3323,34.7235],[134.323,34.7142],[134.3176,34.7174],[134.3106,34.7274],[134.2996,34.73]]],[[[134.2594,34.7066],[134.2505,34.7056],[134.2524,34.7017],[134.2499,34.6955],[134.2512,34.6921],[134.2559,34.6905],[134.2616,34.694],[134.2639,34.6979],[134.2697,34.6956],[134.2715,34.6985],[134.2594,34.7066]]],[[[134.2904,34.7036],[134.2794,34.7028],[134.2827,34.6983],[134.2904,34.6979],[134.2904,34.7036]]],[[[134.2661,34.7136],[134.265,34.7142],[134.2509,34.7125],[134.2536,34.7087],[134.2663,34.7082],[134.2692,34.7102],[134.2661,34.7136]]],[[[134.2181,34.7211],[134.2182,34.7236],[134.2132,34.7258],[134.2125,34.7219],[134.2181,34.7211]]],[[[134.3475,34.7356],[134.3315,34.7613],[134.3351,34.7629],[134.3216,34.7829],[134.3201,34.793],[134.3129,34.8009],[134.307,34.8098],[134.2973,34.8147],[134.2928,34.8169],[134.2882,34.826],[134.2771,34.8245],[134.2654,34.8333],[134.2634,34.8437],[134.2564,34.8531],[134.2617,34.8616],[134.2681,34.8697],[134.265,34.8793],[134.2727,34.8865],[134.2822,34.8923],[134.2916,34.8957],[134.2919,34.9029],[134.2921,34.9077],[134.2856,34.9181],[134.2786,34.9253],[134.2697,34.932],[134.2592,34.9331],[134.258,34.9413],[134.2446,34.9436],[134.2424,34.9412],[134.2419,34.9343],[134.2334,34.9254],[134.2308,34.9184],[134.2277,34.9059],[134.2224,34.9047],[134.2121,34.9085],[134.2057,34.9086],[134.198,34.9051],[134.1977,34.8956],[134.1916,34.8881],[134.1954,34.8829],[134.1954,34.8754],[134.186,34.8673],[134.185,34.8612],[134.1883,34.8582],[134.2063,34.8514],[134.2093,34.8491],[134.2143,34.8385],[134.2141,34.8275],[134.209,34.8198],[134.2032,34.8134],[134.1976,34.7994],[134.1961,34.789],[134.198,34.7634],[134.1963,34.7608],[134.1754,34.7574],[134.1624,34.7564],[134.1497,34.7633],[134.1348,34.7599],[134.1297,34.7569],[134.1195,34.7474],[134.1157,34.7405],[134.1082,34.7335],[134.1046,34.7275],[134.1034,34.7228],[134.1107,34.7189],[134.1165,34.7062],[134.1211,34.702],[134.1262,34.7034],[134.1344,34.713],[134.1437,34.7173],[134.1549,34.7184],[134.16,34.7171],[134.1668,34.7127],[134.1675,34.707],[134.165,34.6971],[134.1649,34.6882],[134.1674,34.6835],[134.1713,34.681],[134.1787,34.6833],[134.1875,34.6882],[134.1978,34.6913],[134.209,34.6965],[134.2218,34.6952],[134.2277,34.6975],[134.2346,34.7028],[134.2395,34.7007],[134.2407,34.6958],[134.2458,34.7011],[134.2383,34.7083],[134.235,34.7153],[134.2294,34.715],[134.2283,34.7128],[134.2197,34.7092],[134.2053,34.7117],[134.2133,34.7147],[134.2048,34.7173],[134.1987,34.7152],[134.1978,34.7203],[134.2041,34.7232],[134.2047,34.7266],[134.1958,34.73],[134.1872,34.735],[134.1804,34.7355],[134.1825,34.7398],[134.1975,34.7323],[134.2074,34.7298],[134.211,34.7309],[134.2224,34.7297],[134.2288,34.7312],[134.2331,34.7254],[134.2294,34.7231],[134.2336,34.719],[134.2381,34.7199],[134.2441,34.7151],[134.2514,34.7182],[134.2641,34.7181],[134.2684,34.7191],[134.2702,34.7257],[134.2768,34.7281],[134.2764,34.7328],[134.284,34.7306],[134.2858,34.7338],[134.2939,34.7364],[134.3116,34.7333],[134.3186,34.729],[134.3219,34.7217],[134.3278,34.7274],[134.3276,34.729],[134.339,34.7384],[134.3438,34.7356],[134.3475,34.7356]]]]}},{"type":"Feature","properties":{"id":33004},"geometry":{"type":"Polygon","coordinates":[[[133.8461,34.6181],[133.8347,34.622],[133.8212,34.6218],[133.8132,34.6156],[133.8107,34.6119],[133.81,34.6041],[133.8108,34.6004],[133.8191,34.5939],[133.828,34.5918],[133.8338,34.5922],[133.8467,34.5989],[133.8468,34.6132],[133.8461,34.6181]]]}},{"type":"Feature","properties":{"id":33005},"geometry":{"type":"Polygon","coordinates":[[[133.4507,34.5426],[133.4857,34.5496],[133.496,34.5538],[133.5043,34.559],[133.5091,34.5705],[133.5102,34.5756],[133.5175,34.589],[133.5251,34.5935],[133.5327,34.5967],[133.5328,34.6128],[133.5314,34.6176],[133.5274,34.6244],[133.528,34.6261],[133.5364,34.6318],[133.5353,34.6406],[133.5437,34.6427],[133.5558,34.6436],[133.5634,34.648],[133.5757,34.6684],[133.579,34.6747],[133.5819,34.677],[133.5901,34.6803],[133.594,34.6917],[133.609,34.7037],[133.5919,34.7087],[133.5858,34.7172],[133.5764,34.7146],[133.5652,34.7145],[133.5573,34.7179],[133.5554,34.726],[133.5596,34.7335],[133.5582,34.7368],[133.5462,34.7391],[133.5313,34.7364],[133.5234,34.7296],[133.523,34.7258],[133.5256,34.7213],[133.532,34.7159],[133.5314,34.7125],[133.519,34.7059],[133.5143,34.7024],[133.5014,34.6955],[133.4902,34.6864],[133.4851,34.6842],[133.4725,34.6812],[133.4599,34.6819],[133.4506,34.6843],[133.4355,34.6907],[133.4255,34.6972],[133.421,34.7029],[133.4159,34.7114],[133.4134,34.7173],[133.4125,34.7245],[133.4106,34.7275],[133.4013,34.7322],[133.3846,34.7388],[133.3717,34.7399],[133.3633,34.7254],[133.368,34.7218],[133.3719,34.7188],[133.373,34.7083],[133.3767,34.6947],[133.3845,34.6876],[133.3867,34.6765],[133.4053,34.6666],[133.4018,34.656],[133.3969,34.6464],[133.3905,34.6383],[133.395,34.6289],[133.3861,34.6184],[133.397,34.6041],[133.4008,34.594],[133.4081,34.5868],[133.4247,34.5833],[133.4318,34.5649],[133.4411,34.5581],[133.4478,34.549],[133.4507,34.5426]]]}},{"type":"Feature","properties":{"id":33006},"geometry":{"type":"Polygon","coordinates":[[[133.8524,35.0991],[133.8656,35.0982],[133.8723,35.0938],[133.8809,35.0808],[133.8843,35.0796],[133.8964,35.0793],[133.9007,35.0781],[133.9068,35.0711],[133.9124,35.0664],[133.9199,35.0625],[133.9317,35.0602],[133.9379,35.0608],[133.9466,35.0665],[133.9491,35.0718],[133.9509,35.0809],[133.9536,35.0883],[133.9607,35.0978],[133.9637,35.1001],[133.9718,35.1033],[133.9706,35.1116],[133.9712,35.1173],[133.9745,35.1217],[133.9754,35.1268],[133.9759,35.1424],[133.9885,35.1632],[133.9994,35.1725],[134.0022,35.1788],[134.0033,35.1853],[134.0027,35.1945],[134.0005,35.2005],[134.0006,35.2132],[134.0036,35.2162],[134.015,35.2221],[134.0163,35.2293],[134.015,35.2336],[134.0059,35.2483],[134.0058,35.2542],[134.0124,35.258],[134.02,35.2644],[134.0245,35.2714],[134.0258,35.287],[134.0348,35.2968],[134.0352,35.3017],[134.0126,35.3042],[134.0029,35.3111],[134.0074,35.321],[134.0137,35.3373],[134.0109,35.3474],[134,35.3498],[133.9901,35.3444],[133.9806,35.3409],[133.9691,35.3432],[133.9591,35.339],[133.9447,35.3307],[133.9346,35.3303],[133.9306,35.3209],[133.9331,35.3104],[133.9049,35.3006],[133.8952,35.2967],[133.8861,35.2914],[133.8743,35.2899],[133.8689,35.2815],[133.8642,35.2673],[133.8544,35.2583],[133.8465,35.2498],[133.8307,35.2464],[133.8281,35.2489],[133.8251,35.2387],[133.8245,35.2322],[133.8218,35.2213],[133.816,35.2154],[133.8076,35.2131],[133.8039,35.2134],[133.7982,35.2164],[133.792,35.217],[133.7864,35.215],[133.7841,35.2108],[133.7857,35.1947],[133.7873,35.1899],[133.7819,35.174],[133.7783,35.1674],[133.7757,35.1579],[133.7785,35.1524],[133.7892,35.1493],[133.7979,35.1382],[133.8051,35.1321],[133.8175,35.1277],[133.8241,35.1273],[133.8325,35.125],[133.845,35.1145],[133.8463,35.1101],[133.8524,35.0991]]]}},{"type":"Feature","properties":{"id":33007},"geometry":{"type":"MultiPolygon","coordinates":[[[[133.5384,34.3055],[133.5358,34.3075],[133.5271,34.3083],[133.5255,34.3045],[133.5289,34.3002],[133.5336,34.2984],[133.5363,34.3005],[133.5384,34.3055]]],[[[133.5209,34.3436],[133.5231,34.3478],[133.5157,34.3508],[133.5209,34.3436]]],[[[133.5909,34.3606],[133.5891,34.3634],[133.581,34.3618],[133.5793,34.3556],[133.5718,34.3573],[133.5665,34.3532],[133.5676,34.3508],[133.5736,34.3477],[133.5802,34.3509],[133.5863,34.3585],[133.5909,34.3606]]],[[[133.5068,34.3449],[133.5011,34.3472],[133.4975,34.3399],[133.5015,34.3389],[133.5077,34.3347],[133.5097,34.3418],[133.5068,34.3449]]],[[[133.5166,34.4341],[133.5126,34.4347],[133.5034,34.4315],[133.4995,34.4263],[133.5056,34.4242],[133.5158,34.4288],[133.5166,34.4341]]],[[[133.5464,34.4013],[133.5382,34.4013],[133.5366,34.3961],[133.5301,34.393],[133.5258,34.3881],[133.5234,34.3916],[133.5201,34.3907],[133.516,34.384],[133.5244,34.3785],[133.528,34.3785],[133.5336,34.3726],[133.5358,34.3738],[133.5457,34.3665],[133.548,34.3688],[133.5529,34.3673],[133.5586,34.3675],[133.5602,34.3703],[133.5545,34.3752],[133.546,34.3771],[133.5452,34.3813],[133.5504,34.3873],[133.5514,34.3914],[133.5545,34.3945],[133.5505,34.3961],[133.5464,34.4013]]],[[[133.5266,34.4147],[133.5211,34.4159],[133.5175,34.411],[133.5116,34.4065],[133.5056,34.4063],[133.5049,34.4028],[133.5091,34.3972],[133.5085,34.3941],[133.5135,34.3895],[133.5197,34.3949],[133.5221,34.3989],[133.5262,34.3998],[133.5232,34.4078],[133.5266,34.4147]]],[[[133.4507,34.5426],[133.452,34.5396],[133.4525,34.523],[133.4482,34.5026],[133.4584,34.5],[133.4537,34.4869],[133.4538,34.4762],[133.4562,34.4683],[133.4553,34.466],[133.458,34.4598],[133.4664,34.4574],[133.4772,34.4625],[133.4854,34.4645],[133.4895,34.4604],[133.4886,34.457],[133.4834,34.4561],[133.4734,34.4502],[133.4731,34.4426],[133.4781,34.4432],[133.4865,34.4406],[133.4951,34.4445],[133.5012,34.4513],[133.5076,34.4518],[133.5147,34.4487],[133.5215,34.45],[133.5284,34.4542],[133.5251,34.4591],[133.5276,34.4657],[133.5274,34.4708],[133.52,34.4734],[133.5188,34.4776],[133.5149,34.4808],[133.5113,34.4875],[133.5017,34.4988],[133.4906,34.5061],[133.4872,34.5124],[133.489,34.5132],[133.4927,34.5061],[133.5087,34.4965],[133.5156,34.4884],[133.5187,34.4804],[133.5217,34.4756],[133.5282,34.4777],[133.53,34.4707],[133.5403,34.4615],[133.5461,34.462],[133.5538,34.4645],[133.5601,34.468],[133.5732,34.4652],[133.5779,34.469],[133.5752,34.4728],[133.5693,34.4841],[133.5542,34.4897],[133.5443,34.4885],[133.5378,34.4929],[133.536,34.4965],[133.5451,34.5128],[133.5486,34.5274],[133.5513,34.5308],[133.546,34.5404],[133.5465,34.545],[133.5488,34.5468],[133.5555,34.5478],[133.5602,34.5503],[133.5653,34.5589],[133.5702,34.5759],[133.571,34.584],[133.5616,34.5865],[133.5522,34.5949],[133.5466,34.597],[133.5327,34.5967],[133.5251,34.5935],[133.5175,34.589],[133.5102,34.5756],[133.5091,34.5705],[133.5043,34.559],[133.496,34.5538],[133.4857,34.5496],[133.4507,34.5426]]]]}},{"type":"Feature","properties":{"id":33008},"geometry":{"type":"Polygon","coordinates":[[[133.7212,34.9506],[133.721,34.9339],[133.7186,34.9179],[133.718,34.8986],[133.7153,34.8952],[133.6964,34.885],[133.6894,34.8797],[133.682,34.8757],[133.6726,34.8729],[133.6703,34.8709],[133.668,34.8589],[133.665,34.8551],[133.6538,34.8461],[133.6511,34.843],[133.6483,34.8352],[133.6483,34.824],[133.6574,34.8089],[133.6597,34.8036],[133.6605,34.7957],[133.6623,34.792],[133.665,34.7783],[133.6728,34.7656],[133.6788,34.7604],[133.6869,34.7475],[133.6919,34.7443],[133.6962,34.7453],[133.7021,34.7501],[133.71,34.7531],[133.7154,34.7574],[133.7188,34.7635],[133.7291,34.7667],[133.7405,34.762],[133.7486,34.7745],[133.7555,34.7787],[133.7713,34.7836],[133.7767,34.7878],[133.7817,34.7977],[133.7831,34.803],[133.7884,34.8073],[133.7953,34.8111],[133.8013,34.8112],[133.8086,34.8071],[133.8143,34.8022],[133.8182,34.8011],[133.8232,34.804],[133.824,34.8084],[133.8239,34.8277],[133.8254,34.8317],[133.843,34.8387],[133.8519,34.8475],[133.8494,34.8505],[133.8486,34.8557],[133.8494,34.8705],[133.8521,34.8771],[133.8571,34.8853],[133.869,34.894],[133.8703,34.9007],[133.8607,34.9035],[133.8526,34.9097],[133.8496,34.9177],[133.8494,34.9393],[133.8277,34.9429],[133.8183,34.9415],[133.8085,34.9333],[133.8041,34.9281],[133.796,34.9268],[133.7894,34.9292],[133.7797,34.9398],[133.7653,34.9469],[133.7469,34.9453],[133.7337,34.9453],[133.7286,34.9465],[133.7212,34.9506]]]}},{"type":"Feature","properties":{"id":33009},"geometry":{"type":"Polygon","coordinates":[[[134.0135,34.9303],[134.0107,34.9349],[134.0069,34.9478],[134.0026,34.9535],[133.9887,34.9599],[133.9708,34.9578],[133.9651,34.9584],[133.9408,34.9652],[133.9377,34.9642],[133.9215,34.9463],[133.9162,34.9441],[133.9082,34.9427],[133.9126,34.9276],[133.9126,34.9112],[133.9131,34.9074],[133.9202,34.896],[133.9314,34.8904],[133.9388,34.8778],[133.9387,34.8685],[133.9428,34.8657],[133.9616,34.8686],[133.971,34.8706],[133.9753,34.873],[133.9807,34.8785],[133.9892,34.8811],[133.9995,34.8853],[134.0076,34.8927],[134.0108,34.904],[134.0161,34.9149],[134.015,34.9261],[134.0135,34.9303]]]}},{"type":"Feature","properties":{"id":33010},"geometry":{"type":"MultiPolygon","coordinates":[[[[133.8078,34.4232],[133.8064,34.4263],[133.7963,34.4248],[133.8005,34.4213],[133.8028,34.4156],[133.8085,34.4188],[133.8078,34.4232]]],[[[133.835,34.4223],[133.8277,34.4225],[133.8302,34.4182],[133.835,34.4223]]],[[[133.7636,34.4294],[133.7617,34.4213],[133.77,34.4186],[133.7772,34.4224],[133.7749,34.4269],[133.7694,34.4257],[133.7636,34.4294]]],[[[133.7166,34.4629],[133.7123,34.4658],[133.7088,34.4627],[133.711,34.4606],[133.7166,34.4629]]],[[[133.6778,34.5047],[133.6744,34.5047],[133.6686,34.5011],[133.67,34.4975],[133.6689,34.49],[133.6744,34.4896],[133.6839,34.4911],[133.6836,34.5022],[133.6778,34.5047]]],[[[133.6268,34.5772],[133.6319,34.5704],[133.641,34.5605],[133.6457,34.5531],[133.6469,34.5482],[133.6441,34.542],[133.6357,34.5277],[133.632,34.5241],[133.6283,34.5176],[133.6228,34.5128],[133.6065,34.5047],[133.606,34.4945],[133.6148,34.4946],[133.6197,34.492],[133.6257,34.5008],[133.6301,34.5023],[133.6377,34.5015],[133.6431,34.5052],[133.6473,34.5042],[133.6507,34.5093],[133.6501,34.5131],[133.6572,34.5168],[133.6584,34.5192],[133.6639,34.5185],[133.6693,34.5198],[133.6714,34.5176],[133.6765,34.5177],[133.6768,34.5148],[133.6703,34.5114],[133.671,34.5072],[133.6843,34.5071],[133.6855,34.5119],[133.6897,34.512],[133.6909,34.519],[133.6866,34.5225],[133.6911,34.5291],[133.6913,34.5392],[133.6958,34.5527],[133.6982,34.5641],[133.7035,34.5721],[133.71,34.5786],[133.7146,34.5904],[133.7164,34.5873],[133.716,34.5802],[133.7094,34.5678],[133.7047,34.5647],[133.7028,34.5608],[133.7035,34.5407],[133.7055,34.5299],[133.7049,34.5151],[133.7052,34.5071],[133.7041,34.5046],[133.7051,34.4902],[133.7048,34.4831],[133.7153,34.4781],[133.7156,34.4742],[133.7259,34.4729],[133.7289,34.4761],[133.7334,34.4745],[133.7374,34.4709],[133.7429,34.4703],[133.7394,34.4872],[133.7369,34.4907],[133.7318,34.4928],[133.7194,34.4961],[133.7214,34.5013],[133.7344,34.4973],[133.7356,34.5078],[133.7399,34.5156],[133.7449,34.512],[133.7423,34.5077],[133.7421,34.5019],[133.7478,34.4901],[133.7579,34.4867],[133.7609,34.4954],[133.7645,34.4939],[133.7572,34.4822],[133.7572,34.4774],[133.7592,34.4749],[133.757,34.4692],[133.7597,34.4681],[133.7653,34.4694],[133.7676,34.4626],[133.7749,34.4613],[133.7717,34.4543],[133.78,34.4463],[133.7816,34.4397],[133.7886,34.4352],[133.7918,34.4388],[133.7963,34.4361],[133.8018,34.4363],[133.8146,34.4314],[133.8224,34.4308],[133.817,34.4375],[133.8127,34.4404],[133.8102,34.4469],[133.81,34.4549],[133.8088,34.4597],[133.8149,34.4637],[133.8163,34.467],[133.8306,34.4724],[133.8417,34.4687],[133.8474,34.4704],[133.8566,34.4699],[133.8598,34.4673],[133.8671,34.4673],[133.8808,34.4562],[133.8874,34.4569],[133.8864,34.4647],[133.8796,34.4725],[133.8703,34.4795],[133.868,34.4868],[133.8695,34.491],[133.8749,34.4964],[133.8748,34.505],[133.8712,34.5107],[133.8676,34.5191],[133.8553,34.5299],[133.8456,34.5328],[133.8375,34.5369],[133.8297,34.5432],[133.8298,34.5484],[133.8402,34.5512],[133.8419,34.5584],[133.8397,34.5633],[133.8402,34.568],[133.8457,34.575],[133.8466,34.5802],[133.8467,34.5989],[133.8338,34.5922],[133.828,34.5918],[133.8191,34.5939],[133.8108,34.6004],[133.81,34.6041],[133.8107,34.6119],[133.8132,34.6156],[133.8212,34.6218],[133.8347,34.622],[133.8461,34.6181],[133.8496,34.6319],[133.8465,34.6424],[133.842,34.6553],[133.8388,34.6586],[133.827,34.6644],[133.8212,34.6648],[133.8082,34.6622],[133.8075,34.6436],[133.8047,34.6368],[133.8027,34.6364],[133.7955,34.64],[133.7841,34.6425],[133.7798,34.6411],[133.7666,34.6396],[133.7639,34.6367],[133.7605,34.6271],[133.7504,34.6227],[133.7376,34.6222],[133.7315,34.6238],[133.73,34.6286],[133.7298,34.6395],[133.7263,34.6486],[133.7189,34.6525],[133.7095,34.6546],[133.6926,34.6574],[133.6868,34.6569],[133.6783,34.6544],[133.6677,34.6493],[133.654,34.6452],[133.6422,34.6424],[133.6326,34.6385],[133.6336,34.6216],[133.6371,34.6153],[133.6425,34.6089],[133.648,34.604],[133.6498,34.5991],[133.6482,34.5945],[133.6268,34.5772]]]]}},{"type":"Feature","properties":{"id":33011},"geometry":{"type":"Polygon","coordinates":[[[133.8281,35.2489],[133.821,35.2553],[133.8142,35.2641],[133.8105,35.2751],[133.8044,35.2842],[133.7945,35.2899],[133.7833,35.2953],[133.7742,35.3005],[133.7585,35.3067],[133.75,35.315],[133.7281,35.316],[133.7178,35.3189],[133.7058,35.3214],[133.6942,35.3208],[133.6854,35.3156],[133.6756,35.3202],[133.6652,35.3232],[133.6548,35.3315],[133.6412,35.336],[133.62,35.3365],[133.6095,35.3383],[133.6016,35.3409],[133.5992,35.3417],[133.5914,35.3333],[133.5906,35.3216],[133.5833,35.3134],[133.5787,35.3029],[133.5791,35.2925],[133.5736,35.2824],[133.5739,35.2715],[133.565,35.25],[133.562,35.2447],[133.5682,35.2489],[133.574,35.2571],[133.5839,35.2506],[133.5946,35.2453],[133.5995,35.2413],[133.6048,35.2297],[133.6051,35.2127],[133.612,35.2039],[133.6134,35.1954],[133.6119,35.1894],[133.6085,35.1861],[133.5975,35.1832],[133.5917,35.1687],[133.5844,35.1553],[133.579,35.1469],[133.5914,35.1354],[133.5941,35.1305],[133.5914,35.1207],[133.5866,35.1103],[133.5831,35.1071],[133.5819,35.1031],[133.5819,35.0922],[133.5875,35.0836],[133.594,35.0784],[133.5936,35.0298],[133.5939,35.0255],[133.5974,35.0188],[133.6051,35.0157],[133.6051,35.0137],[133.5941,35.005],[133.5891,34.9969],[133.5882,34.9911],[133.592,34.9889],[133.5946,34.9928],[133.6011,34.9943],[133.6055,34.9911],[133.6063,34.9817],[133.6171,34.9738],[133.6229,34.9622],[133.6217,34.9592],[133.6163,34.9576],[133.6054,34.9584],[133.5995,34.9553],[133.5999,34.9497],[133.6055,34.9412],[133.6143,34.9337],[133.6172,34.9287],[133.6216,34.9096],[133.6222,34.9018],[133.6259,34.8989],[133.6354,34.9019],[133.6446,34.9075],[133.6471,34.9105],[133.6483,34.9228],[133.6522,34.9315],[133.6562,34.9354],[133.6689,34.9397],[133.6758,34.9408],[133.6853,34.944],[133.7017,34.9465],[133.7115,34.954],[133.7146,34.9539],[133.7212,34.9506],[133.7286,34.9465],[133.7337,34.9453],[133.7469,34.9453],[133.7653,34.9469],[133.7725,34.9541],[133.7838,34.9552],[133.7973,34.9526],[133.8115,34.9526],[133.8171,34.9569],[133.8178,34.9663],[133.8147,34.9701],[133.7967,34.9772],[133.7934,34.9815],[133.7924,34.9886],[133.7924,35.0083],[133.7937,35.0138],[133.7965,35.0154],[133.8077,35.018],[133.8222,35.0263],[133.8252,35.0307],[133.8309,35.0428],[133.8329,35.0515],[133.8335,35.0655],[133.8362,35.0733],[133.8399,35.0782],[133.8418,35.0836],[133.842,35.0896],[133.8438,35.0942],[133.8491,35.0983],[133.8524,35.0991],[133.8463,35.1101],[133.845,35.1145],[133.8325,35.125],[133.8241,35.1273],[133.8175,35.1277],[133.8051,35.1321],[133.7979,35.1382],[133.7892,35.1493],[133.7785,35.1524],[133.7757,35.1579],[133.7783,35.1674],[133.7819,35.174],[133.7873,35.1899],[133.7857,35.1947],[133.7841,35.2108],[133.7864,35.215],[133.792,35.217],[133.7982,35.2164],[133.8039,35.2134],[133.8076,35.2131],[133.816,35.2154],[133.8218,35.2213],[133.8245,35.2322],[133.8251,35.2387],[133.8281,35.2489]]]}},{"type":"Feature","properties":{"id":33012},"geometry":{"type":"Polygon","coordinates":[[[134.4117,35.1451],[134.4155,35.1556],[134.411,35.1681],[134.4154,35.1771],[134.4074,35.1842],[134.397,35.1884],[134.3859,35.1944],[134.3828,35.1882],[134.3743,35.181],[134.3671,35.1728],[134.3634,35.1662],[134.3535,35.152],[134.3435,35.1454],[134.336,35.1423],[134.3296,35.1432],[134.3239,35.1463],[134.3096,35.1498],[134.299,35.1535],[134.293,35.1578],[134.2899,35.1749],[134.2865,35.1819],[134.2853,35.1876],[134.2815,35.1948],[134.2742,35.1976],[134.2676,35.2052],[134.257,35.205],[134.25,35.1968],[134.2386,35.196],[134.2231,35.1903],[134.2281,35.163],[134.2293,35.1485],[134.2294,35.137],[134.2316,35.1247],[134.2315,35.105],[134.229,35.0972],[134.2226,35.0963],[134.2082,35.0989],[134.2023,35.098],[134.1968,35.0955],[134.1898,35.0901],[134.1833,35.0881],[134.1767,35.0885],[134.1765,35.0808],[134.1778,35.0753],[134.1832,35.0684],[134.1891,35.0632],[134.1892,35.0584],[134.1828,35.053],[134.1803,35.0481],[134.1805,35.0442],[134.1771,35.0422],[134.1579,35.0436],[134.1515,35.0454],[134.1445,35.0458],[134.1388,35.0429],[134.1375,35.0402],[134.1391,35.0232],[134.1351,35.0153],[134.1313,35.0131],[134.1192,35.011],[134.0965,35.0109],[134.0958,34.9947],[134.0918,34.9895],[134.0917,34.9855],[134.0953,34.9847],[134.102,34.9868],[134.1046,34.9832],[134.1053,34.9727],[134.0964,34.959],[134.0961,34.9558],[134.1066,34.9487],[134.1126,34.9426],[134.1202,34.9329],[134.1203,34.9299],[134.1085,34.9206],[134.1061,34.9171],[134.1111,34.9137],[134.1219,34.9085],[134.1318,34.8997],[134.1326,34.8876],[134.1366,34.8851],[134.1494,34.8828],[134.1595,34.8818],[134.17,34.8861],[134.1782,34.8885],[134.1916,34.8881],[134.1977,34.8956],[134.198,34.9051],[134.2057,34.9086],[134.2121,34.9085],[134.2224,34.9047],[134.2277,34.9059],[134.2308,34.9184],[134.2334,34.9254],[134.2419,34.9343],[134.2424,34.9412],[134.2446,34.9436],[134.258,34.9413],[134.2577,34.9433],[134.2666,34.9495],[134.2756,34.9567],[134.2774,34.9673],[134.2729,34.9772],[134.2808,34.9841],[134.2832,34.9948],[134.2743,35],[134.2687,35.0102],[134.2732,35.0195],[134.29,35.0333],[134.2991,35.0382],[134.3097,35.0381],[134.3198,35.042],[134.3177,35.0518],[134.3236,35.0704],[134.3229,35.0807],[134.3429,35.0856],[134.3527,35.091],[134.3563,35.1004],[134.356,35.1108],[134.3623,35.1202],[134.365,35.1367],[134.3773,35.1475],[134.3881,35.1489],[134.4001,35.1489],[134.4117,35.1451]]]}},{"type":"Feature","properties":{"id":33013},"geometry":{"type":"Polygon","coordinates":[[[134.1061,34.9171],[134.1085,34.9206],[134.1203,34.9299],[134.1202,34.9329],[134.1126,34.9426],[134.1066,34.9487],[134.0961,34.9558],[134.0964,34.959],[134.1053,34.9727],[134.1046,34.9832],[134.102,34.9868],[134.0953,34.9847],[134.0917,34.9855],[134.0918,34.9895],[134.0958,34.9947],[134.0965,35.0109],[134.0965,35.0129],[134.0924,35.0136],[134.0858,35.0188],[134.0797,35.021],[134.0749,35.0202],[134.0711,35.0173],[134.0656,35.0165],[134.0552,35.021],[134.046,35.0185],[134.0395,35.0118],[134.0388,34.9986],[134.0353,34.9963],[134.0292,34.997],[134.0239,34.9993],[134.018,35.0035],[134.0103,35.0124],[134.0003,35.0189],[133.9957,35.0209],[133.985,35.0186],[133.9689,35.0054],[133.9653,35.0046],[133.9583,35.0071],[133.9554,35.0096],[133.9536,35.0153],[133.9542,35.0221],[133.9569,35.0264],[133.9624,35.0398],[133.9589,35.0457],[133.9527,35.0458],[133.9478,35.0418],[133.946,35.0326],[133.9418,35.0236],[133.9362,35.0186],[133.9312,35.0125],[133.9245,35.0013],[133.9125,34.9873],[133.8955,34.9771],[133.8912,34.978],[133.8844,34.9898],[133.8827,34.9985],[133.883,35.0225],[133.8811,35.029],[133.873,35.0375],[133.8691,35.0384],[133.8567,35.0368],[133.8491,35.0371],[133.839,35.0414],[133.8309,35.0428],[133.8252,35.0307],[133.8222,35.0263],[133.8077,35.018],[133.7965,35.0154],[133.7937,35.0138],[133.7924,35.0083],[133.7924,34.9886],[133.7934,34.9815],[133.7967,34.9772],[133.8147,34.9701],[133.8178,34.9663],[133.8171,34.9569],[133.8115,34.9526],[133.7973,34.9526],[133.7838,34.9552],[133.7725,34.9541],[133.7653,34.9469],[133.7797,34.9398],[133.7894,34.9292],[133.796,34.9268],[133.8041,34.9281],[133.8085,34.9333],[133.8183,34.9415],[133.8277,34.9429],[133.8494,34.9393],[133.8606,34.9395],[133.8689,34.9343],[133.8736,34.9341],[133.8794,34.9412],[133.8874,34.943],[133.9082,34.9427],[133.9162,34.9441],[133.9215,34.9463],[133.9377,34.9642],[133.9408,34.9652],[133.9651,34.9584],[133.9708,34.9578],[133.9887,34.9599],[134.0026,34.9535],[134.0069,34.9478],[134.0107,34.9349],[134.0135,34.9303],[134.023,34.941],[134.0292,34.9436],[134.0362,34.9441],[134.0419,34.9429],[134.0482,34.938],[134.0565,34.9347],[134.0681,34.935],[134.0795,34.941],[134.0866,34.9411],[134.0916,34.9394],[134.0936,34.9357],[134.0934,34.9259],[134.0968,34.9214],[134.1061,34.9171]]]}},{"type":"Feature","properties":{"id":33014},"geometry":{"type":"Polygon","coordinates":[[[134.2231,35.1903],[134.2155,35.1876],[134.2053,35.1856],[134.1964,35.1811],[134.1909,35.1715],[134.1818,35.1666],[134.1743,35.1744],[134.1629,35.1662],[134.1546,35.1629],[134.1468,35.1579],[134.1464,35.138],[134.1455,35.1327],[134.1391,35.1214],[134.1367,35.1139],[134.1362,35.1077],[134.1333,35.1012],[134.1394,35.097],[134.1474,35.0932],[134.1522,35.0922],[134.1663,35.092],[134.1767,35.0885],[134.1833,35.0881],[134.1898,35.0901],[134.1968,35.0955],[134.2023,35.098],[134.2082,35.0989],[134.2226,35.0963],[134.229,35.0972],[134.2315,35.105],[134.2316,35.1247],[134.2294,35.137],[134.2293,35.1485],[134.2281,35.163],[134.2231,35.1903]]]}},{"type":"Feature","properties":{"id":33015},"geometry":{"type":"MultiPolygon","coordinates":[[[[133.9661,34.4581],[133.9645,34.462],[133.9553,34.4579],[133.9585,34.4543],[133.9639,34.4534],[133.9661,34.4581]]],[[[133.9715,34.4743],[133.9688,34.4793],[133.9652,34.4751],[133.966,34.4702],[133.9693,34.461],[133.9747,34.4561],[133.9738,34.4527],[133.9796,34.4498],[133.9814,34.4472],[133.9924,34.4451],[133.9968,34.4463],[134.0005,34.4433],[134.0094,34.4481],[134.0128,34.4525],[134.0024,34.4532],[133.9984,34.462],[133.9889,34.4669],[133.9836,34.4723],[133.9824,34.4767],[133.9788,34.4768],[133.9737,34.4731],[133.9715,34.4743]]],[[[134.0133,34.4394],[134.0136,34.4423],[134.0031,34.4406],[134.0067,34.4356],[134.0097,34.4356],[134.0133,34.4394]]],[[[134.0044,34.4728],[133.9989,34.4702],[134.0005,34.4617],[134.0044,34.4619],[134.0089,34.4678],[134.0044,34.4728]]],[[[134.0223,34.4988],[134.0127,34.4979],[134.0074,34.4985],[134.0106,34.4944],[134.0111,34.4878],[134.0142,34.4858],[134.0155,34.4808],[134.0219,34.4792],[134.0197,34.4841],[134.0221,34.4924],[134.0223,34.4988]]]]}},{"type":"Feature","properties":{"id":33016},"geometry":{"type":"Polygon","coordinates":[[[133.3318,34.8503],[133.3364,34.8583],[133.3489,34.8689],[133.3555,34.8713],[133.3596,34.8713],[133.3866,34.8671],[133.4042,34.8697],[133.414,34.8718],[133.4184,34.8739],[133.4247,34.8789],[133.4321,34.8796],[133.4449,34.8769],[133.4524,34.8765],[133.4542,34.874],[133.4601,34.8716],[133.4647,34.8721],[133.4715,34.8791],[133.475,34.8783],[133.4785,34.872],[133.4823,34.8705],[133.4914,34.8711],[133.5009,34.8675],[133.5106,34.8661],[133.5238,34.8676],[133.5408,34.8745],[133.5546,34.8776],[133.5654,34.883],[133.5701,34.8937],[133.5719,34.902],[133.5724,34.9148],[133.5764,34.9235],[133.5873,34.9308],[133.5937,34.9438],[133.5999,34.9497],[133.5995,34.9553],[133.6054,34.9584],[133.6163,34.9576],[133.6217,34.9592],[133.6229,34.9622],[133.6171,34.9738],[133.6063,34.9817],[133.6055,34.9911],[133.6011,34.9943],[133.5946,34.9928],[133.592,34.9889],[133.5882,34.9911],[133.5891,34.9969],[133.5941,35.005],[133.6051,35.0137],[133.6051,35.0157],[133.5974,35.0188],[133.5939,35.0255],[133.5936,35.0298],[133.594,35.0784],[133.5875,35.0836],[133.5819,35.0922],[133.5819,35.1031],[133.5831,35.1071],[133.5866,35.1103],[133.5914,35.1207],[133.5941,35.1305],[133.5914,35.1354],[133.579,35.1469],[133.5722,35.1461],[133.558,35.1463],[133.5467,35.151],[133.5458,35.1528],[133.543,35.1696],[133.5334,35.1819],[133.5299,35.185],[133.5245,35.1849],[133.5246,35.182],[133.511,35.1893],[133.5016,35.1857],[133.4893,35.1833],[133.4788,35.1785],[133.4705,35.1723],[133.4498,35.1689],[133.4399,35.1706],[133.4302,35.1739],[133.4209,35.1788],[133.4105,35.1826],[133.4016,35.1774],[133.3989,35.1717],[133.3966,35.1666],[133.4022,35.1575],[133.4055,35.1478],[133.4109,35.1383],[133.4144,35.128],[133.4134,35.1172],[133.3975,35.1104],[133.3859,35.1115],[133.375,35.1093],[133.3601,35.0987],[133.3503,35.102],[133.3396,35.102],[133.3315,35.0938],[133.3218,35.0908],[133.3114,35.0947],[133.3023,35.1001],[133.2931,35.0941],[133.2926,35.0833],[133.2903,35.0652],[133.2795,35.0626],[133.2721,35.0546],[133.2757,35.0446],[133.2941,35.0317],[133.306,35.0152],[133.3232,35.0036],[133.3229,34.9877],[133.3171,34.9787],[133.3094,34.9707],[133.3063,34.961],[133.2999,34.9532],[133.3119,34.9338],[133.3046,34.9268],[133.3072,34.9166],[133.3015,34.9072],[133.2994,34.8967],[133.2995,34.8866],[133.3069,34.8796],[133.3121,34.8708],[133.3201,34.8635],[133.3285,34.8548],[133.3318,34.8503]]]}},{"type":"Feature","properties":{"id":33017},"geometry":{"type":"Polygon","coordinates":[[[134.4057,35.2377],[134.4004,35.247],[134.3888,35.2467],[134.3754,35.2415],[134.3653,35.2262],[134.3556,35.2213],[134.3452,35.2173],[134.3378,35.2101],[134.3296,35.2035],[134.3195,35.1991],[134.2982,35.1973],[134.2843,35.1937],[134.2815,35.1948],[134.2853,35.1876],[134.2865,35.1819],[134.2899,35.1749],[134.293,35.1578],[134.299,35.1535],[134.3096,35.1498],[134.3239,35.1463],[134.3296,35.1432],[134.336,35.1423],[134.3435,35.1454],[134.3535,35.152],[134.3634,35.1662],[134.3671,35.1728],[134.3743,35.181],[134.3828,35.1882],[134.3859,35.1944],[134.3835,35.2045],[134.384,35.2153],[134.3927,35.2212],[134.4011,35.2281],[134.4057,35.2377]]]}},{"type":"Feature","properties":{"id":33018},"geometry":{"type":"MultiPolygon","coordinates":[[[[134.1003,34.5664],[134.0942,34.5658],[134.0965,34.5599],[134.1058,34.5606],[134.1067,34.5642],[134.1003,34.5664]]],[[[133.9487,34.5767],[133.9597,34.5696],[133.9715,34.5573],[133.9762,34.5573],[133.9844,34.5612],[133.9867,34.5637],[133.9884,34.5695],[133.9931,34.575],[134.0037,34.5734],[134.0261,34.573],[134.0324,34.5718],[134.0388,34.5757],[134.0464,34.5756],[134.0406,34.5804],[134.0407,34.5878],[134.0378,34.5917],[134.0345,34.5914],[134.0332,34.5975],[134.0255,34.5991],[134.0139,34.5976],[134.0005,34.5925],[133.9956,34.595],[133.9828,34.595],[133.974,34.5944],[133.9628,34.5895],[133.9487,34.5767]]],[[[134.1082,34.7335],[134.1037,34.743],[134.0955,34.7524],[134.0978,34.763],[134.0964,34.7699],[134.0943,34.7718],[134.0838,34.7744],[134.0733,34.774],[134.066,34.77],[134.061,34.7659],[134.0537,34.7577],[134.0498,34.7508],[134.04,34.7426],[134.0275,34.7332],[134.0228,34.7304],[134.0095,34.7253],[133.9956,34.7142],[133.9895,34.712],[133.9825,34.7122],[133.9705,34.7224],[133.9697,34.7259],[133.9704,34.7379],[133.9731,34.7436],[133.9811,34.7505],[133.9834,34.7567],[133.98,34.766],[133.9821,34.7733],[133.9814,34.7762],[133.9688,34.7815],[133.9684,34.7845],[133.9779,34.8002],[133.9866,34.806],[133.9888,34.8118],[133.9891,34.8265],[133.9859,34.8316],[133.9745,34.8281],[133.9578,34.8261],[133.9694,34.8546],[133.9681,34.8593],[133.9616,34.8686],[133.9428,34.8657],[133.9387,34.8685],[133.9388,34.8778],[133.9314,34.8904],[133.9202,34.896],[133.9131,34.9074],[133.9126,34.9112],[133.9126,34.9276],[133.9082,34.9427],[133.8874,34.943],[133.8794,34.9412],[133.8736,34.9341],[133.8689,34.9343],[133.8606,34.9395],[133.8494,34.9393],[133.8496,34.9177],[133.8526,34.9097],[133.8607,34.9035],[133.8703,34.9007],[133.869,34.894],[133.8571,34.8853],[133.8521,34.8771],[133.8494,34.8705],[133.8486,34.8557],[133.8494,34.8505],[133.8519,34.8475],[133.843,34.8387],[133.8254,34.8317],[133.8239,34.8277],[133.824,34.8084],[133.8232,34.804],[133.8182,34.8011],[133.8143,34.8022],[133.8086,34.8071],[133.8013,34.8112],[133.7953,34.8111],[133.7884,34.8073],[133.7831,34.803],[133.7817,34.7977],[133.7767,34.7878],[133.7713,34.7836],[133.7555,34.7787],[133.7486,34.7745],[133.7405,34.762],[133.7505,34.7474],[133.7568,34.7427],[133.7685,34.74],[133.7787,34.7358],[133.7862,34.7292],[133.7896,34.7202],[133.803,34.7093],[133.8082,34.6996],[133.8078,34.6823],[133.8032,34.6721],[133.8039,34.6655],[133.8082,34.6622],[133.8212,34.6648],[133.827,34.6644],[133.8388,34.6586],[133.842,34.6553],[133.8465,34.6424],[133.8496,34.6319],[133.8461,34.6181],[133.8468,34.6132],[133.8467,34.5989],[133.8466,34.5802],[133.8457,34.575],[133.8402,34.568],[133.8397,34.5633],[133.8419,34.5584],[133.8402,34.5512],[133.8298,34.5484],[133.8297,34.5432],[133.8375,34.5369],[133.8456,34.5328],[133.8553,34.5299],[133.8676,34.5191],[133.8732,34.5219],[133.8865,34.5267],[133.892,34.531],[133.8982,34.5421],[133.9032,34.5461],[133.9095,34.5472],[133.9209,34.5511],[133.9231,34.5597],[133.927,34.5671],[133.93,34.5687],[133.9297,34.5725],[133.9243,34.5765],[133.9184,34.576],[133.9126,34.5734],[133.907,34.5693],[133.9038,34.5701],[133.9136,34.5768],[133.9246,34.58],[133.9227,34.5854],[133.9174,34.5865],[133.9166,34.5897],[133.9403,34.5898],[133.9417,34.591],[133.9283,34.5946],[133.9305,34.5977],[133.9347,34.596],[133.9428,34.5954],[133.9462,34.5919],[133.9502,34.5943],[133.9465,34.599],[133.9519,34.6022],[133.9579,34.5971],[133.9684,34.599],[133.9665,34.6029],[133.9569,34.6159],[133.9468,34.6262],[133.945,34.6331],[133.9628,34.6156],[133.9639,34.6133],[133.9771,34.6002],[133.9831,34.6018],[133.9886,34.6069],[133.9828,34.608],[133.9813,34.6107],[133.9858,34.613],[133.9832,34.6256],[133.9835,34.6322],[133.9867,34.6322],[133.9863,34.6227],[133.9932,34.6132],[133.9991,34.6132],[134.012,34.6113],[134.0314,34.6063],[134.0386,34.602],[134.0482,34.5976],[134.0512,34.6046],[134.0542,34.6048],[134.0628,34.6083],[134.0644,34.6056],[134.0557,34.6007],[134.0522,34.5897],[134.0553,34.5864],[134.0678,34.5839],[134.0784,34.5864],[134.0838,34.5853],[134.0889,34.5817],[134.0941,34.5816],[134.1004,34.5852],[134.1038,34.5893],[134.1152,34.5883],[134.1153,34.606],[134.1161,34.611],[134.1199,34.6166],[134.1208,34.6207],[134.1198,34.6273],[134.1171,34.6312],[134.1081,34.6336],[134.1016,34.634],[134.0643,34.6339],[134.061,34.6363],[134.0622,34.6401],[134.0686,34.648],[134.0677,34.6524],[134.0625,34.6553],[134.0625,34.6624],[134.0649,34.6657],[134.0739,34.6717],[134.079,34.6803],[134.082,34.6931],[134.085,34.6986],[134.0924,34.7088],[134.0981,34.715],[134.1034,34.7228],[134.1046,34.7275],[134.1082,34.7335]]]]}},{"type":"Feature","properties":{"id":33019},"geometry":{"type":"Polygon","coordinates":[[[133.5513,34.5308],[133.5486,34.5274],[133.5451,34.5128],[133.536,34.4965],[133.5378,34.4929],[133.5443,34.4885],[133.5542,34.4897],[133.5693,34.4841],[133.5702,34.4929],[133.5729,34.4994],[133.5865,34.5152],[133.5874,34.5268],[133.5851,34.5302],[133.5719,34.5328],[133.5645,34.5328],[133.5513,34.5308]]]}},{"type":"Feature","properties":{"id":33020},"geometry":{"type":"MultiPolygon","coordinates":[[[[134.2012,34.5993],[134.1942,34.6011],[134.19,34.6006],[134.1895,34.5968],[134.1984,34.5967],[134.2012,34.5993]]],[[[134.2017,34.6151],[134.1993,34.6165],[134.1879,34.6146],[134.1854,34.611],[134.1752,34.6091],[134.172,34.6118],[134.1677,34.6096],[134.1645,34.6037],[134.1662,34.6024],[134.1774,34.6036],[134.1822,34.6063],[134.1851,34.6048],[134.1912,34.6054],[134.1947,34.6075],[134.2017,34.6151]]],[[[134.2407,34.6958],[134.2395,34.7007],[134.2346,34.7028],[134.2277,34.6975],[134.2218,34.6952],[134.209,34.6965],[134.1978,34.6913],[134.1875,34.6882],[134.1787,34.6833],[134.1713,34.681],[134.1674,34.6835],[134.1649,34.6882],[134.165,34.6971],[134.1675,34.707],[134.1668,34.7127],[134.16,34.7171],[134.1549,34.7184],[134.1437,34.7173],[134.1344,34.713],[134.1262,34.7034],[134.1211,34.702],[134.1165,34.7062],[134.1107,34.7189],[134.1034,34.7228],[134.0981,34.715],[134.0924,34.7088],[134.085,34.6986],[134.082,34.6931],[134.079,34.6803],[134.0739,34.6717],[134.0649,34.6657],[134.0625,34.6624],[134.0625,34.6553],[134.0677,34.6524],[134.0686,34.648],[134.0622,34.6401],[134.061,34.6363],[134.0643,34.6339],[134.1016,34.634],[134.1081,34.6336],[134.1171,34.6312],[134.1198,34.6273],[134.1208,34.6207],[134.1199,34.6166],[134.1161,34.611],[134.1153,34.606],[134.1152,34.5883],[134.1193,34.5888],[134.127,34.598],[134.1307,34.5973],[134.1384,34.5997],[134.1351,34.607],[134.1376,34.6103],[134.1414,34.6086],[134.1462,34.6112],[134.1502,34.6166],[134.1582,34.6152],[134.1615,34.6161],[134.1671,34.6129],[134.1734,34.6171],[134.1754,34.6232],[134.18,34.6301],[134.1847,34.6311],[134.1847,34.6364],[134.1807,34.6359],[134.1783,34.6314],[134.1744,34.6319],[134.1724,34.6487],[134.1705,34.6518],[134.1792,34.654],[134.1842,34.6511],[134.1886,34.6507],[134.1926,34.6552],[134.1986,34.6592],[134.1946,34.661],[134.1957,34.6645],[134.2027,34.6638],[134.2056,34.6681],[134.2097,34.6661],[134.2114,34.6719],[134.2152,34.676],[134.2211,34.6783],[134.2215,34.6849],[134.2278,34.6878],[134.2272,34.6912],[134.2353,34.6916],[134.2407,34.6958]]],[[[134.2355,34.6785],[134.2296,34.6791],[134.2264,34.6753],[134.2211,34.6767],[134.2187,34.6744],[134.2251,34.6673],[134.2293,34.6712],[134.2332,34.6695],[134.2376,34.6729],[134.2447,34.6723],[134.2455,34.6773],[134.2411,34.679],[134.2355,34.6785]]],[[[134.2608,34.6861],[134.2542,34.6872],[134.252,34.6841],[134.2469,34.6838],[134.2472,34.6797],[134.256,34.6797],[134.2618,34.6746],[134.2669,34.6781],[134.2689,34.6767],[134.2736,34.6811],[134.2722,34.6833],[134.2641,34.6817],[134.2608,34.6861]]]]}},{"type":"Feature","properties":{"id":33021},"geometry":{"type":"Polygon","coordinates":[[[133.562,35.2447],[133.5597,35.2407],[133.5484,35.2402],[133.5395,35.2343],[133.5294,35.2352],[133.5195,35.2373],[133.5112,35.2302],[133.5144,35.2179],[133.5218,35.2103],[133.524,35.2004],[133.5245,35.1849],[133.5299,35.185],[133.5334,35.1819],[133.543,35.1696],[133.5458,35.1528],[133.5467,35.151],[133.558,35.1463],[133.5722,35.1461],[133.579,35.1469],[133.5844,35.1553],[133.5917,35.1687],[133.5975,35.1832],[133.6085,35.1861],[133.6119,35.1894],[133.6134,35.1954],[133.612,35.2039],[133.6051,35.2127],[133.6048,35.2297],[133.5995,35.2413],[133.5946,35.2453],[133.5839,35.2506],[133.574,35.2571],[133.5682,35.2489],[133.562,35.2447]]]}},{"type":"Feature","properties":{"id":33022},"geometry":{"type":"Polygon","coordinates":[[[134.3363,34.5625],[134.3292,34.5616],[134.3196,34.5532],[134.3181,34.5506],[134.3145,34.5381],[134.3139,34.527],[134.3103,34.5217],[134.3036,34.5184],[134.2968,34.5165],[134.2868,34.5175],[134.2803,34.5173],[134.2769,34.5134],[134.2714,34.5143],[134.2649,34.5114],[134.261,34.5117],[134.2592,34.5173],[134.2541,34.5161],[134.2528,34.5084],[134.2502,34.5065],[134.2439,34.5094],[134.2358,34.5096],[134.228,34.5005],[134.2229,34.4961],[134.2059,34.4893],[134.1999,34.4828],[134.2033,34.48],[134.2073,34.4832],[134.2151,34.4794],[134.2164,34.4732],[134.2226,34.479],[134.2302,34.4794],[134.2331,34.4767],[134.23,34.4736],[134.2296,34.4686],[134.2361,34.4701],[134.2422,34.4589],[134.2379,34.456],[134.2392,34.4514],[134.2347,34.4443],[134.2268,34.4421],[134.2237,34.4378],[134.2268,34.4363],[134.2357,34.4382],[134.2386,34.4319],[134.2303,34.4272],[134.2255,34.4269],[134.2244,34.4242],[134.2297,34.4194],[134.2328,34.4147],[134.2392,34.4147],[134.245,34.4181],[134.2511,34.425],[134.2471,34.4274],[134.2522,34.4397],[134.2556,34.4417],[134.2625,34.45],[134.26,34.4558],[134.2658,34.4622],[134.2694,34.4686],[134.2783,34.4697],[134.2921,34.4756],[134.2953,34.479],[134.2998,34.4766],[134.3053,34.4761],[134.3096,34.4778],[134.313,34.4769],[134.3128,34.4733],[134.3176,34.4658],[134.3158,34.4617],[134.3124,34.4603],[134.3073,34.4631],[134.3014,34.4597],[134.2969,34.4632],[134.2841,34.4609],[134.2833,34.4561],[134.2865,34.4501],[134.2847,34.4456],[134.2925,34.4469],[134.2984,34.4504],[134.3034,34.4579],[134.3072,34.4555],[134.3141,34.4546],[134.3164,34.4569],[134.3211,34.4562],[134.3253,34.4492],[134.3302,34.4451],[134.3296,34.4408],[134.333,34.4353],[134.3378,34.4325],[134.3403,34.4394],[134.3358,34.4475],[134.3367,34.4503],[134.3429,34.4531],[134.3488,34.4596],[134.3541,34.477],[134.3489,34.4792],[134.3433,34.4836],[134.343,34.4881],[134.3513,34.4917],[134.3508,34.4981],[134.3478,34.5014],[134.3495,34.5052],[134.3566,34.5112],[134.3571,34.5164],[134.3549,34.5228],[134.3598,34.5283],[134.3594,34.5331],[134.3552,34.5379],[134.3473,34.5397],[134.345,34.5442],[134.3478,34.5469],[134.3483,34.5511],[134.3547,34.5568],[134.3631,34.5575],[134.3622,34.5603],[134.3565,34.5609],[134.3542,34.5583],[134.3465,34.5571],[134.3512,34.5639],[134.3452,34.5646],[134.3363,34.5625]]]}},{"type":"Feature","properties":{"id":33023},"geometry":{"type":"Polygon","coordinates":[[[134.1767,35.0885],[134.1663,35.092],[134.1522,35.0922],[134.1474,35.0932],[134.1394,35.097],[134.1333,35.1012],[134.1309,35.0953],[134.1257,35.0888],[134.1161,35.0797],[134.1067,35.072],[134.1046,35.0692],[134.1046,35.0639],[134.1064,35.0591],[134.1036,35.0527],[134.097,35.0477],[134.0989,35.0415],[134.1,35.0331],[134.099,35.0206],[134.0965,35.0129],[134.0965,35.0109],[134.1192,35.011],[134.1313,35.0131],[134.1351,35.0153],[134.1391,35.0232],[134.1375,35.0402],[134.1388,35.0429],[134.1445,35.0458],[134.1515,35.0454],[134.1579,35.0436],[134.1771,35.0422],[134.1805,35.0442],[134.1803,35.0481],[134.1828,35.053],[134.1892,35.0584],[134.1891,35.0632],[134.1832,35.0684],[134.1778,35.0753],[134.1765,35.0808],[134.1767,35.0885]]]}},{"type":"Feature","properties":{"id":33024},"geometry":{"type":"Polygon","coordinates":[[[133.609,34.7037],[133.6193,34.6996],[133.6247,34.6954],[133.6274,34.6911],[133.6277,34.6835],[133.6253,34.6802],[133.6185,34.679],[133.6152,34.6745],[133.616,34.6659],[133.624,34.6576],[133.6223,34.6481],[133.6326,34.6385],[133.6422,34.6424],[133.654,34.6452],[133.6677,34.6493],[133.6783,34.6544],[133.6868,34.6569],[133.6926,34.6574],[133.7095,34.6546],[133.7189,34.6525],[133.7263,34.6486],[133.7298,34.6395],[133.73,34.6286],[133.7315,34.6238],[133.7376,34.6222],[133.7504,34.6227],[133.7605,34.6271],[133.7639,34.6367],[133.7666,34.6396],[133.7798,34.6411],[133.7841,34.6425],[133.7955,34.64],[133.8027,34.6364],[133.8047,34.6368],[133.8075,34.6436],[133.8082,34.6622],[133.8039,34.6655],[133.8032,34.6721],[133.8078,34.6823],[133.8082,34.6996],[133.803,34.7093],[133.7896,34.7202],[133.7862,34.7292],[133.7787,34.7358],[133.7685,34.74],[133.7568,34.7427],[133.7505,34.7474],[133.7405,34.762],[133.7291,34.7667],[133.7188,34.7635],[133.7154,34.7574],[133.71,34.7531],[133.7021,34.7501],[133.6962,34.7453],[133.6919,34.7443],[133.6869,34.7475],[133.6788,34.7604],[133.6728,34.7656],[133.665,34.7783],[133.6509,34.7685],[133.6472,34.7635],[133.6422,34.7596],[133.6293,34.7566],[133.624,34.7523],[133.6177,34.7433],[133.5882,34.7188],[133.5858,34.7172],[133.5919,34.7087],[133.609,34.7037]]]}},{"type":"Feature","properties":{"id":33025},"geometry":{"type":"Polygon","coordinates":[[[133.3717,34.7399],[133.3846,34.7388],[133.4013,34.7322],[133.4106,34.7275],[133.4125,34.7245],[133.4134,34.7173],[133.4159,34.7114],[133.421,34.7029],[133.4255,34.6972],[133.4355,34.6907],[133.4506,34.6843],[133.4599,34.6819],[133.4725,34.6812],[133.4851,34.6842],[133.4902,34.6864],[133.5014,34.6955],[133.5143,34.7024],[133.519,34.7059],[133.5314,34.7125],[133.532,34.7159],[133.5256,34.7213],[133.523,34.7258],[133.5234,34.7296],[133.5313,34.7364],[133.5462,34.7391],[133.5582,34.7368],[133.5596,34.7335],[133.5554,34.726],[133.5573,34.7179],[133.5652,34.7145],[133.5764,34.7146],[133.5858,34.7172],[133.5882,34.7188],[133.6177,34.7433],[133.624,34.7523],[133.6293,34.7566],[133.6422,34.7596],[133.6472,34.7635],[133.6509,34.7685],[133.665,34.7783],[133.6623,34.792],[133.6605,34.7957],[133.6597,34.8036],[133.6574,34.8089],[133.6483,34.824],[133.6483,34.8352],[133.6511,34.843],[133.6538,34.8461],[133.665,34.8551],[133.668,34.8589],[133.6703,34.8709],[133.6726,34.8729],[133.682,34.8757],[133.6894,34.8797],[133.6964,34.885],[133.7153,34.8952],[133.718,34.8986],[133.7186,34.9179],[133.721,34.9339],[133.7212,34.9506],[133.7146,34.9539],[133.7115,34.954],[133.7017,34.9465],[133.6853,34.944],[133.6758,34.9408],[133.6689,34.9397],[133.6562,34.9354],[133.6522,34.9315],[133.6483,34.9228],[133.6471,34.9105],[133.6446,34.9075],[133.6354,34.9019],[133.6259,34.8989],[133.6222,34.9018],[133.6216,34.9096],[133.6172,34.9287],[133.6143,34.9337],[133.6055,34.9412],[133.5999,34.9497],[133.5937,34.9438],[133.5873,34.9308],[133.5764,34.9235],[133.5724,34.9148],[133.5719,34.902],[133.5701,34.8937],[133.5654,34.883],[133.5546,34.8776],[133.5408,34.8745],[133.5238,34.8676],[133.5106,34.8661],[133.5009,34.8675],[133.4914,34.8711],[133.4823,34.8705],[133.4785,34.872],[133.475,34.8783],[133.4715,34.8791],[133.4647,34.8721],[133.4601,34.8716],[133.4542,34.874],[133.4524,34.8765],[133.4449,34.8769],[133.4321,34.8796],[133.4247,34.8789],[133.4184,34.8739],[133.414,34.8718],[133.4042,34.8697],[133.3866,34.8671],[133.3596,34.8713],[133.3555,34.8713],[133.3489,34.8689],[133.3364,34.8583],[133.3318,34.8503],[133.3481,34.8264],[133.375,34.8114],[133.3807,34.803],[133.3782,34.7907],[133.375,34.7808],[133.369,34.7657],[133.3658,34.7561],[133.3722,34.7407],[133.3717,34.7399]]]}},{"type":"Feature","properties":{"id":33026},"geometry":{"type":"MultiPolygon","coordinates":[[[[133.9571,34.4687],[133.9554,34.4775],[133.951,34.4737],[133.9571,34.4687]]],[[[133.9829,34.4923],[133.9765,34.4921],[133.9816,34.4878],[133.9829,34.4923]]],[[[134.0074,34.4985],[134.0127,34.4979],[134.0223,34.4988],[134.0241,34.5072],[134.0181,34.5069],[134.0074,34.4985]]],[[[133.9739,34.5053],[133.9746,34.5112],[133.97,34.5096],[133.9739,34.5053]]],[[[133.8676,34.5191],[133.8712,34.5107],[133.8748,34.505],[133.8749,34.4964],[133.8695,34.491],[133.868,34.4868],[133.8703,34.4795],[133.8796,34.4725],[133.8864,34.4647],[133.8874,34.4569],[133.8961,34.4568],[133.9031,34.4555],[133.908,34.4516],[133.9166,34.4514],[133.9202,34.4498],[133.9288,34.4518],[133.9334,34.4517],[133.9429,34.4553],[133.9438,34.4642],[133.9372,34.4703],[133.9355,34.474],[133.9399,34.4817],[133.9465,34.4836],[133.9509,34.4887],[133.9582,34.4925],[133.9619,34.492],[133.9649,34.495],[133.9572,34.5045],[133.961,34.5121],[133.9575,34.5141],[133.958,34.5173],[133.9622,34.5196],[133.9589,34.5231],[133.9725,34.5311],[133.9788,34.5327],[133.9883,34.53],[133.993,34.5189],[134,34.5161],[134.0031,34.5117],[134.0072,34.5161],[134,34.5189],[133.9981,34.5243],[133.9953,34.5272],[134.0011,34.53],[133.9957,34.5331],[133.9993,34.5414],[134.0083,34.549],[134.0153,34.5499],[134.0153,34.5456],[134.0194,34.5439],[134.0241,34.5526],[134.0269,34.5522],[134.0294,34.5562],[134.0304,34.5618],[134.0293,34.5661],[134.0324,34.5718],[134.0261,34.573],[134.0037,34.5734],[133.9931,34.575],[133.9884,34.5695],[133.9867,34.5637],[133.9844,34.5612],[133.9762,34.5573],[133.9715,34.5573],[133.9597,34.5696],[133.9487,34.5767],[133.9439,34.5674],[133.9427,34.561],[133.944,34.558],[133.9382,34.5536],[133.9338,34.5592],[133.923,34.546],[133.9209,34.5511],[133.9095,34.5472],[133.9032,34.5461],[133.8982,34.5421],[133.892,34.531],[133.8865,34.5267],[133.8732,34.5219],[133.8676,34.5191]]]]}},{"type":"Feature","properties":{"id":33027},"geometry":{"type":"MultiPolygon","coordinates":[[[[134.1281,34.4797],[134.1153,34.48],[134.1078,34.475],[134.1169,34.4724],[134.1261,34.477],[134.1281,34.4797]]],[[[134.0872,34.4952],[134.0841,34.5001],[134.0782,34.4972],[134.0708,34.4969],[134.0596,34.4885],[134.0519,34.4872],[134.0437,34.4895],[134.0424,34.4846],[134.0361,34.4811],[134.042,34.4796],[134.0521,34.4724],[134.0606,34.4701],[134.0639,34.4712],[134.0705,34.468],[134.0812,34.4585],[134.0886,34.4642],[134.09,34.4692],[134.0946,34.4738],[134.1028,34.4792],[134.1046,34.4866],[134.1028,34.4894],[134.0947,34.4901],[134.0872,34.4952]]],[[[134.1528,34.5191],[134.145,34.5204],[134.1476,34.5157],[134.1528,34.5191]]],[[[134.1999,34.4828],[134.2059,34.4893],[134.2229,34.4961],[134.228,34.5005],[134.2358,34.5096],[134.2439,34.5094],[134.2502,34.5065],[134.2528,34.5084],[134.2541,34.5161],[134.2592,34.5173],[134.261,34.5117],[134.2649,34.5114],[134.2714,34.5143],[134.2769,34.5134],[134.2803,34.5173],[134.2868,34.5175],[134.2968,34.5165],[134.3036,34.5184],[134.3103,34.5217],[134.3139,34.527],[134.3145,34.5381],[134.3181,34.5506],[134.3196,34.5532],[134.3292,34.5616],[134.3363,34.5625],[134.3317,34.5644],[134.3231,34.5622],[134.3122,34.5577],[134.3075,34.5542],[134.3049,34.55],[134.2989,34.5469],[134.2828,34.547],[134.2781,34.5485],[134.2722,34.5476],[134.2688,34.5499],[134.2695,34.5536],[134.2624,34.552],[134.258,34.5496],[134.2571,34.545],[134.241,34.5347],[134.2399,34.5306],[134.2294,34.5273],[134.2215,34.5288],[134.2144,34.5235],[134.2026,34.5201],[134.1936,34.5212],[134.1869,34.5161],[134.1784,34.5179],[134.1725,34.5244],[134.1677,34.5254],[134.1657,34.5196],[134.1649,34.5123],[134.1617,34.5097],[134.1665,34.5035],[134.1653,34.5002],[134.1685,34.4987],[134.1718,34.494],[134.1554,34.4917],[134.1528,34.4875],[134.1453,34.4802],[134.1436,34.4736],[134.1414,34.4708],[134.1467,34.4689],[134.1528,34.4608],[134.1591,34.4632],[134.1637,34.4625],[134.1689,34.4656],[134.1718,34.474],[134.1745,34.4762],[134.181,34.4754],[134.1852,34.4794],[134.189,34.4797],[134.1914,34.4842],[134.1967,34.4847],[134.1999,34.4828]]]]}},{"type":"Feature","properties":{"id":33028},"geometry":{"type":"Polygon","coordinates":[[[133.8524,35.0991],[133.8491,35.0983],[133.8438,35.0942],[133.842,35.0896],[133.8418,35.0836],[133.8399,35.0782],[133.8362,35.0733],[133.8335,35.0655],[133.8329,35.0515],[133.8309,35.0428],[133.839,35.0414],[133.8491,35.0371],[133.8567,35.0368],[133.8691,35.0384],[133.873,35.0375],[133.8811,35.029],[133.883,35.0225],[133.8827,34.9985],[133.8844,34.9898],[133.8912,34.978],[133.8955,34.9771],[133.9125,34.9873],[133.9245,35.0013],[133.9312,35.0125],[133.9362,35.0186],[133.9418,35.0236],[133.946,35.0326],[133.9478,35.0418],[133.9527,35.0458],[133.9589,35.0457],[133.9624,35.0398],[133.9569,35.0264],[133.9542,35.0221],[133.9536,35.0153],[133.9554,35.0096],[133.9583,35.0071],[133.9653,35.0046],[133.9689,35.0054],[133.985,35.0186],[133.9957,35.0209],[134.0003,35.0189],[134.0103,35.0124],[134.018,35.0035],[134.0239,34.9993],[134.0292,34.997],[134.0353,34.9963],[134.0388,34.9986],[134.0395,35.0118],[134.046,35.0185],[134.0552,35.021],[134.0656,35.0165],[134.0711,35.0173],[134.0749,35.0202],[134.0797,35.021],[134.0858,35.0188],[134.0924,35.0136],[134.0965,35.0129],[134.099,35.0206],[134.1,35.0331],[134.0989,35.0415],[134.097,35.0477],[134.1036,35.0527],[134.1064,35.0591],[134.1046,35.0639],[134.1046,35.0692],[134.1067,35.072],[134.1161,35.0797],[134.1257,35.0888],[134.1309,35.0953],[134.1333,35.1012],[134.1362,35.1077],[134.1367,35.1139],[134.1391,35.1214],[134.1455,35.1327],[134.1464,35.138],[134.1468,35.1579],[134.1546,35.1629],[134.1629,35.1662],[134.1743,35.1744],[134.165,35.1867],[134.1557,35.1926],[134.1575,35.2034],[134.1638,35.2117],[134.1651,35.2221],[134.1603,35.2313],[134.1481,35.2283],[134.1402,35.2351],[134.1473,35.25],[134.1465,35.2605],[134.1374,35.274],[134.1351,35.2778],[134.1209,35.2798],[134.114,35.2872],[134.1055,35.2933],[134.1003,35.3024],[134.0895,35.304],[134.0795,35.2995],[134.0627,35.2988],[134.0528,35.2954],[134.0437,35.3006],[134.0352,35.3017],[134.0348,35.2968],[134.0258,35.287],[134.0245,35.2714],[134.02,35.2644],[134.0124,35.258],[134.0058,35.2542],[134.0059,35.2483],[134.015,35.2336],[134.0163,35.2293],[134.015,35.2221],[134.0036,35.2162],[134.0006,35.2132],[134.0005,35.2005],[134.0027,35.1945],[134.0033,35.1853],[134.0022,35.1788],[133.9994,35.1725],[133.9885,35.1632],[133.9759,35.1424],[133.9754,35.1268],[133.9745,35.1217],[133.9712,35.1173],[133.9706,35.1116],[133.9718,35.1033],[133.9637,35.1001],[133.9607,35.0978],[133.9536,35.0883],[133.9509,35.0809],[133.9491,35.0718],[133.9466,35.0665],[133.9379,35.0608],[133.9317,35.0602],[133.9199,35.0625],[133.9124,35.0664],[133.9068,35.0711],[133.9007,35.0781],[133.8964,35.0793],[133.8843,35.0796],[133.8809,35.0808],[133.8723,35.0938],[133.8656,35.0982],[133.8524,35.0991]]]}},{"type":"Feature","properties":{"id":33029},"geometry":{"type":"Polygon","coordinates":[[[134.1497,34.7633],[134.1624,34.7564],[134.1754,34.7574],[134.1963,34.7608],[134.198,34.7634],[134.1961,34.789],[134.1976,34.7994],[134.2032,34.8134],[134.209,34.8198],[134.2141,34.8275],[134.2143,34.8385],[134.2093,34.8491],[134.2063,34.8514],[134.1883,34.8582],[134.185,34.8612],[134.186,34.8673],[134.1954,34.8754],[134.1954,34.8829],[134.1916,34.8881],[134.1782,34.8885],[134.17,34.8861],[134.1595,34.8818],[134.1494,34.8828],[134.1366,34.8851],[134.1326,34.8876],[134.1318,34.8997],[134.1219,34.9085],[134.1111,34.9137],[134.1061,34.9171],[134.101,34.9099],[134.0955,34.896],[134.0959,34.886],[134.1001,34.8798],[134.0998,34.8746],[134.0975,34.8727],[134.0904,34.8709],[134.0852,34.8653],[134.077,34.8585],[134.0672,34.8543],[134.0544,34.8529],[134.0502,34.8496],[134.0484,34.8425],[134.0438,34.8352],[134.0437,34.8298],[134.0487,34.8278],[134.0571,34.8296],[134.0658,34.8236],[134.0784,34.8228],[134.087,34.8188],[134.0918,34.8147],[134.0981,34.8037],[134.1085,34.794],[134.1228,34.7871],[134.1333,34.7838],[134.1433,34.7822],[134.1499,34.7783],[134.1519,34.7723],[134.1497,34.7633]]]}},{"type":"Feature","properties":{"id":33030},"geometry":{"type":"Polygon","coordinates":[[[133.6268,34.5772],[133.6482,34.5945],[133.6498,34.5991],[133.648,34.604],[133.6425,34.6089],[133.6371,34.6153],[133.6336,34.6216],[133.6326,34.6385],[133.6223,34.6481],[133.624,34.6576],[133.616,34.6659],[133.6152,34.6745],[133.6185,34.679],[133.6253,34.6802],[133.6277,34.6835],[133.6274,34.6911],[133.6247,34.6954],[133.6193,34.6996],[133.609,34.7037],[133.594,34.6917],[133.5901,34.6803],[133.5819,34.677],[133.579,34.6747],[133.5757,34.6684],[133.5634,34.648],[133.5558,34.6436],[133.5437,34.6427],[133.5353,34.6406],[133.5364,34.6318],[133.528,34.6261],[133.5274,34.6244],[133.5314,34.6176],[133.5328,34.6128],[133.5327,34.5967],[133.5466,34.597],[133.5522,34.5949],[133.5616,34.5865],[133.571,34.584],[133.5792,34.5877],[133.5847,34.5874],[133.5929,34.5783],[133.599,34.5773],[133.6114,34.5738],[133.6161,34.5738],[133.6268,34.5772]]]}}]}