{"type":"FeatureCollection","features":[{"type":"Feature","properties":{"id":34001},"geometry":{"type":"Polygon","coordinates":[[[132.14,34.6485],[132.1289,34.6371],[132.1328,34.6266],[132.1249,34.6192],[132.1195,34.6054],[132.1253,34.5968],[132.1271,34.5833],[132.1249,34.5799],[132.125,34.578],[132.1336,34.5748],[132.1444,34.5674],[132.1502,34.5602],[132.152,34.555],[132.16,34.5447],[132.1673,34.5379],[132.1769,34.54],[132.1807,34.539],[132.1839,34.5331],[132.1804,34.5274],[132.17,34.5242],[132.1691,34.5202],[132.1727,34.5122],[132.1809,34.5038],[132.195,34.4922],[132.2035,34.5003],[132.2081,34.5058],[132.2146,34.5083],[132.2228,34.5099],[132.2323,34.5106],[132.2368,34.5119],[132.2444,34.5165],[132.2489,34.5233],[132.2534,34.5275],[132.2652,34.5304],[132.2707,34.533],[132.2772,34.5386],[132.2836,34.5414],[132.2996,34.5452],[132.316,34.5463],[132.3264,34.5492],[132.3348,34.5504],[132.346,34.5478],[132.3584,34.5426],[132.3686,34.5428],[132.378,34.5454],[132.3836,34.548],[132.3913,34.5548],[132.3923,34.5597],[132.3877,34.5709],[132.3881,34.5824],[132.3931,34.5975],[132.3959,34.6033],[132.3915,34.6097],[132.382,34.6104],[132.3724,34.6082],[132.3603,34.6132],[132.3529,34.6145],[132.3496,34.619],[132.3484,34.6236],[132.3384,34.6355],[132.338,34.6391],[132.3426,34.6514],[132.3479,34.6565],[132.3567,34.6624],[132.362,34.675],[132.3593,34.6836],[132.3586,34.6901],[132.3553,34.6977],[132.3412,34.7085],[132.3325,34.7105],[132.3192,34.6991],[132.3165,34.6956],[132.3138,34.6856],[132.3111,34.6827],[132.304,34.6807],[132.2859,34.6788],[132.2806,34.6758],[132.2773,34.6707],[132.2699,34.6637],[132.2657,34.663],[132.2623,34.6657],[132.2612,34.6702],[132.2579,34.6753],[132.2513,34.679],[132.234,34.6811],[132.2278,34.6791],[132.2205,34.67],[132.2132,34.6656],[132.2071,34.6641],[132.1998,34.6652],[132.1952,34.6723],[132.1885,34.6738],[132.1852,34.6714],[132.1823,34.6631],[132.1747,34.6515],[132.1675,34.6449],[132.1605,34.6429],[132.1543,34.6427],[132.1475,34.6439],[132.14,34.6485]]]}},{"type":"Feature","properties":{"id":34002},"geometry":{"type":"Polygon","coordinates":[[[132.8035,34.6207],[132.803,34.6226],[132.7876,34.6451],[132.7873,34.6504],[132.7961,34.6562],[132.8016,34.6612],[132.8088,34.6716],[132.8101,34.6799],[132.8078,34.6906],[132.8001,34.6945],[132.7906,34.6949],[132.782,34.6975],[132.7799,34.703],[132.7813,34.711],[132.7877,34.724],[132.7902,34.7311],[132.7893,34.7397],[132.7804,34.7457],[132.7787,34.7485],[132.7796,34.7612],[132.7793,34.775],[132.7805,34.7799],[132.7843,34.7864],[132.7845,34.7914],[132.7814,34.8],[132.778,34.8053],[132.7742,34.8071],[132.7653,34.8086],[132.749,34.8087],[132.7372,34.813],[132.7172,34.8129],[132.711,34.8139],[132.7072,34.8166],[132.7073,34.8195],[132.7121,34.8237],[132.7192,34.8257],[132.7268,34.8325],[132.7256,34.8411],[132.7156,34.8485],[132.7093,34.8521],[132.7039,34.8422],[132.6939,34.844],[132.6839,34.8473],[132.675,34.8416],[132.6624,34.8289],[132.6511,34.8367],[132.6355,34.8368],[132.6246,34.839],[132.6144,34.8363],[132.6013,34.8281],[132.5947,34.8203],[132.5761,34.8099],[132.569,34.8028],[132.5583,34.8045],[132.5495,34.7995],[132.5434,34.7948],[132.5476,34.7888],[132.5559,34.7804],[132.5628,34.7751],[132.5685,34.7683],[132.5705,34.761],[132.573,34.7441],[132.5745,34.7417],[132.5885,34.7369],[132.5918,34.7329],[132.5855,34.7225],[132.5848,34.7181],[132.5848,34.7058],[132.583,34.7012],[132.584,34.6965],[132.5869,34.6935],[132.5991,34.6851],[132.6,34.6783],[132.5904,34.6664],[132.5875,34.6489],[132.5804,34.6355],[132.5737,34.6294],[132.5711,34.6238],[132.5708,34.614],[132.5724,34.6053],[132.5691,34.5981],[132.5633,34.5923],[132.5489,34.5809],[132.5531,34.5759],[132.5614,34.5698],[132.5683,34.5673],[132.5713,34.5623],[132.5766,34.56],[132.582,34.5609],[132.5871,34.5644],[132.5901,34.5801],[132.6059,34.5847],[132.6091,34.5884],[132.6094,34.5956],[132.6139,34.5971],[132.6242,34.5977],[132.6387,34.6007],[132.6615,34.5989],[132.6745,34.5989],[132.6848,34.597],[132.6936,34.5927],[132.6997,34.5818],[132.6999,34.5784],[132.696,34.5671],[132.6965,34.5596],[132.7009,34.5539],[132.7007,34.5503],[132.6948,34.5449],[132.6913,34.5378],[132.6928,34.5348],[132.7011,34.5309],[132.7074,34.536],[132.711,34.5458],[132.7157,34.55],[132.7325,34.5529],[132.7379,34.5564],[132.7415,34.5617],[132.7492,34.5685],[132.7652,34.5699],[132.7791,34.5727],[132.7839,34.5751],[132.7916,34.5887],[132.7924,34.601],[132.796,34.6063],[132.8035,34.6207]]]}},{"type":"Feature","properties":{"id":34003},"geometry":{"type":"MultiPolygon","coordinates":[[[[132.4414,34.155],[132.4397,34.16],[132.434,34.1559],[132.4292,34.1542],[132.4272,34.1511],[132.4317,34.1478],[132.442,34.1521],[132.4414,34.155]]],[[[132.4902,34.2816],[132.4825,34.2892],[132.4805,34.2859],[132.4753,34.283],[132.472,34.2865],[132.4641,34.2878],[132.4515,34.287],[132.4489,34.2845],[132.4414,34.2888],[132.4356,34.2859],[132.4346,34.2774],[132.4455,34.2665],[132.4376,34.2569],[132.4332,34.2544],[132.4348,34.2478],[132.4414,34.2448],[132.4453,34.2453],[132.4515,34.2486],[132.4512,34.2535],[132.4561,34.2558],[132.4608,34.2502],[132.4721,34.2427],[132.4761,34.2368],[132.4789,34.226],[132.4763,34.2199],[132.4747,34.2099],[132.4715,34.2099],[132.4698,34.2143],[132.4651,34.2167],[132.458,34.2306],[132.4548,34.2273],[132.4439,34.2232],[132.438,34.2298],[132.4382,34.2325],[132.4306,34.243],[132.4288,34.2487],[132.4254,34.2549],[132.4204,34.2585],[132.4131,34.2597],[132.3886,34.2608],[132.3814,34.2565],[132.3781,34.2616],[132.3723,34.2579],[132.3746,34.2541],[132.3809,34.2527],[132.385,34.2479],[132.3884,34.2408],[132.3887,34.2308],[132.3843,34.228],[132.3954,34.2148],[132.405,34.2064],[132.4069,34.2037],[132.4199,34.1977],[132.4227,34.1931],[132.4223,34.1815],[132.429,34.1784],[132.4341,34.1785],[132.4363,34.1878],[132.4368,34.195],[132.4429,34.1949],[132.4433,34.1896],[132.4508,34.1805],[132.4457,34.1788],[132.4438,34.1697],[132.4494,34.168],[132.4435,34.1577],[132.4446,34.1513],[132.4384,34.1444],[132.4371,34.1386],[132.4315,34.1315],[132.4374,34.1321],[132.446,34.1371],[132.4564,34.1339],[132.4603,34.1337],[132.4693,34.1391],[132.4709,34.1386],[132.4826,34.1444],[132.4881,34.1431],[132.491,34.15],[132.4883,34.16],[132.484,34.1679],[132.48,34.1712],[132.4809,34.1738],[132.4781,34.1772],[132.4739,34.1779],[132.4728,34.1851],[132.4755,34.19],[132.4799,34.1925],[132.4824,34.1989],[132.4874,34.1999],[132.491,34.2041],[132.4894,34.2107],[132.4898,34.2195],[132.4922,34.228],[132.4962,34.2325],[132.4941,34.2361],[132.4963,34.2384],[132.4919,34.2471],[132.4975,34.2579],[132.4962,34.2604],[132.4991,34.2651],[132.4971,34.2728],[132.4921,34.2805],[132.4902,34.2816]]],[[[132.3907,34.1753],[132.3851,34.1774],[132.3817,34.1711],[132.3838,34.1677],[132.383,34.159],[132.3882,34.1498],[132.4004,34.1464],[132.4071,34.1491],[132.4137,34.1503],[132.4174,34.1581],[132.4112,34.1672],[132.4043,34.1695],[132.4031,34.1724],[132.3979,34.1709],[132.3954,34.1743],[132.3907,34.1753]]],[[[132.3735,34.2791],[132.3702,34.2795],[132.3634,34.2771],[132.3679,34.2733],[132.3713,34.2754],[132.3772,34.2734],[132.3787,34.2765],[132.3735,34.2791]]]]}},{"type":"Feature","properties":{"id":34004},"geometry":{"type":"Polygon","coordinates":[[[132.5126,34.4116],[132.5085,34.4099],[132.4984,34.3965],[132.4971,34.3922],[132.4985,34.3893],[132.5067,34.383],[132.5106,34.3826],[132.5262,34.3965],[132.5321,34.4081],[132.5363,34.4147],[132.5365,34.418],[132.533,34.4202],[132.5233,34.4193],[132.519,34.4171],[132.5126,34.4116]]]}},{"type":"Feature","properties":{"id":34005},"geometry":{"type":"Polygon","coordinates":[[[133.2399,34.6376],[133.2251,34.6487],[133.2164,34.6516],[133.2062,34.6567],[133.1975,34.6596],[133.1942,34.6631],[133.1893,34.6747],[133.1919,34.6785],[133.197,34.6794],[133.2003,34.6838],[133.1999,34.6929],[133.1966,34.7028],[133.1898,34.7086],[133.1758,34.7134],[133.1729,34.7154],[133.1673,34.724],[133.1658,34.7288],[133.1662,34.7363],[133.1682,34.7413],[133.1674,34.7445],[133.1622,34.7528],[133.1428,34.7518],[133.1355,34.7504],[133.1292,34.7453],[133.1233,34.7375],[133.1173,34.7349],[133.1084,34.7339],[133.1095,34.7272],[133.1102,34.7117],[133.106,34.691],[133.1015,34.6847],[133.0928,34.676],[133.0891,34.661],[133.1056,34.6574],[133.1154,34.6503],[133.1264,34.6443],[133.1514,34.6355],[133.1572,34.631],[133.1629,34.6226],[133.1638,34.6153],[133.1616,34.6052],[133.1557,34.5903],[133.1448,34.5866],[133.1399,34.5766],[133.1408,34.5726],[133.1461,34.5685],[133.1506,34.5669],[133.1624,34.5584],[133.1767,34.5516],[133.1818,34.5465],[133.1871,34.5359],[133.1927,34.5312],[133.1972,34.5305],[133.2066,34.5333],[133.22,34.5291],[133.2259,34.5258],[133.2438,34.5328],[133.2532,34.5409],[133.2692,34.549],[133.2704,34.552],[133.2682,34.5562],[133.2666,34.5696],[133.2631,34.5771],[133.2547,34.5867],[133.2445,34.5955],[133.2389,34.6079],[133.2372,34.6145],[133.2375,34.6282],[133.2399,34.6376]]]}},{"type":"Feature","properties":{"id":34006},"geometry":{"type":"MultiPolygon","coordinates":[[[[133.4708,34.3153],[133.4677,34.3168],[133.4599,34.3162],[133.4609,34.3117],[133.4675,34.3121],[133.4708,34.3153]]],[[[133.4482,34.3424],[133.4462,34.3429],[133.4407,34.3501],[133.4368,34.3513],[133.4299,34.3477],[133.4276,34.3444],[133.431,34.3387],[133.4372,34.3383],[133.4467,34.3358],[133.4496,34.3398],[133.4482,34.3424]]],[[[133.3993,34.3865],[133.3914,34.3883],[133.3898,34.3847],[133.3979,34.3773],[133.4043,34.3836],[133.3993,34.3865]]],[[[133.3196,34.3689],[133.3156,34.3724],[133.3019,34.3683],[133.2963,34.3647],[133.2907,34.3585],[133.285,34.356],[133.282,34.3572],[133.2645,34.3484],[133.2619,34.3446],[133.2656,34.3432],[133.2668,34.338],[133.2621,34.3333],[133.2677,34.3331],[133.2742,34.3357],[133.278,34.3348],[133.2852,34.3379],[133.2859,34.3457],[133.2877,34.3497],[133.288,34.3557],[133.2921,34.3531],[133.2961,34.3447],[133.3016,34.3421],[133.3123,34.3479],[133.316,34.349],[133.3219,34.3535],[133.3286,34.3549],[133.3345,34.3545],[133.3373,34.3571],[133.3427,34.3697],[133.3327,34.367],[133.3277,34.3635],[133.3253,34.3662],[133.3196,34.3689]]],[[[133.2399,34.6376],[133.2375,34.6282],[133.2372,34.6145],[133.2389,34.6079],[133.2445,34.5955],[133.2547,34.5867],[133.2631,34.5771],[133.2666,34.5696],[133.2682,34.5562],[133.2704,34.552],[133.2692,34.549],[133.2532,34.5409],[133.2438,34.5328],[133.2259,34.5258],[133.22,34.5181],[133.2229,34.5106],[133.2284,34.5065],[133.2363,34.5089],[133.2411,34.5073],[133.2421,34.5032],[133.2411,34.4956],[133.2367,34.4815],[133.2343,34.4766],[133.2289,34.4733],[133.2219,34.4719],[133.2177,34.4677],[133.2197,34.4631],[133.2341,34.46],[133.2394,34.458],[133.243,34.4537],[133.2427,34.4501],[133.2382,34.446],[133.2391,34.4388],[133.2421,34.4363],[133.248,34.4344],[133.2481,34.4296],[133.2513,34.4223],[133.2563,34.4261],[133.253,34.4315],[133.2564,34.4364],[133.2695,34.4332],[133.2716,34.4287],[133.27,34.4237],[133.2741,34.4189],[133.273,34.4125],[133.2823,34.4131],[133.2905,34.4114],[133.2982,34.4055],[133.2985,34.4002],[133.2894,34.3838],[133.2924,34.3827],[133.3017,34.3857],[133.3055,34.3858],[133.3212,34.3785],[133.3286,34.3801],[133.3321,34.3785],[133.3365,34.3803],[133.3463,34.3772],[133.3484,34.3708],[133.3468,34.365],[133.3583,34.3691],[133.3679,34.3695],[133.3712,34.3738],[133.379,34.3774],[133.3779,34.3809],[133.3841,34.3821],[133.3837,34.3888],[133.3809,34.3906],[133.3833,34.4064],[133.3825,34.4077],[133.3848,34.4176],[133.3872,34.4208],[133.3916,34.4225],[133.3945,34.4259],[133.4076,34.4285],[133.4201,34.4278],[133.425,34.4283],[133.4319,34.4243],[133.4393,34.4353],[133.4391,34.4375],[133.4335,34.4398],[133.4365,34.4426],[133.4215,34.4494],[133.4092,34.4567],[133.4062,34.4609],[133.4116,34.47],[133.4085,34.4807],[133.4128,34.4785],[133.4144,34.475],[133.4137,34.4614],[133.4205,34.4551],[133.4359,34.4488],[133.442,34.4446],[133.4441,34.4449],[133.4466,34.4506],[133.4474,34.4618],[133.4458,34.4655],[133.4456,34.4737],[133.4478,34.4777],[133.4538,34.4762],[133.4537,34.4869],[133.4584,34.5],[133.4482,34.5026],[133.4525,34.523],[133.452,34.5396],[133.4507,34.5426],[133.4478,34.549],[133.4411,34.5581],[133.4318,34.5649],[133.4247,34.5833],[133.4081,34.5868],[133.4008,34.594],[133.397,34.6041],[133.3861,34.6184],[133.395,34.6289],[133.3905,34.6383],[133.3969,34.6464],[133.4018,34.656],[133.4053,34.6666],[133.3867,34.6765],[133.3845,34.6876],[133.3767,34.6947],[133.373,34.7083],[133.3719,34.7188],[133.368,34.7218],[133.3582,34.711],[133.3568,34.7064],[133.3586,34.6918],[133.358,34.6895],[133.3524,34.6847],[133.3465,34.6814],[133.339,34.6746],[133.3359,34.6629],[133.3269,34.6545],[133.3207,34.6425],[133.3157,34.6375],[133.308,34.6388],[133.3024,34.6462],[133.307,34.6597],[133.2953,34.6768],[133.2886,34.6797],[133.2829,34.6806],[133.2711,34.6797],[133.2676,34.6751],[133.2617,34.6626],[133.2577,34.6581],[133.2518,34.6471],[133.2453,34.643],[133.2399,34.6376]]]]}},{"type":"Feature","properties":{"id":34007},"geometry":{"type":"MultiPolygon","coordinates":[[[[132.3353,34.3047],[132.333,34.3109],[132.3298,34.3077],[132.3219,34.3036],[132.3205,34.2986],[132.3142,34.2955],[132.3102,34.2968],[132.3019,34.294],[132.2967,34.2888],[132.2898,34.2876],[132.2858,34.283],[132.2836,34.2753],[132.2766,34.2625],[132.2743,34.2624],[132.2627,34.2525],[132.2666,34.2506],[132.2707,34.2456],[132.2693,34.2427],[132.2709,34.2369],[132.2756,34.2326],[132.2813,34.2355],[132.2842,34.2349],[132.3032,34.244],[132.3111,34.2524],[132.3149,34.2582],[132.3199,34.2622],[132.3298,34.2668],[132.3351,34.2722],[132.3394,34.2726],[132.3416,34.2782],[132.3444,34.2785],[132.3482,34.2826],[132.3468,34.2941],[132.3399,34.2978],[132.3411,34.3027],[132.3353,34.3047]]],[[[132.195,34.4922],[132.1809,34.5038],[132.1727,34.5122],[132.1691,34.5202],[132.17,34.5242],[132.1804,34.5274],[132.1839,34.5331],[132.1807,34.539],[132.1769,34.54],[132.1673,34.5379],[132.16,34.5447],[132.152,34.555],[132.1502,34.5602],[132.1444,34.5674],[132.1336,34.5748],[132.125,34.578],[132.1249,34.5799],[132.1208,34.5739],[132.1181,34.5625],[132.1013,34.5496],[132.093,34.5423],[132.0863,34.5342],[132.0765,34.5318],[132.0659,34.5303],[132.0561,34.5268],[132.0503,34.5182],[132.0484,34.5079],[132.0409,34.5],[132.0566,34.4926],[132.0598,34.4824],[132.0655,34.4735],[132.0712,34.4641],[132.0806,34.445],[132.0795,34.4345],[132.0798,34.4228],[132.072,34.4111],[132.0766,34.4016],[132.0734,34.3921],[132.0798,34.3836],[132.0752,34.3741],[132.0722,34.353],[132.0843,34.3538],[132.0927,34.3478],[132.1016,34.3431],[132.1034,34.3332],[132.1164,34.3271],[132.126,34.3306],[132.1311,34.3209],[132.1274,34.3119],[132.1325,34.3117],[132.1365,34.3135],[132.14,34.3205],[132.1475,34.3275],[132.1508,34.3288],[132.1563,34.3281],[132.1599,34.3253],[132.1679,34.3151],[132.1683,34.3128],[132.1646,34.3071],[132.1632,34.3008],[132.1648,34.2902],[132.1705,34.2839],[132.1791,34.2815],[132.1902,34.282],[132.2007,34.2876],[132.2077,34.2886],[132.2169,34.2863],[132.2227,34.2826],[132.2332,34.2646],[132.2371,34.2599],[132.2419,34.2626],[132.2496,34.2648],[132.2534,34.2693],[132.2603,34.2731],[132.2669,34.2742],[132.2675,34.2778],[132.2724,34.2766],[132.2802,34.2831],[132.2819,34.2892],[132.287,34.2943],[132.2889,34.298],[132.2999,34.3046],[132.3052,34.3101],[132.31,34.3174],[132.3136,34.3175],[132.3191,34.323],[132.3188,34.3275],[132.3216,34.3302],[132.323,34.3386],[132.3265,34.343],[132.3332,34.3434],[132.3365,34.3381],[132.3395,34.3374],[132.3469,34.3433],[132.3419,34.3475],[132.3506,34.3503],[132.3455,34.353],[132.331,34.3634],[132.325,34.3699],[132.3203,34.3817],[132.3193,34.394],[132.3157,34.4104],[132.3143,34.413],[132.3085,34.4159],[132.3038,34.414],[132.3009,34.4037],[132.2971,34.3969],[132.2974,34.3884],[132.2929,34.3856],[132.2809,34.39],[132.278,34.393],[132.279,34.3983],[132.2826,34.4052],[132.2746,34.4099],[132.2602,34.4129],[132.2462,34.4192],[132.2395,34.4239],[132.233,34.4254],[132.2221,34.4235],[132.2104,34.4157],[132.2035,34.4144],[132.1973,34.4148],[132.1931,34.4172],[132.1873,34.4252],[132.1858,34.4297],[132.1882,34.4434],[132.1887,34.4504],[132.1947,34.469],[132.1958,34.4777],[132.195,34.4922]]]]}},{"type":"Feature","properties":{"id":34008},"geometry":{"type":"MultiPolygon","coordinates":[[[[132.8069,34.2806],[132.7981,34.2794],[132.7918,34.2762],[132.7912,34.2718],[132.7989,34.2703],[132.8034,34.2682],[132.8116,34.2764],[132.8069,34.2806]]],[[[132.8035,34.6207],[132.796,34.6063],[132.7924,34.601],[132.7916,34.5887],[132.7839,34.5751],[132.7791,34.5727],[132.7652,34.5699],[132.7492,34.5685],[132.7415,34.5617],[132.7379,34.5564],[132.7325,34.5529],[132.7157,34.55],[132.711,34.5458],[132.7074,34.536],[132.7011,34.5309],[132.6923,34.5223],[132.688,34.522],[132.6817,34.525],[132.6716,34.5261],[132.6662,34.5244],[132.6575,34.5187],[132.6499,34.5155],[132.6484,34.5123],[132.6496,34.5065],[132.6471,34.5036],[132.6388,34.5019],[132.6317,34.4992],[132.6241,34.4912],[132.618,34.4891],[132.6033,34.4865],[132.5989,34.4829],[132.6001,34.4796],[132.6066,34.4764],[132.6081,34.4738],[132.6049,34.4672],[132.6005,34.4623],[132.6015,34.4557],[132.608,34.4526],[132.6173,34.4456],[132.622,34.4448],[132.6311,34.4473],[132.6399,34.4453],[132.6499,34.4398],[132.6608,34.4384],[132.6656,34.4362],[132.6676,34.4302],[132.6651,34.4274],[132.6485,34.4128],[132.6462,34.4092],[132.6436,34.4],[132.6439,34.3937],[132.6493,34.3793],[132.6508,34.3689],[132.6495,34.3661],[132.6387,34.3568],[132.6277,34.3569],[132.6241,34.3524],[132.6146,34.3459],[132.612,34.3408],[132.6088,34.3302],[132.6072,34.3198],[132.617,34.3147],[132.6278,34.3108],[132.6444,34.3082],[132.6502,34.3036],[132.6565,34.2917],[132.6587,34.2899],[132.6763,34.2951],[132.6892,34.3012],[132.6943,34.3023],[132.7021,34.3061],[132.728,34.314],[132.7482,34.3319],[132.7524,34.3341],[132.7576,34.3338],[132.7594,34.3294],[132.7597,34.3227],[132.7618,34.3116],[132.7683,34.2977],[132.7766,34.2881],[132.7889,34.2794],[132.7876,34.2848],[132.7905,34.2877],[132.7909,34.2917],[132.7955,34.2964],[132.7992,34.312],[132.8048,34.31],[132.8124,34.312],[132.812,34.3142],[132.8184,34.3165],[132.8235,34.3143],[132.8289,34.3155],[132.8335,34.3125],[132.8367,34.3126],[132.8344,34.3062],[132.8394,34.3005],[132.846,34.2972],[132.8465,34.2915],[132.8526,34.2932],[132.8574,34.2999],[132.86,34.2988],[132.8586,34.3229],[132.859,34.3293],[132.8626,34.3385],[132.8622,34.3469],[132.8593,34.3507],[132.8504,34.3571],[132.8428,34.3609],[132.8355,34.3633],[132.8214,34.3654],[132.8155,34.3689],[132.8085,34.3701],[132.7955,34.3695],[132.7926,34.3706],[132.7931,34.3746],[132.8147,34.3938],[132.8173,34.3999],[132.8169,34.4036],[132.8087,34.4076],[132.7971,34.4086],[132.7933,34.4132],[132.7935,34.4176],[132.7995,34.4206],[132.8052,34.4209],[132.823,34.4193],[132.8326,34.4178],[132.8439,34.4179],[132.853,34.416],[132.864,34.4117],[132.8742,34.4066],[132.8802,34.406],[132.8936,34.4099],[132.8986,34.4146],[132.9043,34.4259],[132.9064,34.4283],[132.9058,34.4395],[132.8989,34.4534],[132.9002,34.4587],[132.9091,34.4595],[132.9143,34.4574],[132.9236,34.4516],[132.9361,34.4507],[132.944,34.4522],[132.9467,34.4594],[132.9326,34.4685],[132.9293,34.4695],[132.9118,34.4812],[132.9068,34.4863],[132.9023,34.5051],[132.8984,34.5091],[132.8864,34.5146],[132.8794,34.5156],[132.8734,34.5177],[132.8594,34.5285],[132.859,34.5338],[132.8613,34.5417],[132.8642,34.5444],[132.8756,34.5458],[132.8807,34.548],[132.8847,34.5534],[132.891,34.5596],[132.8914,34.5634],[132.888,34.5708],[132.889,34.5737],[132.8985,34.5806],[132.8977,34.6004],[132.8964,34.6047],[132.8878,34.6093],[132.8836,34.6126],[132.8674,34.6086],[132.8534,34.6125],[132.8457,34.6176],[132.8382,34.6197],[132.8239,34.6207],[132.8035,34.6207]]]]}},{"type":"Feature","properties":{"id":34009},"geometry":{"type":"MultiPolygon","coordinates":[[[[132.4869,34.3397],[132.4863,34.3439],[132.4811,34.3471],[132.4769,34.3449],[132.4772,34.3402],[132.4819,34.3307],[132.4869,34.3357],[132.4869,34.3397]]],[[[132.5392,34.3142],[132.5498,34.3098],[132.5538,34.3102],[132.5645,34.3166],[132.5544,34.331],[132.5538,34.3442],[132.5527,34.3504],[132.5488,34.3616],[132.5389,34.371],[132.5254,34.3669],[132.5233,34.3611],[132.5185,34.3576],[132.509,34.3533],[132.5131,34.3459],[132.5167,34.3446],[132.5211,34.3407],[132.5256,34.3335],[132.5298,34.3297],[132.5392,34.3142]]],[[[132.4452,34.3119],[132.4479,34.315],[132.4436,34.3255],[132.4402,34.3255],[132.4326,34.3207],[132.4339,34.3139],[132.4298,34.3118],[132.4284,34.3087],[132.4208,34.3031],[132.4338,34.2975],[132.4362,34.2998],[132.4434,34.2984],[132.4429,34.3019],[132.4385,34.3046],[132.4448,34.3082],[132.4452,34.3119]]],[[[132.432,34.3533],[132.4358,34.3585],[132.4261,34.3634],[132.4251,34.3569],[132.432,34.3533]]],[[[132.4508,34.3644],[132.4536,34.3661],[132.4531,34.3723],[132.449,34.3864],[132.4533,34.391],[132.4506,34.3924],[132.4478,34.3869],[132.4464,34.3794],[132.4436,34.3753],[132.4422,34.3675],[132.4392,34.3592],[132.4442,34.3583],[132.4481,34.3644],[132.4508,34.3644]]],[[[132.3959,34.6033],[132.3931,34.5975],[132.3881,34.5824],[132.3877,34.5709],[132.3923,34.5597],[132.3913,34.5548],[132.3836,34.548],[132.378,34.5454],[132.3686,34.5428],[132.3584,34.5426],[132.346,34.5478],[132.3348,34.5504],[132.3264,34.5492],[132.316,34.5463],[132.2996,34.5452],[132.2836,34.5414],[132.2772,34.5386],[132.2707,34.533],[132.2652,34.5304],[132.2534,34.5275],[132.2489,34.5233],[132.2444,34.5165],[132.2368,34.5119],[132.2323,34.5106],[132.2228,34.5099],[132.2146,34.5083],[132.2081,34.5058],[132.2035,34.5003],[132.195,34.4922],[132.1958,34.4777],[132.1947,34.469],[132.1887,34.4504],[132.1882,34.4434],[132.1858,34.4297],[132.1873,34.4252],[132.1931,34.4172],[132.1973,34.4148],[132.2035,34.4144],[132.2104,34.4157],[132.2221,34.4235],[132.233,34.4254],[132.2395,34.4239],[132.2462,34.4192],[132.2602,34.4129],[132.2746,34.4099],[132.2826,34.4052],[132.279,34.3983],[132.278,34.393],[132.2809,34.39],[132.2929,34.3856],[132.2974,34.3884],[132.2971,34.3969],[132.3009,34.4037],[132.3038,34.414],[132.3085,34.4159],[132.3143,34.413],[132.3157,34.4104],[132.3193,34.394],[132.3203,34.3817],[132.325,34.3699],[132.331,34.3634],[132.3455,34.353],[132.3519,34.3569],[132.3598,34.3572],[132.3676,34.3614],[132.3771,34.3616],[132.3803,34.3607],[132.3896,34.3621],[132.4017,34.3631],[132.4074,34.3652],[132.4192,34.3602],[132.4259,34.3647],[132.437,34.3608],[132.4394,34.3661],[132.4414,34.3747],[132.4466,34.384],[132.4461,34.3868],[132.4514,34.3958],[132.455,34.3922],[132.4512,34.3869],[132.4508,34.3833],[132.4564,34.368],[132.4556,34.3622],[132.4444,34.3554],[132.4414,34.3514],[132.4504,34.3516],[132.4551,34.3557],[132.4589,34.3506],[132.4576,34.3459],[132.4614,34.3403],[132.4654,34.3429],[132.4632,34.3453],[132.4639,34.3503],[132.4678,34.3528],[132.4803,34.3559],[132.4821,34.353],[132.4924,34.3535],[132.498,34.3577],[132.5031,34.3547],[132.5085,34.357],[132.517,34.3643],[132.531,34.3698],[132.5318,34.3738],[132.5374,34.3786],[132.5426,34.3852],[132.5538,34.3834],[132.5612,34.3804],[132.5709,34.3718],[132.5757,34.3719],[132.5828,34.3759],[132.5923,34.3781],[132.6043,34.3792],[132.6086,34.3789],[132.6201,34.3704],[132.6277,34.3569],[132.6387,34.3568],[132.6495,34.3661],[132.6508,34.3689],[132.6493,34.3793],[132.6439,34.3937],[132.6436,34.4],[132.6462,34.4092],[132.6485,34.4128],[132.6651,34.4274],[132.6676,34.4302],[132.6656,34.4362],[132.6608,34.4384],[132.6499,34.4398],[132.6399,34.4453],[132.6311,34.4473],[132.622,34.4448],[132.6173,34.4456],[132.608,34.4526],[132.6015,34.4557],[132.6005,34.4623],[132.6049,34.4672],[132.6081,34.4738],[132.6066,34.4764],[132.6001,34.4796],[132.5989,34.4829],[132.6033,34.4865],[132.618,34.4891],[132.6241,34.4912],[132.6317,34.4992],[132.6388,34.5019],[132.6471,34.5036],[132.6496,34.5065],[132.6484,34.5123],[132.6499,34.5155],[132.6575,34.5187],[132.6662,34.5244],[132.6716,34.5261],[132.6817,34.525],[132.688,34.522],[132.6923,34.5223],[132.7011,34.5309],[132.6928,34.5348],[132.6913,34.5378],[132.6948,34.5449],[132.7007,34.5503],[132.7009,34.5539],[132.6965,34.5596],[132.696,34.5671],[132.6999,34.5784],[132.6997,34.5818],[132.6936,34.5927],[132.6848,34.597],[132.6745,34.5989],[132.6615,34.5989],[132.6387,34.6007],[132.6242,34.5977],[132.6139,34.5971],[132.6094,34.5956],[132.6091,34.5884],[132.6059,34.5847],[132.5901,34.5801],[132.5871,34.5644],[132.582,34.5609],[132.5766,34.56],[132.5713,34.5623],[132.5683,34.5673],[132.5614,34.5698],[132.5531,34.5759],[132.5489,34.5809],[132.542,34.5841],[132.5335,34.5908],[132.5293,34.5977],[132.5262,34.6002],[132.518,34.6027],[132.5148,34.6014],[132.5113,34.5963],[132.5075,34.5957],[132.4987,34.598],[132.4963,34.5999],[132.4919,34.6072],[132.4835,34.6135],[132.4783,34.6155],[132.4743,34.6153],[132.4667,34.6106],[132.4577,34.6028],[132.4479,34.598],[132.4357,34.5959],[132.4271,34.5972],[132.4193,34.6],[132.3959,34.6033]],[[132.5126,34.4116],[132.519,34.4171],[132.5233,34.4193],[132.533,34.4202],[132.5365,34.418],[132.5363,34.4147],[132.5321,34.4081],[132.5262,34.3965],[132.5106,34.3826],[132.5067,34.383],[132.4985,34.3893],[132.4971,34.3922],[132.4984,34.3965],[132.5085,34.4099],[132.5126,34.4116]]]]}},{"type":"Feature","properties":{"id":34010},"geometry":{"type":"Polygon","coordinates":[[[133.2399,34.6376],[133.2453,34.643],[133.2518,34.6471],[133.2577,34.6581],[133.2617,34.6626],[133.2676,34.6751],[133.2711,34.6797],[133.2829,34.6806],[133.2886,34.6797],[133.2953,34.6768],[133.307,34.6597],[133.3024,34.6462],[133.308,34.6388],[133.3157,34.6375],[133.3207,34.6425],[133.3269,34.6545],[133.3359,34.6629],[133.339,34.6746],[133.3465,34.6814],[133.3524,34.6847],[133.358,34.6895],[133.3586,34.6918],[133.3568,34.7064],[133.3582,34.711],[133.368,34.7218],[133.3633,34.7254],[133.3717,34.7399],[133.3722,34.7407],[133.3658,34.7561],[133.369,34.7657],[133.375,34.7808],[133.3782,34.7907],[133.3807,34.803],[133.375,34.8114],[133.3481,34.8264],[133.3318,34.8503],[133.3285,34.8548],[133.3161,34.8489],[133.3083,34.8463],[133.2999,34.8452],[133.2891,34.8489],[133.2841,34.8489],[133.2773,34.8471],[133.2722,34.8414],[133.269,34.8325],[133.2639,34.8232],[133.2539,34.814],[133.2437,34.8121],[133.2387,34.8143],[133.233,34.8227],[133.2323,34.8369],[133.2288,34.8442],[133.2125,34.8568],[133.2086,34.8571],[133.203,34.8546],[133.1934,34.8465],[133.1891,34.8459],[133.1721,34.8454],[133.1647,34.8441],[133.1517,34.8377],[133.1504,34.836],[133.1474,34.8246],[133.1417,34.8179],[133.1412,34.8139],[133.1448,34.8016],[133.1422,34.7925],[133.1429,34.7895],[133.1509,34.7781],[133.1609,34.7704],[133.1667,34.7637],[133.1666,34.7599],[133.1622,34.7528],[133.1674,34.7445],[133.1682,34.7413],[133.1662,34.7363],[133.1658,34.7288],[133.1673,34.724],[133.1729,34.7154],[133.1758,34.7134],[133.1898,34.7086],[133.1966,34.7028],[133.1999,34.6929],[133.2003,34.6838],[133.197,34.6794],[133.1919,34.6785],[133.1893,34.6747],[133.1942,34.6631],[133.1975,34.6596],[133.2062,34.6567],[133.2164,34.6516],[133.2251,34.6487],[133.2399,34.6376]]]}},{"type":"Feature","properties":{"id":34011},"geometry":{"type":"Polygon","coordinates":[[[132.5538,34.3442],[132.565,34.3465],[132.5756,34.3501],[132.5842,34.3577],[132.5913,34.3708],[132.5923,34.3781],[132.5828,34.3759],[132.5757,34.3719],[132.5709,34.3718],[132.5612,34.3804],[132.5538,34.3834],[132.5426,34.3852],[132.5374,34.3786],[132.5318,34.3738],[132.531,34.3698],[132.5389,34.371],[132.5488,34.3616],[132.5527,34.3504],[132.5538,34.3442]]]}},{"type":"Feature","properties":{"id":34012},"geometry":{"type":"Polygon","coordinates":[[[132.3959,34.6033],[132.4193,34.6],[132.4271,34.5972],[132.4357,34.5959],[132.4479,34.598],[132.4577,34.6028],[132.4667,34.6106],[132.4743,34.6153],[132.4783,34.6155],[132.4835,34.6135],[132.4919,34.6072],[132.4963,34.5999],[132.4987,34.598],[132.5075,34.5957],[132.5113,34.5963],[132.5148,34.6014],[132.518,34.6027],[132.5262,34.6002],[132.5293,34.5977],[132.5335,34.5908],[132.542,34.5841],[132.5489,34.5809],[132.5633,34.5923],[132.5691,34.5981],[132.5724,34.6053],[132.5708,34.614],[132.5711,34.6238],[132.5737,34.6294],[132.5804,34.6355],[132.5875,34.6489],[132.5904,34.6664],[132.6,34.6783],[132.5991,34.6851],[132.5869,34.6935],[132.584,34.6965],[132.583,34.7012],[132.5848,34.7058],[132.5848,34.7181],[132.5855,34.7225],[132.5918,34.7329],[132.5885,34.7369],[132.5745,34.7417],[132.573,34.7441],[132.5705,34.761],[132.5685,34.7683],[132.5628,34.7751],[132.5559,34.7804],[132.5476,34.7888],[132.5434,34.7948],[132.5397,34.792],[132.5187,34.7993],[132.5096,34.7928],[132.5,34.7961],[132.4892,34.7948],[132.4778,34.796],[132.4672,34.7993],[132.4569,34.7975],[132.4523,34.808],[132.4445,34.8145],[132.434,34.8123],[132.4237,34.8087],[132.4274,34.7983],[132.4176,34.7945],[132.4093,34.7882],[132.4015,34.7802],[132.3899,34.7795],[132.3856,34.7916],[132.3779,34.7961],[132.375,34.7978],[132.3643,34.797],[132.3525,34.7934],[132.3438,34.7884],[132.331,34.7883],[132.3221,34.7941],[132.312,34.7923],[132.306,34.7838],[132.3012,34.7737],[132.2911,34.7763],[132.282,34.7818],[132.2807,34.7936],[132.2538,34.8039],[132.2407,34.7983],[132.2449,34.7878],[132.2428,34.7767],[132.2351,34.7699],[132.2283,34.7607],[132.2248,34.7505],[132.2155,34.7417],[132.205,34.7455],[132.199,34.7361],[132.1895,34.7309],[132.1795,34.7319],[132.1708,34.726],[132.1513,34.7147],[132.1431,34.7065],[132.1398,34.7007],[132.1363,34.6943],[132.1447,34.6885],[132.157,34.6898],[132.1642,34.6801],[132.157,34.6722],[132.15,34.6595],[132.14,34.6485],[132.1475,34.6439],[132.1543,34.6427],[132.1605,34.6429],[132.1675,34.6449],[132.1747,34.6515],[132.1823,34.6631],[132.1852,34.6714],[132.1885,34.6738],[132.1952,34.6723],[132.1998,34.6652],[132.2071,34.6641],[132.2132,34.6656],[132.2205,34.67],[132.2278,34.6791],[132.234,34.6811],[132.2513,34.679],[132.2579,34.6753],[132.2612,34.6702],[132.2623,34.6657],[132.2657,34.663],[132.2699,34.6637],[132.2773,34.6707],[132.2806,34.6758],[132.2859,34.6788],[132.304,34.6807],[132.3111,34.6827],[132.3138,34.6856],[132.3165,34.6956],[132.3192,34.6991],[132.3325,34.7105],[132.3412,34.7085],[132.3553,34.6977],[132.3586,34.6901],[132.3593,34.6836],[132.362,34.675],[132.3567,34.6624],[132.3479,34.6565],[132.3426,34.6514],[132.338,34.6391],[132.3384,34.6355],[132.3484,34.6236],[132.3496,34.619],[132.3529,34.6145],[132.3603,34.6132],[132.3724,34.6082],[132.382,34.6104],[132.3915,34.6097],[132.3959,34.6033]]]}},{"type":"Feature","properties":{"id":34013},"geometry":{"type":"Polygon","coordinates":[[[132.6277,34.3569],[132.6201,34.3704],[132.6086,34.3789],[132.6043,34.3792],[132.5923,34.3781],[132.5913,34.3708],[132.5842,34.3577],[132.5756,34.3501],[132.565,34.3465],[132.5538,34.3442],[132.5544,34.331],[132.5645,34.3166],[132.5723,34.3142],[132.5864,34.3123],[132.5925,34.3078],[132.5996,34.3097],[132.6043,34.3145],[132.6072,34.3198],[132.6088,34.3302],[132.612,34.3408],[132.6146,34.3459],[132.6241,34.3524],[132.6277,34.3569]]]}},{"type":"Feature","properties":{"id":34014},"geometry":{"type":"MultiPolygon","coordinates":[[[[132.4823,34.036],[132.4919,34.0395],[132.4951,34.0459],[132.4863,34.0412],[132.4823,34.036]]],[[[132.5363,34.0717],[132.5293,34.0687],[132.5258,34.0573],[132.5194,34.0526],[132.5204,34.0505],[132.5277,34.048],[132.5343,34.047],[132.5354,34.0547],[132.5391,34.0659],[132.5363,34.0717]]],[[[132.5766,34.1588],[132.5794,34.1598],[132.5776,34.1676],[132.5711,34.1627],[132.5706,34.1564],[132.5766,34.1588]]],[[[132.677,34.2026],[132.6715,34.2034],[132.6698,34.1994],[132.6655,34.1994],[132.6632,34.1966],[132.6563,34.196],[132.6503,34.19],[132.6478,34.185],[132.6487,34.1821],[132.6445,34.1737],[132.6447,34.1708],[132.651,34.1707],[132.6573,34.1757],[132.6671,34.1709],[132.6735,34.1724],[132.6799,34.1826],[132.6846,34.1877],[132.68,34.1961],[132.6771,34.1981],[132.677,34.2026]]],[[[132.7889,34.2794],[132.7766,34.2881],[132.7683,34.2977],[132.7618,34.3116],[132.7597,34.3227],[132.7594,34.3294],[132.7576,34.3338],[132.7524,34.3341],[132.7482,34.3319],[132.728,34.314],[132.7021,34.3061],[132.6943,34.3023],[132.6892,34.3012],[132.6763,34.2951],[132.6587,34.2899],[132.6565,34.2917],[132.6502,34.3036],[132.6444,34.3082],[132.6278,34.3108],[132.617,34.3147],[132.6072,34.3198],[132.6043,34.3145],[132.5996,34.3097],[132.5925,34.3078],[132.5864,34.3123],[132.5723,34.3142],[132.5645,34.3166],[132.5538,34.3102],[132.5498,34.3098],[132.5392,34.3142],[132.5271,34.3039],[132.5234,34.2984],[132.5195,34.2959],[132.509,34.2929],[132.5131,34.2856],[132.5186,34.2819],[132.5157,34.2749],[132.5164,34.2719],[132.5143,34.2669],[132.5176,34.2626],[132.5145,34.258],[132.5183,34.2553],[132.5241,34.2586],[132.53,34.254],[132.53,34.2498],[132.5257,34.2478],[132.531,34.241],[132.5364,34.2433],[132.5401,34.243],[132.5445,34.2398],[132.5517,34.2413],[132.5586,34.2377],[132.5534,34.2308],[132.5489,34.2282],[132.5488,34.2252],[132.5379,34.2286],[132.5311,34.2222],[132.5442,34.2096],[132.5381,34.1997],[132.5303,34.1986],[132.5264,34.1997],[132.5175,34.1922],[132.5061,34.1883],[132.5011,34.1828],[132.4944,34.1692],[132.4928,34.1619],[132.4933,34.1537],[132.4964,34.1469],[132.5031,34.1456],[132.5074,34.1404],[132.5033,34.1334],[132.4997,34.1342],[132.4928,34.1308],[132.4892,34.1308],[132.4853,34.1275],[132.4769,34.1239],[132.4658,34.1203],[132.4639,34.1156],[132.4556,34.1147],[132.4481,34.1092],[132.4478,34.1039],[132.4494,34.1003],[132.4475,34.0939],[132.4528,34.0938],[132.4564,34.0894],[132.4572,34.0842],[132.4642,34.0828],[132.4733,34.0881],[132.4806,34.0889],[132.4836,34.0858],[132.4858,34.0914],[132.4992,34.0917],[132.5,34.0978],[132.5039,34.1036],[132.5075,34.1036],[132.5136,34.0992],[132.5167,34.0953],[132.525,34.0947],[132.5292,34.1003],[132.5331,34.1033],[132.5381,34.095],[132.5419,34.0992],[132.545,34.0961],[132.5429,34.0926],[132.5481,34.0883],[132.5492,34.0797],[132.5433,34.074],[132.5419,34.0683],[132.5489,34.07],[132.5536,34.0681],[132.5594,34.0722],[132.5558,34.0747],[132.5506,34.0722],[132.5478,34.0761],[132.5508,34.0789],[132.5567,34.0808],[132.5569,34.0833],[132.5628,34.0894],[132.5625,34.0936],[132.5686,34.1],[132.5686,34.1086],[132.5714,34.1158],[132.575,34.1158],[132.5775,34.1114],[132.5847,34.1058],[132.5883,34.1106],[132.5831,34.1128],[132.5803,34.1192],[132.5836,34.1228],[132.5779,34.1273],[132.5736,34.1268],[132.5717,34.1228],[132.5678,34.1239],[132.563,34.1183],[132.5593,34.1169],[132.5478,34.1164],[132.5472,34.1131],[132.5392,34.1083],[132.5414,34.1156],[132.5378,34.1194],[132.5439,34.1239],[132.547,34.1294],[132.5483,34.1394],[132.5531,34.1442],[132.547,34.1511],[132.5394,34.1489],[132.5333,34.1483],[132.5278,34.1503],[132.53,34.1528],[132.5222,34.1572],[132.5305,34.1656],[132.5339,34.1617],[132.5397,34.1639],[132.5428,34.1703],[132.5406,34.1719],[132.5475,34.1764],[132.5531,34.1728],[132.5561,34.175],[132.5567,34.18],[132.5522,34.1819],[132.5539,34.1861],[132.5472,34.19],[132.5356,34.1881],[132.5337,34.191],[132.5363,34.1937],[132.5507,34.1948],[132.5598,34.1966],[132.5626,34.1988],[132.5679,34.1976],[132.5693,34.2004],[132.5758,34.2031],[132.5776,34.206],[132.5856,34.2116],[132.5872,34.2155],[132.5965,34.2285],[132.6032,34.2273],[132.6044,34.2237],[132.6085,34.222],[132.6159,34.2248],[132.618,34.2225],[132.6154,34.2194],[132.6149,34.215],[132.6188,34.2099],[132.6222,34.2119],[132.6269,34.2094],[132.6264,34.2064],[132.6319,34.2061],[132.6425,34.2012],[132.647,34.2047],[132.6538,34.2066],[132.6597,34.2069],[132.6618,34.2092],[132.6582,34.2135],[132.6607,34.2176],[132.6684,34.2194],[132.6738,34.2144],[132.6804,34.21],[132.6845,34.2106],[132.6865,34.2162],[132.6852,34.2206],[132.6971,34.2308],[132.696,34.2345],[132.7003,34.2365],[132.7087,34.2376],[132.7113,34.2391],[132.7205,34.2408],[132.7296,34.2399],[132.7332,34.2424],[132.744,34.241],[132.7486,34.2423],[132.7538,34.2386],[132.7611,34.2421],[132.7587,34.2454],[132.7689,34.2498],[132.7736,34.2551],[132.7712,34.2599],[132.7665,34.2621],[132.7601,34.2615],[132.7552,34.2574],[132.7534,34.2593],[132.7601,34.2664],[132.759,34.2707],[132.7543,34.2765],[132.7579,34.2811],[132.7657,34.2814],[132.7685,34.2789],[132.7754,34.28],[132.7842,34.2754],[132.7889,34.2794]]],[[[132.6967,34.2176],[132.7013,34.219],[132.6995,34.2222],[132.6954,34.2238],[132.6922,34.2223],[132.6924,34.2186],[132.6967,34.2176]]],[[[132.7926,34.1217],[132.7856,34.115],[132.7957,34.1148],[132.7994,34.1182],[132.7926,34.1217]]],[[[132.8512,34.1899],[132.8477,34.1928],[132.8322,34.19],[132.8294,34.1858],[132.8255,34.1874],[132.8186,34.1829],[132.8075,34.1781],[132.8035,34.1723],[132.8031,34.1686],[132.8069,34.1638],[132.8003,34.1583],[132.8025,34.1547],[132.8076,34.1526],[132.8114,34.1538],[132.8196,34.1509],[132.8237,34.1538],[132.8287,34.1537],[132.8404,34.1592],[132.8477,34.1605],[132.8555,34.1652],[132.8694,34.1768],[132.8682,34.1804],[132.864,34.1804],[132.8575,34.1869],[132.8512,34.1899]]],[[[132.7817,34.1608],[132.7919,34.1645],[132.7981,34.1707],[132.8002,34.1751],[132.7988,34.1797],[132.7928,34.1852],[132.7863,34.1887],[132.7824,34.1883],[132.778,34.1808],[132.7718,34.1772],[132.7707,34.1741],[132.773,34.1612],[132.7817,34.1608]]],[[[132.8212,34.193],[132.8204,34.1963],[132.8134,34.1954],[132.8081,34.1933],[132.8139,34.1885],[132.8206,34.1912],[132.8212,34.193]]],[[[132.7736,34.1536],[132.7694,34.1553],[132.7588,34.1519],[132.7606,34.1483],[132.7663,34.1516],[132.7736,34.1536]]],[[[132.6736,34.1544],[132.6725,34.1598],[132.6657,34.1546],[132.6682,34.1512],[132.6718,34.1504],[132.6736,34.1544]]],[[[132.714,34.2027],[132.7104,34.205],[132.7073,34.2038],[132.6999,34.2045],[132.6931,34.2014],[132.6908,34.1978],[132.6865,34.1963],[132.6878,34.1889],[132.6864,34.182],[132.6914,34.1838],[132.7036,34.1787],[132.7066,34.1805],[132.7124,34.1808],[132.7153,34.1789],[132.7171,34.1729],[132.7221,34.1708],[132.7269,34.1727],[132.7382,34.1733],[132.7436,34.1678],[132.735,34.16],[132.7397,34.1586],[132.7429,34.164],[132.7493,34.1626],[132.7544,34.1641],[132.7592,34.1676],[132.761,34.1718],[132.7658,34.1778],[132.762,34.1825],[132.7558,34.1817],[132.76,34.1911],[132.7519,34.1945],[132.7443,34.1937],[132.7355,34.1971],[132.7229,34.1966],[132.714,34.2027]]],[[[132.7863,34.2556],[132.7875,34.2605],[132.7823,34.261],[132.7809,34.2584],[132.7863,34.2556]]]]}},{"type":"Feature","properties":{"id":34015},"geometry":{"type":"MultiPolygon","coordinates":[[[[133.1693,34.3855],[133.168,34.389],[133.1615,34.391],[133.1599,34.3881],[133.153,34.3851],[133.1519,34.382],[133.1556,34.38],[133.1556,34.3755],[133.1578,34.3737],[133.1633,34.3757],[133.1674,34.3734],[133.1726,34.3737],[133.1728,34.3799],[133.1693,34.3855]]],[[[132.8985,34.5806],[132.889,34.5737],[132.888,34.5708],[132.8914,34.5634],[132.891,34.5596],[132.8847,34.5534],[132.8807,34.548],[132.8756,34.5458],[132.8642,34.5444],[132.8613,34.5417],[132.859,34.5338],[132.8594,34.5285],[132.8734,34.5177],[132.8794,34.5156],[132.8864,34.5146],[132.8984,34.5091],[132.9023,34.5051],[132.9068,34.4863],[132.9118,34.4812],[132.9293,34.4695],[132.9326,34.4685],[132.9467,34.4594],[132.944,34.4522],[132.9361,34.4507],[132.9236,34.4516],[132.9143,34.4574],[132.9091,34.4595],[132.9002,34.4587],[132.8989,34.4534],[132.9058,34.4395],[132.9064,34.4283],[132.9151,34.4178],[132.9141,34.4066],[132.9146,34.3986],[132.9165,34.3935],[132.9226,34.3847],[132.929,34.3815],[132.9347,34.3773],[132.9432,34.3684],[132.9471,34.362],[132.9502,34.3594],[132.9609,34.3568],[132.9751,34.3471],[132.9793,34.3468],[133.0002,34.3475],[133.013,34.3432],[133.0157,34.341],[133.0186,34.3297],[133.0351,34.3331],[133.037,34.3354],[133.0414,34.3309],[133.0492,34.33],[133.047,34.3356],[133.0529,34.34],[133.0522,34.342],[133.0603,34.3452],[133.0721,34.3428],[133.0791,34.345],[133.0841,34.3556],[133.0837,34.3641],[133.0903,34.3829],[133.0793,34.3868],[133.065,34.3869],[133.056,34.388],[133.0537,34.3895],[133.0785,34.3897],[133.0924,34.3889],[133.0857,34.393],[133.0849,34.3959],[133.0985,34.39],[133.112,34.3866],[133.1177,34.383],[133.1279,34.3825],[133.1414,34.3894],[133.1487,34.3924],[133.1532,34.3926],[133.1631,34.3951],[133.161,34.3984],[133.1516,34.4059],[133.148,34.4167],[133.1544,34.4273],[133.1569,34.4344],[133.1561,34.4378],[133.1441,34.4469],[133.1359,34.4554],[133.1271,34.4663],[133.1147,34.4856],[133.1106,34.4888],[133.1056,34.4881],[133.0983,34.4841],[133.0848,34.4848],[133.0662,34.4887],[133.0613,34.4892],[133.0569,34.4934],[133.0549,34.5015],[133.0562,34.51],[133.064,34.5168],[133.0702,34.5203],[133.0818,34.5304],[133.0956,34.5353],[133.0849,34.5458],[133.0765,34.5519],[133.0696,34.553],[133.0592,34.556],[133.0477,34.5578],[133.0407,34.5578],[133.033,34.5548],[133.0286,34.5513],[133.0208,34.5495],[133.0006,34.5492],[132.9862,34.5597],[132.9763,34.5642],[132.9609,34.5666],[132.9532,34.5703],[132.9457,34.5756],[132.939,34.5787],[132.9288,34.5861],[132.9224,34.5858],[132.909,34.5818],[132.8985,34.5806]]]]}},{"type":"Feature","properties":{"id":34016},"geometry":{"type":"Polygon","coordinates":[[[132.8035,34.6207],[132.8239,34.6207],[132.8382,34.6197],[132.8457,34.6176],[132.8534,34.6125],[132.8674,34.6086],[132.8836,34.6126],[132.8823,34.6416],[132.8825,34.6478],[132.8846,34.6552],[132.8896,34.6624],[132.896,34.6687],[132.8998,34.6742],[132.9045,34.6783],[132.9088,34.6797],[132.9282,34.6789],[132.9383,34.6794],[132.9438,34.6776],[132.9467,34.6712],[132.9505,34.6599],[132.9534,34.6575],[132.9713,34.6563],[132.9822,34.6662],[132.9931,34.6732],[133.001,34.676],[133.0133,34.6752],[133.0276,34.6723],[133.0497,34.6641],[133.06,34.659],[133.0717,34.6553],[133.0775,34.655],[133.0891,34.661],[133.0928,34.676],[133.1015,34.6847],[133.106,34.691],[133.1102,34.7117],[133.1095,34.7272],[133.1084,34.7339],[133.1098,34.7423],[133.1102,34.7578],[133.1086,34.7616],[133.0969,34.7661],[133.0813,34.7679],[133.0693,34.7677],[133.0667,34.766],[133.0616,34.7517],[133.0482,34.7447],[133.0442,34.7454],[133.0348,34.7529],[133.0257,34.7577],[133.0289,34.7742],[133.0282,34.7828],[132.9908,34.8111],[132.9844,34.8179],[132.98,34.8175],[132.9747,34.8121],[132.9714,34.7986],[132.9645,34.7918],[132.9594,34.7915],[132.9529,34.8043],[132.9472,34.8084],[132.9353,34.8136],[132.9297,34.8177],[132.9199,34.827],[132.9022,34.8406],[132.896,34.8517],[132.8997,34.8731],[132.8993,34.8783],[132.8964,34.8856],[132.8895,34.8899],[132.8844,34.9023],[132.8786,34.9125],[132.8722,34.9158],[132.8644,34.9174],[132.8582,34.926],[132.8599,34.9391],[132.8459,34.9496],[132.8431,34.9536],[132.8445,34.9578],[132.8452,34.971],[132.8474,34.9784],[132.8517,34.9839],[132.8537,34.9994],[132.8508,35.0017],[132.8434,35.0006],[132.8329,34.9979],[132.8184,34.9932],[132.8048,34.987],[132.7911,34.9891],[132.7719,34.9894],[132.766,34.9779],[132.7538,34.9751],[132.7528,34.9595],[132.7403,34.9571],[132.7304,34.9533],[132.723,34.9449],[132.7136,34.9508],[132.693,34.9489],[132.6826,34.9384],[132.6781,34.9293],[132.6589,34.92],[132.6491,34.907],[132.6501,34.9002],[132.6506,34.8969],[132.6685,34.8874],[132.678,34.8915],[132.6926,34.881],[132.7032,34.8787],[132.7074,34.8655],[132.7116,34.8564],[132.7093,34.8521],[132.7156,34.8485],[132.7256,34.8411],[132.7268,34.8325],[132.7192,34.8257],[132.7121,34.8237],[132.7073,34.8195],[132.7072,34.8166],[132.711,34.8139],[132.7172,34.8129],[132.7372,34.813],[132.749,34.8087],[132.7653,34.8086],[132.7742,34.8071],[132.778,34.8053],[132.7814,34.8],[132.7845,34.7914],[132.7843,34.7864],[132.7805,34.7799],[132.7793,34.775],[132.7796,34.7612],[132.7787,34.7485],[132.7804,34.7457],[132.7893,34.7397],[132.7902,34.7311],[132.7877,34.724],[132.7813,34.711],[132.7799,34.703],[132.782,34.6975],[132.7906,34.6949],[132.8001,34.6945],[132.8078,34.6906],[132.8101,34.6799],[132.8088,34.6716],[132.8016,34.6612],[132.7961,34.6562],[132.7873,34.6504],[132.7876,34.6451],[132.803,34.6226],[132.8035,34.6207]]]}},{"type":"Feature","properties":{"id":34017},"geometry":{"type":"MultiPolygon","coordinates":[[[[133.1362,34.3155],[133.1297,34.3165],[133.1218,34.3138],[133.118,34.3103],[133.1073,34.3103],[133.1031,34.3067],[133.0975,34.3131],[133.0958,34.3167],[133.089,34.3128],[133.0843,34.3074],[133.0817,34.2987],[133.0784,34.2951],[133.0741,34.2868],[133.0735,34.2814],[133.07,34.2783],[133.0678,34.2732],[133.0672,34.2666],[133.0708,34.2607],[133.0825,34.2555],[133.0879,34.2581],[133.0935,34.2562],[133.0955,34.2593],[133.1001,34.2597],[133.1061,34.2649],[133.1112,34.2655],[133.1147,34.2693],[133.1175,34.2752],[133.1213,34.2749],[133.1233,34.278],[133.1343,34.2799],[133.1438,34.2846],[133.1472,34.288],[133.1503,34.2979],[133.1422,34.3135],[133.1362,34.3155]]],[[[133.0823,34.3287],[133.0799,34.3331],[133.0763,34.3336],[133.0651,34.3245],[133.0618,34.3149],[133.0626,34.3077],[133.0673,34.303],[133.0779,34.3015],[133.0822,34.3037],[133.083,34.3092],[133.0869,34.3139],[133.0833,34.3218],[133.0823,34.3287]]],[[[133.1171,34.3581],[133.1081,34.3596],[133.1038,34.3559],[133.1046,34.347],[133.0984,34.3392],[133.1002,34.334],[133.0965,34.331],[133.0951,34.3248],[133.0996,34.3219],[133.1044,34.3215],[133.106,34.3187],[133.1116,34.317],[133.1158,34.3194],[133.1218,34.3261],[133.1269,34.3369],[133.122,34.3533],[133.1171,34.3581]]],[[[133.1575,34.3573],[133.1501,34.3591],[133.147,34.3573],[133.1488,34.3507],[133.147,34.3488],[133.1372,34.3456],[133.1396,34.3408],[133.1336,34.3344],[133.1348,34.3287],[133.1415,34.326],[133.1459,34.3198],[133.152,34.3084],[133.1529,34.3037],[133.1566,34.2981],[133.173,34.2922],[133.1776,34.2831],[133.1807,34.2801],[133.1923,34.2739],[133.1977,34.2763],[133.1995,34.2792],[133.1968,34.2833],[133.2013,34.2898],[133.2041,34.2908],[133.2099,34.2976],[133.203,34.2962],[133.1937,34.2995],[133.1984,34.3069],[133.2066,34.3103],[133.2108,34.3135],[133.2102,34.3189],[133.2038,34.3195],[133.2038,34.3229],[133.1981,34.3308],[133.1955,34.3383],[133.1853,34.3361],[133.1843,34.3393],[133.1773,34.3436],[133.1755,34.3499],[133.1768,34.3554],[133.1704,34.3585],[133.1682,34.3573],[133.1621,34.3589],[133.1575,34.3573]]],[[[133.2636,34.3828],[133.2602,34.3841],[133.2573,34.3791],[133.258,34.3746],[133.2607,34.371],[133.2594,34.3658],[133.2645,34.3648],[133.2706,34.3611],[133.2734,34.3676],[133.2788,34.374],[133.2786,34.3805],[133.2716,34.3797],[133.2636,34.3828]]],[[[133.2432,34.371],[133.2466,34.3744],[133.2407,34.3794],[133.2382,34.3744],[133.2432,34.371]]],[[[133.2231,34.4068],[133.2136,34.4094],[133.2056,34.4055],[133.1971,34.4035],[133.1924,34.3987],[133.1857,34.3955],[133.1798,34.3967],[133.1725,34.3929],[133.1701,34.3871],[133.174,34.3805],[133.1736,34.3741],[133.1764,34.3718],[133.1741,34.3666],[133.1823,34.3631],[133.1834,34.36],[133.1899,34.3573],[133.1933,34.3591],[133.2007,34.3589],[133.2047,34.361],[133.2092,34.3606],[133.2121,34.3568],[133.2162,34.3631],[133.219,34.3795],[133.2282,34.3859],[133.232,34.3927],[133.2372,34.3927],[133.2361,34.4063],[133.2231,34.4068]]],[[[133.2894,34.3838],[133.2985,34.4002],[133.2982,34.4055],[133.2905,34.4114],[133.2823,34.4131],[133.273,34.4125],[133.2718,34.4066],[133.2656,34.4037],[133.2593,34.403],[133.2587,34.3966],[133.2537,34.4012],[133.245,34.3953],[133.2445,34.3919],[133.2477,34.3892],[133.2531,34.3881],[133.2574,34.3895],[133.2629,34.3938],[133.2707,34.392],[133.2806,34.3954],[133.2846,34.3919],[133.2842,34.3873],[133.2894,34.3838]]],[[[133.1071,34.363],[133.1091,34.3663],[133.1068,34.3684],[133.1007,34.3642],[133.0984,34.3603],[133.1043,34.3604],[133.1071,34.363]]],[[[133.1465,34.3668],[133.1452,34.3709],[133.1349,34.3648],[133.139,34.3624],[133.1435,34.3622],[133.1465,34.3668]]],[[[133.2259,34.5258],[133.22,34.5291],[133.2066,34.5333],[133.1972,34.5305],[133.1927,34.5312],[133.1871,34.5359],[133.1818,34.5465],[133.1767,34.5516],[133.1624,34.5584],[133.1506,34.5669],[133.1463,34.5632],[133.1374,34.5532],[133.1269,34.5439],[133.1216,34.5424],[133.1089,34.5405],[133.0956,34.5353],[133.0818,34.5304],[133.0702,34.5203],[133.064,34.5168],[133.0562,34.51],[133.0549,34.5015],[133.0569,34.4934],[133.0613,34.4892],[133.0662,34.4887],[133.0848,34.4848],[133.0983,34.4841],[133.1056,34.4881],[133.1106,34.4888],[133.1147,34.4856],[133.1271,34.4663],[133.1359,34.4554],[133.1441,34.4469],[133.1561,34.4378],[133.1569,34.4344],[133.1544,34.4273],[133.148,34.4167],[133.1516,34.4059],[133.161,34.3984],[133.1631,34.3951],[133.1768,34.3985],[133.1869,34.4004],[133.1977,34.4057],[133.2119,34.4107],[133.2215,34.4087],[133.2345,34.4112],[133.2387,34.4213],[133.2455,34.4241],[133.2421,34.4363],[133.2391,34.4388],[133.2382,34.446],[133.2427,34.4501],[133.243,34.4537],[133.2394,34.458],[133.2341,34.46],[133.2197,34.4631],[133.2177,34.4677],[133.2219,34.4719],[133.2289,34.4733],[133.2343,34.4766],[133.2367,34.4815],[133.2411,34.4956],[133.2421,34.5032],[133.2411,34.5073],[133.2363,34.5089],[133.2284,34.5065],[133.2229,34.5106],[133.22,34.5181],[133.2259,34.5258]]]]}},{"type":"Feature","properties":{"id":34018},"geometry":{"type":"MultiPolygon","coordinates":[[[[132.934,34.2839],[132.9305,34.2847],[132.9232,34.2797],[132.9165,34.2706],[132.9133,34.2699],[132.9079,34.265],[132.9082,34.2597],[132.901,34.2526],[132.8975,34.2508],[132.8922,34.252],[132.8943,34.2567],[132.8914,34.2613],[132.888,34.2615],[132.8799,34.2554],[132.8781,34.2487],[132.8649,34.2482],[132.8631,34.2444],[132.8564,34.2402],[132.8514,34.2443],[132.8389,34.2418],[132.8453,34.2369],[132.847,34.2315],[132.8415,34.2285],[132.8422,34.2231],[132.8512,34.2121],[132.8565,34.2079],[132.861,34.2088],[132.8638,34.2061],[132.8673,34.2076],[132.8746,34.2061],[132.8852,34.2068],[132.8874,34.21],[132.8921,34.2124],[132.8968,34.2117],[132.906,34.2141],[132.9142,34.2115],[132.921,34.2151],[132.9163,34.2204],[132.9177,34.2224],[132.9176,34.2329],[132.9322,34.2513],[132.9363,34.2648],[132.9422,34.2777],[132.934,34.2839]]],[[[132.9122,34.2764],[132.9066,34.2768],[132.9062,34.2721],[132.9107,34.273],[132.9122,34.2764]]],[[[132.9396,34.2828],[132.9442,34.2858],[132.9397,34.2879],[132.9362,34.2858],[132.9396,34.2828]]],[[[132.8748,34.2689],[132.8658,34.2682],[132.8638,34.2643],[132.8682,34.2635],[132.8696,34.2579],[132.8743,34.2551],[132.8776,34.2588],[132.8739,34.2617],[132.8748,34.2689]]],[[[132.8862,34.2846],[132.8855,34.2891],[132.8811,34.2881],[132.8842,34.2825],[132.8826,34.2793],[132.8846,34.2758],[132.8885,34.2801],[132.8862,34.2846]]],[[[132.9178,34.2994],[132.9152,34.3001],[132.9076,34.294],[132.9071,34.2893],[132.9102,34.2829],[132.9156,34.2788],[132.9256,34.2855],[132.9254,34.2908],[132.9229,34.2948],[132.9186,34.2909],[132.9148,34.2938],[132.9178,34.2994]]]]}},{"type":"Feature","properties":{"id":34019},"geometry":{"type":"Polygon","coordinates":[[[132.1274,34.3119],[132.1264,34.3094],[132.1269,34.2944],[132.1352,34.288],[132.1409,34.278],[132.1375,34.2666],[132.1424,34.2573],[132.1493,34.2498],[132.1525,34.2327],[132.161,34.2258],[132.1701,34.2304],[132.1871,34.2247],[132.1972,34.2276],[132.2099,34.2263],[132.2174,34.2195],[132.2292,34.2238],[132.2344,34.2275],[132.2209,34.234],[132.2256,34.2368],[132.2251,34.2426],[132.2317,34.2532],[132.2371,34.2599],[132.2332,34.2646],[132.2227,34.2826],[132.2169,34.2863],[132.2077,34.2886],[132.2007,34.2876],[132.1902,34.282],[132.1791,34.2815],[132.1705,34.2839],[132.1648,34.2902],[132.1632,34.3008],[132.1646,34.3071],[132.1683,34.3128],[132.1679,34.3151],[132.1599,34.3253],[132.1563,34.3281],[132.1508,34.3288],[132.1475,34.3275],[132.14,34.3205],[132.1365,34.3135],[132.1325,34.3117],[132.1274,34.3119]]]}},{"type":"Feature","properties":{"id":34020},"geometry":{"type":"Polygon","coordinates":[[[132.5167,34.3446],[132.5091,34.3419],[132.5061,34.3443],[132.5067,34.3488],[132.5018,34.3491],[132.4964,34.3473],[132.4931,34.3395],[132.4941,34.3341],[132.4993,34.3367],[132.5041,34.3356],[132.5026,34.3247],[132.4998,34.3232],[132.4948,34.314],[132.4978,34.3085],[132.5072,34.2984],[132.509,34.2929],[132.5195,34.2959],[132.5234,34.2984],[132.5271,34.3039],[132.5392,34.3142],[132.5298,34.3297],[132.5256,34.3335],[132.5211,34.3407],[132.5167,34.3446]]]}},{"type":"Feature","properties":{"id":34021},"geometry":{"type":"Polygon","coordinates":[[[133.0891,34.661],[133.0775,34.655],[133.0717,34.6553],[133.06,34.659],[133.0497,34.6641],[133.0276,34.6723],[133.0133,34.6752],[133.001,34.676],[132.9931,34.6732],[132.9822,34.6662],[132.9713,34.6563],[132.9534,34.6575],[132.9505,34.6599],[132.9467,34.6712],[132.9438,34.6776],[132.9383,34.6794],[132.9282,34.6789],[132.9088,34.6797],[132.9045,34.6783],[132.8998,34.6742],[132.896,34.6687],[132.8896,34.6624],[132.8846,34.6552],[132.8825,34.6478],[132.8823,34.6416],[132.8836,34.6126],[132.8878,34.6093],[132.8964,34.6047],[132.8977,34.6004],[132.8985,34.5806],[132.909,34.5818],[132.9224,34.5858],[132.9288,34.5861],[132.939,34.5787],[132.9457,34.5756],[132.9532,34.5703],[132.9609,34.5666],[132.9763,34.5642],[132.9862,34.5597],[133.0006,34.5492],[133.0208,34.5495],[133.0286,34.5513],[133.033,34.5548],[133.0407,34.5578],[133.0477,34.5578],[133.0592,34.556],[133.0696,34.553],[133.0765,34.5519],[133.0849,34.5458],[133.0956,34.5353],[133.1089,34.5405],[133.1216,34.5424],[133.1269,34.5439],[133.1374,34.5532],[133.1463,34.5632],[133.1506,34.5669],[133.1461,34.5685],[133.1408,34.5726],[133.1399,34.5766],[133.1448,34.5866],[133.1557,34.5903],[133.1616,34.6052],[133.1638,34.6153],[133.1629,34.6226],[133.1572,34.631],[133.1514,34.6355],[133.1264,34.6443],[133.1154,34.6503],[133.1056,34.6574],[133.0891,34.661]]]}},{"type":"Feature","properties":{"id":34022},"geometry":{"type":"Polygon","coordinates":[[[133.1622,34.7528],[133.1666,34.7599],[133.1667,34.7637],[133.1609,34.7704],[133.1509,34.7781],[133.1429,34.7895],[133.1422,34.7925],[133.1448,34.8016],[133.1412,34.8139],[133.1417,34.8179],[133.1474,34.8246],[133.1504,34.836],[133.1517,34.8377],[133.1647,34.8441],[133.1721,34.8454],[133.1891,34.8459],[133.1934,34.8465],[133.203,34.8546],[133.2086,34.8571],[133.2125,34.8568],[133.2288,34.8442],[133.2323,34.8369],[133.233,34.8227],[133.2387,34.8143],[133.2437,34.8121],[133.2539,34.814],[133.2639,34.8232],[133.269,34.8325],[133.2722,34.8414],[133.2773,34.8471],[133.2841,34.8489],[133.2891,34.8489],[133.2999,34.8452],[133.3083,34.8463],[133.3161,34.8489],[133.3285,34.8548],[133.3201,34.8635],[133.3121,34.8708],[133.3069,34.8796],[133.2995,34.8866],[133.2994,34.8967],[133.3015,34.9072],[133.3072,34.9166],[133.3046,34.9268],[133.3119,34.9338],[133.2999,34.9532],[133.3063,34.961],[133.3094,34.9707],[133.3171,34.9787],[133.3229,34.9877],[133.3232,35.0036],[133.306,35.0152],[133.2941,35.0317],[133.2757,35.0446],[133.2721,35.0546],[133.2636,35.0606],[133.251,35.0754],[133.2348,35.074],[133.2312,35.0647],[133.2156,35.0705],[133.2039,35.0691],[133.1825,35.0651],[133.1716,35.0646],[133.1632,35.0707],[133.1442,35.0623],[133.144,35.0732],[133.125,35.0802],[133.1147,35.0825],[133.1039,35.0793],[133.0931,35.0788],[133.0828,35.0776],[133.0722,35.078],[133.0616,35.0761],[133.0549,35.0673],[133.0426,35.0649],[133.0334,35.07],[133.0181,35.0833],[133.0082,35.0873],[132.993,35.098],[132.9806,35.0833],[132.9645,35.0759],[132.953,35.0723],[132.9437,35.0768],[132.9333,35.0793],[132.9231,35.0808],[132.9092,35.0873],[132.9032,35.0959],[132.8937,35.1015],[132.8746,35.0985],[132.8738,35.0979],[132.8623,35.0894],[132.854,35.0816],[132.8471,35.0738],[132.8377,35.0662],[132.8302,35.0578],[132.8318,35.0439],[132.8219,35.0401],[132.8149,35.0322],[132.8083,35.0233],[132.7992,35.0176],[132.7896,35.0102],[132.7839,35],[132.7744,34.9942],[132.7719,34.9894],[132.7911,34.9891],[132.8048,34.987],[132.8184,34.9932],[132.8329,34.9979],[132.8434,35.0006],[132.8508,35.0017],[132.8537,34.9994],[132.8517,34.9839],[132.8474,34.9784],[132.8452,34.971],[132.8445,34.9578],[132.8431,34.9536],[132.8459,34.9496],[132.8599,34.9391],[132.8582,34.926],[132.8644,34.9174],[132.8722,34.9158],[132.8786,34.9125],[132.8844,34.9023],[132.8895,34.8899],[132.8964,34.8856],[132.8993,34.8783],[132.8997,34.8731],[132.896,34.8517],[132.9022,34.8406],[132.9199,34.827],[132.9297,34.8177],[132.9353,34.8136],[132.9472,34.8084],[132.9529,34.8043],[132.9594,34.7915],[132.9645,34.7918],[132.9714,34.7986],[132.9747,34.8121],[132.98,34.8175],[132.9844,34.8179],[132.9908,34.8111],[133.0282,34.7828],[133.0289,34.7742],[133.0257,34.7577],[133.0348,34.7529],[133.0442,34.7454],[133.0482,34.7447],[133.0616,34.7517],[133.0667,34.766],[133.0693,34.7677],[133.0813,34.7679],[133.0969,34.7661],[133.1086,34.7616],[133.1102,34.7578],[133.1098,34.7423],[133.1084,34.7339],[133.1173,34.7349],[133.1233,34.7375],[133.1292,34.7453],[133.1355,34.7504],[133.1428,34.7518],[133.1622,34.7528]]]}},{"type":"Feature","properties":{"id":34023},"geometry":{"type":"MultiPolygon","coordinates":[[[[132.9422,34.323],[132.937,34.3236],[132.9443,34.3155],[132.9493,34.3149],[132.9422,34.323]]],[[[132.9064,34.4283],[132.9043,34.4259],[132.8986,34.4146],[132.8936,34.4099],[132.8802,34.406],[132.8742,34.4066],[132.864,34.4117],[132.853,34.416],[132.8439,34.4179],[132.8326,34.4178],[132.823,34.4193],[132.8052,34.4209],[132.7995,34.4206],[132.7935,34.4176],[132.7933,34.4132],[132.7971,34.4086],[132.8087,34.4076],[132.8169,34.4036],[132.8173,34.3999],[132.8147,34.3938],[132.7931,34.3746],[132.7926,34.3706],[132.7955,34.3695],[132.8085,34.3701],[132.8155,34.3689],[132.8214,34.3654],[132.8355,34.3633],[132.8428,34.3609],[132.8504,34.3571],[132.8593,34.3507],[132.8622,34.3469],[132.8626,34.3385],[132.859,34.3293],[132.8586,34.3229],[132.86,34.2988],[132.8686,34.3044],[132.8735,34.3022],[132.8763,34.3069],[132.8719,34.3097],[132.8751,34.3142],[132.8786,34.3164],[132.8849,34.3153],[132.8933,34.3225],[132.8941,34.3257],[132.9109,34.3269],[132.9148,34.3311],[132.9202,34.3253],[132.9286,34.3253],[132.9381,34.3309],[132.9422,34.3349],[132.9505,34.3374],[132.9621,34.3337],[132.9643,34.3367],[132.9837,34.3312],[132.9912,34.3336],[132.9939,34.3368],[133.002,34.3345],[133.0054,34.3301],[133.0164,34.3287],[133.0186,34.3297],[133.0157,34.341],[133.013,34.3432],[133.0002,34.3475],[132.9793,34.3468],[132.9751,34.3471],[132.9609,34.3568],[132.9502,34.3594],[132.9471,34.362],[132.9432,34.3684],[132.9347,34.3773],[132.929,34.3815],[132.9226,34.3847],[132.9165,34.3935],[132.9146,34.3986],[132.9141,34.4066],[132.9151,34.4178],[132.9064,34.4283]]]]}}]}