{"type":"FeatureCollection","features":[{"type":"Feature","properties":{"id":35001},"geometry":{"type":"Polygon","coordinates":[[[131.5567,34.6036],[131.558,34.6005],[131.5506,34.5936],[131.5561,34.5877],[131.554,34.5827],[131.555,34.5798],[131.5467,34.5711],[131.5407,34.5689],[131.5403,34.5647],[131.5338,34.5594],[131.5297,34.5606],[131.5233,34.5556],[131.5159,34.5535],[131.5139,34.5482],[131.5075,34.5425],[131.5055,34.5361],[131.5032,34.5331],[131.4985,34.5316],[131.4917,34.5331],[131.4786,34.534],[131.4725,34.5327],[131.4678,34.5383],[131.4649,34.5328],[131.457,34.5258],[131.4553,34.5211],[131.4493,34.5128],[131.4549,34.5117],[131.4558,34.5085],[131.4609,34.4998],[131.4642,34.5013],[131.4675,34.4972],[131.4652,34.4927],[131.4843,34.4871],[131.4988,34.4838],[131.5073,34.4863],[131.5128,34.4909],[131.5329,34.5114],[131.5392,34.5118],[131.5458,34.5076],[131.5511,34.4923],[131.5539,34.4896],[131.565,34.4835],[131.5703,34.4786],[131.5905,34.4792],[131.5966,34.4825],[131.6036,34.4922],[131.609,34.4976],[131.6242,34.4972],[131.6348,34.4985],[131.6476,34.5078],[131.6492,34.5117],[131.6486,34.5202],[131.6456,34.5234],[131.6308,34.5265],[131.6247,34.5289],[131.6167,34.5385],[131.6069,34.5454],[131.5973,34.5547],[131.5947,34.5623],[131.5972,34.5847],[131.596,34.5917],[131.5894,34.5982],[131.5857,34.5998],[131.5704,34.6022],[131.5567,34.6036]]]}},{"type":"Feature","properties":{"id":35002},"geometry":{"type":"Polygon","coordinates":[[[131.6738,34.4983],[131.6639,34.4973],[131.6545,34.4952],[131.6515,34.4922],[131.6532,34.4811],[131.6457,34.4555],[131.6409,34.4464],[131.6322,34.4358],[131.62,34.4252],[131.6118,34.4163],[131.6083,34.4083],[131.6039,34.4063],[131.5945,34.4055],[131.575,34.4073],[131.5618,34.411],[131.5504,34.4111],[131.5447,34.4096],[131.5429,34.4054],[131.545,34.3955],[131.5491,34.3882],[131.5472,34.3844],[131.54,34.3765],[131.5382,34.3732],[131.5392,34.3674],[131.5447,34.3645],[131.5526,34.3626],[131.5568,34.3597],[131.5607,34.3518],[131.5661,34.3304],[131.5641,34.3152],[131.5543,34.2985],[131.5478,34.2962],[131.5394,34.2964],[131.534,34.2943],[131.5287,34.2888],[131.5205,34.2785],[131.5111,34.263],[131.5097,34.2535],[131.5255,34.2525],[131.5312,34.2499],[131.5429,34.2488],[131.5469,34.2476],[131.5518,34.2386],[131.5558,34.2382],[131.5624,34.246],[131.5744,34.2545],[131.5832,34.2619],[131.587,34.2737],[131.5915,34.2785],[131.5957,34.2857],[131.6015,34.2927],[131.6133,34.3015],[131.6277,34.3045],[131.6345,34.3101],[131.6409,34.311],[131.6514,34.3099],[131.6611,34.3077],[131.6669,34.3082],[131.6696,34.31],[131.6741,34.32],[131.6769,34.3238],[131.6886,34.3323],[131.6906,34.3372],[131.6963,34.3467],[131.7047,34.3554],[131.7144,34.3604],[131.7243,34.3581],[131.7302,34.3585],[131.7401,34.3617],[131.7503,34.3666],[131.757,34.371],[131.7628,34.3735],[131.7689,34.3678],[131.7692,34.3817],[131.777,34.3912],[131.7869,34.3965],[131.7893,34.4069],[131.7967,34.4232],[131.7964,34.4333],[131.7939,34.4331],[131.7717,34.4326],[131.7616,34.4306],[131.7519,34.4333],[131.744,34.4259],[131.7341,34.4281],[131.7237,34.4254],[131.7015,34.4316],[131.6965,34.4408],[131.6984,34.4511],[131.6964,34.4629],[131.7023,34.4717],[131.6922,34.4768],[131.683,34.4823],[131.6806,34.4927],[131.6738,34.4983]]]}},{"type":"Feature","properties":{"id":35003},"geometry":{"type":"MultiPolygon","coordinates":[[[[131.7191,34.5642],[131.7269,34.5689],[131.7225,34.5833],[131.7216,34.5934],[131.7196,34.6032],[131.713,34.6113],[131.7021,34.6135],[131.6971,34.6233],[131.6999,34.6357],[131.6977,34.6454],[131.6915,34.6544],[131.6847,34.6755],[131.6686,34.6764],[131.6683,34.6715],[131.6727,34.6678],[131.6714,34.6608],[131.6639,34.6592],[131.6632,34.6558],[131.6572,34.6558],[131.6502,34.6528],[131.6455,34.6525],[131.6419,34.66],[131.6342,34.6643],[131.6253,34.6658],[131.6206,34.6633],[131.6172,34.6656],[131.6111,34.665],[131.605,34.6622],[131.5987,34.6569],[131.5956,34.6461],[131.5913,34.6432],[131.5939,34.6378],[131.5892,34.6332],[131.5923,34.6283],[131.5949,34.6315],[131.6029,34.6281],[131.5977,34.6216],[131.5929,34.6226],[131.5891,34.6193],[131.5875,34.6239],[131.5803,34.6257],[131.5797,34.6204],[131.5731,34.6222],[131.563,34.6203],[131.5564,34.6158],[131.5572,34.6131],[131.5542,34.6072],[131.5567,34.6036],[131.5704,34.6022],[131.5857,34.5998],[131.5894,34.5982],[131.596,34.5917],[131.5972,34.5847],[131.5947,34.5623],[131.5973,34.5547],[131.6069,34.5454],[131.6167,34.5385],[131.6247,34.5289],[131.6308,34.5265],[131.6456,34.5234],[131.6486,34.5202],[131.6492,34.5117],[131.6476,34.5078],[131.6348,34.4985],[131.6242,34.4972],[131.609,34.4976],[131.6036,34.4922],[131.5966,34.4825],[131.5905,34.4792],[131.5703,34.4786],[131.565,34.4835],[131.5539,34.4896],[131.5511,34.4923],[131.5458,34.5076],[131.5392,34.5118],[131.5329,34.5114],[131.5128,34.4909],[131.5073,34.4863],[131.4988,34.4838],[131.4843,34.4871],[131.4652,34.4927],[131.4626,34.491],[131.4627,34.4869],[131.4531,34.4808],[131.4468,34.4856],[131.4414,34.4839],[131.4452,34.4744],[131.442,34.4718],[131.4325,34.4727],[131.4353,34.4672],[131.4258,34.4583],[131.4258,34.4557],[131.4172,34.4497],[131.4142,34.4489],[131.4075,34.4529],[131.4043,34.4576],[131.3999,34.4599],[131.3944,34.4559],[131.3968,34.4477],[131.3985,34.4463],[131.4084,34.4444],[131.4099,34.4472],[131.4222,34.4417],[131.4209,34.4377],[131.4167,34.4406],[131.4114,34.4358],[131.4097,34.4311],[131.4165,34.4275],[131.4135,34.425],[131.4068,34.4279],[131.4008,34.4283],[131.3972,34.4205],[131.3889,34.4164],[131.3865,34.417],[131.3839,34.4225],[131.3772,34.4217],[131.3793,34.4186],[131.3767,34.4156],[131.3678,34.4147],[131.3617,34.411],[131.3554,34.4102],[131.3497,34.4161],[131.3366,34.4162],[131.331,34.4142],[131.3273,34.4034],[131.3295,34.3993],[131.3256,34.3926],[131.3103,34.3868],[131.3071,34.3833],[131.3006,34.382],[131.2983,34.3836],[131.2963,34.3784],[131.2957,34.3718],[131.2977,34.3681],[131.3021,34.3664],[131.3093,34.3674],[131.3172,34.3668],[131.3222,34.3654],[131.3366,34.3559],[131.3414,34.3513],[131.3456,34.3427],[131.3441,34.3302],[131.3402,34.3181],[131.3419,34.3086],[131.3469,34.3061],[131.3624,34.3054],[131.3715,34.306],[131.3787,34.2949],[131.3893,34.2718],[131.3918,34.2692],[131.4029,34.2618],[131.405,34.255],[131.4014,34.223],[131.4016,34.2096],[131.4032,34.2058],[131.4101,34.2087],[131.4194,34.2147],[131.427,34.218],[131.4413,34.2201],[131.4502,34.2234],[131.46,34.2331],[131.4702,34.2382],[131.4772,34.2392],[131.4962,34.238],[131.5006,34.2405],[131.5048,34.2477],[131.5097,34.2535],[131.5111,34.263],[131.5205,34.2785],[131.5287,34.2888],[131.534,34.2943],[131.5394,34.2964],[131.5478,34.2962],[131.5543,34.2985],[131.5641,34.3152],[131.5661,34.3304],[131.5607,34.3518],[131.5568,34.3597],[131.5526,34.3626],[131.5447,34.3645],[131.5392,34.3674],[131.5382,34.3732],[131.54,34.3765],[131.5472,34.3844],[131.5491,34.3882],[131.545,34.3955],[131.5429,34.4054],[131.5447,34.4096],[131.5504,34.4111],[131.5618,34.411],[131.575,34.4073],[131.5945,34.4055],[131.6039,34.4063],[131.6083,34.4083],[131.6118,34.4163],[131.62,34.4252],[131.6322,34.4358],[131.6409,34.4464],[131.6457,34.4555],[131.6532,34.4811],[131.6515,34.4922],[131.6545,34.4952],[131.6639,34.4973],[131.6738,34.4983],[131.6708,34.5008],[131.6766,34.5092],[131.6847,34.5156],[131.6957,34.5197],[131.7041,34.5275],[131.7071,34.5384],[131.7035,34.548],[131.7052,34.5622],[131.7172,34.5631],[131.7191,34.5642]]],[[[131.4163,34.5116],[131.4084,34.5121],[131.4035,34.5069],[131.4007,34.4973],[131.4067,34.4893],[131.4138,34.4924],[131.4186,34.4931],[131.4186,34.5032],[131.4165,34.5049],[131.4163,34.5116]]],[[[131.3185,34.4265],[131.3224,34.4275],[131.3218,34.4317],[131.3171,34.4306],[131.3185,34.4265]]],[[[131.2856,34.5128],[131.2753,34.5171],[131.2706,34.5072],[131.2756,34.4972],[131.2858,34.5033],[131.2916,34.5047],[131.2954,34.5124],[131.2899,34.5136],[131.2856,34.5128]]],[[[131.391,34.5235],[131.3844,34.521],[131.3834,34.5157],[131.3868,34.5119],[131.3907,34.5135],[131.3927,34.5211],[131.391,34.5235]]]]}},{"type":"Feature","properties":{"id":35004},"geometry":{"type":"MultiPolygon","coordinates":[[[[132.0208,33.8588],[132.0223,33.8618],[132.0175,33.8654],[132.0155,33.8593],[132.0074,33.8592],[132.0056,33.8616],[131.9976,33.8606],[131.9975,33.8578],[132.0046,33.8552],[132.0073,33.8528],[132.0152,33.8538],[132.0186,33.8518],[132.0224,33.8546],[132.0208,33.8588]]],[[[132.0715,34.0218],[132.06,34.0153],[132.045,34.0106],[132.0328,34.01],[132.0297,34.0109],[132.027,34.0148],[132.0269,34.0203],[132.024,34.0257],[132.0041,34.027],[131.9896,34.023],[131.9854,34.0231],[131.9789,34.0289],[131.9712,34.0299],[131.9659,34.0273],[131.9644,34.0171],[131.961,34.0133],[131.9531,34.0082],[131.937,34.0027],[131.9278,33.9963],[131.9117,33.9928],[131.905,33.9864],[131.8963,33.9806],[131.8934,33.9796],[131.9012,33.9743],[131.9153,33.9699],[131.9253,33.9597],[131.9311,33.9495],[131.937,33.947],[131.9451,33.9467],[131.9492,33.9497],[131.9521,33.9484],[131.9575,33.9496],[131.9635,33.9443],[131.9688,33.9346],[131.9683,33.929],[131.9639,33.9277],[131.9637,33.92],[131.9704,33.9167],[131.9758,33.9177],[131.9698,33.9218],[131.9756,33.9285],[131.9793,33.9298],[131.9906,33.923],[132.001,33.9139],[132.0026,33.9147],[132.0089,33.9095],[132.0126,33.9083],[132.0257,33.9014],[132.0303,33.9063],[132.0255,33.9134],[132.0091,33.9233],[131.9971,33.9293],[131.992,33.9342],[131.9858,33.9426],[131.9809,33.9549],[131.9819,33.9581],[131.9919,33.9584],[131.9983,33.9647],[132.0027,33.9676],[132.0098,33.9697],[132.0145,33.9732],[132.0167,33.9801],[132.0219,33.9836],[132.0385,33.9864],[132.0571,33.9875],[132.065,33.9951],[132.0702,34.0071],[132.0715,34.0218]]]]}},{"type":"Feature","properties":{"id":35005},"geometry":{"type":"MultiPolygon","coordinates":[[[[132.0498,33.8975],[132.044,33.9001],[132.0416,33.8953],[132.0463,33.8938],[132.0493,33.8872],[132.0518,33.8916],[132.0498,33.8975]]],[[[132.0677,33.8756],[132.065,33.879],[132.0665,33.8824],[132.0631,33.8843],[132.0576,33.8798],[132.057,33.8757],[132.0619,33.8723],[132.0624,33.8668],[132.0695,33.869],[132.0677,33.8756]]],[[[132.1143,33.8631],[132.129,33.8612],[132.1288,33.8666],[132.126,33.8748],[132.1133,33.8839],[132.1107,33.8872],[132.1078,33.8979],[132.1026,33.9074],[132.1074,33.9241],[132.1076,33.9381],[132.1053,33.9432],[132.0989,33.9497],[132.0932,33.9517],[132.0796,33.9532],[132.0652,33.9559],[132.0594,33.9584],[132.0613,33.9533],[132.0634,33.9408],[132.0632,33.9368],[132.0636,33.9334],[132.0673,33.9321],[132.0606,33.9265],[132.0596,33.9213],[132.0559,33.9192],[132.0564,33.9142],[132.0497,33.9105],[132.0518,33.9084],[132.0583,33.9099],[132.067,33.9074],[132.0686,33.9055],[132.0749,33.9043],[132.077,33.8984],[132.0762,33.8938],[132.0835,33.8893],[132.0863,33.8903],[132.0939,33.8851],[132.1025,33.8814],[132.1158,33.8783],[132.1197,33.875],[132.1205,33.8703],[132.1183,33.866],[132.1143,33.8631]]]]}},{"type":"Feature","properties":{"id":35006},"geometry":{"type":"MultiPolygon","coordinates":[[[[131.5899,33.998],[131.5949,34.0064],[131.5956,34.0106],[131.6013,34.0141],[131.6003,34.016],[131.5931,34.0187],[131.5862,34.0232],[131.5819,34.0197],[131.5687,34.013],[131.5675,34.0071],[131.5683,34.0035],[131.565,34],[131.5577,33.9983],[131.5558,33.9953],[131.5566,33.9893],[131.563,33.994],[131.5651,33.9889],[131.5721,33.989],[131.5764,33.9915],[131.5821,33.9924],[131.5851,33.9961],[131.5899,33.998]]],[[[131.6729,34.043],[131.6692,34.0497],[131.6669,34.0605],[131.663,34.0684],[131.6562,34.0723],[131.6493,34.0732],[131.6432,34.0768],[131.6409,34.0802],[131.6403,34.0863],[131.6431,34.1014],[131.6456,34.1061],[131.647,34.1156],[131.6493,34.125],[131.6532,34.1353],[131.6563,34.1408],[131.6573,34.147],[131.6548,34.151],[131.6488,34.155],[131.6388,34.156],[131.6344,34.1547],[131.6304,34.1469],[131.6253,34.1419],[131.62,34.1412],[131.6057,34.1452],[131.5958,34.1474],[131.5898,34.1454],[131.5819,34.1347],[131.5744,34.1213],[131.5708,34.1181],[131.5652,34.1155],[131.5606,34.1066],[131.5529,34.0971],[131.5443,34.0941],[131.5372,34.0897],[131.5297,34.0864],[131.5175,34.0891],[131.5113,34.0946],[131.5076,34.0963],[131.4989,34.0972],[131.494,34.0962],[131.4917,34.0919],[131.4832,34.0803],[131.4777,34.0755],[131.4553,34.0615],[131.4542,34.0498],[131.4555,34.0473],[131.4655,34.042],[131.4759,34.0387],[131.4778,34.0347],[131.4842,34.0284],[131.4986,34.0397],[131.5034,34.0404],[131.5133,34.0437],[131.5144,34.042],[131.4969,34.0336],[131.4915,34.0282],[131.5018,34.0234],[131.5072,34.0254],[131.5125,34.0196],[131.5151,34.0144],[131.51,34.0111],[131.5083,34.0044],[131.5173,34.0031],[131.5221,34.0077],[131.5262,34.0051],[131.525,34.0008],[131.5361,34.0016],[131.5389,33.9974],[131.5495,34.0011],[131.5557,34.005],[131.5623,34.0074],[131.5631,34.0126],[131.5739,34.017],[131.5817,34.0219],[131.5898,34.0331],[131.5869,34.0373],[131.5913,34.04],[131.5927,34.0351],[131.5996,34.0389],[131.6019,34.0343],[131.6021,34.0288],[131.6081,34.0232],[131.6172,34.0259],[131.6242,34.0395],[131.6304,34.0428],[131.6354,34.0469],[131.6438,34.0467],[131.6479,34.0411],[131.66,34.0401],[131.6677,34.0447],[131.6729,34.043]]]]}},{"type":"Feature","properties":{"id":35007},"geometry":{"type":"MultiPolygon","coordinates":[[[[132.4171,34.027],[132.4151,34.0297],[132.4041,34.0274],[132.4021,34.0231],[132.4059,34.0149],[132.4202,34.0112],[132.4259,34.012],[132.4274,34.0185],[132.4245,34.0191],[132.4171,34.027]]],[[[132.4237,34.0358],[132.4186,34.0369],[132.4168,34.0347],[132.4228,34.0321],[132.4237,34.0358]]],[[[132.3993,34.0579],[132.3956,34.0595],[132.3928,34.0563],[132.3975,34.0537],[132.3993,34.0579]]],[[[132.3896,34.0381],[132.3831,34.0417],[132.379,34.0361],[132.3836,34.0326],[132.3858,34.0276],[132.3892,34.0324],[132.3862,34.0352],[132.3896,34.0381]]],[[[132.3187,34.1191],[132.3152,34.1235],[132.3123,34.1196],[132.3187,34.1191]]],[[[132.2317,34.1628],[132.2199,34.1613],[132.204,34.1559],[132.213,34.1526],[132.2199,34.1476],[132.2277,34.1364],[132.2274,34.1314],[132.2363,34.1328],[132.2424,34.1462],[132.2464,34.1478],[132.2485,34.1574],[132.2402,34.1615],[132.2317,34.1628]]],[[[132.3038,34.1941],[132.2964,34.1987],[132.2931,34.1945],[132.2927,34.1884],[132.2955,34.187],[132.3,34.1894],[132.3013,34.1842],[132.3072,34.1869],[132.3178,34.187],[132.3196,34.1897],[132.3173,34.1938],[132.3096,34.1986],[132.3054,34.1971],[132.3038,34.1941]]],[[[132.1274,34.3119],[132.1311,34.3209],[132.126,34.3306],[132.1164,34.3271],[132.1034,34.3332],[132.1016,34.3431],[132.0927,34.3478],[132.0843,34.3538],[132.0722,34.353],[132.0752,34.3741],[132.0798,34.3836],[132.0734,34.3921],[132.0766,34.4016],[132.072,34.4111],[132.0798,34.4228],[132.0795,34.4345],[132.0806,34.445],[132.0712,34.4641],[132.0655,34.4735],[132.059,34.4661],[132.0577,34.4646],[132.0434,34.4649],[132.0245,34.4547],[132.0187,34.4455],[132.0185,34.4343],[132.0102,34.4284],[132,34.4248],[131.9925,34.4115],[132,34.4038],[132.004,34.3922],[132.0144,34.3739],[132.0137,34.3634],[132.0026,34.3625],[131.9921,34.3497],[131.9836,34.3414],[131.9773,34.3333],[131.9742,34.3233],[131.9643,34.3152],[131.9576,34.3072],[131.9491,34.3169],[131.9414,34.3238],[131.9328,34.3297],[131.9224,34.3336],[131.9132,34.3237],[131.9026,34.3159],[131.8933,34.3208],[131.8881,34.3118],[131.885,34.31],[131.8802,34.3018],[131.8793,34.2849],[131.8813,34.2739],[131.8854,34.2628],[131.8885,34.259],[131.8922,34.2496],[131.8948,34.2338],[131.8991,34.2298],[131.92,34.2218],[131.9311,34.2226],[131.9379,34.2209],[131.9436,34.2109],[131.9443,34.2062],[131.9478,34.1967],[131.9504,34.1942],[131.9562,34.1923],[131.9602,34.1872],[131.963,34.1781],[131.9602,34.1583],[131.9575,34.1535],[131.9572,34.1486],[131.9603,34.1413],[131.962,34.1326],[131.9612,34.1192],[131.9664,34.1082],[131.9681,34.0992],[131.9682,34.0935],[131.9698,34.0881],[131.9748,34.0849],[131.9803,34.0842],[131.995,34.079],[131.9993,34.0754],[131.9982,34.0636],[131.9991,34.0595],[132.0056,34.0568],[132.0094,34.0571],[132.0213,34.065],[132.0259,34.0651],[132.0289,34.0605],[132.0304,34.0512],[132.0308,34.042],[132.0277,34.0297],[132.024,34.0257],[132.0269,34.0203],[132.027,34.0148],[132.0297,34.0109],[132.0328,34.01],[132.045,34.0106],[132.06,34.0153],[132.0715,34.0218],[132.0842,34.0272],[132.0887,34.0323],[132.0899,34.0379],[132.0933,34.043],[132.0985,34.0466],[132.1032,34.0476],[132.1199,34.0463],[132.1321,34.0443],[132.1417,34.0412],[132.1447,34.0388],[132.1513,34.0299],[132.156,34.0218],[132.1619,34.0184],[132.1721,34.0167],[132.1804,34.0173],[132.1856,34.0158],[132.1902,34.0122],[132.1911,34.0063],[132.1889,33.9982],[132.1901,33.9961],[132.203,33.9901],[132.2129,34.0015],[132.2156,34.0078],[132.219,34.0213],[132.2167,34.0328],[132.2202,34.0377],[132.2196,34.041],[132.2211,34.0482],[132.2158,34.0497],[132.2092,34.0614],[132.2113,34.078],[132.2108,34.085],[132.2071,34.0913],[132.2034,34.1],[132.2019,34.1068],[132.2017,34.1157],[132.2047,34.1175],[132.2038,34.1249],[132.2155,34.1258],[132.2206,34.127],[132.223,34.131],[132.2232,34.1382],[132.2177,34.1476],[132.2114,34.1513],[132.205,34.1531],[132.1996,34.1579],[132.211,34.1596],[132.2198,34.163],[132.228,34.1648],[132.2464,34.1639],[132.2506,34.1652],[132.2495,34.1698],[132.2466,34.1737],[132.2425,34.1761],[132.2379,34.1836],[132.2396,34.1872],[132.2332,34.1923],[132.23,34.1918],[132.2252,34.1853],[132.2203,34.1819],[132.2107,34.1787],[132.2048,34.1784],[132.1945,34.1804],[132.1883,34.1866],[132.1876,34.191],[132.1892,34.1953],[132.1941,34.2018],[132.1971,34.2159],[132.1963,34.2198],[132.1871,34.2247],[132.1701,34.2304],[132.161,34.2258],[132.1525,34.2327],[132.1493,34.2498],[132.1424,34.2573],[132.1375,34.2666],[132.1409,34.278],[132.1352,34.288],[132.1269,34.2944],[132.1264,34.3094],[132.1274,34.3119]]]]}},{"type":"Feature","properties":{"id":35008},"geometry":{"type":"MultiPolygon","coordinates":[[[[131.9703,33.7983],[131.9669,33.7986],[131.9611,33.7933],[131.9619,33.7828],[131.9584,33.7808],[131.952,33.7825],[131.9482,33.7811],[131.9485,33.777],[131.9522,33.7712],[131.9618,33.7682],[131.9657,33.7687],[131.9744,33.7738],[131.9806,33.7745],[131.9916,33.7793],[131.9913,33.7866],[131.9873,33.7884],[131.9752,33.7977],[131.9703,33.7983]]],[[[132.1535,33.7286],[132.1502,33.7311],[132.147,33.7366],[132.1467,33.7419],[132.1521,33.7491],[132.1468,33.7537],[132.1445,33.7534],[132.1398,33.7473],[132.141,33.7387],[132.1445,33.7379],[132.1441,33.73],[132.1367,33.7294],[132.1338,33.7277],[132.1293,33.7208],[132.1266,33.7195],[132.1303,33.715],[132.135,33.7129],[132.1412,33.7178],[132.1491,33.7204],[132.1535,33.7286]]],[[[132.0783,33.8529],[132.0749,33.8548],[132.0692,33.8536],[132.0675,33.8514],[132.0692,33.8436],[132.0716,33.8438],[132.081,33.8354],[132.0781,33.8324],[132.0786,33.8283],[132.0764,33.8256],[132.0676,33.8193],[132.0605,33.8187],[132.0582,33.8136],[132.0573,33.8079],[132.0584,33.8031],[132.0522,33.7984],[132.0477,33.799],[132.0435,33.7954],[132.0351,33.7949],[132.0339,33.7881],[132.037,33.7867],[132.0408,33.7897],[132.0459,33.7877],[132.0495,33.7843],[132.058,33.7906],[132.0564,33.7955],[132.0596,33.8018],[132.0665,33.8041],[132.0718,33.8028],[132.0757,33.8059],[132.0748,33.8126],[132.0772,33.8144],[132.086,33.8162],[132.0854,33.8208],[132.0901,33.8261],[132.0978,33.8266],[132.1064,33.8248],[132.1087,33.8281],[132.1149,33.8274],[132.118,33.8296],[132.1115,33.8328],[132.1091,33.8371],[132.1048,33.8358],[132.1042,33.8423],[132.093,33.8454],[132.0843,33.8446],[132.0774,33.8496],[132.0783,33.8529]]],[[[131.9355,33.7938],[131.9309,33.7937],[131.9313,33.7889],[131.938,33.7867],[131.9399,33.7911],[131.9355,33.7938]]],[[[132.129,33.8612],[132.1143,33.8631],[132.1126,33.8608],[132.1168,33.8581],[132.1158,33.8527],[132.1181,33.8489],[132.1155,33.8411],[132.1183,33.832],[132.1233,33.8346],[132.138,33.8317],[132.1443,33.8331],[132.1463,33.8373],[132.1504,33.8402],[132.129,33.8612]]]]}},{"type":"Feature","properties":{"id":35009},"geometry":{"type":"MultiPolygon","coordinates":[[[[131.8657,33.98],[131.8612,33.9819],[131.8546,33.9789],[131.8559,33.9764],[131.847,33.9697],[131.8499,33.9652],[131.8483,33.9579],[131.8499,33.9559],[131.8449,33.9531],[131.8407,33.9569],[131.8367,33.9546],[131.8319,33.955],[131.8324,33.9476],[131.8247,33.9481],[131.817,33.9533],[131.8161,33.9569],[131.8078,33.9525],[131.8056,33.9467],[131.805,33.9408],[131.8106,33.9378],[131.8188,33.9351],[131.8205,33.9323],[131.8276,33.9312],[131.8344,33.9329],[131.8465,33.945],[131.8546,33.948],[131.86,33.9544],[131.8602,33.9607],[131.8585,33.9636],[131.8635,33.9672],[131.8697,33.9691],[131.8733,33.9676],[131.8717,33.9766],[131.8657,33.98]]],[[[131.8934,33.9796],[131.8963,33.9806],[131.905,33.9864],[131.9117,33.9928],[131.9278,33.9963],[131.937,34.0027],[131.9388,34.0169],[131.9333,34.0262],[131.9333,34.0316],[131.9363,34.0579],[131.935,34.0639],[131.9298,34.0695],[131.9185,34.0854],[131.9152,34.0864],[131.9041,34.085],[131.9001,34.0857],[131.8949,34.0925],[131.899,34.1042],[131.8963,34.1086],[131.8858,34.1094],[131.8756,34.1044],[131.869,34.1],[131.8623,34.0972],[131.8589,34.0937],[131.8613,34.0854],[131.8692,34.0787],[131.8729,34.0693],[131.8754,34.057],[131.8704,34.0462],[131.8648,34.0391],[131.8527,34.0306],[131.8497,34.0252],[131.8482,34.017],[131.8447,34.0096],[131.8571,34.0073],[131.8642,34.0004],[131.8681,34],[131.8679,33.9888],[131.8734,33.9901],[131.8808,33.9821],[131.8915,33.9782],[131.8934,33.9796]]]]}},{"type":"Feature","properties":{"id":35010},"geometry":{"type":"MultiPolygon","coordinates":[[[[131.4032,34.2058],[131.4016,34.2096],[131.4014,34.223],[131.405,34.255],[131.4029,34.2618],[131.3918,34.2692],[131.3893,34.2718],[131.3787,34.2949],[131.3715,34.306],[131.3624,34.3054],[131.3469,34.3061],[131.3419,34.3086],[131.3402,34.3181],[131.3206,34.3225],[131.3171,34.3214],[131.3065,34.3105],[131.2984,34.3144],[131.2927,34.3256],[131.2847,34.3309],[131.2758,34.3325],[131.2681,34.3303],[131.2575,34.3249],[131.253,34.3185],[131.2438,34.3091],[131.2391,34.3018],[131.2287,34.2911],[131.2181,34.2814],[131.196,34.2829],[131.1852,34.2802],[131.1755,34.2695],[131.1659,34.2626],[131.1642,34.2488],[131.1578,34.2318],[131.1538,34.2294],[131.1366,34.2246],[131.1254,34.2191],[131.1128,34.2019],[131.1055,34.1928],[131.1039,34.183],[131.1051,34.1778],[131.1166,34.1699],[131.1185,34.1609],[131.1115,34.1558],[131.108,34.1564],[131.0977,34.1627],[131.0944,34.1634],[131.0902,34.1596],[131.0865,34.1523],[131.0847,34.1383],[131.0851,34.1345],[131.0936,34.1258],[131.1016,34.1221],[131.106,34.1186],[131.1124,34.1071],[131.1132,34.0977],[131.1255,34.0894],[131.1337,34.0869],[131.1586,34.0947],[131.1627,34.0967],[131.1694,34.102],[131.179,34.1119],[131.1844,34.1154],[131.1953,34.116],[131.2113,34.1143],[131.22,34.136],[131.2254,34.1433],[131.232,34.1457],[131.2678,34.1427],[131.2728,34.1429],[131.2788,34.1478],[131.2818,34.1602],[131.2861,34.1672],[131.3024,34.1644],[131.3127,34.162],[131.3235,34.1619],[131.3255,34.1605],[131.3255,34.1539],[131.3306,34.1478],[131.3366,34.1456],[131.3414,34.1386],[131.3458,34.1363],[131.3562,34.1357],[131.3706,34.1381],[131.3746,34.1452],[131.3737,34.1539],[131.3764,34.1592],[131.3787,34.1669],[131.3867,34.1704],[131.3894,34.1729],[131.397,34.1832],[131.3988,34.1887],[131.4005,34.2003],[131.4032,34.2058]]],[[[131.1366,34.7919],[131.1325,34.7981],[131.1282,34.7946],[131.1274,34.7871],[131.13,34.7828],[131.1306,34.7686],[131.1358,34.7622],[131.1356,34.7592],[131.1428,34.7573],[131.1487,34.7581],[131.1535,34.763],[131.1608,34.7633],[131.1627,34.768],[131.1614,34.7744],[131.1567,34.7752],[131.1441,34.7815],[131.1476,34.7898],[131.1421,34.7887],[131.1366,34.7919]]]]}},{"type":"Feature","properties":{"id":35011},"geometry":{"type":"MultiPolygon","coordinates":[[[[131.3402,34.3181],[131.3441,34.3302],[131.3456,34.3427],[131.3414,34.3513],[131.3366,34.3559],[131.3222,34.3654],[131.3172,34.3668],[131.3093,34.3674],[131.3021,34.3664],[131.2977,34.3681],[131.2957,34.3718],[131.2963,34.3784],[131.2983,34.3836],[131.2935,34.3815],[131.2864,34.3875],[131.2819,34.3839],[131.2801,34.3881],[131.2747,34.39],[131.2617,34.3845],[131.259,34.3859],[131.2509,34.3819],[131.2445,34.3835],[131.2339,34.3911],[131.2306,34.3889],[131.2254,34.3932],[131.2215,34.3859],[131.2237,34.3821],[131.2228,34.3779],[131.2149,34.3709],[131.2083,34.3733],[131.2065,34.3775],[131.2092,34.3806],[131.2021,34.3883],[131.201,34.3959],[131.1976,34.3968],[131.1964,34.3923],[131.1923,34.3852],[131.1878,34.3806],[131.1816,34.3774],[131.1674,34.3722],[131.1562,34.372],[131.1538,34.3732],[131.1482,34.3815],[131.1443,34.3808],[131.142,34.3869],[131.1376,34.3901],[131.1398,34.3994],[131.1361,34.4076],[131.1312,34.4114],[131.1184,34.4113],[131.1139,34.4097],[131.1064,34.4141],[131.1006,34.4187],[131.0945,34.4208],[131.0875,34.4194],[131.0711,34.4244],[131.0696,34.4195],[131.062,34.42],[131.0578,34.4161],[131.0537,34.4161],[131.049,34.4116],[131.0424,34.4107],[131.0378,34.4122],[131.0307,34.4102],[131.0258,34.4116],[131.0194,34.4108],[131.0048,34.4153],[131.0034,34.4202],[131.0044,34.4264],[131.0025,34.4289],[130.9946,34.4319],[130.9811,34.4352],[130.9735,34.439],[130.9717,34.4293],[130.9606,34.4274],[130.9576,34.4216],[130.9594,34.4153],[130.9566,34.4099],[130.945,34.4033],[130.9396,34.4047],[130.9351,34.3922],[130.9401,34.3888],[130.9448,34.3875],[130.953,34.3878],[130.9557,34.3894],[130.9565,34.3962],[130.9504,34.4022],[130.9529,34.4052],[130.9601,34.406],[130.9665,34.4051],[130.9721,34.4072],[130.9734,34.4037],[130.9799,34.3993],[130.9822,34.4002],[130.9947,34.3985],[131.0051,34.399],[131.0107,34.4018],[131.0168,34.4009],[131.0205,34.3952],[131.0211,34.391],[131.0248,34.391],[131.0299,34.3885],[131.0344,34.3846],[131.0348,34.3746],[131.0323,34.3702],[131.0236,34.3733],[131.0122,34.373],[131.0043,34.3709],[131.0016,34.3736],[130.9948,34.3716],[130.9931,34.3686],[130.9863,34.3679],[130.9809,34.3637],[130.9897,34.3587],[131.0292,34.3194],[131.0364,34.3104],[131.0436,34.3056],[131.0495,34.3032],[131.0577,34.3018],[131.0695,34.2947],[131.0774,34.2874],[131.0833,34.2834],[131.086,34.2769],[131.0898,34.2711],[131.0959,34.2684],[131.1159,34.2668],[131.1321,34.2673],[131.152,34.2659],[131.1659,34.2626],[131.1755,34.2695],[131.1852,34.2802],[131.196,34.2829],[131.2181,34.2814],[131.2287,34.2911],[131.2391,34.3018],[131.2438,34.3091],[131.253,34.3185],[131.2575,34.3249],[131.2681,34.3303],[131.2758,34.3325],[131.2847,34.3309],[131.2927,34.3256],[131.2984,34.3144],[131.3065,34.3105],[131.3171,34.3214],[131.3206,34.3225],[131.3402,34.3181]]],[[[131.2496,34.4365],[131.2458,34.4382],[131.2388,34.4363],[131.2349,34.4318],[131.2298,34.432],[131.2208,34.4286],[131.2203,34.4265],[131.2113,34.4253],[131.1996,34.4254],[131.1942,34.4292],[131.1917,34.4237],[131.1854,34.4236],[131.1814,34.4274],[131.1732,34.4278],[131.1731,34.4128],[131.172,34.4083],[131.1783,34.4061],[131.1817,34.4082],[131.1865,34.4052],[131.1852,34.403],[131.1882,34.3989],[131.2039,34.3978],[131.211,34.4018],[131.2151,34.4028],[131.2079,34.4111],[131.2138,34.4132],[131.2126,34.4167],[131.223,34.4239],[131.2272,34.4176],[131.2312,34.4222],[131.2377,34.4236],[131.2434,34.4219],[131.2484,34.4252],[131.2544,34.422],[131.252,34.4182],[131.2597,34.4167],[131.2574,34.4221],[131.2615,34.4262],[131.2612,34.4301],[131.2547,34.433],[131.2539,34.4369],[131.2496,34.4365]]],[[[131.2673,34.4182],[131.2658,34.4158],[131.2683,34.4115],[131.274,34.4127],[131.2673,34.4182]]]]}},{"type":"Feature","properties":{"id":35012},"geometry":{"type":"Polygon","coordinates":[[[131.1132,34.0977],[131.1112,34.0802],[131.108,34.0751],[131.0992,34.072],[131.0828,34.0725],[131.0799,34.0706],[131.0833,34.062],[131.0791,34.0572],[131.0748,34.05],[131.0664,34.0395],[131.075,34.0381],[131.0772,34.0359],[131.0834,34.0341],[131.0911,34.0374],[131.0945,34.0364],[131.1038,34.03],[131.108,34.0257],[131.111,34.0173],[131.1162,34.0128],[131.1216,34.0035],[131.1328,33.9963],[131.1351,33.9922],[131.139,33.9941],[131.1344,33.9989],[131.1354,34.0032],[131.1457,34.0045],[131.1451,34.0173],[131.1492,34.0168],[131.1525,34.0084],[131.1473,33.9948],[131.1532,33.9904],[131.1582,33.9892],[131.1629,33.994],[131.1751,33.9955],[131.162,33.9887],[131.1615,33.9852],[131.167,33.979],[131.1618,33.9768],[131.165,33.974],[131.1659,33.9702],[131.1603,33.9677],[131.1579,33.9601],[131.1586,33.9535],[131.163,33.9507],[131.1728,33.9409],[131.1773,33.9323],[131.1818,33.9306],[131.1859,33.9319],[131.1854,33.9408],[131.1898,33.9406],[131.1928,33.9488],[131.1908,33.962],[131.1857,33.9755],[131.1868,33.9867],[131.1891,33.9939],[131.1938,34.002],[131.2081,34.0118],[131.2134,34.0173],[131.2211,34.0295],[131.218,34.0337],[131.2106,34.0351],[131.2044,34.0376],[131.1924,34.0448],[131.1898,34.0502],[131.1907,34.057],[131.1927,34.0623],[131.1986,34.0688],[131.2128,34.0786],[131.2148,34.0817],[131.2168,34.0982],[131.2159,34.1053],[131.2113,34.1143],[131.1953,34.116],[131.1844,34.1154],[131.179,34.1119],[131.1694,34.102],[131.1627,34.0967],[131.1586,34.0947],[131.1337,34.0869],[131.1255,34.0894],[131.1132,34.0977]]]}},{"type":"Feature","properties":{"id":35013},"geometry":{"type":"MultiPolygon","coordinates":[[[[130.8665,33.9802],[130.8621,33.9801],[130.8595,33.973],[130.8609,33.9702],[130.8664,33.9701],[130.8688,33.9781],[130.8665,33.9802]]],[[[130.817,33.9991],[130.813,33.9973],[130.8162,33.9891],[130.8224,33.9897],[130.817,33.9991]]],[[[131.1132,34.0977],[131.1124,34.1071],[131.106,34.1186],[131.1016,34.1221],[131.0936,34.1258],[131.0851,34.1345],[131.0847,34.1383],[131.0865,34.1523],[131.0902,34.1596],[131.0944,34.1634],[131.0977,34.1627],[131.108,34.1564],[131.1115,34.1558],[131.1185,34.1609],[131.1166,34.1699],[131.1051,34.1778],[131.1039,34.183],[131.1055,34.1928],[131.1128,34.2019],[131.1254,34.2191],[131.1366,34.2246],[131.1538,34.2294],[131.1578,34.2318],[131.1642,34.2488],[131.1659,34.2626],[131.152,34.2659],[131.1321,34.2673],[131.1159,34.2668],[131.0959,34.2684],[131.0898,34.2711],[131.086,34.2769],[131.0833,34.2834],[131.0774,34.2874],[131.0695,34.2947],[131.0577,34.3018],[131.0495,34.3032],[131.0436,34.3056],[131.0364,34.3104],[131.0292,34.3194],[130.9897,34.3587],[130.9809,34.3637],[130.9727,34.3596],[130.9635,34.3584],[130.9596,34.356],[130.9535,34.3551],[130.9486,34.3527],[130.9348,34.3514],[130.9276,34.3411],[130.926,34.348],[130.9212,34.3538],[130.9146,34.3516],[130.9065,34.3622],[130.9017,34.3631],[130.8996,34.358],[130.899,34.3509],[130.8905,34.3465],[130.8915,34.3391],[130.8903,34.3338],[130.8922,34.3262],[130.8961,34.3235],[130.8919,34.3124],[130.8862,34.312],[130.8842,34.3058],[130.8847,34.2985],[130.881,34.2952],[130.8735,34.2959],[130.87,34.2938],[130.8671,34.2893],[130.8678,34.2867],[130.8736,34.2831],[130.8797,34.277],[130.8893,34.2726],[130.8914,34.2679],[130.8975,34.2645],[130.901,34.2531],[130.908,34.2493],[130.9123,34.2455],[130.9214,34.2399],[130.9228,34.23],[130.9218,34.2246],[130.9192,34.2232],[130.9192,34.2189],[130.9167,34.2149],[130.9197,34.2127],[130.9289,34.2126],[130.9309,34.2094],[130.9307,34.2039],[130.9322,34.1979],[130.9333,34.1881],[130.931,34.1831],[130.9259,34.1805],[130.9288,34.1753],[130.9243,34.1684],[130.9131,34.1572],[130.9101,34.1592],[130.9041,34.1525],[130.8982,34.1549],[130.8961,34.153],[130.9,34.1486],[130.9045,34.1473],[130.9036,34.1417],[130.8991,34.1375],[130.8917,34.1343],[130.8793,34.1397],[130.8672,34.1367],[130.866,34.1218],[130.8644,34.1203],[130.8651,34.1142],[130.861,34.1108],[130.8625,34.1039],[130.8691,34.102],[130.8725,34.0987],[130.8752,34.0896],[130.8801,34.0873],[130.8814,34.0838],[130.8766,34.0799],[130.8821,34.0788],[130.8824,34.0741],[130.8884,34.0711],[130.8887,34.065],[130.8922,34.064],[130.8962,34.07],[130.9006,34.0682],[130.9024,34.062],[130.9065,34.0639],[130.9111,34.061],[130.9149,34.0456],[130.913,34.0402],[130.9071,34.031],[130.9036,34.0274],[130.9053,34.0245],[130.9095,34.0255],[130.9143,34.0235],[130.9166,34.0195],[130.9166,34.0135],[130.9147,34.0056],[130.9094,34.0012],[130.9102,33.9978],[130.9082,33.994],[130.9123,33.9836],[130.9156,33.9827],[130.9166,33.9758],[130.9131,33.9715],[130.9135,33.9639],[130.9086,33.9589],[130.906,33.9538],[130.9086,33.9527],[130.914,33.9549],[130.9194,33.9518],[130.9176,33.9496],[130.9129,33.9541],[130.9089,33.9508],[130.9034,33.9515],[130.9012,33.9457],[130.8944,33.9434],[130.8926,33.946],[130.8827,33.9505],[130.8792,33.9531],[130.873,33.9499],[130.8792,33.9429],[130.8912,33.9384],[130.8959,33.9355],[130.8934,33.9317],[130.8994,33.9266],[130.8987,33.9218],[130.9023,33.9143],[130.9119,33.911],[130.9236,33.9144],[130.9254,33.9206],[130.9279,33.9241],[130.9277,33.93],[130.9246,33.9349],[130.9294,33.9405],[130.9245,33.9467],[130.9345,33.9477],[130.9437,33.9559],[130.952,33.9589],[130.9564,33.9649],[130.979,33.9776],[130.9814,33.9813],[130.9906,33.9852],[130.9966,33.9903],[130.996,33.9934],[131.0005,34.0006],[131.0062,34.0024],[131.0024,34.0053],[131.005,34.015],[131.0134,34.0114],[131.0215,34.0201],[131.0158,34.028],[131.0227,34.0358],[131.0299,34.0387],[131.0317,34.0421],[131.0272,34.0476],[131.0324,34.0486],[131.0337,34.0522],[131.0405,34.062],[131.0439,34.0528],[131.0484,34.0476],[131.0482,34.0423],[131.0664,34.0395],[131.0748,34.05],[131.0791,34.0572],[131.0833,34.062],[131.0799,34.0706],[131.0828,34.0725],[131.0992,34.072],[131.108,34.0751],[131.1112,34.0802],[131.1132,34.0977]]],[[[130.9043,34.1746],[130.9002,34.1758],[130.8981,34.1724],[130.8996,34.1698],[130.9051,34.1707],[130.9043,34.1746]]],[[[130.7342,34.0161],[130.7245,34.019],[130.7224,34.0159],[130.7267,34.0083],[130.7345,34.0058],[130.7375,34.0136],[130.7342,34.0161]]],[[[130.7805,34.1148],[130.7759,34.1147],[130.7758,34.1067],[130.7768,34.1036],[130.7821,34.1011],[130.7844,34.0975],[130.7892,34.0997],[130.7946,34.0972],[130.7945,34.0921],[130.799,34.0923],[130.7966,34.1039],[130.7907,34.1081],[130.7858,34.1062],[130.7834,34.1075],[130.7832,34.1124],[130.7805,34.1148]]],[[[130.8694,34.3735],[130.8671,34.3736],[130.87,34.365],[130.8652,34.3595],[130.8607,34.3583],[130.8554,34.3546],[130.8448,34.3539],[130.8404,34.3553],[130.8381,34.3517],[130.8406,34.3449],[130.8472,34.3408],[130.851,34.3426],[130.8518,34.3486],[130.858,34.3529],[130.866,34.3517],[130.8731,34.3554],[130.8776,34.3535],[130.8801,34.3552],[130.8806,34.3642],[130.8769,34.3681],[130.873,34.368],[130.8694,34.3735]]],[[[130.9741,34.364],[130.967,34.363],[130.9649,34.3591],[130.9733,34.3614],[130.9741,34.364]]]]}},{"type":"Feature","properties":{"id":35014},"geometry":{"type":"MultiPolygon","coordinates":[[[[131.6999,33.9415],[131.6973,33.9455],[131.689,33.9418],[131.695,33.935],[131.7001,33.9379],[131.6999,33.9415]]],[[[131.7645,33.9821],[131.7586,33.981],[131.7612,33.9753],[131.7634,33.9746],[131.7689,33.9795],[131.7645,33.9821]]],[[[131.7447,34.0372],[131.7344,34.0379],[131.7273,34.033],[131.7263,34.0281],[131.7292,34.0222],[131.7392,34.0203],[131.746,34.0233],[131.7513,34.0276],[131.7524,34.031],[131.7481,34.0369],[131.7447,34.0372]]],[[[131.7128,34.0327],[131.7064,34.0331],[131.7042,34.0272],[131.7036,34.0186],[131.7052,34.0171],[131.7048,34.008],[131.6979,34.0093],[131.6919,34.0082],[131.6956,34.0038],[131.7032,34.0026],[131.7099,33.9963],[131.7131,33.9902],[131.7184,33.9901],[131.7196,33.9797],[131.727,33.9801],[131.7326,33.9826],[131.7314,33.986],[131.7192,33.9919],[131.7172,33.9957],[131.7108,34],[131.7111,34.0079],[131.7141,34.0125],[131.7111,34.0148],[131.7132,34.0196],[131.7095,34.0224],[131.71,34.0254],[131.7138,34.028],[131.7128,34.0327]]],[[[131.7761,34.0494],[131.7718,34.0498],[131.7675,34.0467],[131.7631,34.0475],[131.7601,34.0443],[131.7533,34.0329],[131.756,34.0302],[131.7643,34.0382],[131.7726,34.0425],[131.7785,34.0475],[131.7761,34.0494]]],[[[131.885,34.31],[131.875,34.3044],[131.8575,34.303],[131.8475,34.3076],[131.8364,34.308],[131.8215,34.3002],[131.8143,34.3092],[131.8015,34.314],[131.7976,34.3239],[131.7871,34.3283],[131.7775,34.3364],[131.7808,34.3463],[131.7737,34.3549],[131.7664,34.348],[131.7619,34.3403],[131.7587,34.3309],[131.7514,34.323],[131.7508,34.3124],[131.7557,34.304],[131.7553,34.301],[131.7484,34.293],[131.7471,34.286],[131.7481,34.2836],[131.76,34.2753],[131.759,34.2672],[131.7522,34.2576],[131.7507,34.2518],[131.7481,34.2276],[131.7484,34.2226],[131.7521,34.2166],[131.7577,34.2108],[131.7638,34.1963],[131.764,34.1905],[131.7596,34.1857],[131.7545,34.185],[131.7455,34.1857],[131.7393,34.1848],[131.7362,34.1822],[131.7356,34.1777],[131.7395,34.1719],[131.7388,34.1649],[131.7358,34.1622],[131.7279,34.1584],[131.7257,34.1542],[131.7241,34.1391],[131.7187,34.1334],[131.7115,34.135],[131.6987,34.1358],[131.6901,34.1326],[131.6834,34.1324],[131.66,34.1344],[131.6532,34.1353],[131.6493,34.125],[131.647,34.1156],[131.6456,34.1061],[131.6431,34.1014],[131.6403,34.0863],[131.6409,34.0802],[131.6432,34.0768],[131.6493,34.0732],[131.6562,34.0723],[131.663,34.0684],[131.6669,34.0605],[131.6692,34.0497],[131.6729,34.043],[131.6769,34.0426],[131.6784,34.0476],[131.6759,34.0489],[131.6815,34.0544],[131.6839,34.0518],[131.6914,34.0535],[131.6892,34.0482],[131.698,34.0467],[131.7007,34.0552],[131.7046,34.0561],[131.7074,34.0539],[131.7103,34.0579],[131.7162,34.06],[131.72,34.0571],[131.7241,34.0604],[131.7303,34.0622],[131.7381,34.0613],[131.7427,34.0674],[131.7452,34.0657],[131.7557,34.0652],[131.7547,34.0631],[131.748,34.063],[131.7453,34.0596],[131.7481,34.0567],[131.7459,34.0537],[131.7458,34.0492],[131.7481,34.0459],[131.7521,34.0471],[131.7527,34.0533],[131.7609,34.0527],[131.765,34.0562],[131.7673,34.0528],[131.7852,34.0531],[131.7876,34.0552],[131.7937,34.0493],[131.7867,34.0381],[131.7949,34.0352],[131.7974,34.0391],[131.8023,34.0429],[131.8172,34.0355],[131.827,34.0238],[131.8176,34.0238],[131.8163,34.0189],[131.8118,34.0158],[131.8072,34.0174],[131.7915,34.0037],[131.7829,33.9941],[131.7863,33.9867],[131.7786,33.9856],[131.7706,33.9809],[131.7711,33.9781],[131.776,33.978],[131.7795,33.9754],[131.7892,33.9736],[131.7926,33.9757],[131.8002,33.9768],[131.8064,33.9692],[131.8105,33.9677],[131.8181,33.9706],[131.8207,33.9773],[131.8128,33.9831],[131.8072,33.9842],[131.8047,33.9817],[131.7999,33.9818],[131.7959,33.9843],[131.7964,33.988],[131.8028,33.9882],[131.8064,33.99],[131.8188,33.9931],[131.8281,34.0033],[131.8333,34.0061],[131.8397,34.0115],[131.8447,34.0096],[131.8482,34.017],[131.8497,34.0252],[131.8527,34.0306],[131.8648,34.0391],[131.8704,34.0462],[131.8754,34.057],[131.8729,34.0693],[131.8692,34.0787],[131.8613,34.0854],[131.8589,34.0937],[131.8623,34.0972],[131.869,34.1],[131.8756,34.1044],[131.8858,34.1094],[131.8963,34.1086],[131.899,34.1042],[131.8949,34.0925],[131.9001,34.0857],[131.9041,34.085],[131.9152,34.0864],[131.9185,34.0854],[131.9298,34.0695],[131.935,34.0639],[131.9363,34.0579],[131.9333,34.0316],[131.9333,34.0262],[131.9388,34.0169],[131.937,34.0027],[131.9531,34.0082],[131.961,34.0133],[131.9644,34.0171],[131.9659,34.0273],[131.9712,34.0299],[131.9789,34.0289],[131.9854,34.0231],[131.9896,34.023],[132.0041,34.027],[132.024,34.0257],[132.0277,34.0297],[132.0308,34.042],[132.0304,34.0512],[132.0289,34.0605],[132.0259,34.0651],[132.0213,34.065],[132.0094,34.0571],[132.0056,34.0568],[131.9991,34.0595],[131.9982,34.0636],[131.9993,34.0754],[131.995,34.079],[131.9803,34.0842],[131.9748,34.0849],[131.9698,34.0881],[131.9682,34.0935],[131.9681,34.0992],[131.9664,34.1082],[131.9612,34.1192],[131.962,34.1326],[131.9603,34.1413],[131.9572,34.1486],[131.9575,34.1535],[131.9602,34.1583],[131.963,34.1781],[131.9602,34.1872],[131.9562,34.1923],[131.9504,34.1942],[131.9478,34.1967],[131.9443,34.2062],[131.9436,34.2109],[131.9379,34.2209],[131.9311,34.2226],[131.92,34.2218],[131.8991,34.2298],[131.8948,34.2338],[131.8922,34.2496],[131.8885,34.259],[131.8854,34.2628],[131.8813,34.2739],[131.8793,34.2849],[131.8802,34.3018],[131.885,34.31]]]]}},{"type":"Feature","properties":{"id":35015},"geometry":{"type":"MultiPolygon","coordinates":[[[[132.4898,33.7371],[132.4842,33.7386],[132.4772,33.737],[132.482,33.7342],[132.4898,33.7371]]],[[[132.4,33.8124],[132.3954,33.812],[132.3915,33.8066],[132.3943,33.8013],[132.4002,33.805],[132.3982,33.8104],[132.4,33.8124]]],[[[132.5297,33.8467],[132.5339,33.8492],[132.5344,33.8526],[132.5304,33.8555],[132.5253,33.8531],[132.5297,33.8467]]],[[[132.3678,33.8523],[132.3586,33.8586],[132.3539,33.8544],[132.3607,33.8519],[132.3629,33.8477],[132.3697,33.847],[132.3735,33.8504],[132.3678,33.8523]]],[[[132.4645,33.9189],[132.4587,33.9261],[132.4539,33.9264],[132.4545,33.9205],[132.4575,33.9189],[132.4645,33.9189]]],[[[132.4736,33.9641],[132.4623,33.9626],[132.4687,33.96],[132.4735,33.9534],[132.4779,33.9546],[132.4801,33.9599],[132.4736,33.9641]]],[[[132.1818,33.8493],[132.1781,33.8459],[132.1828,33.8436],[132.1858,33.8456],[132.1818,33.8493]]],[[[132.2474,33.9577],[132.2443,33.9626],[132.2339,33.9674],[132.2309,33.9618],[132.2274,33.959],[132.2202,33.96],[132.2155,33.9654],[132.2111,33.9597],[132.2133,33.9565],[132.209,33.9522],[132.2031,33.9492],[132.1933,33.9552],[132.1865,33.9548],[132.1833,33.9505],[132.1851,33.9457],[132.1891,33.94],[132.1919,33.9332],[132.1855,33.9277],[132.1775,33.9308],[132.174,33.9275],[132.1732,33.9233],[132.1769,33.9191],[132.1774,33.9096],[132.1756,33.9031],[132.18,33.8973],[132.1782,33.8938],[132.187,33.8929],[132.1899,33.8859],[132.1956,33.8841],[132.2039,33.8788],[132.2044,33.8728],[132.2,33.871],[132.2053,33.8639],[132.2061,33.8575],[132.2083,33.8573],[132.2163,33.8661],[132.2148,33.8696],[132.2219,33.8741],[132.2373,33.8771],[132.2421,33.8741],[132.2495,33.8768],[132.2581,33.8778],[132.2629,33.8733],[132.265,33.8686],[132.2707,33.8727],[132.2687,33.8835],[132.2726,33.8922],[132.2769,33.8935],[132.2868,33.9018],[132.2919,33.8997],[132.2919,33.897],[132.3054,33.8955],[132.3089,33.8919],[132.3138,33.8912],[132.3212,33.893],[132.328,33.8875],[132.3328,33.886],[132.3382,33.8803],[132.3374,33.8781],[132.3289,33.8727],[132.3262,33.8693],[132.3253,33.8638],[132.3267,33.8586],[132.332,33.8581],[132.3338,33.8614],[132.344,33.8653],[132.3473,33.8689],[132.3555,33.8665],[132.3623,33.8608],[132.3707,33.8649],[132.3684,33.868],[132.3691,33.8766],[132.3645,33.8802],[132.3634,33.8871],[132.3669,33.892],[132.3627,33.8954],[132.3633,33.8999],[132.3713,33.9035],[132.3718,33.9103],[132.3762,33.9141],[132.3835,33.915],[132.3903,33.9114],[132.3919,33.9171],[132.3988,33.9177],[132.4052,33.9155],[132.4084,33.9101],[132.4106,33.9161],[132.4157,33.9192],[132.4176,33.9179],[132.4221,33.9248],[132.4326,33.9266],[132.4351,33.9315],[132.4494,33.9316],[132.4535,33.9345],[132.4577,33.9408],[132.457,33.9432],[132.4436,33.9424],[132.4382,33.9458],[132.438,33.9517],[132.432,33.9501],[132.4245,33.9543],[132.4158,33.9526],[132.4094,33.9442],[132.4025,33.9416],[132.4063,33.9345],[132.4043,33.9303],[132.3926,33.9253],[132.3865,33.9271],[132.3737,33.9259],[132.3679,33.9273],[132.3659,33.9229],[132.3598,33.9176],[132.3536,33.9181],[132.3525,33.915],[132.3566,33.9109],[132.3558,33.9078],[132.3474,33.9045],[132.3408,33.9047],[132.3315,33.9014],[132.3281,33.9044],[132.3224,33.9031],[132.3176,33.9059],[132.3235,33.9169],[132.3209,33.9197],[132.3129,33.9153],[132.308,33.9153],[132.302,33.9206],[132.3008,33.9246],[132.3019,33.9293],[132.2978,33.9346],[132.294,33.9361],[132.289,33.9403],[132.2879,33.9502],[132.2856,33.9555],[132.2829,33.9558],[132.2704,33.9486],[132.2596,33.9498],[132.2513,33.9528],[132.2474,33.9577]]],[[[132.3512,33.9598],[132.3445,33.9588],[132.3376,33.9546],[132.337,33.9472],[132.3446,33.9472],[132.3512,33.943],[132.3542,33.9447],[132.355,33.9528],[132.3512,33.9598]]],[[[132.3512,33.9698],[132.3486,33.9689],[132.3512,33.9614],[132.3552,33.9669],[132.3512,33.9698]]],[[[132.3307,33.9923],[132.3353,33.9936],[132.3357,33.997],[132.332,34.0033],[132.3288,33.9939],[132.3307,33.9923]]],[[[132.2687,34.0012],[132.2705,34.0036],[132.2668,34.0088],[132.2634,34.0098],[132.2583,34.0044],[132.2658,34],[132.2643,33.9968],[132.2682,33.994],[132.272,33.9992],[132.2687,34.0012]]]]}},{"type":"Feature","properties":{"id":35016},"geometry":{"type":"Polygon","coordinates":[[[132.0303,33.9063],[132.0529,33.9164],[132.0556,33.9225],[132.0621,33.9306],[132.0632,33.9368],[132.0634,33.9408],[132.0613,33.9533],[132.0594,33.9584],[132.0573,33.9693],[132.0577,33.9786],[132.0571,33.9875],[132.0385,33.9864],[132.0219,33.9836],[132.0167,33.9801],[132.0145,33.9732],[132.0098,33.9697],[132.0027,33.9676],[131.9983,33.9647],[131.9919,33.9584],[131.9819,33.9581],[131.9809,33.9549],[131.9858,33.9426],[131.992,33.9342],[131.9971,33.9293],[132.0091,33.9233],[132.0255,33.9134],[132.0303,33.9063]]]}},{"type":"Feature","properties":{"id":35017},"geometry":{"type":"Polygon","coordinates":[[[131.2113,34.1143],[131.2159,34.1053],[131.2168,34.0982],[131.2148,34.0817],[131.2128,34.0786],[131.1986,34.0688],[131.1927,34.0623],[131.1907,34.057],[131.1898,34.0502],[131.1924,34.0448],[131.2044,34.0376],[131.2106,34.0351],[131.218,34.0337],[131.2211,34.0295],[131.2134,34.0173],[131.2081,34.0118],[131.1938,34.002],[131.1891,33.9939],[131.1868,33.9867],[131.1857,33.9755],[131.1908,33.962],[131.1928,33.9488],[131.1898,33.9406],[131.2033,33.9435],[131.2098,33.9443],[131.2116,33.9528],[131.2096,33.9587],[131.2147,33.961],[131.217,33.9732],[131.2224,33.9849],[131.223,33.9784],[131.2203,33.9721],[131.2192,33.9546],[131.2179,33.9509],[131.2265,33.9474],[131.2239,33.9431],[131.2174,33.9401],[131.2164,33.9359],[131.2232,33.9337],[131.2327,33.9398],[131.2359,33.9475],[131.2415,33.9492],[131.2477,33.9427],[131.2424,33.9381],[131.2352,33.9374],[131.2359,33.929],[131.2512,33.9361],[131.2472,33.9309],[131.2491,33.9279],[131.2537,33.9262],[131.2635,33.926],[131.269,33.9228],[131.276,33.9271],[131.2867,33.9315],[131.2851,33.9365],[131.2904,33.9374],[131.2971,33.9421],[131.2999,33.9408],[131.3053,33.9483],[131.3112,33.9491],[131.3135,33.9527],[131.319,33.9554],[131.3246,33.9523],[131.3287,33.952],[131.3374,33.9552],[131.3387,33.9577],[131.3443,33.9613],[131.3508,33.969],[131.3512,33.9774],[131.3481,33.9814],[131.3528,33.9869],[131.3621,33.9894],[131.3612,33.9925],[131.3635,33.9971],[131.3454,33.9989],[131.3202,33.9963],[131.3081,33.9964],[131.2977,34.0007],[131.2934,34.0083],[131.2934,34.0106],[131.3164,34.0413],[131.3306,34.0512],[131.3334,34.0545],[131.3382,34.0667],[131.3452,34.0742],[131.3497,34.0818],[131.3507,34.0864],[131.3524,34.1049],[131.3553,34.1087],[131.3655,34.108],[131.3712,34.1101],[131.3753,34.1206],[131.3731,34.133],[131.3706,34.1381],[131.3562,34.1357],[131.3458,34.1363],[131.3414,34.1386],[131.3366,34.1456],[131.3306,34.1478],[131.3255,34.1539],[131.3255,34.1605],[131.3235,34.1619],[131.3127,34.162],[131.3024,34.1644],[131.2861,34.1672],[131.2818,34.1602],[131.2788,34.1478],[131.2728,34.1429],[131.2678,34.1427],[131.232,34.1457],[131.2254,34.1433],[131.22,34.136],[131.2113,34.1143]]]}},{"type":"Feature","properties":{"id":35018},"geometry":{"type":"Polygon","coordinates":[[[132.1871,34.2247],[132.1963,34.2198],[132.1971,34.2159],[132.1941,34.2018],[132.1892,34.1953],[132.1876,34.191],[132.1883,34.1866],[132.1945,34.1804],[132.2048,34.1784],[132.2107,34.1787],[132.2203,34.1819],[132.2252,34.1853],[132.23,34.1918],[132.2332,34.1923],[132.2345,34.1964],[132.2403,34.1971],[132.2473,34.2054],[132.2454,34.2077],[132.238,34.208],[132.2288,34.2097],[132.2439,34.2133],[132.2344,34.2275],[132.2292,34.2238],[132.2174,34.2195],[132.2099,34.2263],[132.1972,34.2276],[132.1871,34.2247]]]}},{"type":"Feature","properties":{"id":35019},"geometry":{"type":"Polygon","coordinates":[[[131.7737,34.3549],[131.7717,34.3573],[131.7689,34.3678],[131.7628,34.3735],[131.757,34.371],[131.7503,34.3666],[131.7401,34.3617],[131.7302,34.3585],[131.7243,34.3581],[131.7144,34.3604],[131.7047,34.3554],[131.6963,34.3467],[131.6906,34.3372],[131.6886,34.3323],[131.6769,34.3238],[131.6741,34.32],[131.6696,34.31],[131.6669,34.3082],[131.6611,34.3077],[131.6514,34.3099],[131.6409,34.311],[131.6345,34.3101],[131.6277,34.3045],[131.6133,34.3015],[131.6015,34.2927],[131.5957,34.2857],[131.5915,34.2785],[131.587,34.2737],[131.5832,34.2619],[131.5744,34.2545],[131.5624,34.246],[131.5558,34.2382],[131.5518,34.2386],[131.5469,34.2476],[131.5429,34.2488],[131.5312,34.2499],[131.5255,34.2525],[131.5097,34.2535],[131.5048,34.2477],[131.5006,34.2405],[131.4962,34.238],[131.4772,34.2392],[131.4702,34.2382],[131.46,34.2331],[131.4502,34.2234],[131.4413,34.2201],[131.427,34.218],[131.4194,34.2147],[131.4101,34.2087],[131.4032,34.2058],[131.4005,34.2003],[131.3988,34.1887],[131.397,34.1832],[131.3894,34.1729],[131.3867,34.1704],[131.3787,34.1669],[131.3764,34.1592],[131.3737,34.1539],[131.3746,34.1452],[131.3706,34.1381],[131.3731,34.133],[131.3753,34.1206],[131.3712,34.1101],[131.3655,34.108],[131.3553,34.1087],[131.3524,34.1049],[131.3507,34.0864],[131.3497,34.0818],[131.3452,34.0742],[131.3382,34.0667],[131.3334,34.0545],[131.3306,34.0512],[131.3164,34.0413],[131.2934,34.0106],[131.2934,34.0083],[131.2977,34.0007],[131.3081,33.9964],[131.3202,33.9963],[131.3454,33.9989],[131.3635,33.9971],[131.3656,34],[131.3624,34.005],[131.3662,34.0061],[131.3685,33.9997],[131.3725,34.0015],[131.3792,34.0096],[131.3834,34.0217],[131.3802,34.0239],[131.3726,34.0257],[131.3725,34.0277],[131.3809,34.031],[131.3831,34.0353],[131.3874,34.0492],[131.3948,34.0512],[131.3969,34.055],[131.3979,34.0681],[131.4048,34.0843],[131.401,34.0665],[131.4007,34.058],[131.3974,34.0447],[131.4024,34.0444],[131.4025,34.0409],[131.3978,34.04],[131.3953,34.0369],[131.3946,34.0277],[131.3974,34.0246],[131.4025,34.026],[131.414,34.0217],[131.408,34.016],[131.406,34.0125],[131.4017,33.9991],[131.4037,33.9968],[131.4097,33.9974],[131.4081,34.001],[131.4092,34.005],[131.4127,34.008],[131.412,34.012],[131.4144,34.0142],[131.421,34.0154],[131.4263,34.0145],[131.4318,34.0056],[131.4334,33.9981],[131.4289,33.9934],[131.4257,33.9945],[131.4237,33.9898],[131.4297,33.9907],[131.4363,33.9876],[131.4376,33.9823],[131.4421,33.9831],[131.4429,33.9925],[131.4462,33.995],[131.4529,33.9955],[131.4558,33.9923],[131.4549,33.9889],[131.4611,33.9878],[131.4636,33.9932],[131.4573,33.9992],[131.4507,34.0082],[131.4598,34.0035],[131.4624,34.0037],[131.4738,34.0105],[131.4801,34.0126],[131.4783,34.0173],[131.4734,34.0202],[131.4698,34.0196],[131.4657,34.0279],[131.467,34.0326],[131.4759,34.0387],[131.4655,34.042],[131.4555,34.0473],[131.4542,34.0498],[131.4553,34.0615],[131.4777,34.0755],[131.4832,34.0803],[131.4917,34.0919],[131.494,34.0962],[131.4989,34.0972],[131.5076,34.0963],[131.5113,34.0946],[131.5175,34.0891],[131.5297,34.0864],[131.5372,34.0897],[131.5443,34.0941],[131.5529,34.0971],[131.5606,34.1066],[131.5652,34.1155],[131.5708,34.1181],[131.5744,34.1213],[131.5819,34.1347],[131.5898,34.1454],[131.5958,34.1474],[131.6057,34.1452],[131.62,34.1412],[131.6253,34.1419],[131.6304,34.1469],[131.6344,34.1547],[131.6388,34.156],[131.6488,34.155],[131.6548,34.151],[131.6573,34.147],[131.6563,34.1408],[131.6532,34.1353],[131.66,34.1344],[131.6834,34.1324],[131.6901,34.1326],[131.6987,34.1358],[131.7115,34.135],[131.7187,34.1334],[131.7241,34.1391],[131.7257,34.1542],[131.7279,34.1584],[131.7358,34.1622],[131.7388,34.1649],[131.7395,34.1719],[131.7356,34.1777],[131.7362,34.1822],[131.7393,34.1848],[131.7455,34.1857],[131.7545,34.185],[131.7596,34.1857],[131.764,34.1905],[131.7638,34.1963],[131.7577,34.2108],[131.7521,34.2166],[131.7484,34.2226],[131.7481,34.2276],[131.7507,34.2518],[131.7522,34.2576],[131.759,34.2672],[131.76,34.2753],[131.7481,34.2836],[131.7471,34.286],[131.7484,34.293],[131.7553,34.301],[131.7557,34.304],[131.7508,34.3124],[131.7514,34.323],[131.7587,34.3309],[131.7619,34.3403],[131.7664,34.348],[131.7737,34.3549]]]}},{"type":"Feature","properties":{"id":35020},"geometry":{"type":"MultiPolygon","coordinates":[[[[132.2104,33.8162],[132.2065,33.8168],[132.2007,33.8148],[132.1933,33.8076],[132.1873,33.8081],[132.1859,33.8105],[132.1776,33.8083],[132.172,33.8044],[132.172,33.7978],[132.1741,33.7946],[132.1859,33.8004],[132.1916,33.8041],[132.1997,33.8022],[132.2009,33.795],[132.2039,33.7911],[132.2111,33.7885],[132.2155,33.7816],[132.2229,33.7827],[132.2303,33.7814],[132.2323,33.783],[132.239,33.7825],[132.2459,33.7782],[132.2498,33.7741],[132.2569,33.7706],[132.2661,33.7737],[132.2744,33.7814],[132.2708,33.7825],[132.2656,33.7786],[132.2614,33.779],[132.2573,33.7822],[132.2568,33.7882],[132.2533,33.7905],[132.2485,33.7962],[132.2422,33.7951],[132.2368,33.7975],[132.2329,33.8026],[132.2338,33.8054],[132.2277,33.8058],[132.2233,33.8092],[132.2234,33.813],[132.2206,33.816],[132.2139,33.8148],[132.2104,33.8162]]],[[[132.2586,33.8165],[132.2519,33.8167],[132.2489,33.8139],[132.2517,33.807],[132.2547,33.8066],[132.2574,33.8107],[132.2586,33.8165]]],[[[132.1682,33.9463],[132.166,33.9474],[132.1564,33.9447],[132.1548,33.9417],[132.158,33.9378],[132.1627,33.939],[132.1682,33.9463]]],[[[132.0715,34.0218],[132.0702,34.0071],[132.065,33.9951],[132.0571,33.9875],[132.0577,33.9786],[132.0573,33.9693],[132.0594,33.9584],[132.0652,33.9559],[132.0796,33.9532],[132.0932,33.9517],[132.0989,33.9497],[132.1053,33.9432],[132.1076,33.9381],[132.1074,33.9241],[132.1026,33.9074],[132.1078,33.8979],[132.1107,33.8872],[132.1133,33.8839],[132.126,33.8748],[132.1288,33.8666],[132.129,33.8612],[132.1504,33.8402],[132.1585,33.8459],[132.1595,33.8543],[132.1575,33.8607],[132.1483,33.8649],[132.1462,33.8691],[132.1482,33.8736],[132.1373,33.8788],[132.1363,33.8817],[132.1315,33.8828],[132.129,33.8879],[132.1295,33.8922],[132.1278,33.9014],[132.131,33.904],[132.1319,33.9081],[132.1278,33.9168],[132.1274,33.9231],[132.1254,33.9276],[132.1259,33.9383],[132.119,33.9492],[132.1182,33.9543],[132.1131,33.9573],[132.1074,33.9576],[132.1073,33.9601],[132.1193,33.9567],[132.1218,33.9506],[132.1274,33.9479],[132.1296,33.9523],[132.1289,33.9561],[132.1381,33.9553],[132.1449,33.9563],[132.1546,33.9563],[132.1661,33.9581],[132.1788,33.9627],[132.1863,33.9621],[132.2007,33.9825],[132.2,33.9862],[132.203,33.9901],[132.1901,33.9961],[132.1889,33.9982],[132.1911,34.0063],[132.1902,34.0122],[132.1856,34.0158],[132.1804,34.0173],[132.1721,34.0167],[132.1619,34.0184],[132.156,34.0218],[132.1513,34.0299],[132.1447,34.0388],[132.1417,34.0412],[132.1321,34.0443],[132.1199,34.0463],[132.1032,34.0476],[132.0985,34.0466],[132.0933,34.043],[132.0899,34.0379],[132.0887,34.0323],[132.0842,34.0272],[132.0715,34.0218]]]]}}]}