{"type":"FeatureCollection","features":[{"type":"Feature","properties":{"id":36001},"geometry":{"type":"Polygon","coordinates":[[[134.4556,34.1188],[134.4564,34.1124],[134.4682,34.1146],[134.4737,34.1143],[134.4816,34.1116],[134.4908,34.1157],[134.4955,34.1143],[134.5018,34.1073],[134.5075,34.1066],[134.5102,34.1102],[134.5112,34.1202],[134.5184,34.1236],[134.526,34.1222],[134.5295,34.1295],[134.5209,34.1355],[134.5105,34.14],[134.4992,34.1402],[134.4941,34.1418],[134.4874,34.1483],[134.4799,34.1414],[134.4774,34.1328],[134.4732,34.1227],[134.4678,34.1196],[134.4631,34.1185],[134.4556,34.1188]]]}},{"type":"Feature","properties":{"id":36002},"geometry":{"type":"MultiPolygon","coordinates":[[[[134.6608,33.867],[134.6582,33.8693],[134.6539,33.8675],[134.6544,33.8639],[134.6497,33.8594],[134.65,33.8561],[134.6549,33.8535],[134.6625,33.863],[134.6608,33.867]]],[[[134.6783,33.8634],[134.6794,33.8665],[134.6733,33.8676],[134.6721,33.863],[134.6744,33.8596],[134.6783,33.8634]]],[[[134.8208,33.8497],[134.8214,33.8564],[134.8192,33.8578],[134.8103,33.8508],[134.8041,33.8427],[134.8103,33.8392],[134.82,33.8442],[134.8169,33.8458],[134.8208,33.8497]]],[[[134.5287,33.8018],[134.5425,33.8055],[134.5506,33.8045],[134.5575,33.8016],[134.5634,33.7935],[134.5663,33.7915],[134.5769,33.789],[134.5813,33.7855],[134.5882,33.7852],[134.601,33.788],[134.6123,33.7881],[134.6189,33.79],[134.6251,33.7976],[134.6293,33.8],[134.6469,33.8036],[134.6572,33.8065],[134.6674,33.8119],[134.6774,33.814],[134.6815,33.8118],[134.6859,33.8047],[134.6899,33.806],[134.6956,33.8125],[134.6987,33.8123],[134.7196,33.8203],[134.7209,33.8231],[134.7291,33.823],[134.7381,33.8287],[134.7464,33.8307],[134.7501,33.8346],[134.7386,33.8401],[134.7318,33.8395],[134.7259,33.8348],[134.7002,33.8363],[134.6945,33.832],[134.6889,33.833],[134.6853,33.8359],[134.6972,33.8414],[134.6996,33.8407],[134.7104,33.8423],[134.7203,33.8453],[134.717,33.849],[134.7088,33.8508],[134.7043,33.8482],[134.6975,33.8504],[134.6915,33.8495],[134.6926,33.855],[134.6818,33.8503],[134.674,33.8503],[134.6711,33.8484],[134.6576,33.8487],[134.653,33.8447],[134.6481,33.8434],[134.6418,33.8436],[134.6403,33.8463],[134.6462,33.8501],[134.6447,33.8578],[134.6468,33.866],[134.6391,33.8628],[134.6382,33.8595],[134.6327,33.8579],[134.6296,33.8598],[134.6356,33.8672],[134.646,33.8715],[134.652,33.8701],[134.6609,33.8746],[134.6682,33.8798],[134.6687,33.8836],[134.676,33.8844],[134.678,33.8873],[134.6844,33.8918],[134.6858,33.8975],[134.6885,33.9004],[134.6962,33.9035],[134.6993,33.9065],[134.6981,33.9103],[134.7006,33.9128],[134.7001,33.9187],[134.7034,33.9261],[134.6943,33.9289],[134.6977,33.9319],[134.7031,33.9313],[134.7018,33.9378],[134.6971,33.9394],[134.6846,33.9381],[134.6765,33.9345],[134.6711,33.9336],[134.6638,33.9348],[134.6644,33.9369],[134.6713,33.9356],[134.6876,33.9437],[134.6953,33.9461],[134.6975,33.9499],[134.6901,33.954],[134.6836,33.9591],[134.6698,33.9615],[134.6604,33.9714],[134.6557,33.9793],[134.6525,33.987],[134.6446,33.981],[134.6359,33.9712],[134.6287,33.9694],[134.6243,33.966],[134.618,33.9581],[134.6064,33.9516],[134.5818,33.9447],[134.5688,33.9449],[134.5572,33.9351],[134.554,33.9333],[134.5431,33.9311],[134.536,33.9268],[134.5276,33.9185],[134.5186,33.9161],[134.5037,33.9095],[134.493,33.9104],[134.4834,33.9035],[134.4754,33.9],[134.4773,33.8827],[134.473,33.8652],[134.487,33.8696],[134.498,33.8693],[134.5063,33.8642],[134.5141,33.8655],[134.5211,33.8693],[134.5365,33.8712],[134.5424,33.8712],[134.5534,33.8691],[134.5589,33.8632],[134.5568,33.858],[134.5512,33.8536],[134.5434,33.8513],[134.539,33.8479],[134.5256,33.8311],[134.519,33.8255],[134.5137,33.8197],[134.5134,33.8128],[134.5197,33.8065],[134.5287,33.8018]]]]}},{"type":"Feature","properties":{"id":36003},"geometry":{"type":"Polygon","coordinates":[[[134.2146,34.1728],[134.2109,34.1693],[134.2181,34.1628],[134.2195,34.1595],[134.2192,34.1535],[134.215,34.1435],[134.2142,34.1289],[134.2077,34.1201],[134.2051,34.1095],[134.1982,34.1003],[134.1961,34.0916],[134.1882,34.0854],[134.1836,34.0785],[134.1835,34.0729],[134.1892,34.0624],[134.193,34.058],[134.197,34.0601],[134.2045,34.0617],[134.2136,34.0604],[134.2291,34.0621],[134.243,34.0676],[134.2597,34.0695],[134.2776,34.0693],[134.2916,34.0678],[134.3042,34.0657],[134.3159,34.0657],[134.3247,34.0665],[134.3301,34.069],[134.3363,34.078],[134.3397,34.0798],[134.3506,34.0755],[134.3671,34.0755],[134.3726,34.077],[134.3905,34.0842],[134.3973,34.0865],[134.3963,34.0931],[134.4,34.1057],[134.4001,34.1096],[134.398,34.1143],[134.3884,34.1195],[134.3858,34.1243],[134.3835,34.1397],[134.3782,34.1473],[134.3734,34.1514],[134.3715,34.1569],[134.3776,34.1697],[134.371,34.1754],[134.3596,34.1818],[134.35,34.1784],[134.3454,34.1692],[134.3353,34.1714],[134.3234,34.1719],[134.3127,34.1705],[134.2997,34.1666],[134.2943,34.1759],[134.2839,34.174],[134.2731,34.1782],[134.2626,34.1801],[134.2465,34.1768],[134.2317,34.1773],[134.2146,34.1728]]]}},{"type":"Feature","properties":{"id":36004},"geometry":{"type":"Polygon","coordinates":[[[133.8301,34.0914],[133.8259,34.0896],[133.8218,34.073],[133.8207,34.0725],[133.82,34.0697],[133.8335,34.0634],[133.8389,34.0588],[133.8437,34.0521],[133.8574,34.0437],[133.8594,34.0405],[133.8606,34.0318],[133.8659,34.0304],[133.8864,34.032],[133.894,34.0315],[133.9005,34.0289],[133.9019,34.0247],[133.9026,34.014],[133.9087,34.0071],[133.9178,33.9919],[133.9206,33.9795],[133.9243,33.9732],[133.9289,33.9714],[133.9401,33.9714],[133.9532,33.9665],[133.9627,33.9583],[133.973,33.9539],[133.98,33.9605],[133.9935,33.9716],[134.0005,33.9783],[134.0063,33.9871],[134.0072,33.9908],[134.0056,34.0045],[134.0053,34.0205],[134.0024,34.0342],[133.9649,34.0341],[133.9571,34.0352],[133.945,34.0407],[133.9329,34.0429],[133.9248,34.0453],[133.9235,34.0469],[133.9246,34.0574],[133.924,34.0621],[133.9199,34.0723],[133.9103,34.082],[133.9078,34.0899],[133.907,34.0983],[133.9056,34.0989],[133.9029,34.0979],[133.8953,34.1047],[133.875,34.0976],[133.8647,34.102],[133.8547,34.0986],[133.8459,34.0925],[133.8352,34.0935],[133.8301,34.0914]]]}},{"type":"Feature","properties":{"id":36005},"geometry":{"type":"Polygon","coordinates":[[[134.3973,34.0865],[134.4005,34.0729],[134.4041,34.064],[134.4102,34.0549],[134.4255,34.0503],[134.4453,34.0529],[134.4524,34.0545],[134.4638,34.0592],[134.4706,34.0639],[134.4713,34.0689],[134.4646,34.0764],[134.4624,34.0846],[134.4586,34.0869],[134.457,34.1069],[134.4545,34.1093],[134.447,34.1036],[134.4386,34.1031],[134.432,34.1007],[134.4272,34.097],[134.4084,34.0893],[134.3973,34.0865]]]}},{"type":"Feature","properties":{"id":36006},"geometry":{"type":"Polygon","coordinates":[[[134.4161,34.1575],[134.4256,34.1429],[134.4302,34.1291],[134.4383,34.12],[134.4435,34.1184],[134.4556,34.1188],[134.4631,34.1185],[134.4678,34.1196],[134.4732,34.1227],[134.4774,34.1328],[134.4799,34.1414],[134.4874,34.1483],[134.4835,34.1636],[134.4834,34.1729],[134.4801,34.1755],[134.4679,34.1737],[134.4636,34.174],[134.456,34.1794],[134.4539,34.185],[134.448,34.1865],[134.44,34.1862],[134.4326,34.1766],[134.4362,34.1666],[134.4248,34.1587],[134.4161,34.1575]]]}},{"type":"Feature","properties":{"id":36007},"geometry":{"type":"MultiPolygon","coordinates":[[[[134.3234,33.5391],[134.3222,33.5447],[134.3184,33.5485],[134.3161,33.5444],[134.3189,33.5392],[134.3234,33.5391]]],[[[134.1585,33.6095],[134.1588,33.6081],[134.1728,33.5983],[134.188,33.583],[134.1965,33.5675],[134.198,33.5595],[134.1985,33.5574],[134.2135,33.5626],[134.2246,33.562],[134.2319,33.5551],[134.2583,33.5499],[134.2684,33.5527],[134.2784,33.5568],[134.2901,33.5562],[134.3056,33.548],[134.3128,33.545],[134.3144,33.5498],[134.3196,33.5548],[134.3145,33.5605],[134.3098,33.5631],[134.3084,33.568],[134.3098,33.5736],[134.3124,33.5761],[134.3174,33.5764],[134.3174,33.5803],[134.3211,33.5824],[134.3236,33.5802],[134.3286,33.5819],[134.3332,33.5793],[134.34,33.578],[134.3532,33.5784],[134.3568,33.5775],[134.3633,33.5809],[134.3551,33.5835],[134.3422,33.5837],[134.3345,33.5819],[134.334,33.5848],[134.3491,33.5853],[134.3624,33.5873],[134.3649,33.5896],[134.3628,33.5982],[134.3646,33.6021],[134.3735,33.6104],[134.3827,33.6139],[134.3854,33.6194],[134.389,33.6187],[134.3908,33.6228],[134.3875,33.6255],[134.3813,33.626],[134.3753,33.6243],[134.3654,33.6251],[134.369,33.6326],[134.3859,33.6409],[134.387,33.6458],[134.3926,33.65],[134.3858,33.656],[134.3813,33.6624],[134.3695,33.6724],[134.3656,33.6816],[134.3644,33.6888],[134.3644,33.6984],[134.3659,33.7033],[134.3733,33.7108],[134.387,33.7117],[134.3934,33.7181],[134.394,33.7271],[134.3812,33.7266],[134.3727,33.7293],[134.3657,33.7301],[134.355,33.73],[134.3371,33.7282],[134.3268,33.7306],[134.3181,33.7316],[134.3023,33.7309],[134.2923,33.7283],[134.2779,33.7279],[134.2653,33.7217],[134.2577,33.719],[134.248,33.7204],[134.2344,33.7203],[134.2098,33.7184],[134.2028,33.7132],[134.169,33.6955],[134.1654,33.6847],[134.1665,33.6849],[134.1781,33.675],[134.1724,33.6662],[134.178,33.6509],[134.1729,33.6383],[134.165,33.6318],[134.1541,33.6282],[134.1569,33.6185],[134.1585,33.6095]]]]}},{"type":"Feature","properties":{"id":36008},"geometry":{"type":"Polygon","coordinates":[[[134.3776,34.1697],[134.3715,34.1569],[134.3734,34.1514],[134.3782,34.1473],[134.3835,34.1397],[134.3858,34.1243],[134.3884,34.1195],[134.398,34.1143],[134.4001,34.1096],[134.4,34.1057],[134.3963,34.0931],[134.3973,34.0865],[134.4084,34.0893],[134.4272,34.097],[134.432,34.1007],[134.4386,34.1031],[134.447,34.1036],[134.4545,34.1093],[134.4564,34.1124],[134.4556,34.1188],[134.4435,34.1184],[134.4383,34.12],[134.4302,34.1291],[134.4256,34.1429],[134.4161,34.1575],[134.4147,34.1573],[134.4063,34.1641],[134.3966,34.1603],[134.3776,34.1697]]]}},{"type":"Feature","properties":{"id":36009},"geometry":{"type":"Polygon","coordinates":[[[134.4754,33.9],[134.4697,33.9035],[134.4615,33.9103],[134.457,33.9126],[134.4528,33.9168],[134.4516,33.9237],[134.4495,33.9273],[134.44,33.929],[134.4346,33.9324],[134.4312,33.9455],[134.4316,33.9561],[134.4189,33.9517],[134.414,33.951],[134.4018,33.9517],[134.4012,33.946],[134.3973,33.9408],[134.3869,33.939],[134.371,33.9346],[134.3508,33.9261],[134.3442,33.9245],[134.3393,33.9247],[134.3271,33.9347],[134.3189,33.9279],[134.3124,33.9246],[134.3041,33.9238],[134.3022,33.9217],[134.2991,33.9108],[134.3161,33.8967],[134.32,33.8906],[134.3255,33.8785],[134.3259,33.8696],[134.3297,33.8632],[134.3407,33.8619],[134.349,33.8589],[134.3556,33.8503],[134.3617,33.849],[134.3689,33.8515],[134.3747,33.852],[134.3896,33.851],[134.4019,33.8535],[134.4103,33.8578],[134.4214,33.8584],[134.4306,33.8565],[134.4423,33.8565],[134.4517,33.8597],[134.4639,33.861],[134.4703,33.8627],[134.473,33.8652],[134.4773,33.8827],[134.4754,33.9]]]}},{"type":"Feature","properties":{"id":36010},"geometry":{"type":"Polygon","coordinates":[[[134.4102,34.0549],[134.4016,34.0503],[134.3848,34.0435],[134.3792,34.0351],[134.374,34.0292],[134.3703,34.0278],[134.3658,34.0288],[134.3626,34.0342],[134.3594,34.0359],[134.35,34.0356],[134.3413,34.0288],[134.3358,34.0214],[134.3317,34.007],[134.3293,34.0055],[134.3086,34.0043],[134.3023,34.0029],[134.2837,33.993],[134.2698,33.9874],[134.2613,33.9823],[134.2507,33.977],[134.2544,33.9697],[134.2537,33.9669],[134.2476,33.9632],[134.2431,33.9553],[134.2392,33.952],[134.2337,33.95],[134.2322,33.9472],[134.2321,33.934],[134.2301,33.9264],[134.2242,33.9157],[134.2269,33.9085],[134.23,33.9067],[134.2391,33.9062],[134.2496,33.912],[134.2553,33.9143],[134.2605,33.9146],[134.285,33.9144],[134.2991,33.9108],[134.3022,33.9217],[134.3041,33.9238],[134.3124,33.9246],[134.3189,33.9279],[134.3271,33.9347],[134.3393,33.9247],[134.3442,33.9245],[134.3508,33.9261],[134.371,33.9346],[134.3869,33.939],[134.3973,33.9408],[134.4012,33.946],[134.4018,33.9517],[134.4065,33.9622],[134.4112,33.977],[134.4167,33.9869],[134.4283,33.9925],[134.4408,34.0068],[134.4536,34.0115],[134.4521,34.0161],[134.448,34.0178],[134.4395,34.0187],[134.4357,34.0204],[134.4313,34.0271],[134.4288,34.0462],[134.4255,34.0503],[134.4102,34.0549]]]}},{"type":"Feature","properties":{"id":36011},"geometry":{"type":"Polygon","coordinates":[[[134.5688,33.9449],[134.5684,33.9507],[134.5647,33.9602],[134.5533,33.9618],[134.5491,33.9614],[134.541,33.9577],[134.5343,33.9578],[134.5245,33.9631],[134.5106,33.9634],[134.4925,33.9683],[134.4895,33.9705],[134.4705,33.9516],[134.4644,33.9506],[134.4563,33.9508],[134.4432,33.9544],[134.4316,33.9561],[134.4312,33.9455],[134.4346,33.9324],[134.44,33.929],[134.4495,33.9273],[134.4516,33.9237],[134.4528,33.9168],[134.457,33.9126],[134.4615,33.9103],[134.4697,33.9035],[134.4754,33.9],[134.4834,33.9035],[134.493,33.9104],[134.5037,33.9095],[134.5186,33.9161],[134.5276,33.9185],[134.536,33.9268],[134.5431,33.9311],[134.554,33.9333],[134.5572,33.9351],[134.5688,33.9449]]]}},{"type":"Feature","properties":{"id":36012},"geometry":{"type":"Polygon","coordinates":[[[134.526,34.1222],[134.5368,34.115],[134.5442,34.112],[134.5566,34.1116],[134.5617,34.1138],[134.5683,34.1267],[134.5689,34.1286],[134.5663,34.13],[134.5571,34.1406],[134.5481,34.1403],[134.5426,34.1383],[134.5386,34.1331],[134.5295,34.1295],[134.526,34.1222]]]}},{"type":"Feature","properties":{"id":36013},"geometry":{"type":"Polygon","coordinates":[[[134.6525,33.987],[134.6475,33.9986],[134.6411,34.0069],[134.6356,34.0106],[134.6306,34.0117],[134.6258,34.0083],[134.6254,34.0031],[134.63,34.0024],[134.6297,33.9975],[134.6322,33.9935],[134.6281,33.9903],[134.6245,33.9906],[134.6197,33.9875],[134.6175,33.9917],[134.6103,33.9928],[134.6147,33.9958],[134.6053,33.9969],[134.5975,34.0014],[134.5995,34.0039],[134.5936,34.0082],[134.593,34.0144],[134.5975,34.0145],[134.6009,34.0174],[134.5968,34.0235],[134.5958,34.0202],[134.5798,34.0202],[134.5627,34.0243],[134.5597,34.0218],[134.5589,34.0085],[134.5573,34.0047],[134.5493,33.9984],[134.5472,33.99],[134.5524,33.989],[134.5614,33.9907],[134.5647,33.9887],[134.5703,33.9779],[134.5719,33.9698],[134.5687,33.9644],[134.5647,33.9602],[134.5684,33.9507],[134.5688,33.9449],[134.5818,33.9447],[134.6064,33.9516],[134.618,33.9581],[134.6243,33.966],[134.6287,33.9694],[134.6359,33.9712],[134.6446,33.981],[134.6525,33.987]]]}},{"type":"Feature","properties":{"id":36014},"geometry":{"type":"Polygon","coordinates":[[[134.5689,34.1286],[134.5763,34.1314],[134.5864,34.1285],[134.5924,34.1227],[134.5975,34.1147],[134.6,34.1078],[134.6028,34.1129],[134.6051,34.1206],[134.6103,34.1292],[134.6169,34.1283],[134.6192,34.1322],[134.6153,34.1344],[134.6164,34.1403],[134.6103,34.1414],[134.6081,34.1442],[134.5975,34.1491],[134.5912,34.1495],[134.5804,34.152],[134.5752,34.152],[134.5654,34.1491],[134.5606,34.1456],[134.5571,34.1406],[134.5663,34.13],[134.5689,34.1286]]]}},{"type":"Feature","properties":{"id":36015},"geometry":{"type":"Polygon","coordinates":[[[134.0024,34.0716],[134.0058,34.0575],[134.0058,34.0468],[134.0024,34.0342],[134.013,34.0344],[134.0208,34.0369],[134.0256,34.0405],[134.0299,34.041],[134.0478,34.038],[134.0543,34.0383],[134.0639,34.0402],[134.076,34.0444],[134.0844,34.0495],[134.0903,34.0507],[134.1028,34.0503],[134.104,34.0474],[134.1026,34.0372],[134.1112,34.028],[134.1165,34.0196],[134.1201,34.0076],[134.1171,34.001],[134.1142,33.9897],[134.1128,33.977],[134.1105,33.9642],[134.1024,33.9543],[134.1022,33.9504],[134.1069,33.935],[134.1074,33.9266],[134.1093,33.9221],[134.1155,33.9188],[134.1259,33.9176],[134.1311,33.915],[134.1272,33.8903],[134.1251,33.8871],[134.1169,33.8861],[134.1138,33.8811],[134.1098,33.8779],[134.1039,33.8757],[134.0928,33.8697],[134.0899,33.8672],[134.0941,33.8517],[134.1063,33.849],[134.1125,33.849],[134.1244,33.8523],[134.1354,33.8568],[134.1428,33.8638],[134.1629,33.864],[134.1661,33.8645],[134.1763,33.8689],[134.1899,33.8784],[134.2062,33.8794],[134.2127,33.8809],[134.2249,33.8863],[134.2347,33.8869],[134.2384,33.891],[134.2391,33.9062],[134.23,33.9067],[134.2269,33.9085],[134.2242,33.9157],[134.2301,33.9264],[134.2321,33.934],[134.2322,33.9472],[134.2337,33.95],[134.2392,33.952],[134.2431,33.9553],[134.2476,33.9632],[134.2537,33.9669],[134.2544,33.9697],[134.2507,33.977],[134.2333,33.9715],[134.2104,33.9744],[134.2061,33.9766],[134.1997,33.9826],[134.1974,33.9871],[134.1992,33.9905],[134.1985,33.9946],[134.1908,34.0035],[134.1878,34.0099],[134.1868,34.0167],[134.1958,34.0256],[134.1976,34.0312],[134.1958,34.0413],[134.1926,34.05],[134.193,34.058],[134.1892,34.0624],[134.1835,34.0729],[134.1836,34.0785],[134.1882,34.0854],[134.1961,34.0916],[134.1982,34.1003],[134.2051,34.1095],[134.2077,34.1201],[134.2142,34.1289],[134.215,34.1435],[134.2192,34.1535],[134.2195,34.1595],[134.2181,34.1628],[134.2109,34.1693],[134.2146,34.1728],[134.2115,34.1718],[134.193,34.1696],[134.1761,34.1724],[134.1662,34.1666],[134.159,34.1646],[134.1529,34.1628],[134.1462,34.1551],[134.1386,34.1481],[134.1414,34.1301],[134.1337,34.1221],[134.125,34.1157],[134.109,34.1139],[134.0983,34.1112],[134.0889,34.1157],[134.0779,34.1146],[134.0619,34.1099],[134.0576,34.1118],[134.0526,34.1141],[134.043,34.0983],[134.0335,34.0935],[134.0298,34.0833],[134.0194,34.0827],[134.0083,34.0811],[134.0024,34.0716]]]}},{"type":"Feature","properties":{"id":36016},"geometry":{"type":"Polygon","coordinates":[[[134.6859,33.8047],[134.6815,33.8118],[134.6774,33.814],[134.6674,33.8119],[134.6572,33.8065],[134.6469,33.8036],[134.6293,33.8],[134.6251,33.7976],[134.6189,33.79],[134.6123,33.7881],[134.601,33.788],[134.5882,33.7852],[134.5813,33.7855],[134.5769,33.789],[134.5663,33.7915],[134.5634,33.7935],[134.5575,33.8016],[134.5506,33.8045],[134.5425,33.8055],[134.5287,33.8018],[134.5171,33.7968],[134.5123,33.7932],[134.506,33.791],[134.4959,33.7917],[134.4908,33.7903],[134.485,33.7813],[134.4768,33.7757],[134.4664,33.7766],[134.4565,33.7745],[134.4502,33.7665],[134.4404,33.7642],[134.4285,33.7632],[134.4239,33.7555],[134.4148,33.7448],[134.4065,33.7379],[134.4038,33.7331],[134.3981,33.7283],[134.394,33.7271],[134.3934,33.7181],[134.4072,33.7202],[134.4149,33.7199],[134.4232,33.7174],[134.4283,33.7177],[134.441,33.7229],[134.4505,33.7251],[134.4535,33.7239],[134.4562,33.7179],[134.4576,33.7057],[134.4599,33.7],[134.4659,33.6955],[134.4772,33.6892],[134.4791,33.6847],[134.488,33.6874],[134.4928,33.6926],[134.5032,33.697],[134.5065,33.6995],[134.5097,33.6978],[134.517,33.7034],[134.5258,33.7073],[134.5273,33.7094],[134.5435,33.7189],[134.5444,33.7247],[134.5417,33.728],[134.5433,33.7364],[134.5475,33.7372],[134.5518,33.7356],[134.5531,33.7405],[134.5583,33.7327],[134.5642,33.7317],[134.5681,33.7346],[134.5679,33.7417],[134.5716,33.7444],[134.5754,33.7542],[134.5707,33.7601],[134.5724,33.765],[134.5781,33.7609],[134.5819,33.7634],[134.5806,33.7706],[134.5846,33.7718],[134.5873,33.7678],[134.5932,33.7697],[134.5956,33.7652],[134.6001,33.7633],[134.603,33.7655],[134.601,33.7697],[134.6028,33.7724],[134.6116,33.7761],[134.6105,33.7787],[134.6137,33.7821],[134.6171,33.7805],[134.6205,33.7864],[134.6227,33.7857],[134.6411,33.7855],[134.6456,33.7899],[134.6499,33.7887],[134.6654,33.7997],[134.6708,33.8005],[134.6829,33.8058],[134.6859,33.8047]]]}},{"type":"Feature","properties":{"id":36017},"geometry":{"type":"MultiPolygon","coordinates":[[[[133.6928,34.01],[133.6802,33.9913],[133.678,33.9815],[133.6836,33.969],[133.6919,33.9607],[133.6908,33.9504],[133.6951,33.9413],[133.6875,33.9315],[133.6918,33.9166],[133.6787,33.9012],[133.6806,33.8908],[133.672,33.8851],[133.6632,33.8784],[133.6654,33.8682],[133.6821,33.8557],[133.6921,33.8537],[133.7009,33.8485],[133.7111,33.8481],[133.7215,33.846],[133.7336,33.8476],[133.7435,33.8422],[133.7502,33.8336],[133.7819,33.8388],[133.7909,33.8333],[133.8079,33.8333],[133.8207,33.8341],[133.8312,33.8416],[133.842,33.8409],[133.8564,33.8301],[133.8707,33.8123],[133.875,33.8028],[133.8772,33.8023],[133.8876,33.8],[133.8981,33.7997],[133.904,33.7907],[133.9148,33.7891],[133.9239,33.7947],[133.9349,33.7966],[133.9459,33.7977],[133.9529,33.8056],[133.9548,33.8171],[133.9579,33.8276],[133.9672,33.8318],[133.9776,33.8333],[133.9872,33.8375],[133.9925,33.8262],[134,33.8179],[134.0155,33.8187],[134.0262,33.8216],[134.0358,33.8252],[134.0365,33.8235],[134.0411,33.8275],[134.0487,33.8306],[134.0599,33.8327],[134.0824,33.8419],[134.0941,33.8517],[134.0899,33.8672],[134.0824,33.867],[134.0719,33.8644],[134.0603,33.8627],[134.0571,33.8642],[134.0505,33.8706],[134.0467,33.8769],[134.0465,33.888],[134.0444,33.8911],[134.0376,33.8939],[134.0222,33.8948],[134.0146,33.8997],[134.0101,33.9042],[134.0001,33.9167],[133.979,33.9235],[133.9717,33.9325],[133.9718,33.9348],[133.9782,33.9401],[133.9784,33.9451],[133.973,33.9539],[133.9627,33.9583],[133.9532,33.9665],[133.9401,33.9714],[133.9289,33.9714],[133.9243,33.9732],[133.9206,33.9795],[133.9178,33.9919],[133.9087,34.0071],[133.9026,34.014],[133.9019,34.0247],[133.9005,34.0289],[133.894,34.0315],[133.8864,34.032],[133.8659,34.0304],[133.8606,34.0318],[133.8594,34.0405],[133.8574,34.0437],[133.8437,34.0521],[133.8389,34.0588],[133.8335,34.0634],[133.82,34.0697],[133.8207,34.0725],[133.8116,34.0687],[133.8013,34.0663],[133.7929,34.073],[133.7821,34.0766],[133.7738,34.0697],[133.7615,34.0582],[133.7479,34.0494],[133.7314,34.0409],[133.725,34.0312],[133.7242,34.0192],[133.7154,34.0141],[133.703,34.0146],[133.6928,34.01]]],[[[134.0024,34.0716],[133.9892,34.0729],[133.9783,34.0716],[133.9704,34.0784],[133.9541,34.0868],[133.9464,34.095],[133.9348,34.1126],[133.9246,34.1109],[133.9156,34.1025],[133.9056,34.0989],[133.907,34.0983],[133.9078,34.0899],[133.9103,34.082],[133.9199,34.0723],[133.924,34.0621],[133.9246,34.0574],[133.9235,34.0469],[133.9248,34.0453],[133.9329,34.0429],[133.945,34.0407],[133.9571,34.0352],[133.9649,34.0341],[134.0024,34.0342],[134.0058,34.0468],[134.0058,34.0575],[134.0024,34.0716]]]]}},{"type":"Feature","properties":{"id":36018},"geometry":{"type":"MultiPolygon","coordinates":[[[[134.4243,33.6281],[134.4266,33.6302],[134.4266,33.636],[134.4206,33.6356],[134.422,33.6298],[134.4243,33.6281]]],[[[134.4915,33.6424],[134.4854,33.6457],[134.4826,33.6407],[134.4863,33.637],[134.4808,33.636],[134.4827,33.6328],[134.4874,33.6334],[134.4952,33.6308],[134.502,33.6336],[134.506,33.6396],[134.5042,33.6413],[134.4981,33.6389],[134.4915,33.6424]]],[[[134.3934,33.7181],[134.387,33.7117],[134.3733,33.7108],[134.3659,33.7033],[134.3644,33.6984],[134.3644,33.6888],[134.3656,33.6816],[134.3695,33.6724],[134.3813,33.6624],[134.3858,33.656],[134.3926,33.65],[134.3973,33.6507],[134.3956,33.6552],[134.4046,33.6592],[134.4113,33.6537],[134.4164,33.6556],[134.4191,33.6612],[134.4186,33.6653],[134.4242,33.665],[134.4264,33.6606],[134.431,33.6637],[134.4388,33.6626],[134.4458,33.6662],[134.4478,33.6706],[134.4523,33.6707],[134.4569,33.6749],[134.46,33.6746],[134.4669,33.6802],[134.4726,33.6812],[134.4791,33.6847],[134.4772,33.6892],[134.4659,33.6955],[134.4599,33.7],[134.4576,33.7057],[134.4562,33.7179],[134.4535,33.7239],[134.4505,33.7251],[134.441,33.7229],[134.4283,33.7177],[134.4232,33.7174],[134.4149,33.7199],[134.4072,33.7202],[134.3934,33.7181]]]]}},{"type":"Feature","properties":{"id":36019},"geometry":{"type":"Polygon","coordinates":[[[134.0669,33.6903],[134.0665,33.6873],[134.0815,33.6866],[134.0925,33.6895],[134.1141,33.6919],[134.1264,33.6926],[134.1362,33.6901],[134.1451,33.6843],[134.1559,33.6828],[134.1654,33.6847],[134.169,33.6955],[134.2028,33.7132],[134.2098,33.7184],[134.2344,33.7203],[134.248,33.7204],[134.2577,33.719],[134.2653,33.7217],[134.2779,33.7279],[134.2923,33.7283],[134.3023,33.7309],[134.3181,33.7316],[134.3268,33.7306],[134.3371,33.7282],[134.355,33.73],[134.3657,33.7301],[134.3727,33.7293],[134.3812,33.7266],[134.394,33.7271],[134.3981,33.7283],[134.4038,33.7331],[134.4065,33.7379],[134.4148,33.7448],[134.4239,33.7555],[134.4285,33.7632],[134.4404,33.7642],[134.4502,33.7665],[134.4565,33.7745],[134.4664,33.7766],[134.4768,33.7757],[134.485,33.7813],[134.4908,33.7903],[134.4959,33.7917],[134.506,33.791],[134.5123,33.7932],[134.5171,33.7968],[134.5287,33.8018],[134.5197,33.8065],[134.5134,33.8128],[134.5137,33.8197],[134.519,33.8255],[134.5256,33.8311],[134.539,33.8479],[134.5434,33.8513],[134.5512,33.8536],[134.5568,33.858],[134.5589,33.8632],[134.5534,33.8691],[134.5424,33.8712],[134.5365,33.8712],[134.5211,33.8693],[134.5141,33.8655],[134.5063,33.8642],[134.498,33.8693],[134.487,33.8696],[134.473,33.8652],[134.4703,33.8627],[134.4639,33.861],[134.4517,33.8597],[134.4423,33.8565],[134.4306,33.8565],[134.4214,33.8584],[134.4103,33.8578],[134.4019,33.8535],[134.3896,33.851],[134.3747,33.852],[134.3689,33.8515],[134.3617,33.849],[134.3556,33.8503],[134.349,33.8589],[134.3407,33.8619],[134.3297,33.8632],[134.3259,33.8696],[134.3255,33.8785],[134.32,33.8906],[134.3161,33.8967],[134.2991,33.9108],[134.285,33.9144],[134.2605,33.9146],[134.2553,33.9143],[134.2496,33.912],[134.2391,33.9062],[134.2384,33.891],[134.2347,33.8869],[134.2249,33.8863],[134.2127,33.8809],[134.2062,33.8794],[134.1899,33.8784],[134.1763,33.8689],[134.1661,33.8645],[134.1629,33.864],[134.1428,33.8638],[134.1354,33.8568],[134.1244,33.8523],[134.1125,33.849],[134.1063,33.849],[134.0941,33.8517],[134.0824,33.8419],[134.0599,33.8327],[134.0487,33.8306],[134.0411,33.8275],[134.0365,33.8235],[134.0395,33.8157],[134.0361,33.8061],[134.0444,33.7983],[134.0489,33.7882],[134.0576,33.7816],[134.0615,33.7719],[134.0613,33.7602],[134.0594,33.75],[134.0641,33.7352],[134.0706,33.7267],[134.0679,33.7152],[134.0689,33.706],[134.0669,33.6903]]]}},{"type":"Feature","properties":{"id":36020},"geometry":{"type":"MultiPolygon","coordinates":[[[[134.4443,34.2072],[134.4435,34.205],[134.4413,34.1879],[134.44,34.1862],[134.448,34.1865],[134.4539,34.185],[134.456,34.1794],[134.4636,34.174],[134.4679,34.1737],[134.4801,34.1755],[134.4834,34.1729],[134.4835,34.1636],[134.4874,34.1483],[134.4941,34.1418],[134.4992,34.1402],[134.5105,34.14],[134.5209,34.1355],[134.5295,34.1295],[134.5386,34.1331],[134.5426,34.1383],[134.5481,34.1403],[134.5571,34.1406],[134.5606,34.1456],[134.5654,34.1491],[134.5752,34.152],[134.5804,34.152],[134.5912,34.1495],[134.5975,34.1491],[134.6028,34.1481],[134.61,34.1494],[134.6139,34.1456],[134.6181,34.145],[134.6319,34.1631],[134.6398,34.1751],[134.6417,34.1806],[134.6381,34.1817],[134.6253,34.1803],[134.6117,34.1911],[134.5997,34.1937],[134.5878,34.2003],[134.5848,34.2038],[134.5829,34.2116],[134.5872,34.2156],[134.5908,34.2244],[134.5875,34.2283],[134.5869,34.2333],[134.5903,34.2369],[134.5871,34.2402],[134.5752,34.2381],[134.5717,34.2383],[134.5653,34.2314],[134.5684,34.2272],[134.5596,34.2218],[134.5463,34.2238],[134.5397,34.2267],[134.5305,34.2272],[134.5267,34.2253],[134.5222,34.2264],[134.5092,34.2267],[134.4962,34.2243],[134.4802,34.2165],[134.4742,34.2098],[134.4642,34.2076],[134.4578,34.2078],[134.4528,34.2056],[134.4443,34.2072]]],[[[134.6072,34.2511],[134.6047,34.2517],[134.601,34.2469],[134.5933,34.2428],[134.5922,34.2375],[134.5878,34.2314],[134.5928,34.2256],[134.5897,34.2172],[134.5922,34.2144],[134.6003,34.2206],[134.6014,34.2261],[134.6067,34.2314],[134.6128,34.2322],[134.6172,34.2294],[134.6133,34.2242],[134.6161,34.2183],[134.6239,34.2175],[134.6219,34.2117],[134.615,34.2108],[134.6147,34.2147],[134.6089,34.2156],[134.595,34.2083],[134.5914,34.2119],[134.5875,34.2072],[134.5897,34.2022],[134.5953,34.1989],[134.6039,34.1978],[134.6117,34.1942],[134.6136,34.1947],[134.62,34.1894],[134.6231,34.1853],[134.6263,34.1864],[134.6279,34.1971],[134.6266,34.2036],[134.6317,34.2144],[134.6325,34.2183],[134.6386,34.2248],[134.6361,34.2267],[134.6439,34.2356],[134.6441,34.24],[134.6383,34.2378],[134.6347,34.2325],[134.6189,34.2314],[134.6169,34.2356],[134.6194,34.2375],[134.6153,34.2408],[134.6183,34.2436],[134.615,34.2503],[134.6072,34.2511]]]]}},{"type":"Feature","properties":{"id":36021},"geometry":{"type":"Polygon","coordinates":[[[134.4316,33.9561],[134.4432,33.9544],[134.4563,33.9508],[134.4644,33.9506],[134.4705,33.9516],[134.4895,33.9705],[134.4881,33.974],[134.4885,33.9834],[134.4947,33.9935],[134.4988,34.0024],[134.4986,34.0114],[134.4904,34.0183],[134.4879,34.0217],[134.4795,34.0205],[134.4701,34.0132],[134.4685,34.0082],[134.4645,34.0047],[134.4606,34.0049],[134.4536,34.0115],[134.4408,34.0068],[134.4283,33.9925],[134.4167,33.9869],[134.4112,33.977],[134.4065,33.9622],[134.4018,33.9517],[134.414,33.951],[134.4189,33.9517],[134.4316,33.9561]]]}},{"type":"Feature","properties":{"id":36022},"geometry":{"type":"MultiPolygon","coordinates":[[[[134.526,34.1222],[134.5184,34.1236],[134.5112,34.1202],[134.5102,34.1102],[134.5075,34.1066],[134.5018,34.1073],[134.4955,34.1143],[134.4908,34.1157],[134.4816,34.1116],[134.4737,34.1143],[134.4682,34.1146],[134.4564,34.1124],[134.4545,34.1093],[134.457,34.1069],[134.4586,34.0869],[134.4624,34.0846],[134.4646,34.0764],[134.4713,34.0689],[134.4706,34.0639],[134.4638,34.0592],[134.4524,34.0545],[134.4453,34.0529],[134.4255,34.0503],[134.4288,34.0462],[134.4313,34.0271],[134.4357,34.0204],[134.4395,34.0187],[134.448,34.0178],[134.4521,34.0161],[134.4536,34.0115],[134.4606,34.0049],[134.4645,34.0047],[134.4685,34.0082],[134.4701,34.0132],[134.4795,34.0205],[134.4879,34.0217],[134.4904,34.0183],[134.4986,34.0114],[134.4988,34.0024],[134.4947,33.9935],[134.4885,33.9834],[134.4881,33.974],[134.4895,33.9705],[134.4925,33.9683],[134.5106,33.9634],[134.5245,33.9631],[134.5343,33.9578],[134.541,33.9577],[134.5491,33.9614],[134.5533,33.9618],[134.5647,33.9602],[134.5687,33.9644],[134.5719,33.9698],[134.5703,33.9779],[134.5647,33.9887],[134.5614,33.9907],[134.5524,33.989],[134.5472,33.99],[134.5493,33.9984],[134.5573,34.0047],[134.5589,34.0085],[134.5597,34.0218],[134.5627,34.0243],[134.5798,34.0202],[134.5958,34.0202],[134.5968,34.0235],[134.5882,34.0299],[134.5942,34.0322],[134.5831,34.0367],[134.5756,34.0384],[134.5739,34.043],[134.5879,34.0384],[134.5925,34.0382],[134.5946,34.0459],[134.5966,34.0477],[134.5919,34.0514],[134.5781,34.0542],[134.589,34.0557],[134.5936,34.0661],[134.5966,34.069],[134.6042,34.0856],[134.6031,34.0901],[134.6064,34.1006],[134.6033,34.1036],[134.5986,34.1019],[134.5942,34.1167],[134.5858,34.1261],[134.5796,34.1283],[134.5731,34.1289],[134.5683,34.1267],[134.5617,34.1138],[134.5566,34.1116],[134.5442,34.112],[134.5368,34.115],[134.526,34.1222]]],[[[134.5997,34.0667],[134.5969,34.0664],[134.5911,34.0558],[134.5939,34.0533],[134.6036,34.0558],[134.6067,34.0614],[134.6033,34.0656],[134.5997,34.0667]]]]}},{"type":"Feature","properties":{"id":36023},"geometry":{"type":"Polygon","coordinates":[[[133.973,33.9539],[133.9784,33.9451],[133.9782,33.9401],[133.9718,33.9348],[133.9717,33.9325],[133.979,33.9235],[134.0001,33.9167],[134.0101,33.9042],[134.0146,33.8997],[134.0222,33.8948],[134.0376,33.8939],[134.0444,33.8911],[134.0465,33.888],[134.0467,33.8769],[134.0505,33.8706],[134.0571,33.8642],[134.0603,33.8627],[134.0719,33.8644],[134.0824,33.867],[134.0899,33.8672],[134.0928,33.8697],[134.1039,33.8757],[134.1098,33.8779],[134.1138,33.8811],[134.1169,33.8861],[134.1251,33.8871],[134.1272,33.8903],[134.1311,33.915],[134.1259,33.9176],[134.1155,33.9188],[134.1093,33.9221],[134.1074,33.9266],[134.1069,33.935],[134.1022,33.9504],[134.1024,33.9543],[134.1105,33.9642],[134.1128,33.977],[134.1142,33.9897],[134.1171,34.001],[134.1201,34.0076],[134.1165,34.0196],[134.1112,34.028],[134.1026,34.0372],[134.104,34.0474],[134.1028,34.0503],[134.0903,34.0507],[134.0844,34.0495],[134.076,34.0444],[134.0639,34.0402],[134.0543,34.0383],[134.0478,34.038],[134.0299,34.041],[134.0256,34.0405],[134.0208,34.0369],[134.013,34.0344],[134.0024,34.0342],[134.0053,34.0205],[134.0056,34.0045],[134.0072,33.9908],[134.0063,33.9871],[134.0005,33.9783],[133.9935,33.9716],[133.98,33.9605],[133.973,33.9539]]]}},{"type":"Feature","properties":{"id":36024},"geometry":{"type":"Polygon","coordinates":[[[134.193,34.058],[134.1926,34.05],[134.1958,34.0413],[134.1976,34.0312],[134.1958,34.0256],[134.1868,34.0167],[134.1878,34.0099],[134.1908,34.0035],[134.1985,33.9946],[134.1992,33.9905],[134.1974,33.9871],[134.1997,33.9826],[134.2061,33.9766],[134.2104,33.9744],[134.2333,33.9715],[134.2507,33.977],[134.2613,33.9823],[134.2698,33.9874],[134.2837,33.993],[134.3023,34.0029],[134.3086,34.0043],[134.3293,34.0055],[134.3317,34.007],[134.3358,34.0214],[134.3413,34.0288],[134.35,34.0356],[134.3594,34.0359],[134.3626,34.0342],[134.3658,34.0288],[134.3703,34.0278],[134.374,34.0292],[134.3792,34.0351],[134.3848,34.0435],[134.4016,34.0503],[134.4102,34.0549],[134.4041,34.064],[134.4005,34.0729],[134.3973,34.0865],[134.3905,34.0842],[134.3726,34.077],[134.3671,34.0755],[134.3506,34.0755],[134.3397,34.0798],[134.3363,34.078],[134.3301,34.069],[134.3247,34.0665],[134.3159,34.0657],[134.3042,34.0657],[134.2916,34.0678],[134.2776,34.0693],[134.2597,34.0695],[134.243,34.0676],[134.2291,34.0621],[134.2136,34.0604],[134.2045,34.0617],[134.197,34.0601],[134.193,34.058]]]}}]}