{"type":"FeatureCollection","features":[{"type":"Feature","properties":{"id":37001},"geometry":{"type":"Polygon","coordinates":[[[133.8939,34.2049],[133.9004,34.2051],[133.9055,34.2001],[133.9175,34.1975],[133.9254,34.1911],[133.932,34.1844],[133.9331,34.1783],[133.9437,34.1696],[133.9473,34.1595],[133.9542,34.1561],[133.9671,34.1554],[133.9807,34.1536],[133.9848,34.1488],[133.9904,34.1443],[134.0045,34.1417],[134.0164,34.1363],[134.0288,34.1361],[134.0226,34.1494],[134.0232,34.1572],[134.0288,34.1638],[134.028,34.1738],[134.025,34.1814],[134.0211,34.1885],[134.015,34.196],[134.0104,34.2121],[134.0042,34.2174],[133.9931,34.2316],[133.9873,34.2365],[133.9857,34.2399],[133.9871,34.2442],[133.9941,34.2546],[133.9902,34.2635],[133.9856,34.2648],[133.9789,34.262],[133.9713,34.2644],[133.9641,34.2631],[133.9592,34.2657],[133.9519,34.2662],[133.9422,34.2709],[133.9329,34.2664],[133.9242,34.2661],[133.9177,34.2634],[133.9043,34.2615],[133.9025,34.2538],[133.8955,34.2445],[133.8952,34.237],[133.8972,34.2261],[133.8968,34.2203],[133.8939,34.2049]]]}},{"type":"Feature","properties":{"id":37002},"geometry":{"type":"Polygon","coordinates":[[[134.44,34.1862],[134.4413,34.1879],[134.4435,34.205],[134.4443,34.2072],[134.4356,34.2075],[134.4196,34.2165],[134.4138,34.2219],[134.4106,34.2233],[134.4066,34.2282],[134.4123,34.2324],[134.4112,34.236],[134.4068,34.2381],[134.3977,34.2378],[134.3931,34.2394],[134.395,34.2456],[134.3925,34.2528],[134.3873,34.2564],[134.3819,34.2581],[134.3777,34.2616],[134.3748,34.2587],[134.3772,34.2539],[134.3694,34.2495],[134.3614,34.25],[134.36,34.2522],[134.3547,34.2533],[134.3458,34.2526],[134.3414,34.2559],[134.3379,34.2563],[134.3264,34.2631],[134.3133,34.2749],[134.3065,34.2774],[134.2959,34.2742],[134.2902,34.2751],[134.2887,34.2687],[134.2847,34.2639],[134.2765,34.26],[134.2755,34.2513],[134.2785,34.2451],[134.279,34.2397],[134.274,34.2303],[134.2742,34.2183],[134.2719,34.2161],[134.2626,34.2191],[134.2558,34.2196],[134.2477,34.2163],[134.2385,34.2109],[134.2339,34.2072],[134.2292,34.2061],[134.2219,34.2073],[134.2151,34.2],[134.2132,34.1964],[134.2133,34.189],[134.2157,34.1793],[134.2146,34.1728],[134.2317,34.1773],[134.2465,34.1768],[134.2626,34.1801],[134.2731,34.1782],[134.2839,34.174],[134.2943,34.1759],[134.2997,34.1666],[134.3127,34.1705],[134.3234,34.1719],[134.3353,34.1714],[134.3454,34.1692],[134.35,34.1784],[134.3596,34.1818],[134.371,34.1754],[134.3776,34.1697],[134.3966,34.1603],[134.4063,34.1641],[134.4147,34.1573],[134.4161,34.1575],[134.4248,34.1587],[134.4362,34.1666],[134.4326,34.1766],[134.44,34.1862]]]}},{"type":"Feature","properties":{"id":37003},"geometry":{"type":"MultiPolygon","coordinates":[[[[133.5972,34.0413],[133.6064,34.036],[133.6141,34.0298],[133.625,34.0319],[133.6401,34.0238],[133.6621,34.0243],[133.673,34.0206],[133.6803,34.0129],[133.6926,34.0101],[133.6928,34.01],[133.703,34.0146],[133.7154,34.0141],[133.7242,34.0192],[133.725,34.0312],[133.7314,34.0409],[133.7479,34.0494],[133.742,34.0483],[133.7374,34.0574],[133.7363,34.0667],[133.7334,34.0754],[133.7307,34.08],[133.7249,34.0849],[133.7196,34.0914],[133.7159,34.1009],[133.7154,34.1118],[133.7119,34.122],[133.7067,34.1311],[133.6981,34.1348],[133.6759,34.1387],[133.6715,34.1417],[133.669,34.1495],[133.6633,34.1629],[133.6476,34.1645],[133.6476,34.1706],[133.6457,34.1677],[133.6458,34.1597],[133.6402,34.1522],[133.6429,34.1489],[133.6426,34.1432],[133.6389,34.1286],[133.6346,34.1267],[133.6324,34.1226],[133.6347,34.1131],[133.6379,34.1125],[133.6363,34.1077],[133.6361,34.095],[133.6387,34.0928],[133.6372,34.0839],[133.633,34.0829],[133.6315,34.0791],[133.6341,34.0711],[133.6312,34.0599],[133.6281,34.0537],[133.623,34.0491],[133.6153,34.0472],[133.6103,34.0444],[133.5984,34.0433],[133.5972,34.0413]]],[[[133.5349,34.1199],[133.5409,34.1218],[133.5462,34.1251],[133.5459,34.1282],[133.5397,34.1294],[133.5333,34.132],[133.5275,34.1298],[133.5329,34.1208],[133.5349,34.1199]]]]}},{"type":"Feature","properties":{"id":37004},"geometry":{"type":"Polygon","coordinates":[[[133.8044,34.1795],[133.8114,34.1762],[133.8201,34.1735],[133.8275,34.176],[133.8325,34.1834],[133.8311,34.1935],[133.8284,34.2005],[133.8225,34.2046],[133.8213,34.208],[133.8207,34.2208],[133.8142,34.2165],[133.8117,34.2085],[133.8157,34.1993],[133.8157,34.1937],[133.8125,34.189],[133.8059,34.188],[133.8023,34.1826],[133.8044,34.1795]]]}},{"type":"Feature","properties":{"id":37005},"geometry":{"type":"Polygon","coordinates":[[[133.8939,34.2049],[133.8875,34.2033],[133.8778,34.2032],[133.8554,34.2001],[133.8509,34.2024],[133.8468,34.2069],[133.8398,34.2188],[133.8366,34.2204],[133.8207,34.2208],[133.8213,34.208],[133.8225,34.2046],[133.8284,34.2005],[133.8311,34.1935],[133.8325,34.1834],[133.8275,34.176],[133.8201,34.1735],[133.8114,34.1762],[133.8044,34.1795],[133.8009,34.1619],[133.8036,34.1552],[133.8071,34.1533],[133.812,34.155],[133.8144,34.151],[133.8148,34.1442],[133.8167,34.1365],[133.817,34.1198],[133.8199,34.1028],[133.8215,34.0974],[133.826,34.0905],[133.8301,34.0914],[133.8352,34.0935],[133.8459,34.0925],[133.8547,34.0986],[133.8647,34.102],[133.875,34.0976],[133.8953,34.1047],[133.9029,34.0979],[133.9056,34.0989],[133.9156,34.1025],[133.9246,34.1109],[133.9348,34.1126],[133.9464,34.095],[133.9541,34.0868],[133.9704,34.0784],[133.9783,34.0716],[133.9892,34.0729],[134.0024,34.0716],[134.0083,34.0811],[134.0194,34.0827],[134.0298,34.0833],[134.0335,34.0935],[134.043,34.0983],[134.0526,34.1141],[134.0576,34.1118],[134.0526,34.1158],[134.0435,34.1208],[134.0366,34.1258],[134.035,34.1308],[134.0288,34.1361],[134.0164,34.1363],[134.0045,34.1417],[133.9904,34.1443],[133.9848,34.1488],[133.9807,34.1536],[133.9671,34.1554],[133.9542,34.1561],[133.9473,34.1595],[133.9437,34.1696],[133.9331,34.1783],[133.932,34.1844],[133.9254,34.1911],[133.9175,34.1975],[133.9055,34.2001],[133.9004,34.2051],[133.8939,34.2049]]]}},{"type":"Feature","properties":{"id":37006},"geometry":{"type":"MultiPolygon","coordinates":[[[[133.8939,34.2049],[133.8968,34.2203],[133.8972,34.2261],[133.8952,34.237],[133.8955,34.2445],[133.9025,34.2538],[133.9043,34.2615],[133.9017,34.2693],[133.8942,34.2742],[133.8918,34.2815],[133.8876,34.2864],[133.8806,34.2864],[133.876,34.2827],[133.8599,34.2777],[133.8458,34.2784],[133.8371,34.2861],[133.8267,34.2925],[133.8211,34.2984],[133.8109,34.3041],[133.8081,34.3072],[133.8055,34.3101],[133.8001,34.3075],[133.804,34.3009],[133.8031,34.2987],[133.7954,34.3078],[133.7931,34.3063],[133.7962,34.302],[133.7932,34.3004],[133.7909,34.2957],[133.7872,34.3044],[133.7832,34.3103],[133.7731,34.3062],[133.7783,34.3006],[133.7759,34.2962],[133.7725,34.2986],[133.7736,34.3039],[133.7703,34.3056],[133.7625,34.2997],[133.7675,34.2914],[133.7687,34.2871],[133.765,34.2845],[133.767,34.2762],[133.7706,34.2697],[133.7712,34.2614],[133.7764,34.2574],[133.7929,34.2582],[133.7951,34.2567],[133.8036,34.2402],[133.8105,34.2364],[133.8175,34.2361],[133.8208,34.2283],[133.8207,34.2208],[133.8366,34.2204],[133.8398,34.2188],[133.8468,34.2069],[133.8509,34.2024],[133.8554,34.2001],[133.8778,34.2032],[133.8875,34.2033],[133.8939,34.2049]]],[[[133.7851,34.3637],[133.7769,34.3651],[133.774,34.3582],[133.7809,34.3558],[133.7856,34.3577],[133.7851,34.3637]]],[[[133.7879,34.4055],[133.7832,34.4075],[133.7791,34.4022],[133.7862,34.4032],[133.7879,34.4055]]],[[[133.7146,34.4],[133.7091,34.397],[133.7091,34.3888],[133.7076,34.3867],[133.7,34.3873],[133.6977,34.3808],[133.6951,34.3778],[133.6902,34.3777],[133.6879,34.3731],[133.6899,34.3705],[133.688,34.3655],[133.6843,34.3614],[133.687,34.3587],[133.6938,34.3557],[133.6996,34.3514],[133.7091,34.3533],[133.7087,34.3577],[133.7121,34.3637],[133.7161,34.3644],[133.7195,34.3615],[133.7228,34.3625],[133.7303,34.3694],[133.7309,34.3738],[133.7252,34.3844],[133.7184,34.3916],[133.7192,34.3969],[133.7146,34.4]]],[[[133.6519,34.3791],[133.6494,34.3838],[133.646,34.3802],[133.6478,34.3738],[133.654,34.3744],[133.6519,34.3791]]],[[[133.7878,34.396],[133.7843,34.3966],[133.7776,34.401],[133.7717,34.3949],[133.7612,34.39],[133.7586,34.3914],[133.7579,34.3957],[133.752,34.3984],[133.7516,34.3949],[133.7544,34.3913],[133.7553,34.3866],[133.7597,34.3805],[133.7594,34.3759],[133.7548,34.37],[133.7614,34.3699],[133.7636,34.3684],[133.7696,34.3719],[133.7778,34.3805],[133.7815,34.3804],[133.7885,34.3846],[133.7913,34.3882],[133.7905,34.3949],[133.7878,34.396]]],[[[133.6756,34.4099],[133.671,34.4106],[133.6586,34.4067],[133.6522,34.4093],[133.6523,34.405],[133.6565,34.4036],[133.6619,34.3975],[133.6613,34.3904],[133.6643,34.385],[133.6691,34.3869],[133.678,34.3949],[133.6775,34.3991],[133.6716,34.3991],[133.6756,34.4099]]]]}},{"type":"Feature","properties":{"id":37007},"geometry":{"type":"Polygon","coordinates":[[[134.159,34.1646],[134.1586,34.1702],[134.1692,34.1876],[134.1691,34.196],[134.1659,34.215],[134.1706,34.2196],[134.1719,34.2249],[134.1722,34.2332],[134.1685,34.2433],[134.1694,34.2529],[134.1694,34.2664],[134.1705,34.2727],[134.1703,34.2893],[134.1691,34.2939],[134.1636,34.301],[134.1579,34.3048],[134.1544,34.3106],[134.1332,34.3137],[134.1293,34.3122],[134.1254,34.2957],[134.1197,34.2881],[134.1187,34.2834],[134.1187,34.2727],[134.116,34.2623],[134.1153,34.2561],[134.1162,34.2396],[134.1174,34.2303],[134.1148,34.2192],[134.1116,34.2162],[134.1089,34.2099],[134.1085,34.2016],[134.112,34.1897],[134.1108,34.1831],[134.1248,34.1631],[134.1282,34.1549],[134.1386,34.1481],[134.1462,34.1551],[134.1529,34.1628],[134.159,34.1646]]]}},{"type":"Feature","properties":{"id":37008},"geometry":{"type":"MultiPolygon","coordinates":[[[[133.6476,34.1706],[133.6476,34.1645],[133.6633,34.1629],[133.669,34.1495],[133.6715,34.1417],[133.6759,34.1387],[133.6981,34.1348],[133.7067,34.1311],[133.7119,34.122],[133.7154,34.1118],[133.7159,34.1009],[133.7196,34.0914],[133.7249,34.0849],[133.7307,34.08],[133.7334,34.0754],[133.7363,34.0667],[133.7374,34.0574],[133.742,34.0483],[133.7479,34.0494],[133.7615,34.0582],[133.7738,34.0697],[133.7821,34.0766],[133.7929,34.073],[133.8013,34.0663],[133.8116,34.0687],[133.8207,34.0725],[133.8218,34.073],[133.8259,34.0896],[133.8301,34.0914],[133.826,34.0905],[133.8215,34.0974],[133.8199,34.1028],[133.817,34.1198],[133.8167,34.1365],[133.8148,34.1442],[133.8144,34.151],[133.812,34.155],[133.8071,34.1533],[133.8036,34.1552],[133.8009,34.1619],[133.8044,34.1795],[133.8023,34.1826],[133.793,34.1875],[133.7857,34.1945],[133.7698,34.1967],[133.7588,34.1968],[133.7563,34.198],[133.7533,34.2041],[133.7493,34.2074],[133.7383,34.2122],[133.7303,34.2189],[133.7261,34.2289],[133.7261,34.2319],[133.7171,34.2302],[133.7076,34.2394],[133.6983,34.2342],[133.6948,34.2371],[133.6877,34.2366],[133.6885,34.233],[133.683,34.2335],[133.6752,34.2372],[133.6724,34.2297],[133.6684,34.232],[133.6705,34.2398],[133.6745,34.2428],[133.6733,34.2467],[133.6672,34.2412],[133.658,34.2398],[133.6565,34.2362],[133.6477,34.2329],[133.6348,34.2388],[133.6275,34.2378],[133.6221,34.2356],[133.617,34.2396],[133.6166,34.2451],[133.6126,34.2507],[133.6029,34.2535],[133.5901,34.2561],[133.5897,34.2593],[133.5858,34.2616],[133.5813,34.2605],[133.5749,34.2631],[133.5745,34.2652],[133.5626,34.2637],[133.5609,34.2599],[133.5693,34.2596],[133.5745,34.2577],[133.5795,34.2483],[133.5762,34.2461],[133.5884,34.2403],[133.5904,34.2379],[133.6006,34.2339],[133.6055,34.2334],[133.6102,34.2268],[133.6092,34.2233],[133.6123,34.2208],[133.6207,34.219],[133.6238,34.2118],[133.6262,34.2135],[133.6351,34.2094],[133.6374,34.2007],[133.644,34.1912],[133.6487,34.1924],[133.6491,34.1862],[133.6451,34.181],[133.6471,34.1789],[133.6476,34.1706]]],[[[133.6801,34.2735],[133.6741,34.2745],[133.6701,34.2724],[133.6737,34.2696],[133.6807,34.2677],[133.6841,34.2709],[133.6801,34.2735]]],[[[133.628,34.2034],[133.6214,34.2022],[133.6248,34.1976],[133.6313,34.1975],[133.628,34.2034]]],[[[133.6298,34.2771],[133.6323,34.2824],[133.6277,34.2873],[133.6218,34.2847],[133.6208,34.2807],[133.6278,34.2759],[133.6255,34.2705],[133.6198,34.2686],[133.6174,34.2657],[133.6187,34.2622],[133.617,34.2591],[133.6224,34.2559],[133.6245,34.2601],[133.6286,34.2614],[133.6316,34.2674],[133.6399,34.2713],[133.6505,34.2682],[133.6552,34.2707],[133.6531,34.2746],[133.6556,34.2814],[133.65,34.2795],[133.6447,34.2796],[133.6436,34.2746],[133.6377,34.272],[133.6298,34.2771]]]]}},{"type":"Feature","properties":{"id":37009},"geometry":{"type":"MultiPolygon","coordinates":[[[[133.9043,34.2615],[133.9177,34.2634],[133.9242,34.2661],[133.9329,34.2664],[133.9422,34.2709],[133.942,34.291],[133.9391,34.2969],[133.9331,34.3031],[133.9279,34.3106],[133.9272,34.3138],[133.9297,34.3186],[133.9439,34.3208],[133.9519,34.3231],[133.9548,34.3327],[133.9537,34.3352],[133.9483,34.3382],[133.9417,34.3436],[133.9356,34.3517],[133.9343,34.3641],[133.9308,34.3727],[133.9297,34.3787],[133.925,34.385],[133.9197,34.3775],[133.909,34.3818],[133.9067,34.3785],[133.9012,34.3778],[133.898,34.3819],[133.8943,34.3826],[133.8891,34.3783],[133.8879,34.3746],[133.8929,34.3629],[133.8915,34.3512],[133.8882,34.3495],[133.8856,34.3424],[133.8822,34.3413],[133.8768,34.3444],[133.8725,34.3385],[133.8672,34.3347],[133.8591,34.3323],[133.8517,34.3286],[133.8491,34.3302],[133.8391,34.3254],[133.8347,34.3259],[133.8349,34.3327],[133.8391,34.3342],[133.8392,34.3383],[133.847,34.3388],[133.8574,34.3449],[133.8595,34.3533],[133.8555,34.3588],[133.8501,34.3596],[133.8482,34.356],[133.8441,34.3536],[133.848,34.3481],[133.8451,34.3463],[133.8423,34.3513],[133.8292,34.3424],[133.83,34.3479],[133.8345,34.3493],[133.8416,34.3546],[133.8405,34.3598],[133.8334,34.3578],[133.8307,34.3553],[133.8194,34.351],[133.8223,34.3476],[133.8205,34.3355],[133.8232,34.3255],[133.8278,34.3259],[133.8271,34.3214],[133.8357,34.3151],[133.8398,34.307],[133.8399,34.2988],[133.8371,34.2861],[133.8458,34.2784],[133.8599,34.2777],[133.876,34.2827],[133.8806,34.2864],[133.8876,34.2864],[133.8918,34.2815],[133.8942,34.2742],[133.9017,34.2693],[133.9043,34.2615]]],[[[133.8145,34.3936],[133.8129,34.3928],[133.8151,34.3845],[133.8228,34.3827],[133.8249,34.3896],[133.8207,34.3956],[133.8145,34.3936]]]]}},{"type":"Feature","properties":{"id":37010},"geometry":{"type":"Polygon","coordinates":[[[134.2146,34.1728],[134.2157,34.1793],[134.2133,34.189],[134.2132,34.1964],[134.2151,34.2],[134.2219,34.2073],[134.2292,34.2061],[134.2339,34.2072],[134.2385,34.2109],[134.2477,34.2163],[134.2558,34.2196],[134.2626,34.2191],[134.2719,34.2161],[134.2742,34.2183],[134.274,34.2303],[134.279,34.2397],[134.2785,34.2451],[134.2755,34.2513],[134.2765,34.26],[134.2847,34.2639],[134.2887,34.2687],[134.2902,34.2751],[134.2808,34.2791],[134.2765,34.2821],[134.2762,34.2877],[134.2714,34.2903],[134.2692,34.2889],[134.2683,34.2836],[134.2627,34.2826],[134.2559,34.2861],[134.2508,34.2942],[134.2506,34.2984],[134.247,34.3027],[134.2469,34.3074],[134.2521,34.3115],[134.2586,34.3142],[134.2636,34.3217],[134.262,34.3288],[134.2664,34.3327],[134.2668,34.3368],[134.26,34.3363],[134.2568,34.3394],[134.2569,34.3464],[134.2508,34.3519],[134.2475,34.3501],[134.2428,34.3449],[134.2386,34.3381],[134.234,34.3374],[134.2254,34.3427],[134.2267,34.3453],[134.2214,34.3472],[134.2192,34.3514],[134.2156,34.365],[134.2118,34.3692],[134.2069,34.3697],[134.2042,34.3669],[134.2068,34.3597],[134.2097,34.3578],[134.2125,34.3492],[134.2052,34.3433],[134.1986,34.3464],[134.1931,34.3449],[134.1896,34.3507],[134.1819,34.3519],[134.1836,34.3475],[134.1872,34.345],[134.1872,34.34],[134.1844,34.3375],[134.1845,34.3332],[134.1797,34.3326],[134.177,34.3245],[134.1667,34.3262],[134.1683,34.325],[134.1624,34.3176],[134.1544,34.3106],[134.1579,34.3048],[134.1636,34.301],[134.1691,34.2939],[134.1703,34.2893],[134.1705,34.2727],[134.1694,34.2664],[134.1694,34.2529],[134.1685,34.2433],[134.1722,34.2332],[134.1719,34.2249],[134.1706,34.2196],[134.1659,34.215],[134.1691,34.196],[134.1692,34.1876],[134.1586,34.1702],[134.159,34.1646],[134.1662,34.1666],[134.1761,34.1724],[134.193,34.1696],[134.2115,34.1718],[134.2146,34.1728]]]}},{"type":"Feature","properties":{"id":37011},"geometry":{"type":"MultiPolygon","coordinates":[[[[133.7764,34.2574],[133.7712,34.2614],[133.7706,34.2697],[133.767,34.2762],[133.765,34.2845],[133.7612,34.2865],[133.7584,34.2824],[133.7526,34.2788],[133.7468,34.285],[133.7413,34.282],[133.7461,34.2746],[133.7405,34.2755],[133.7362,34.2807],[133.7312,34.2783],[133.7315,34.2707],[133.7372,34.265],[133.7361,34.261],[133.7318,34.2603],[133.7235,34.254],[133.7137,34.2477],[133.7076,34.2394],[133.7171,34.2302],[133.7261,34.2319],[133.7366,34.2383],[133.7434,34.2406],[133.7506,34.2385],[133.7531,34.2393],[133.7608,34.2481],[133.7662,34.2464],[133.7734,34.2487],[133.7764,34.2574]]],[[[133.6667,34.3249],[133.6615,34.324],[133.663,34.3183],[133.6687,34.3096],[133.6733,34.3062],[133.6801,34.306],[133.6828,34.3126],[133.6799,34.3171],[133.6667,34.3249]]],[[[133.6229,34.3307],[133.6275,34.3313],[133.632,34.3389],[133.6303,34.3424],[133.6253,34.3471],[133.6212,34.3546],[133.617,34.3507],[133.6217,34.3394],[133.6198,34.3361],[133.6229,34.3307]]]]}},{"type":"Feature","properties":{"id":37012},"geometry":{"type":"MultiPolygon","coordinates":[[[[133.9422,34.2709],[133.9519,34.2662],[133.9592,34.2657],[133.9641,34.2631],[133.9713,34.2644],[133.9789,34.262],[133.9856,34.2648],[133.9902,34.2635],[133.9941,34.2546],[133.9871,34.2442],[133.9857,34.2399],[133.9873,34.2365],[133.9931,34.2316],[134.0042,34.2174],[134.0104,34.2121],[134.015,34.196],[134.0211,34.1885],[134.025,34.1814],[134.028,34.1738],[134.0288,34.1638],[134.0232,34.1572],[134.0226,34.1494],[134.0288,34.1361],[134.035,34.1308],[134.0366,34.1258],[134.0435,34.1208],[134.0526,34.1158],[134.0576,34.1118],[134.0619,34.1099],[134.0779,34.1146],[134.0889,34.1157],[134.0983,34.1112],[134.109,34.1139],[134.125,34.1157],[134.1337,34.1221],[134.1414,34.1301],[134.1386,34.1481],[134.1282,34.1549],[134.1248,34.1631],[134.1108,34.1831],[134.112,34.1897],[134.1085,34.2016],[134.1089,34.2099],[134.1116,34.2162],[134.1148,34.2192],[134.1174,34.2303],[134.1162,34.2396],[134.1153,34.2561],[134.116,34.2623],[134.1187,34.2727],[134.1187,34.2834],[134.1197,34.2881],[134.1254,34.2957],[134.1293,34.3122],[134.1332,34.3137],[134.1544,34.3106],[134.1624,34.3176],[134.1683,34.325],[134.1667,34.3262],[134.1623,34.3287],[134.1596,34.334],[134.1555,34.3386],[134.1536,34.3439],[134.157,34.345],[134.16,34.3558],[134.1576,34.3653],[134.1606,34.3693],[134.1607,34.3731],[134.1642,34.3759],[134.1638,34.3823],[134.1602,34.3892],[134.146,34.3951],[134.1361,34.4004],[134.1325,34.4],[134.1269,34.3955],[134.1208,34.3982],[134.1198,34.3942],[134.1249,34.387],[134.1241,34.3807],[134.1203,34.3769],[134.1168,34.3772],[134.1168,34.3712],[134.1206,34.3608],[134.1175,34.3594],[134.1131,34.3622],[134.1122,34.3667],[134.1046,34.3754],[134.0921,34.3843],[134.091,34.3749],[134.0914,34.3653],[134.0853,34.3533],[134.0818,34.3496],[134.0875,34.3425],[134.0833,34.3425],[134.0773,34.3484],[134.0798,34.351],[134.0801,34.3578],[134.0786,34.3622],[134.0714,34.3574],[134.0698,34.3615],[134.0639,34.3628],[134.062,34.3578],[134.0558,34.3558],[134.0575,34.3517],[134.0464,34.3556],[134.0386,34.3521],[134.0333,34.3522],[134.0258,34.355],[134.0178,34.3531],[134.0163,34.3564],[134.0028,34.3592],[134.0014,34.3544],[133.9967,34.3548],[133.991,34.3582],[133.9896,34.3618],[133.9818,34.3662],[133.9788,34.3718],[133.9762,34.3735],[133.971,34.3701],[133.9653,34.3637],[133.9616,34.3674],[133.9632,34.3707],[133.9598,34.3771],[133.9501,34.3809],[133.9444,34.3788],[133.9418,34.3744],[133.9381,34.377],[133.938,34.3819],[133.9343,34.3842],[133.9312,34.3892],[133.9264,34.3894],[133.925,34.385],[133.9297,34.3787],[133.9308,34.3727],[133.9343,34.3641],[133.9356,34.3517],[133.9417,34.3436],[133.9483,34.3382],[133.9537,34.3352],[133.9548,34.3327],[133.9519,34.3231],[133.9439,34.3208],[133.9297,34.3186],[133.9272,34.3138],[133.9279,34.3106],[133.9331,34.3031],[133.9391,34.2969],[133.942,34.291],[133.9422,34.2709]]],[[[134.0528,34.388],[134.0569,34.3981],[134.0537,34.4092],[134.0511,34.4085],[134.0428,34.3931],[134.0369,34.3866],[134.0354,34.3832],[134.0373,34.3798],[134.0422,34.3809],[134.0472,34.3876],[134.0528,34.388]]],[[[134.1082,34.4131],[134.1058,34.4097],[134.1058,34.4054],[134.1011,34.4045],[134.1011,34.4],[134.1075,34.4012],[134.1119,34.405],[134.1073,34.4102],[134.1082,34.4131]]],[[[134.063,34.4335],[134.0577,34.4322],[134.0534,34.4235],[134.0534,34.4178],[134.0641,34.4215],[134.0661,34.4268],[134.0656,34.4312],[134.063,34.4335]]]]}},{"type":"Feature","properties":{"id":37013},"geometry":{"type":"Polygon","coordinates":[[[133.8371,34.2861],[133.8399,34.2988],[133.8398,34.307],[133.8357,34.3151],[133.8271,34.3214],[133.825,34.3232],[133.8201,34.3214],[133.8208,34.3185],[133.8076,34.3139],[133.8081,34.3072],[133.8109,34.3041],[133.8211,34.2984],[133.8267,34.2925],[133.8371,34.2861]]]}},{"type":"Feature","properties":{"id":37014},"geometry":{"type":"Polygon","coordinates":[[[133.8207,34.2208],[133.8208,34.2283],[133.8175,34.2361],[133.8105,34.2364],[133.8036,34.2402],[133.7951,34.2567],[133.7929,34.2582],[133.7764,34.2574],[133.7734,34.2487],[133.7662,34.2464],[133.7608,34.2481],[133.7531,34.2393],[133.7506,34.2385],[133.7434,34.2406],[133.7366,34.2383],[133.7261,34.2319],[133.7261,34.2289],[133.7303,34.2189],[133.7383,34.2122],[133.7493,34.2074],[133.7533,34.2041],[133.7563,34.198],[133.7588,34.1968],[133.7698,34.1967],[133.7857,34.1945],[133.793,34.1875],[133.8023,34.1826],[133.8059,34.188],[133.8125,34.189],[133.8157,34.1937],[133.8157,34.1993],[133.8117,34.2085],[133.8142,34.2165],[133.8207,34.2208]]]}}]}