{"type":"FeatureCollection","features":[{"type":"Feature","properties":{"id":38001},"geometry":{"type":"MultiPolygon","coordinates":[[[[132.4075,32.94],[132.4032,32.9446],[132.4027,32.9342],[132.4075,32.94]]],[[[132.4561,32.9522],[132.4525,32.9486],[132.4461,32.9478],[132.4378,32.9406],[132.4425,32.9403],[132.4533,32.9436],[132.4572,32.9436],[132.4603,32.9475],[132.4561,32.9522]]],[[[132.6603,32.9164],[132.6572,32.9186],[132.6528,32.9144],[132.6565,32.9132],[132.6603,32.9164]]],[[[132.4703,33.0476],[132.4689,33.0403],[132.474,33.0424],[132.4773,33.0468],[132.4808,33.0491],[132.4852,33.0445],[132.4833,33.0335],[132.4811,33.0305],[132.4836,33.0247],[132.4844,33.0118],[132.4899,33.01],[132.491,33.0157],[132.4942,33.0176],[132.4963,33.0117],[132.5014,33.0089],[132.5059,33.0039],[132.5029,33.0016],[132.5021,32.9918],[132.5038,32.988],[132.5094,32.983],[132.5112,32.9767],[132.5225,32.9742],[132.5246,32.9714],[132.5306,32.9731],[132.5369,32.9685],[132.5381,32.9731],[132.5445,32.9658],[132.5476,32.9646],[132.5542,32.9582],[132.5495,32.957],[132.5458,32.9583],[132.5419,32.9622],[132.5304,32.9655],[132.5266,32.9599],[132.511,32.9677],[132.5071,32.9676],[132.5047,32.9637],[132.4971,32.9662],[132.5019,32.9692],[132.5031,32.9736],[132.4972,32.9758],[132.5012,32.9788],[132.4969,32.9878],[132.4902,32.9824],[132.4843,32.9803],[132.4864,32.9747],[132.4838,32.9717],[132.4738,32.9717],[132.4825,32.9666],[132.4814,32.9625],[132.4876,32.9613],[132.4909,32.9588],[132.501,32.9568],[132.4994,32.949],[132.4942,32.9476],[132.4954,32.9436],[132.4922,32.9403],[132.4878,32.9419],[132.4781,32.9378],[132.4731,32.9394],[132.4613,32.94],[132.4616,32.9364],[132.4711,32.9351],[132.4713,32.9284],[132.475,32.9223],[132.4769,32.9095],[132.4731,32.9067],[132.4767,32.9036],[132.4856,32.9046],[132.4922,32.9019],[132.5014,32.9052],[132.5103,32.9025],[132.5174,32.9037],[132.5225,32.9086],[132.5217,32.9132],[132.5261,32.9136],[132.5268,32.9204],[132.5184,32.9184],[132.5133,32.9188],[132.5117,32.9167],[132.5008,32.915],[132.4975,32.9189],[132.5037,32.9238],[132.5108,32.9269],[132.518,32.9321],[132.5253,32.9318],[132.5212,32.936],[132.5175,32.9369],[132.5158,32.9413],[132.5117,32.9398],[132.5058,32.9417],[132.5044,32.9467],[132.512,32.9496],[132.5242,32.9489],[132.5281,32.9453],[132.5312,32.948],[132.5365,32.948],[132.5377,32.9449],[132.5353,32.9408],[132.5396,32.9362],[132.5508,32.9326],[132.5546,32.9338],[132.56,32.9314],[132.5689,32.9297],[132.5664,32.9339],[132.5628,32.9361],[132.5591,32.9357],[132.5548,32.9391],[132.55,32.9395],[132.5495,32.9453],[132.5556,32.9439],[132.5578,32.9468],[132.5618,32.9439],[132.566,32.9474],[132.5744,32.9444],[132.5744,32.9419],[132.5867,32.9417],[132.594,32.9457],[132.5969,32.9433],[132.591,32.941],[132.5871,32.9366],[132.5861,32.933],[132.5925,32.9233],[132.5957,32.9241],[132.5988,32.9204],[132.5951,32.9166],[132.597,32.9132],[132.6017,32.9128],[132.6081,32.9146],[132.6153,32.9193],[132.6245,32.921],[132.6283,32.9236],[132.6364,32.9245],[132.643,32.9268],[132.6535,32.9266],[132.6558,32.9237],[132.6621,32.9226],[132.6649,32.9387],[132.6759,32.9395],[132.6855,32.9431],[132.6846,32.9544],[132.6887,32.9639],[132.6892,32.975],[132.6864,32.9852],[132.6861,33],[132.6793,33.0075],[132.6792,33.0178],[132.681,33.0282],[132.6757,33.0401],[132.6603,33.0534],[132.6614,33.0547],[132.6537,33.059],[132.6418,33.0612],[132.6355,33.0592],[132.6258,33.0495],[132.6226,33.0489],[132.6099,33.0532],[132.6042,33.0522],[132.5959,33.049],[132.585,33.0471],[132.5688,33.0408],[132.5583,33.0391],[132.536,33.0374],[132.5199,33.0405],[132.5158,33.0401],[132.5052,33.0422],[132.4969,33.0425],[132.4879,33.0447],[132.4839,33.0483],[132.4814,33.0493],[132.4762,33.0493],[132.4703,33.0476]]]]}},{"type":"Feature","properties":{"id":38002},"geometry":{"type":"MultiPolygon","coordinates":[[[[132.3576,33.5157],[132.3536,33.5105],[132.3423,33.5068],[132.3389,33.5024],[132.333,33.5038],[132.3289,33.5015],[132.3271,33.4979],[132.3215,33.4985],[132.3174,33.4927],[132.3077,33.4924],[132.305,33.4864],[132.295,33.4867],[132.2852,33.4784],[132.282,33.481],[132.2792,33.4751],[132.2761,33.4732],[132.2734,33.4768],[132.2683,33.4733],[132.2642,33.474],[132.2586,33.4728],[132.2651,33.468],[132.2645,33.4564],[132.2613,33.4542],[132.2592,33.4496],[132.2542,33.4515],[132.2531,33.4554],[132.2439,33.4588],[132.2477,33.4628],[132.2458,33.4653],[132.2399,33.4645],[132.2398,33.4608],[132.2328,33.4617],[132.2257,33.4583],[132.224,33.4509],[132.226,33.4472],[132.2238,33.4443],[132.2184,33.447],[132.2157,33.4446],[132.2099,33.446],[132.2026,33.4522],[132.2005,33.4553],[132.195,33.4531],[132.1946,33.4491],[132.1972,33.4444],[132.1936,33.4421],[132.1814,33.4489],[132.1739,33.4466],[132.1718,33.4443],[132.1749,33.4387],[132.1751,33.4311],[132.1764,33.4285],[132.1704,33.4264],[132.1631,33.4321],[132.1568,33.4387],[132.148,33.4342],[132.1488,33.4319],[132.1568,33.4284],[132.1671,33.4214],[132.1691,33.4186],[132.1655,33.4112],[132.1603,33.4109],[132.1557,33.4069],[132.1499,33.4101],[132.1474,33.4161],[132.1391,33.4209],[132.1368,33.4187],[132.1366,33.4072],[132.1325,33.4033],[132.1275,33.4073],[132.1293,33.4122],[132.1227,33.4206],[132.119,33.4172],[132.1157,33.4176],[132.1074,33.4083],[132.1012,33.4044],[132.0975,33.4047],[132.0928,33.4],[132.09,33.4017],[132.0833,33.3972],[132.0786,33.3906],[132.078,33.3877],[132.064,33.3817],[132.0584,33.3776],[132.0533,33.3759],[132.0467,33.3693],[132.0397,33.3672],[132.0351,33.3597],[132.0312,33.3588],[132.0269,33.3498],[132.0182,33.3467],[132.0181,33.3445],[132.0254,33.3439],[132.0344,33.3499],[132.0405,33.352],[132.0452,33.356],[132.0519,33.3579],[132.0479,33.3658],[132.0583,33.3686],[132.0646,33.3718],[132.0654,33.3747],[132.0703,33.376],[132.0733,33.3744],[132.0764,33.38],[132.0828,33.38],[132.088,33.3819],[132.0943,33.3875],[132.1053,33.3882],[132.1156,33.3908],[132.1204,33.3884],[132.1199,33.3814],[132.1124,33.379],[132.114,33.3718],[132.1039,33.3736],[132.1017,33.3707],[132.1018,33.3633],[132.1078,33.362],[132.114,33.3646],[132.1244,33.3657],[132.1295,33.3637],[132.1346,33.3702],[132.1393,33.3716],[132.1455,33.3759],[132.1522,33.3763],[132.1535,33.3891],[132.1559,33.3915],[132.1668,33.3965],[132.1762,33.4069],[132.1818,33.4114],[132.1929,33.414],[132.2031,33.4144],[132.2079,33.4185],[132.2149,33.4212],[132.2209,33.4247],[132.2303,33.4261],[132.2373,33.4254],[132.2401,33.429],[132.2463,33.4328],[132.249,33.4367],[132.2549,33.4377],[132.2545,33.441],[132.2633,33.4419],[132.2684,33.4458],[132.2811,33.4473],[132.2829,33.4543],[132.2867,33.4572],[132.2865,33.462],[132.2908,33.4649],[132.2948,33.4645],[132.2965,33.4706],[132.2998,33.4739],[132.3057,33.4733],[132.3071,33.4688],[132.3105,33.4661],[132.3117,33.4618],[132.318,33.4563],[132.3211,33.4617],[132.3244,33.4725],[132.3311,33.4736],[132.3343,33.4721],[132.3373,33.4747],[132.3497,33.4725],[132.3533,33.4737],[132.3481,33.4822],[132.3433,33.486],[132.3515,33.4879],[132.3526,33.4837],[132.3629,33.4797],[132.3708,33.4725],[132.3719,33.4692],[132.3738,33.4772],[132.3745,33.4877],[132.3737,33.4921],[132.3704,33.4979],[132.3576,33.5157]]],[[[132.3525,33.4578],[132.3454,33.4583],[132.3432,33.4547],[132.3482,33.4526],[132.3517,33.4544],[132.3525,33.4578]]]]}},{"type":"Feature","properties":{"id":38003},"geometry":{"type":"MultiPolygon","coordinates":[[[[132.9335,33.8973],[132.9374,33.9004],[132.9459,33.9042],[132.9546,33.9046],[132.9641,33.9017],[132.968,33.8996],[132.9749,33.9035],[132.9781,33.9071],[132.9784,33.92],[132.9798,33.9381],[132.9815,33.9443],[132.9847,33.9469],[132.9976,33.9521],[133.0089,33.9531],[133.0258,33.9595],[133.0312,33.9599],[133.0342,33.9621],[133.037,33.9683],[133.0405,33.9724],[133.0452,33.9745],[133.0616,33.9791],[133.0665,33.9827],[133.059,33.9944],[133.0576,34.0006],[133.0497,34.0102],[133.0482,34.0165],[133.0445,34.0237],[133.0408,34.0276],[133.0371,34.0344],[133.0375,34.0386],[133.0297,34.0453],[133.0342,34.0481],[133.0314,34.0533],[133.0256,34.0503],[133.0226,34.0632],[133.0196,34.0628],[133.0129,34.0676],[133.0048,34.0713],[132.9947,34.0825],[132.9922,34.0909],[132.9861,34.0972],[132.9825,34.1028],[132.9792,34.1153],[132.9746,34.1169],[132.9711,34.1129],[132.9536,34.1238],[132.9535,34.1264],[132.9488,34.1298],[132.9462,34.1372],[132.9418,34.1413],[132.9391,34.1374],[132.9367,34.1276],[132.931,34.1236],[132.9278,34.1233],[132.9233,34.1159],[132.918,34.1177],[132.9164,34.1201],[132.9033,34.1189],[132.8959,34.1206],[132.893,34.1199],[132.8972,34.1142],[132.8947,34.1119],[132.8983,34.1091],[132.9033,34.1124],[132.9121,34.1129],[132.9211,34.1113],[132.9265,34.1093],[132.9291,34.1005],[132.9281,34.0986],[132.9317,34.0936],[132.9296,34.0877],[132.925,34.0889],[132.9186,34.0856],[132.9227,34.083],[132.9229,34.0791],[132.9207,34.0711],[132.9171,34.0698],[132.9192,34.0653],[132.9124,34.0621],[132.9001,34.0672],[132.8923,34.0616],[132.8869,34.0588],[132.8787,34.0584],[132.8702,34.0563],[132.865,34.0594],[132.858,34.0549],[132.8566,34.048],[132.8532,34.0441],[132.8441,34.043],[132.8403,34.0398],[132.8379,34.0348],[132.831,34.0333],[132.8276,34.029],[132.819,34.0249],[132.8138,34.0209],[132.8225,34.0124],[132.8371,34.0006],[132.8404,33.9996],[132.8524,34.0013],[132.8615,33.9961],[132.8665,33.9945],[132.875,33.9946],[132.8898,33.9893],[132.8941,33.9855],[132.8954,33.9767],[132.8884,33.9629],[132.8878,33.9576],[132.8904,33.9489],[132.8946,33.9439],[132.9176,33.9385],[132.923,33.9346],[132.9265,33.9293],[132.9274,33.9242],[132.9243,33.915],[132.9246,33.9095],[132.9335,33.8973]]],[[[132.9967,34.1194],[132.9928,34.1231],[132.9892,34.1172],[132.9918,34.1132],[132.995,34.1127],[132.9967,34.1194]]],[[[132.984,34.1273],[132.9822,34.1295],[132.9765,34.1275],[132.9743,34.1235],[132.9801,34.1222],[132.984,34.1273]]],[[[132.8796,34.1929],[132.8724,34.1966],[132.8617,34.1922],[132.8688,34.1867],[132.8772,34.1772],[132.8815,34.1775],[132.8843,34.1835],[132.8941,34.1844],[132.8941,34.1897],[132.8896,34.1927],[132.8833,34.1912],[132.8796,34.1929]]],[[[132.9065,34.1883],[132.9077,34.1929],[132.9017,34.193],[132.8957,34.1887],[132.8985,34.1854],[132.9065,34.1883]]],[[[132.934,34.1858],[132.9314,34.1883],[132.9297,34.1947],[132.9246,34.2015],[132.9204,34.2008],[132.9192,34.1937],[132.9224,34.188],[132.9192,34.1856],[132.9315,34.1822],[132.934,34.1858]]],[[[133.1855,34.109],[133.1816,34.112],[133.1779,34.1079],[133.1846,34.1029],[133.1918,34.1077],[133.1855,34.109]]],[[[133.1852,34.1155],[133.188,34.1169],[133.1839,34.1222],[133.1806,34.1163],[133.1852,34.1155]]],[[[133.04,34.195],[133.0369,34.1956],[133.0291,34.1919],[133.0281,34.1861],[133.0231,34.1842],[133.0203,34.1789],[133.0271,34.1718],[133.0322,34.1722],[133.0359,34.1682],[133.0364,34.1625],[133.0404,34.1592],[133.0393,34.1542],[133.0416,34.1521],[133.0378,34.1489],[133.032,34.1528],[133.0305,34.1567],[133.0264,34.1581],[133.0239,34.1522],[133.0244,34.1496],[133.015,34.1408],[133.0192,34.1371],[133.0189,34.1317],[133.016,34.1265],[133.0217,34.1269],[133.0217,34.1211],[133.0175,34.1167],[133.0133,34.1158],[133.0128,34.1106],[133.02,34.1086],[133.0303,34.1097],[133.0344,34.1078],[133.0381,34.1131],[133.0431,34.1131],[133.0451,34.1193],[133.0489,34.1219],[133.0533,34.1222],[133.0611,34.1331],[133.0686,34.1367],[133.0739,34.1419],[133.0789,34.1439],[133.0804,34.1494],[133.0892,34.1572],[133.1006,34.1581],[133.1019,34.1619],[133.1061,34.1636],[133.1108,34.1693],[133.1106,34.1736],[133.1078,34.1747],[133.0925,34.1736],[133.0894,34.1698],[133.0853,34.1696],[133.08,34.1722],[133.0761,34.1778],[133.0758,34.1861],[133.0728,34.1892],[133.0667,34.1919],[133.0539,34.1922],[133.04,34.195]]],[[[133.002,34.1561],[132.9972,34.1589],[132.99,34.1542],[132.9917,34.1494],[132.9959,34.1499],[133.0065,34.1466],[133.0097,34.1484],[133.0111,34.1526],[133.0031,34.1545],[133.002,34.1561]]],[[[133.0946,34.1921],[133.0867,34.1911],[133.0828,34.1874],[133.0835,34.1824],[133.0894,34.1833],[133.0936,34.1878],[133.0946,34.1921]]],[[[133.1116,34.2342],[133.1062,34.2416],[133.1022,34.2351],[133.0958,34.2389],[133.0875,34.2343],[133.0876,34.2327],[133.0804,34.2298],[133.0738,34.2309],[133.0691,34.2357],[133.0644,34.2348],[133.0587,34.2274],[133.0623,34.2222],[133.0671,34.2195],[133.0656,34.2171],[133.0555,34.214],[133.0561,34.2084],[133.0622,34.2069],[133.0654,34.2087],[133.0707,34.2083],[133.0762,34.2018],[133.0779,34.1949],[133.0828,34.1927],[133.0944,34.2032],[133.0979,34.2042],[133.1028,34.1993],[133.1047,34.195],[133.1101,34.1908],[133.1141,34.1943],[133.1223,34.1939],[133.1262,34.1953],[133.1207,34.2065],[133.1328,34.2128],[133.1386,34.211],[133.1374,34.219],[133.133,34.2146],[133.1245,34.2187],[133.1214,34.2162],[133.1174,34.2185],[133.1142,34.2175],[133.1093,34.2225],[133.11,34.2274],[133.1069,34.2309],[133.1116,34.2342]]],[[[133.021,34.2959],[133.0126,34.2991],[133.0045,34.2962],[133.0012,34.2914],[132.9957,34.2891],[132.9868,34.291],[132.9811,34.2864],[132.9843,34.2811],[132.9864,34.2742],[132.9838,34.2687],[132.9781,34.271],[132.9703,34.2704],[132.9653,34.2615],[132.9697,34.2581],[132.9757,34.2588],[132.9877,34.263],[132.9907,34.2613],[132.992,34.2559],[132.9894,34.2529],[132.9946,34.2493],[132.993,34.2449],[132.9919,34.2339],[132.9902,34.2243],[132.9841,34.2238],[132.9809,34.2276],[132.9734,34.2261],[132.9694,34.2277],[132.965,34.2269],[132.962,34.2235],[132.9556,34.2236],[132.953,34.2217],[132.9522,34.2171],[132.947,34.2101],[132.943,34.2085],[132.9428,34.203],[132.9476,34.2048],[132.9511,34.1972],[132.9539,34.1939],[132.9597,34.1911],[132.9684,34.1936],[132.9806,34.1984],[132.9939,34.202],[132.997,34.207],[133.0028,34.2097],[133.0206,34.211],[133.0312,34.2082],[133.0386,34.2097],[133.0458,34.2145],[133.0504,34.2139],[133.0568,34.2176],[133.0591,34.2203],[133.0532,34.2266],[133.0525,34.2294],[133.0544,34.2353],[133.0519,34.2398],[133.0553,34.2471],[133.0547,34.2538],[133.0573,34.2585],[133.0498,34.2584],[133.0458,34.2608],[133.0425,34.268],[133.0422,34.2714],[133.0361,34.2775],[133.0342,34.2876],[133.0284,34.294],[133.021,34.2959]]],[[[132.9931,34.3141],[132.9896,34.3132],[132.9895,34.3084],[132.9921,34.3027],[132.998,34.3055],[132.999,34.3085],[132.9931,34.3141]]]]}},{"type":"Feature","properties":{"id":38004},"geometry":{"type":"Polygon","coordinates":[[[132.5406,33.6409],[132.5396,33.6321],[132.5414,33.6242],[132.5495,33.6181],[132.5614,33.6113],[132.5665,33.6103],[132.5703,33.6115],[132.6026,33.6268],[132.6178,33.634],[132.6224,33.6465],[132.6252,33.649],[132.6324,33.6506],[132.6377,33.6497],[132.6512,33.6517],[132.6538,33.6507],[132.6562,33.6438],[132.66,33.6244],[132.6657,33.6192],[132.6821,33.6187],[132.6948,33.6161],[132.7088,33.6106],[132.7124,33.6083],[132.7191,33.6076],[132.7262,33.612],[132.7312,33.6201],[132.7383,33.6233],[132.7454,33.6245],[132.7526,33.6235],[132.7519,33.633],[132.7545,33.6366],[132.7633,33.6428],[132.7708,33.6492],[132.7726,33.6534],[132.7711,33.6648],[132.7749,33.6729],[132.7776,33.676],[132.7825,33.6853],[132.775,33.7117],[132.7711,33.7192],[132.7636,33.723],[132.7535,33.7237],[132.7502,33.7258],[132.746,33.7316],[132.7447,33.7374],[132.7486,33.7495],[132.7489,33.7559],[132.7522,33.7586],[132.7608,33.7598],[132.765,33.763],[132.768,33.7711],[132.7773,33.7801],[132.7771,33.7844],[132.7739,33.7896],[132.7452,33.7759],[132.7334,33.7722],[132.7146,33.7714],[132.6994,33.773],[132.7006,33.7692],[132.697,33.7649],[132.7006,33.7613],[132.6933,33.7526],[132.6813,33.7455],[132.678,33.7446],[132.6777,33.7384],[132.6748,33.7304],[132.6653,33.7182],[132.6625,33.7094],[132.6592,33.703],[132.6475,33.6922],[132.6371,33.6893],[132.6356,33.6864],[132.6293,33.6829],[132.6275,33.6803],[132.6172,33.6769],[132.6091,33.6691],[132.6003,33.6621],[132.5961,33.6608],[132.5864,33.6542],[132.5793,33.6515],[132.5644,33.6489],[132.5572,33.6467],[132.5451,33.6415],[132.5406,33.6409]]]}},{"type":"Feature","properties":{"id":38005},"geometry":{"type":"MultiPolygon","coordinates":[[[[133.3626,34.1636],[133.3663,34.1669],[133.3621,34.1714],[133.359,34.1705],[133.3626,34.1636]]],[[[133.3141,34.1811],[133.3085,34.1839],[133.3073,34.1809],[133.3158,34.1734],[133.319,34.1722],[133.3267,34.1726],[133.3286,34.1755],[133.3251,34.1811],[133.3207,34.1793],[133.3141,34.1811]]],[[[133.2731,34.1956],[133.2724,34.1998],[133.265,34.1949],[133.2659,34.1861],[133.2685,34.1826],[133.2768,34.1847],[133.2731,34.1956]]],[[[133.1558,34.224],[133.1506,34.2248],[133.1479,34.2219],[133.1483,34.2162],[133.1526,34.2178],[133.1535,34.2236],[133.1558,34.224]]],[[[133.1687,34.2455],[133.1636,34.2465],[133.157,34.2451],[133.1505,34.2407],[133.1524,34.2331],[133.1581,34.2344],[133.1627,34.2331],[133.1675,34.2345],[133.1722,34.2409],[133.1687,34.2455]]],[[[133.1939,34.2569],[133.1896,34.2565],[133.1849,34.2502],[133.1849,34.2456],[133.1805,34.2384],[133.1814,34.2309],[133.1802,34.2272],[133.188,34.229],[133.1915,34.2331],[133.1901,34.2387],[133.1912,34.2433],[133.1957,34.2452],[133.1981,34.2544],[133.1939,34.2569]]],[[[133.1533,34.2777],[133.1523,34.281],[133.1446,34.2794],[133.133,34.2657],[133.1308,34.2565],[133.1321,34.2534],[133.1324,34.2421],[133.1337,34.2407],[133.1411,34.2443],[133.1507,34.2449],[133.1538,34.2479],[133.1654,34.2555],[133.1666,34.2602],[133.1581,34.2731],[133.1533,34.2777]]],[[[133.2309,34.2892],[133.2242,34.2906],[133.2215,34.2869],[133.2129,34.2842],[133.2097,34.2772],[133.2036,34.2713],[133.1987,34.2687],[133.1994,34.2605],[133.2035,34.2579],[133.2006,34.2536],[133.1996,34.2488],[133.2014,34.2399],[133.2056,34.2379],[133.2139,34.2439],[133.2135,34.2498],[133.2093,34.2532],[133.2087,34.2565],[133.2123,34.2605],[133.2211,34.2655],[133.2285,34.2676],[133.2332,34.275],[133.2366,34.2766],[133.2381,34.2807],[133.2347,34.2826],[133.2309,34.2892]]],[[[133.1735,34.2855],[133.1685,34.2852],[133.1654,34.2809],[133.173,34.269],[133.1694,34.2632],[133.1727,34.2579],[133.1787,34.2558],[133.1865,34.259],[133.1859,34.2656],[133.1814,34.2769],[133.1778,34.2787],[133.1735,34.2855]]],[[[133.2636,34.2341],[133.2598,34.2352],[133.2563,34.2315],[133.261,34.2292],[133.2636,34.2341]]]]}},{"type":"Feature","properties":{"id":38006},"geometry":{"type":"Polygon","coordinates":[[[132.7929,33.2674],[132.7966,33.2715],[132.8165,33.2772],[132.8272,33.2792],[132.837,33.2846],[132.8479,33.2856],[132.8578,33.2894],[132.8669,33.295],[132.875,33.3012],[132.8863,33.3037],[132.8985,33.3089],[132.9029,33.3181],[132.9038,33.3253],[132.9049,33.3333],[132.9006,33.3426],[132.8942,33.3509],[132.887,33.358],[132.8644,33.3641],[132.8594,33.3736],[132.8556,33.3847],[132.8424,33.3772],[132.8298,33.3682],[132.8239,33.3624],[132.8208,33.3538],[132.8181,33.3497],[132.8118,33.3451],[132.8018,33.3443],[132.7969,33.3454],[132.7861,33.3531],[132.7813,33.3544],[132.7773,33.3535],[132.7599,33.3456],[132.748,33.3437],[132.7426,33.3442],[132.7348,33.3467],[132.7277,33.3501],[132.7208,33.3509],[132.7146,33.3473],[132.7105,33.3468],[132.7012,33.3523],[132.6974,33.3532],[132.6804,33.3515],[132.6668,33.3461],[132.663,33.3435],[132.6599,33.338],[132.6575,33.3291],[132.6687,33.323],[132.6719,33.3173],[132.6703,33.312],[132.6708,33.3003],[132.6726,33.2944],[132.6778,33.2867],[132.6808,33.2798],[132.68,33.2746],[132.6751,33.2732],[132.6721,33.2751],[132.6589,33.2784],[132.6467,33.2764],[132.6383,33.276],[132.6297,33.2767],[132.6241,33.2735],[132.6154,33.2639],[132.6152,33.2573],[132.6169,33.2417],[132.6166,33.2346],[132.618,33.2254],[132.6178,33.2071],[132.6189,33.2045],[132.6233,33.2039],[132.6377,33.212],[132.6458,33.2142],[132.6555,33.2157],[132.6693,33.2164],[132.6824,33.2259],[132.6849,33.2307],[132.6859,33.2386],[132.6947,33.2423],[132.7045,33.2424],[132.7235,33.245],[132.7296,33.2483],[132.7363,33.2559],[132.7403,33.2587],[132.7457,33.2601],[132.7591,33.2603],[132.7646,33.264],[132.7669,33.2695],[132.771,33.2748],[132.7775,33.2777],[132.7832,33.2751],[132.7929,33.2674]]]}},{"type":"Feature","properties":{"id":38007},"geometry":{"type":"Polygon","coordinates":[[[133.1636,33.7465],[133.1517,33.7492],[133.1405,33.7552],[133.1222,33.7693],[133.1157,33.7698],[133.1115,33.765],[133.1055,33.7623],[133.0942,33.762],[133.0776,33.7601],[133.062,33.7571],[133.0503,33.7576],[133.0354,33.7616],[133.0293,33.7574],[133.0217,33.7544],[133.0172,33.7541],[133.0066,33.7562],[133.0018,33.7547],[132.9901,33.743],[132.9854,33.7392],[132.9655,33.7466],[132.9604,33.7442],[132.9543,33.7361],[132.9491,33.7343],[132.9332,33.7341],[132.9279,33.7326],[132.9082,33.7238],[132.8987,33.7223],[132.8887,33.724],[132.8815,33.728],[132.8775,33.7218],[132.8736,33.7181],[132.8628,33.7043],[132.8609,33.6997],[132.8555,33.6936],[132.8509,33.6916],[132.8377,33.6895],[132.8313,33.6848],[132.8315,33.6789],[132.8391,33.6673],[132.8395,33.661],[132.8377,33.6524],[132.8389,33.6452],[132.8454,33.6357],[132.8571,33.6326],[132.86,33.6277],[132.8598,33.6238],[132.8571,33.6169],[132.8542,33.6132],[132.8533,33.6047],[132.8555,33.5975],[132.8593,33.5926],[132.8629,33.5904],[132.8715,33.5885],[132.8832,33.588],[132.901,33.5891],[132.907,33.5868],[132.9175,33.5747],[132.925,33.5674],[132.9282,33.5603],[132.9283,33.5517],[132.9295,33.5377],[132.9285,33.5341],[132.9153,33.5233],[132.9094,33.5175],[132.902,33.498],[132.9012,33.4786],[132.8986,33.4685],[132.9125,33.4654],[132.9244,33.4648],[132.935,33.4671],[132.9463,33.4686],[132.9567,33.4632],[132.9679,33.4647],[132.9788,33.468],[132.9897,33.4697],[132.9989,33.4719],[133.0176,33.4776],[133.0177,33.48],[133.0181,33.4889],[133.0368,33.5086],[133.0409,33.5185],[133.047,33.5265],[133.0652,33.5381],[133.0633,33.56],[133.0488,33.5722],[133.0533,33.5832],[133.0583,33.5919],[133.0687,33.5972],[133.0819,33.6058],[133.0742,33.613],[133.071,33.6228],[133.0725,33.6328],[133.08,33.6503],[133.0899,33.6532],[133.101,33.655],[133.111,33.6546],[133.122,33.6666],[133.1225,33.677],[133.125,33.6899],[133.1335,33.6959],[133.144,33.6997],[133.1426,33.7111],[133.1517,33.7204],[133.1631,33.7281],[133.1614,33.7386],[133.1623,33.7418],[133.1636,33.7465]]]}},{"type":"Feature","properties":{"id":38008},"geometry":{"type":"Polygon","coordinates":[[[132.7739,33.7896],[132.7641,33.795],[132.7537,33.7993],[132.7381,33.804],[132.7194,33.8073],[132.7051,33.8052],[132.6989,33.8059],[132.6972,33.8031],[132.6902,33.8017],[132.6929,33.7957],[132.689,33.7929],[132.6902,33.7889],[132.6976,33.7815],[132.6994,33.773],[132.7146,33.7714],[132.7334,33.7722],[132.7452,33.7759],[132.7739,33.7896]]]}},{"type":"Feature","properties":{"id":38009},"geometry":{"type":"Polygon","coordinates":[[[132.6693,33.2164],[132.662,33.1968],[132.656,33.1898],[132.6354,33.182],[132.6408,33.1709],[132.6499,33.1666],[132.6581,33.1604],[132.6641,33.1521],[132.6737,33.1474],[132.6829,33.1407],[132.6888,33.1318],[132.6985,33.1346],[132.7031,33.1442],[132.7125,33.1493],[132.7202,33.1578],[132.7283,33.1649],[132.7345,33.1732],[132.7397,33.1829],[132.7416,33.1934],[132.75,33.1996],[132.7609,33.1982],[132.7719,33.2008],[132.7754,33.2102],[132.7734,33.2204],[132.7773,33.2305],[132.7809,33.2496],[132.789,33.2626],[132.7929,33.2674],[132.7832,33.2751],[132.7775,33.2777],[132.771,33.2748],[132.7669,33.2695],[132.7646,33.264],[132.7591,33.2603],[132.7457,33.2601],[132.7403,33.2587],[132.7363,33.2559],[132.7296,33.2483],[132.7235,33.245],[132.7045,33.2424],[132.6947,33.2423],[132.6859,33.2386],[132.6849,33.2307],[132.6824,33.2259],[132.6693,33.2164]]]}},{"type":"Feature","properties":{"id":38010},"geometry":{"type":"MultiPolygon","coordinates":[[[[132.9335,33.8973],[132.9246,33.9095],[132.9243,33.915],[132.9274,33.9242],[132.9265,33.9293],[132.923,33.9346],[132.9176,33.9385],[132.8946,33.9439],[132.8904,33.9489],[132.8878,33.9576],[132.8884,33.9629],[132.8954,33.9767],[132.8941,33.9855],[132.8898,33.9893],[132.875,33.9946],[132.8665,33.9945],[132.8615,33.9961],[132.8524,34.0013],[132.8404,33.9996],[132.8371,34.0006],[132.8225,34.0124],[132.8138,34.0209],[132.8067,34.0176],[132.8014,34.0112],[132.7977,34.0093],[132.7917,34.0098],[132.7817,34.0061],[132.7708,33.9964],[132.7753,33.9889],[132.7723,33.9846],[132.7716,33.9789],[132.7692,33.975],[132.7704,33.9723],[132.7719,33.9621],[132.77,33.9583],[132.7681,33.9461],[132.7631,33.938],[132.7605,33.9291],[132.7574,33.9251],[132.7577,33.9181],[132.7549,33.911],[132.7466,33.905],[132.7332,33.903],[132.7275,33.9041],[132.7205,33.9037],[132.7117,33.9065],[132.71,33.9007],[132.7064,33.8956],[132.7067,33.8931],[132.7006,33.8869],[132.6987,33.8773],[132.7075,33.8744],[132.7103,33.8664],[132.7065,33.8656],[132.7094,33.8611],[132.7101,33.8558],[132.7028,33.8527],[132.6991,33.8402],[132.6955,33.839],[132.6948,33.8348],[132.6896,33.8356],[132.6888,33.8327],[132.693,33.8303],[132.6912,33.826],[132.6927,33.8236],[132.6898,33.8195],[132.6931,33.8164],[132.6961,33.8108],[132.6885,33.8102],[132.6927,33.806],[132.6989,33.8059],[132.7051,33.8052],[132.7194,33.8073],[132.7381,33.804],[132.7537,33.7993],[132.7641,33.795],[132.7739,33.7896],[132.7823,33.7897],[132.7973,33.7876],[132.8006,33.784],[132.8012,33.7685],[132.8027,33.761],[132.8058,33.7579],[132.8114,33.7564],[132.814,33.7535],[132.8152,33.743],[132.8178,33.7381],[132.8295,33.7212],[132.8323,33.716],[132.8325,33.7094],[132.8309,33.7041],[132.8316,33.6973],[132.8377,33.6895],[132.8509,33.6916],[132.8555,33.6936],[132.8609,33.6997],[132.8628,33.7043],[132.8736,33.7181],[132.8775,33.7218],[132.8815,33.728],[132.87,33.7445],[132.8618,33.7524],[132.8571,33.7585],[132.85,33.764],[132.8448,33.7704],[132.8439,33.7747],[132.8455,33.7794],[132.8444,33.783],[132.8362,33.7874],[132.8353,33.7909],[132.8386,33.7958],[132.8438,33.7973],[132.8509,33.7961],[132.8601,33.7973],[132.8644,33.7995],[132.8675,33.8035],[132.8707,33.8127],[132.875,33.819],[132.8794,33.8311],[132.8849,33.8409],[132.8872,33.8479],[132.8863,33.8574],[132.8871,33.8664],[132.8899,33.8767],[132.8923,33.8807],[132.9004,33.8861],[132.9232,33.8949],[132.9335,33.8973]]],[[[132.6904,33.9759],[132.6833,33.9694],[132.6919,33.9661],[132.6971,33.9655],[132.6904,33.9759]]],[[[132.6389,33.8951],[132.6361,33.8947],[132.6417,33.8865],[132.6459,33.8882],[132.6455,33.8915],[132.6389,33.8951]]],[[[132.7026,33.9258],[132.695,33.925],[132.6913,33.9262],[132.6897,33.9225],[132.6862,33.9212],[132.6797,33.9217],[132.6803,33.9128],[132.6779,33.91],[132.6706,33.909],[132.6606,33.9103],[132.6577,33.9033],[132.6665,33.9005],[132.6691,33.8945],[132.6636,33.8792],[132.6614,33.8772],[132.6643,33.8723],[132.6796,33.8755],[132.6833,33.8744],[132.6893,33.8754],[132.6809,33.8826],[132.6827,33.8845],[132.6749,33.8896],[132.6727,33.8934],[132.6746,33.9009],[132.6783,33.903],[132.6841,33.9013],[132.6938,33.9056],[132.6907,33.9116],[132.6954,33.9176],[132.6958,33.9219],[132.7021,33.9232],[132.7026,33.9258]]],[[[132.6751,33.9541],[132.6732,33.9577],[132.672,33.965],[132.6729,33.9691],[132.6616,33.9741],[132.659,33.9695],[132.6525,33.9673],[132.6486,33.9609],[132.6509,33.9557],[132.6567,33.9508],[132.6616,33.9517],[132.6647,33.9561],[132.6751,33.9541]]],[[[132.5538,33.937],[132.5498,33.9378],[132.5471,33.9354],[132.5432,33.9359],[132.5364,33.9331],[132.5305,33.9355],[132.5262,33.9342],[132.5226,33.9366],[132.5171,33.9318],[132.528,33.9257],[132.5355,33.9267],[132.5432,33.9322],[132.553,33.9331],[132.5538,33.937]]],[[[132.5182,33.9893],[132.5124,33.9901],[132.5029,33.987],[132.4955,33.9801],[132.5005,33.9745],[132.4986,33.9705],[132.5052,33.971],[132.5073,33.975],[132.5126,33.9754],[132.5136,33.981],[132.5198,33.983],[132.5227,33.9864],[132.5182,33.9893]]],[[[132.5631,33.9927],[132.5601,33.995],[132.5548,33.9941],[132.5508,33.9892],[132.5451,33.9915],[132.5354,33.9876],[132.5372,33.9826],[132.5367,33.979],[132.5411,33.9737],[132.534,33.9688],[132.541,33.961],[132.5443,33.9688],[132.5501,33.9702],[132.5499,33.9735],[132.5556,33.9784],[132.5586,33.9868],[132.5646,33.9868],[132.5631,33.9927]]],[[[132.6484,34.0078],[132.6521,34.0131],[132.646,34.0178],[132.6433,34.0167],[132.6456,34.0111],[132.6328,34.0053],[132.6311,34],[132.6267,33.9993],[132.6259,33.9958],[132.6222,33.9925],[132.6144,33.9918],[132.6092,33.995],[132.6067,33.9925],[132.6066,33.9868],[132.6039,33.9833],[132.593,33.9756],[132.5861,33.9694],[132.5794,33.9698],[132.5793,33.9676],[132.5859,33.9629],[132.5922,33.956],[132.5906,33.9517],[132.6008,33.9426],[132.6035,33.9439],[132.6042,33.9485],[132.6129,33.9562],[132.6171,33.9575],[132.6267,33.9565],[132.6329,33.9539],[132.6382,33.9573],[132.6408,33.9563],[132.6425,33.9626],[132.642,33.9699],[132.633,33.9691],[132.6303,33.9711],[132.6318,33.9763],[132.6365,33.9792],[132.6419,33.9787],[132.6448,33.9814],[132.6451,33.9872],[132.6409,33.9928],[132.6402,33.9979],[132.6422,33.9994],[132.642,34.0062],[132.6484,34.0078]]],[[[132.5945,34.0283],[132.5914,34.03],[132.5872,34.0267],[132.5887,34.0243],[132.5945,34.0283]]]]}},{"type":"Feature","properties":{"id":38011},"geometry":{"type":"MultiPolygon","coordinates":[[[[133.4569,33.8333],[133.46,33.8505],[133.4574,33.8584],[133.45,33.8697],[133.4415,33.886],[133.4374,33.8883],[133.4324,33.8882],[133.4108,33.8847],[133.4031,33.8826],[133.3894,33.8768],[133.38,33.8739],[133.373,33.8734],[133.3619,33.8777],[133.3598,33.8838],[133.3662,33.8986],[133.3686,33.9012],[133.3734,33.9149],[133.3681,33.93],[133.3659,33.9386],[133.3685,33.9458],[133.375,33.9531],[133.3842,33.9658],[133.3938,33.9912],[133.3871,33.9854],[133.3761,33.9836],[133.3705,33.9804],[133.3669,33.9809],[133.3566,33.9792],[133.3508,33.9842],[133.346,33.9912],[133.3416,33.9928],[133.3367,33.9909],[133.3288,33.9899],[133.3272,33.9938],[133.3217,33.9948],[133.318,33.9919],[133.3172,33.9883],[133.3109,33.9845],[133.2958,33.9811],[133.2914,33.983],[133.2866,33.9786],[133.2826,33.9867],[133.2775,33.9859],[133.2776,33.9809],[133.2705,33.9841],[133.267,33.9804],[133.2732,33.9766],[133.2699,33.9751],[133.2634,33.9687],[133.2594,33.975],[133.2611,33.9792],[133.2561,33.9806],[133.2485,33.9753],[133.2486,33.9676],[133.2514,33.9628],[133.2429,33.9567],[133.2379,33.9573],[133.2343,33.952],[133.2285,33.9512],[133.2396,33.9409],[133.2441,33.9344],[133.2484,33.9208],[133.2471,33.916],[133.2475,33.9098],[133.2534,33.8836],[133.2537,33.8779],[133.25,33.8709],[133.2625,33.8577],[133.2786,33.8378],[133.2855,33.831],[133.281,33.8275],[133.2902,33.8262],[133.3176,33.8127],[133.3282,33.8114],[133.3337,33.8159],[133.3367,33.8185],[133.3473,33.8213],[133.3547,33.8285],[133.3655,33.829],[133.3848,33.8233],[133.3951,33.823],[133.4062,33.8333],[133.4205,33.8367],[133.4302,33.8333],[133.4404,33.8309],[133.4569,33.8333]]],[[[133.369,34.0064],[133.3627,34.0038],[133.3547,34.0052],[133.3509,34.0027],[133.3503,33.9969],[133.359,33.9941],[133.3611,33.9901],[133.3697,33.9958],[133.369,34.0064]]]]}},{"type":"Feature","properties":{"id":38012},"geometry":{"type":"Polygon","coordinates":[[[132.5406,33.6409],[132.5335,33.6389],[132.5287,33.6356],[132.5204,33.6328],[132.5167,33.6299],[132.5111,33.6284],[132.5078,33.6304],[132.5034,33.6267],[132.4933,33.6216],[132.4906,33.6173],[132.4851,33.6154],[132.482,33.6179],[132.4758,33.611],[132.4746,33.6073],[132.4568,33.5952],[132.4575,33.59],[132.4467,33.5812],[132.4422,33.5736],[132.4335,33.5689],[132.4321,33.5586],[132.4261,33.553],[132.4307,33.5401],[132.4334,33.5371],[132.4405,33.5348],[132.4509,33.5344],[132.4617,33.5351],[132.4657,33.5322],[132.4783,33.5137],[132.4798,33.51],[132.477,33.5026],[132.465,33.4921],[132.4667,33.4873],[132.4753,33.4823],[132.4834,33.4802],[132.4913,33.4753],[132.499,33.4625],[132.5022,33.4512],[132.5088,33.4507],[132.5197,33.4515],[132.5241,33.4506],[132.5307,33.4468],[132.5344,33.4427],[132.5419,33.4393],[132.5551,33.4401],[132.5611,33.4426],[132.5672,33.4477],[132.575,33.4516],[132.5807,33.4509],[132.5876,33.4432],[132.5931,33.4404],[132.6058,33.4377],[132.6305,33.439],[132.636,33.4377],[132.6459,33.4335],[132.6661,33.422],[132.6817,33.4255],[132.69,33.4297],[132.7045,33.444],[132.7176,33.4514],[132.7249,33.4538],[132.7327,33.4528],[132.7406,33.4475],[132.7453,33.4489],[132.7521,33.4582],[132.755,33.4656],[132.7564,33.4763],[132.76,33.4813],[132.781,33.4856],[132.7899,33.492],[132.7975,33.4963],[132.8095,33.5055],[132.8197,33.5087],[132.8299,33.5089],[132.8333,33.5113],[132.8414,33.5263],[132.8388,33.5305],[132.8295,33.5419],[132.8237,33.5481],[132.8171,33.5486],[132.8059,33.5422],[132.8001,33.5355],[132.7971,33.5338],[132.7887,33.5333],[132.7781,33.5354],[132.7714,33.5336],[132.7636,33.5293],[132.7596,33.5284],[132.7466,33.5321],[132.7434,33.5305],[132.7371,33.5203],[132.7346,33.518],[132.7223,33.5122],[132.7095,33.5079],[132.6982,33.5049],[132.6751,33.4976],[132.671,33.4974],[132.6533,33.5072],[132.6378,33.5226],[132.6331,33.5312],[132.6346,33.5364],[132.639,33.5392],[132.6414,33.5434],[132.6389,33.5578],[132.6359,33.5676],[132.6283,33.5819],[132.6216,33.593],[132.6196,33.5992],[132.6103,33.617],[132.6026,33.6268],[132.5703,33.6115],[132.5665,33.6103],[132.5614,33.6113],[132.5495,33.6181],[132.5414,33.6242],[132.5396,33.6321],[132.5406,33.6409]]]}},{"type":"Feature","properties":{"id":38013},"geometry":{"type":"Polygon","coordinates":[[[132.968,33.8996],[132.9646,33.8903],[132.9638,33.8842],[132.9683,33.8716],[132.972,33.8644],[132.9736,33.8572],[132.9729,33.845],[132.9748,33.8385],[132.9875,33.8192],[132.9913,33.815],[132.9955,33.8134],[133.007,33.815],[133.0103,33.8144],[133.0152,33.8104],[133.0243,33.7958],[133.0265,33.7897],[133.0281,33.779],[133.0354,33.7616],[133.0503,33.7576],[133.062,33.7571],[133.0776,33.7601],[133.0942,33.762],[133.1055,33.7623],[133.1115,33.765],[133.1157,33.7698],[133.1222,33.7693],[133.1405,33.7552],[133.1517,33.7492],[133.1636,33.7465],[133.1645,33.7498],[133.1743,33.7544],[133.1832,33.7615],[133.1874,33.7715],[133.1932,33.7809],[133.1963,33.7908],[133.2063,33.7914],[133.2157,33.7844],[133.2234,33.7769],[133.234,33.7806],[133.25,33.7851],[133.259,33.7896],[133.2638,33.7996],[133.265,33.8104],[133.2699,33.8204],[133.281,33.8275],[133.2855,33.831],[133.2786,33.8378],[133.2625,33.8577],[133.25,33.8709],[133.2537,33.8779],[133.2534,33.8836],[133.2475,33.9098],[133.2471,33.916],[133.2484,33.9208],[133.2441,33.9344],[133.2396,33.9409],[133.2285,33.9512],[133.2106,33.9484],[133.2025,33.9466],[133.2032,33.9427],[133.1983,33.9361],[133.1955,33.9458],[133.1874,33.9441],[133.1724,33.9391],[133.1763,33.931],[133.172,33.9319],[133.1694,33.9359],[133.1661,33.9371],[133.1544,33.9329],[133.1507,33.9305],[133.156,33.9206],[133.1555,33.9123],[133.1506,33.9156],[133.149,33.9207],[133.1458,33.9231],[133.1405,33.9228],[133.1356,33.9286],[133.128,33.9203],[133.1273,33.9272],[133.1288,33.929],[133.1263,33.9332],[133.1272,33.9404],[133.1251,33.9415],[133.1194,33.9364],[133.1172,33.9258],[133.1136,33.929],[133.1171,33.9338],[133.117,33.9378],[133.1194,33.9412],[133.1076,33.9475],[133.1022,33.9414],[133.098,33.943],[133.0937,33.948],[133.0869,33.9521],[133.0858,33.9572],[133.0753,33.9659],[133.0726,33.9708],[133.0678,33.9752],[133.0644,33.9736],[133.0616,33.9791],[133.0452,33.9745],[133.0405,33.9724],[133.037,33.9683],[133.0342,33.9621],[133.0312,33.9599],[133.0258,33.9595],[133.0089,33.9531],[132.9976,33.9521],[132.9847,33.9469],[132.9815,33.9443],[132.9798,33.9381],[132.9784,33.92],[132.9781,33.9071],[132.9749,33.9035],[132.968,33.8996]]]}},{"type":"Feature","properties":{"id":38014},"geometry":{"type":"Polygon","coordinates":[[[132.6575,33.3291],[132.6599,33.338],[132.663,33.3435],[132.6668,33.3461],[132.6804,33.3515],[132.6974,33.3532],[132.7012,33.3523],[132.7105,33.3468],[132.7146,33.3473],[132.7208,33.3509],[132.7277,33.3501],[132.7348,33.3467],[132.7426,33.3442],[132.748,33.3437],[132.7599,33.3456],[132.7773,33.3535],[132.7813,33.3544],[132.7861,33.3531],[132.7969,33.3454],[132.8018,33.3443],[132.8118,33.3451],[132.8181,33.3497],[132.8208,33.3538],[132.8239,33.3624],[132.8298,33.3682],[132.8424,33.3772],[132.8556,33.3847],[132.8528,33.3949],[132.8427,33.3948],[132.835,33.4033],[132.8363,33.4166],[132.8276,33.4224],[132.8283,33.4327],[132.8272,33.4432],[132.8173,33.4472],[132.8095,33.4568],[132.8193,33.4619],[132.826,33.4694],[132.8465,33.4742],[132.8621,33.4724],[132.8738,33.4677],[132.8858,33.4695],[132.8986,33.4685],[132.9012,33.4786],[132.902,33.498],[132.8918,33.4967],[132.8815,33.4975],[132.8784,33.4989],[132.8688,33.5069],[132.8549,33.5139],[132.8452,33.522],[132.8414,33.5263],[132.8333,33.5113],[132.8299,33.5089],[132.8197,33.5087],[132.8095,33.5055],[132.7975,33.4963],[132.7899,33.492],[132.781,33.4856],[132.76,33.4813],[132.7564,33.4763],[132.755,33.4656],[132.7521,33.4582],[132.7453,33.4489],[132.7406,33.4475],[132.7327,33.4528],[132.7249,33.4538],[132.7176,33.4514],[132.7045,33.444],[132.69,33.4297],[132.6817,33.4255],[132.6661,33.422],[132.6459,33.4335],[132.636,33.4377],[132.6305,33.439],[132.6058,33.4377],[132.5931,33.4404],[132.5876,33.4432],[132.5807,33.4509],[132.575,33.4516],[132.5672,33.4477],[132.5611,33.4426],[132.5551,33.4401],[132.5419,33.4393],[132.5344,33.4427],[132.5307,33.4468],[132.5241,33.4506],[132.5197,33.4515],[132.5088,33.4507],[132.5022,33.4512],[132.4843,33.4296],[132.4793,33.4215],[132.4791,33.4179],[132.4818,33.4116],[132.4781,33.4069],[132.4626,33.3998],[132.4572,33.3996],[132.4433,33.4076],[132.4284,33.4145],[132.4224,33.4113],[132.4108,33.4073],[132.4077,33.401],[132.4005,33.3959],[132.39,33.3931],[132.3862,33.3924],[132.3792,33.3886],[132.3799,33.3845],[132.3841,33.3806],[132.3906,33.3654],[132.3945,33.3688],[132.404,33.3707],[132.411,33.3799],[132.4158,33.3792],[132.4122,33.3742],[132.4102,33.3646],[132.4072,33.3593],[132.4147,33.3611],[132.4201,33.3562],[132.4179,33.354],[132.4086,33.3533],[132.4115,33.3456],[132.3938,33.3471],[132.3917,33.3404],[132.388,33.3373],[132.3846,33.3402],[132.377,33.3378],[132.3741,33.3295],[132.3693,33.3247],[132.3708,33.3184],[132.3747,33.3201],[132.3828,33.3207],[132.3883,33.317],[132.3919,33.3188],[132.3994,33.3155],[132.4009,33.3087],[132.4076,33.306],[132.4139,33.3065],[132.4172,33.3033],[132.4228,33.3037],[132.4256,33.3133],[132.4306,33.3188],[132.4388,33.312],[132.4452,33.3098],[132.4556,33.3089],[132.4632,33.3105],[132.4661,33.3127],[132.4674,33.3182],[132.4764,33.3177],[132.4818,33.3186],[132.4874,33.3173],[132.4878,33.3205],[132.4912,33.3252],[132.4935,33.325],[132.4961,33.3183],[132.5034,33.3238],[132.5113,33.3331],[132.5146,33.3416],[132.5193,33.3443],[132.5279,33.3419],[132.5326,33.3381],[132.5396,33.3292],[132.5461,33.3256],[132.5603,33.3238],[132.5732,33.3257],[132.5803,33.3245],[132.5947,33.3251],[132.6088,33.3274],[132.6182,33.3273],[132.6249,33.3288],[132.6519,33.3299],[132.6575,33.3291]]]}},{"type":"Feature","properties":{"id":38015},"geometry":{"type":"Polygon","coordinates":[[[133.3938,33.9912],[133.3842,33.9658],[133.375,33.9531],[133.3685,33.9458],[133.3659,33.9386],[133.3681,33.93],[133.3734,33.9149],[133.3686,33.9012],[133.3662,33.8986],[133.3598,33.8838],[133.3619,33.8777],[133.373,33.8734],[133.38,33.8739],[133.3894,33.8768],[133.4031,33.8826],[133.4108,33.8847],[133.4324,33.8882],[133.4374,33.8883],[133.4415,33.886],[133.45,33.8697],[133.4574,33.8584],[133.46,33.8505],[133.4569,33.8333],[133.4735,33.8332],[133.49,33.8271],[133.4963,33.8265],[133.5,33.8261],[133.5101,33.833],[133.5107,33.8435],[133.5211,33.8444],[133.5291,33.8514],[133.5403,33.8693],[133.5493,33.8769],[133.5597,33.8787],[133.5684,33.8716],[133.5775,33.8678],[133.5856,33.8643],[133.595,33.8718],[133.6094,33.8783],[133.619,33.8736],[133.6335,33.8716],[133.6425,33.8781],[133.6531,33.8794],[133.6632,33.8784],[133.672,33.8851],[133.6806,33.8908],[133.6787,33.9012],[133.6918,33.9166],[133.6875,33.9315],[133.6951,33.9413],[133.6908,33.9504],[133.6919,33.9607],[133.6836,33.969],[133.678,33.9815],[133.6802,33.9913],[133.6928,34.01],[133.6926,34.0101],[133.6803,34.0129],[133.673,34.0206],[133.6621,34.0243],[133.6401,34.0238],[133.625,34.0319],[133.6141,34.0298],[133.6064,34.036],[133.5972,34.0413],[133.5908,34.0339],[133.5872,34.0344],[133.5836,34.0306],[133.5761,34.0278],[133.5797,34.0242],[133.5739,34.0228],[133.5721,34.0201],[133.5677,34.0247],[133.5648,34.0189],[133.5676,34.0166],[133.5656,34.0135],[133.5611,34.0126],[133.5613,34.0076],[133.5558,34.01],[133.5522,34.007],[133.5461,34.0079],[133.5418,34.0035],[133.5523,33.995],[133.5479,33.9923],[133.5438,33.9857],[133.5375,33.9836],[133.5282,33.9827],[133.5238,33.9801],[133.524,33.9762],[133.5199,33.9732],[133.5115,33.9712],[133.5055,33.9733],[133.5025,33.9702],[133.4911,33.9692],[133.4842,33.9721],[133.4788,33.9723],[133.4723,33.9742],[133.466,33.9746],[133.4583,33.9811],[133.4542,33.9831],[133.4511,33.9811],[133.4422,33.9831],[133.4299,33.9873],[133.4277,33.9861],[133.4137,33.9863],[133.412,33.9907],[133.4058,33.9886],[133.4011,33.9887],[133.3938,33.9912]]]}},{"type":"Feature","properties":{"id":38016},"geometry":{"type":"Polygon","coordinates":[[[132.7526,33.6235],[132.758,33.6207],[132.7637,33.6157],[132.7698,33.6121],[132.774,33.6121],[132.7885,33.6218],[132.7926,33.6231],[132.8039,33.6202],[132.8131,33.6217],[132.8371,33.6328],[132.8454,33.6357],[132.8389,33.6452],[132.8377,33.6524],[132.8395,33.661],[132.8391,33.6673],[132.8315,33.6789],[132.8313,33.6848],[132.8377,33.6895],[132.8316,33.6973],[132.8309,33.7041],[132.8325,33.7094],[132.8323,33.716],[132.8295,33.7212],[132.8178,33.7381],[132.8152,33.743],[132.814,33.7535],[132.8114,33.7564],[132.8058,33.7579],[132.8027,33.761],[132.8012,33.7685],[132.8006,33.784],[132.7973,33.7876],[132.7823,33.7897],[132.7739,33.7896],[132.7771,33.7844],[132.7773,33.7801],[132.768,33.7711],[132.765,33.763],[132.7608,33.7598],[132.7522,33.7586],[132.7489,33.7559],[132.7486,33.7495],[132.7447,33.7374],[132.746,33.7316],[132.7502,33.7258],[132.7535,33.7237],[132.7636,33.723],[132.7711,33.7192],[132.775,33.7117],[132.7825,33.6853],[132.7776,33.676],[132.7749,33.6729],[132.7711,33.6648],[132.7726,33.6534],[132.7708,33.6492],[132.7633,33.6428],[132.7545,33.6366],[132.7519,33.633],[132.7526,33.6235]]]}},{"type":"Feature","properties":{"id":38017},"geometry":{"type":"Polygon","coordinates":[[[132.9335,33.8973],[132.9232,33.8949],[132.9004,33.8861],[132.8923,33.8807],[132.8899,33.8767],[132.8871,33.8664],[132.8863,33.8574],[132.8872,33.8479],[132.8849,33.8409],[132.8794,33.8311],[132.875,33.819],[132.8707,33.8127],[132.8675,33.8035],[132.8644,33.7995],[132.8601,33.7973],[132.8509,33.7961],[132.8438,33.7973],[132.8386,33.7958],[132.8353,33.7909],[132.8362,33.7874],[132.8444,33.783],[132.8455,33.7794],[132.8439,33.7747],[132.8448,33.7704],[132.85,33.764],[132.8571,33.7585],[132.8618,33.7524],[132.87,33.7445],[132.8815,33.728],[132.8887,33.724],[132.8987,33.7223],[132.9082,33.7238],[132.9279,33.7326],[132.9332,33.7341],[132.9491,33.7343],[132.9543,33.7361],[132.9604,33.7442],[132.9655,33.7466],[132.9854,33.7392],[132.9901,33.743],[133.0018,33.7547],[133.0066,33.7562],[133.0172,33.7541],[133.0217,33.7544],[133.0293,33.7574],[133.0354,33.7616],[133.0281,33.779],[133.0265,33.7897],[133.0243,33.7958],[133.0152,33.8104],[133.0103,33.8144],[133.007,33.815],[132.9955,33.8134],[132.9913,33.815],[132.9875,33.8192],[132.9748,33.8385],[132.9729,33.845],[132.9736,33.8572],[132.972,33.8644],[132.9683,33.8716],[132.9638,33.8842],[132.9646,33.8903],[132.968,33.8996],[132.9641,33.9017],[132.9546,33.9046],[132.9459,33.9042],[132.9374,33.9004],[132.9335,33.8973]]]}},{"type":"Feature","properties":{"id":38018},"geometry":{"type":"Polygon","coordinates":[[[132.6026,33.6268],[132.6103,33.617],[132.6196,33.5992],[132.6216,33.593],[132.6283,33.5819],[132.6359,33.5676],[132.6389,33.5578],[132.6414,33.5434],[132.639,33.5392],[132.6346,33.5364],[132.6331,33.5312],[132.6378,33.5226],[132.6533,33.5072],[132.671,33.4974],[132.6751,33.4976],[132.6982,33.5049],[132.7095,33.5079],[132.7223,33.5122],[132.7346,33.518],[132.7371,33.5203],[132.7434,33.5305],[132.7466,33.5321],[132.7596,33.5284],[132.7636,33.5293],[132.7714,33.5336],[132.7781,33.5354],[132.7887,33.5333],[132.7971,33.5338],[132.8001,33.5355],[132.8059,33.5422],[132.8171,33.5486],[132.8237,33.5481],[132.8295,33.5419],[132.8388,33.5305],[132.8414,33.5263],[132.8452,33.522],[132.8549,33.5139],[132.8688,33.5069],[132.8784,33.4989],[132.8815,33.4975],[132.8918,33.4967],[132.902,33.498],[132.9094,33.5175],[132.9153,33.5233],[132.9285,33.5341],[132.9295,33.5377],[132.9283,33.5517],[132.9282,33.5603],[132.925,33.5674],[132.9175,33.5747],[132.907,33.5868],[132.901,33.5891],[132.8832,33.588],[132.8715,33.5885],[132.8629,33.5904],[132.8593,33.5926],[132.8555,33.5975],[132.8533,33.6047],[132.8542,33.6132],[132.8571,33.6169],[132.8598,33.6238],[132.86,33.6277],[132.8571,33.6326],[132.8454,33.6357],[132.8371,33.6328],[132.8131,33.6217],[132.8039,33.6202],[132.7926,33.6231],[132.7885,33.6218],[132.774,33.6121],[132.7698,33.6121],[132.7637,33.6157],[132.758,33.6207],[132.7526,33.6235],[132.7454,33.6245],[132.7383,33.6233],[132.7312,33.6201],[132.7262,33.612],[132.7191,33.6076],[132.7124,33.6083],[132.7088,33.6106],[132.6948,33.6161],[132.6821,33.6187],[132.6657,33.6192],[132.66,33.6244],[132.6562,33.6438],[132.6538,33.6507],[132.6512,33.6517],[132.6377,33.6497],[132.6324,33.6506],[132.6252,33.649],[132.6224,33.6465],[132.6178,33.634],[132.6026,33.6268]]]}},{"type":"Feature","properties":{"id":38019},"geometry":{"type":"MultiPolygon","coordinates":[[[[132.4164,33.1098],[132.4119,33.1102],[132.4086,33.1067],[132.4137,33.1024],[132.4163,33.1033],[132.4164,33.1098]]],[[[132.3361,33.1081],[132.3275,33.1086],[132.3186,33.1064],[132.3183,33.1019],[132.3231,33.1019],[132.332,33.1052],[132.3361,33.1081]]],[[[132.2653,33.1842],[132.2629,33.1763],[132.2668,33.1683],[132.2793,33.1696],[132.2842,33.1687],[132.2876,33.1658],[132.288,33.1603],[132.294,33.1537],[132.3006,33.153],[132.3031,33.1497],[132.3103,33.1477],[132.3047,33.1559],[132.2983,33.1603],[132.2937,33.1584],[132.2897,33.1622],[132.2893,33.1653],[132.2955,33.1719],[132.2908,33.1781],[132.2849,33.1732],[132.2816,33.1763],[132.2759,33.1719],[132.2718,33.1771],[132.266,33.174],[132.2672,33.1803],[132.2653,33.1842]]],[[[132.3711,33.1866],[132.3688,33.1817],[132.3744,33.1822],[132.3711,33.1866]]],[[[132.3792,33.2191],[132.365,33.211],[132.3663,33.209],[132.3569,33.2044],[132.3575,33.1992],[132.3558,33.1944],[132.3572,33.1894],[132.363,33.1874],[132.365,33.1892],[132.3597,33.1969],[132.3615,33.202],[132.3692,33.2035],[132.3733,33.2071],[132.3827,33.2094],[132.3792,33.2191]]],[[[132.4703,33.0476],[132.4762,33.0493],[132.4814,33.0493],[132.4839,33.0483],[132.4879,33.0447],[132.4969,33.0425],[132.5052,33.0422],[132.5158,33.0401],[132.5199,33.0405],[132.536,33.0374],[132.5583,33.0391],[132.5688,33.0408],[132.585,33.0471],[132.5959,33.049],[132.6042,33.0522],[132.6099,33.0532],[132.6226,33.0489],[132.6258,33.0495],[132.6355,33.0592],[132.6418,33.0612],[132.6537,33.059],[132.6614,33.0547],[132.6669,33.0611],[132.6708,33.0712],[132.6722,33.0829],[132.6703,33.0928],[132.6666,33.1033],[132.6658,33.1055],[132.6551,33.1077],[132.6472,33.116],[132.6409,33.1243],[132.6315,33.1293],[132.633,33.1402],[132.6253,33.1571],[132.618,33.1666],[132.625,33.1791],[132.6354,33.182],[132.656,33.1898],[132.662,33.1968],[132.6693,33.2164],[132.6555,33.2157],[132.6458,33.2142],[132.6377,33.212],[132.6233,33.2039],[132.6189,33.2045],[132.6178,33.2071],[132.618,33.2254],[132.6166,33.2346],[132.6169,33.2417],[132.6152,33.2573],[132.6154,33.2639],[132.6241,33.2735],[132.6297,33.2767],[132.6383,33.276],[132.6467,33.2764],[132.6589,33.2784],[132.6721,33.2751],[132.6751,33.2732],[132.68,33.2746],[132.6808,33.2798],[132.6778,33.2867],[132.6726,33.2944],[132.6708,33.3003],[132.6703,33.312],[132.6719,33.3173],[132.6687,33.323],[132.6575,33.3291],[132.6519,33.3299],[132.6249,33.3288],[132.6182,33.3273],[132.6088,33.3274],[132.5947,33.3251],[132.5803,33.3245],[132.5732,33.3257],[132.5603,33.3238],[132.5461,33.3256],[132.5396,33.3292],[132.5326,33.3381],[132.5279,33.3419],[132.5193,33.3443],[132.5146,33.3416],[132.5113,33.3331],[132.5034,33.3238],[132.4961,33.3183],[132.4971,33.3121],[132.5076,33.3153],[132.5104,33.3179],[132.5262,33.3124],[132.5272,33.3073],[132.5203,33.305],[132.5085,33.3062],[132.5049,33.3013],[132.4962,33.2985],[132.4819,33.2879],[132.4833,33.2821],[132.48,33.2809],[132.4772,33.2754],[132.4728,33.2716],[132.4744,33.2661],[132.4704,33.2606],[132.4691,33.2555],[132.4731,33.2548],[132.4763,33.2623],[132.4832,33.2651],[132.4767,33.2706],[132.4804,33.2713],[132.4834,33.2746],[132.4884,33.2694],[132.4938,33.2706],[132.5014,33.2694],[132.5044,33.2639],[132.5031,33.2621],[132.5086,33.2588],[132.5128,33.2588],[132.5181,33.2644],[132.5206,33.2611],[132.5412,33.266],[132.5419,33.2623],[132.54,33.2584],[132.5366,33.2564],[132.5255,33.2529],[132.5197,33.2496],[132.5227,33.2449],[132.5286,33.2456],[132.5333,33.2436],[132.5327,33.2401],[132.5388,33.2347],[132.543,33.2348],[132.5467,33.2327],[132.5504,33.2355],[132.5515,33.2221],[132.5462,33.2231],[132.5421,33.2273],[132.5383,33.2231],[132.5409,33.2164],[132.5316,33.2171],[132.5305,33.2146],[132.5222,33.2144],[132.5186,33.213],[132.5124,33.2136],[132.5085,33.2072],[132.5035,33.2021],[132.5054,33.1973],[132.5013,33.1939],[132.4982,33.1959],[132.4918,33.1959],[132.4918,33.1934],[132.4999,33.1905],[132.5067,33.1938],[132.5079,33.1887],[132.5105,33.1857],[132.5086,33.183],[132.5098,33.1761],[132.5083,33.1723],[132.5048,33.17],[132.5046,33.1798],[132.4998,33.1825],[132.4941,33.1808],[132.4968,33.1777],[132.4965,33.1719],[132.4888,33.1652],[132.4858,33.1674],[132.4817,33.1669],[132.4773,33.1699],[132.4852,33.1755],[132.4796,33.176],[132.4848,33.1823],[132.4795,33.1826],[132.47,33.1781],[132.4645,33.1821],[132.4606,33.1831],[132.4578,33.1862],[132.4601,33.1903],[132.4551,33.1924],[132.4572,33.1977],[132.4601,33.2008],[132.4551,33.2035],[132.4585,33.2069],[132.4554,33.2093],[132.4509,33.2026],[132.4468,33.2003],[132.4373,33.2057],[132.4337,33.2092],[132.4302,33.2082],[132.4234,33.2106],[132.4208,33.2131],[132.4157,33.2081],[132.4218,33.2085],[132.4253,33.2051],[132.4312,33.2031],[132.4305,33.2007],[132.4355,33.1971],[132.4387,33.1929],[132.4373,33.1893],[132.4408,33.1858],[132.4462,33.1921],[132.4474,33.1845],[132.4574,33.1787],[132.459,33.1748],[132.4642,33.1715],[132.4586,33.1681],[132.4561,33.1712],[132.4474,33.1714],[132.4433,33.1678],[132.4383,33.1706],[132.4335,33.1688],[132.4335,33.1585],[132.4283,33.1592],[132.4255,33.1551],[132.4431,33.1483],[132.4436,33.1439],[132.4408,33.1385],[132.4449,33.135],[132.4524,33.1318],[132.4553,33.1347],[132.4546,33.1417],[132.4645,33.1381],[132.4711,33.1407],[132.4729,33.136],[132.4781,33.1363],[132.477,33.14],[132.4858,33.1369],[132.4974,33.1374],[132.4976,33.1289],[132.4993,33.1234],[132.5133,33.1204],[132.4992,33.1199],[132.4954,33.1215],[132.4915,33.1202],[132.4881,33.1252],[132.4835,33.1239],[132.4816,33.1197],[132.4724,33.1212],[132.4691,33.1262],[132.4617,33.1265],[132.4533,33.1231],[132.4616,33.1217],[132.4674,33.1172],[132.4656,33.1116],[132.4743,33.1072],[132.4746,33.1041],[132.4708,33.1002],[132.4778,33.0941],[132.4616,33.0874],[132.4642,33.0842],[132.4699,33.0834],[132.4692,33.0753],[132.4713,33.071],[132.4752,33.0784],[132.473,33.0823],[132.4787,33.0832],[132.4783,33.0784],[132.4832,33.0734],[132.4795,33.0713],[132.4882,33.0643],[132.4822,33.063],[132.4831,33.0558],[132.4798,33.0565],[132.4788,33.0644],[132.4724,33.0601],[132.4645,33.0624],[132.4609,33.0622],[132.4559,33.0565],[132.4497,33.0551],[132.4469,33.0578],[132.4494,33.0609],[132.4479,33.0646],[132.4443,33.0645],[132.4433,33.057],[132.4348,33.0545],[132.4265,33.0582],[132.4289,33.0614],[132.4252,33.0672],[132.42,33.0652],[132.4187,33.0623],[132.4128,33.0638],[132.4131,33.0679],[132.4089,33.0708],[132.4054,33.0677],[132.4063,33.0626],[132.3967,33.055],[132.4003,33.0515],[132.4041,33.0504],[132.4055,33.0467],[132.4028,33.0405],[132.3954,33.0388],[132.3982,33.0352],[132.3963,33.0279],[132.3902,33.0252],[132.3839,33.0272],[132.3781,33.0237],[132.3835,33.018],[132.3866,33.0205],[132.3959,33.0205],[132.4003,33.0236],[132.4,33.0261],[132.4072,33.0304],[132.4045,33.0349],[132.4104,33.0383],[132.4084,33.0415],[132.4103,33.045],[132.4075,33.0483],[132.4092,33.0553],[132.4141,33.0548],[132.4181,33.0578],[132.4229,33.0545],[132.4288,33.0528],[132.4289,33.0491],[132.4377,33.0512],[132.4431,33.047],[132.4416,33.044],[132.4447,33.0403],[132.4499,33.0417],[132.4495,33.0469],[132.4559,33.0485],[132.4581,33.046],[132.466,33.0495],[132.4703,33.0476]]],[[[132.4054,33.2052],[132.4015,33.2063],[132.3933,33.2052],[132.3936,33.202],[132.3896,33.1995],[132.3983,33.1956],[132.3954,33.1875],[132.4009,33.1843],[132.4083,33.1894],[132.4155,33.1882],[132.4185,33.1957],[132.404,33.2004],[132.4054,33.2052]]],[[[132.5195,33.2402],[132.5172,33.2411],[132.5105,33.2274],[132.5213,33.218],[132.5235,33.2211],[132.5336,33.2239],[132.5343,33.2279],[132.5249,33.2373],[132.5195,33.2402]]]]}},{"type":"Feature","properties":{"id":38020},"geometry":{"type":"MultiPolygon","coordinates":[[[[132.3597,33.3781],[132.3453,33.378],[132.3497,33.3727],[132.3556,33.3733],[132.358,33.3691],[132.3638,33.3731],[132.3652,33.3763],[132.3597,33.3781]]],[[[132.3431,33.3958],[132.3392,33.396],[132.3353,33.3916],[132.3373,33.3869],[132.3415,33.3838],[132.3439,33.3921],[132.3431,33.3958]]],[[[132.3576,33.5157],[132.3704,33.4979],[132.3737,33.4921],[132.3745,33.4877],[132.3738,33.4772],[132.3719,33.4692],[132.3738,33.4676],[132.3727,33.4612],[132.3778,33.4626],[132.3797,33.469],[132.384,33.4746],[132.3904,33.4762],[132.399,33.4715],[132.4011,33.4678],[132.3987,33.4651],[132.3908,33.4685],[132.3872,33.4612],[132.3877,33.4592],[132.3938,33.4576],[132.4033,33.4591],[132.4085,33.4571],[132.4141,33.4588],[132.4165,33.4526],[132.4091,33.45],[132.408,33.4465],[132.4009,33.4445],[132.3988,33.4456],[132.3846,33.4429],[132.3957,33.4401],[132.4039,33.4422],[132.4147,33.4436],[132.4146,33.4413],[132.4094,33.4377],[132.4043,33.4312],[132.4062,33.4244],[132.3999,33.4263],[132.3959,33.4297],[132.3895,33.4246],[132.3839,33.4184],[132.3903,33.4159],[132.3938,33.4111],[132.3926,33.4062],[132.3896,33.4043],[132.3963,33.3983],[132.39,33.3931],[132.4005,33.3959],[132.4077,33.401],[132.4108,33.4073],[132.4224,33.4113],[132.4284,33.4145],[132.4433,33.4076],[132.4572,33.3996],[132.4626,33.3998],[132.4781,33.4069],[132.4818,33.4116],[132.4791,33.4179],[132.4793,33.4215],[132.4843,33.4296],[132.5022,33.4512],[132.499,33.4625],[132.4913,33.4753],[132.4834,33.4802],[132.4753,33.4823],[132.4667,33.4873],[132.465,33.4921],[132.477,33.5026],[132.4798,33.51],[132.4783,33.5137],[132.4657,33.5322],[132.4617,33.5351],[132.4509,33.5344],[132.4405,33.5348],[132.4334,33.5371],[132.4307,33.5401],[132.4261,33.553],[132.4225,33.5475],[132.4173,33.5447],[132.4089,33.5429],[132.4053,33.5401],[132.3951,33.536],[132.391,33.5323],[132.3885,33.5279],[132.3847,33.5306],[132.3785,33.5263],[132.3754,33.5222],[132.3707,33.5214],[132.3618,33.5155],[132.3576,33.5157]]]]}}]}