{"type":"FeatureCollection","features":[{"type":"Feature","properties":{"id":39001},"geometry":{"type":"Polygon","coordinates":[[[133.9589,33.4429],[133.9683,33.4556],[133.9711,33.4675],[133.9808,33.4771],[133.9848,33.4799],[133.9879,33.5059],[133.9903,33.511],[133.9955,33.5142],[134.0099,33.5213],[134.0125,33.5238],[134.0234,33.5406],[134.0327,33.549],[134.0273,33.5587],[134.0207,33.5652],[134.0132,33.5671],[134.0114,33.5702],[134.0106,33.5767],[134.0121,33.5826],[134.0157,33.5864],[134.0192,33.5952],[134.0222,33.6002],[134.0217,33.6035],[134.0161,33.6088],[134.0262,33.6261],[134.0359,33.6359],[134.0582,33.6476],[134.0616,33.651],[134.0629,33.6557],[134.0618,33.6669],[134.0536,33.6721],[134.0526,33.6779],[134.0547,33.6847],[134.0581,33.6902],[134.0669,33.6903],[134.0689,33.706],[134.0679,33.7152],[134.0597,33.7155],[134.0256,33.7129],[134.0153,33.7118],[134.0057,33.7099],[133.9981,33.707],[133.9939,33.7011],[133.988,33.6948],[133.9849,33.6895],[133.9747,33.6793],[133.9689,33.6757],[133.9581,33.6675],[133.955,33.6622],[133.9474,33.6546],[133.934,33.6483],[133.9261,33.6452],[133.914,33.6451],[133.9072,33.646],[133.8966,33.641],[133.8922,33.6373],[133.8836,33.6329],[133.8826,33.6253],[133.8734,33.6112],[133.8674,33.605],[133.8643,33.5999],[133.8692,33.5846],[133.8725,33.5784],[133.8732,33.5689],[133.8672,33.5584],[133.8632,33.5496],[133.8624,33.5427],[133.8604,33.538],[133.8535,33.5267],[133.8485,33.5238],[133.8391,33.5269],[133.8352,33.5265],[133.8307,33.5216],[133.8297,33.5137],[133.8433,33.5054],[133.8508,33.5058],[133.8611,33.505],[133.8716,33.5025],[133.8815,33.5024],[133.8877,33.5013],[133.893,33.4982],[133.9067,33.496],[133.9337,33.488],[133.9405,33.4805],[133.9447,33.4737],[133.942,33.4689],[133.9414,33.4633],[133.9506,33.4492],[133.9576,33.4451],[133.9589,33.4429]]]}},{"type":"Feature","properties":{"id":39002},"geometry":{"type":"Polygon","coordinates":[[[133.8643,33.5999],[133.8554,33.5906],[133.8523,33.5852],[133.8277,33.5605],[133.8231,33.5575],[133.814,33.5553],[133.8056,33.5509],[133.7953,33.5434],[133.7872,33.5307],[133.7813,33.5244],[133.7747,33.5156],[133.7798,33.5166],[133.8108,33.5156],[133.8297,33.5137],[133.8307,33.5216],[133.8352,33.5265],[133.8391,33.5269],[133.8485,33.5238],[133.8535,33.5267],[133.8604,33.538],[133.8624,33.5427],[133.8632,33.5496],[133.8672,33.5584],[133.8732,33.5689],[133.8725,33.5784],[133.8692,33.5846],[133.8643,33.5999]]]}},{"type":"Feature","properties":{"id":39003},"geometry":{"type":"Polygon","coordinates":[[[133.543,33.4863],[133.5404,33.4928],[133.5349,33.5017],[133.5362,33.5086],[133.5366,33.5169],[133.5348,33.5205],[133.5279,33.5223],[133.5048,33.5207],[133.49,33.5223],[133.4824,33.5224],[133.4776,33.5237],[133.4668,33.524],[133.4571,33.5173],[133.4483,33.5088],[133.4413,33.5048],[133.4519,33.4913],[133.4568,33.4874],[133.464,33.4849],[133.4672,33.4814],[133.4689,33.4733],[133.477,33.4713],[133.4837,33.4651],[133.489,33.4626],[133.4983,33.4666],[133.5056,33.4676],[133.5066,33.4705],[133.5129,33.4747],[133.5256,33.48],[133.543,33.4863]]]}},{"type":"Feature","properties":{"id":39004},"geometry":{"type":"Polygon","coordinates":[[[133.3101,33.5794],[133.3051,33.5676],[133.3002,33.562],[133.3059,33.5594],[133.3198,33.546],[133.3271,33.5407],[133.3291,33.5378],[133.3392,33.5305],[133.3464,33.5204],[133.3471,33.5127],[133.3447,33.5076],[133.3377,33.5007],[133.3546,33.495],[133.3598,33.4954],[133.3659,33.499],[133.3857,33.506],[133.3952,33.5114],[133.3962,33.513],[133.4055,33.5281],[133.4075,33.5349],[133.4033,33.5404],[133.3881,33.5467],[133.382,33.5508],[133.3734,33.5588],[133.3681,33.5716],[133.3626,33.5736],[133.3588,33.569],[133.3558,33.5555],[133.3518,33.555],[133.3453,33.5585],[133.3401,33.5559],[133.3345,33.5565],[133.3272,33.5673],[133.3101,33.5794]]]}},{"type":"Feature","properties":{"id":39005},"geometry":{"type":"Polygon","coordinates":[[[133.1623,33.7418],[133.1646,33.727],[133.1784,33.7051],[133.1885,33.7002],[133.2078,33.6872],[133.2146,33.6851],[133.228,33.6833],[133.2309,33.6817],[133.2328,33.6765],[133.2317,33.6652],[133.232,33.6606],[133.2385,33.6492],[133.2388,33.6426],[133.2332,33.6341],[133.2287,33.6249],[133.2283,33.6213],[133.2294,33.6085],[133.2265,33.6019],[133.2402,33.6044],[133.2532,33.6076],[133.2686,33.6072],[133.2762,33.6063],[133.2804,33.6023],[133.2843,33.5891],[133.2909,33.584],[133.2954,33.5841],[133.3039,33.5867],[133.3085,33.584],[133.3101,33.5794],[133.3272,33.5673],[133.3345,33.5565],[133.3401,33.5559],[133.3453,33.5585],[133.3518,33.555],[133.3558,33.5555],[133.3588,33.569],[133.3626,33.5736],[133.3681,33.5716],[133.3734,33.5588],[133.382,33.5508],[133.3881,33.5467],[133.4033,33.5404],[133.4075,33.5349],[133.4055,33.5281],[133.3962,33.513],[133.4135,33.5136],[133.4197,33.5155],[133.4271,33.5196],[133.4314,33.5188],[133.4413,33.5048],[133.4483,33.5088],[133.4571,33.5173],[133.4668,33.524],[133.4687,33.5342],[133.4747,33.5517],[133.4785,33.5598],[133.4771,33.5639],[133.4679,33.5697],[133.4471,33.5709],[133.4367,33.575],[133.4286,33.5803],[133.4159,33.5844],[133.412,33.5873],[133.4119,33.593],[133.4157,33.6044],[133.4071,33.6142],[133.4027,33.6269],[133.4017,33.6359],[133.4039,33.6472],[133.4223,33.6566],[133.4272,33.6606],[133.4389,33.6642],[133.4588,33.6657],[133.4523,33.6744],[133.4497,33.6833],[133.4457,33.6891],[133.4413,33.6908],[133.4341,33.691],[133.4302,33.6897],[133.4106,33.6799],[133.4064,33.6788],[133.4027,33.682],[133.4018,33.6899],[133.3994,33.694],[133.3945,33.6977],[133.3914,33.702],[133.3894,33.7076],[133.3833,33.7156],[133.3728,33.7275],[133.3717,33.7326],[133.3749,33.74],[133.3758,33.7469],[133.3819,33.7569],[133.3732,33.7667],[133.3714,33.7722],[133.3672,33.7789],[133.3642,33.7874],[133.3608,33.7935],[133.3573,33.7959],[133.3473,33.7988],[133.3439,33.8014],[133.3337,33.8159],[133.3282,33.8114],[133.3176,33.8127],[133.2902,33.8262],[133.281,33.8275],[133.2699,33.8204],[133.265,33.8104],[133.2638,33.7996],[133.259,33.7896],[133.25,33.7851],[133.234,33.7806],[133.2234,33.7769],[133.2157,33.7844],[133.2063,33.7914],[133.1963,33.7908],[133.1932,33.7809],[133.1874,33.7715],[133.1832,33.7615],[133.1743,33.7544],[133.1645,33.7498],[133.1636,33.7465],[133.1623,33.7418]]]}},{"type":"Feature","properties":{"id":39006},"geometry":{"type":"Polygon","coordinates":[[[134.0679,33.7152],[134.0706,33.7267],[134.0641,33.7352],[134.0594,33.75],[134.0613,33.7602],[134.0615,33.7719],[134.0576,33.7816],[134.0489,33.7882],[134.0444,33.7983],[134.0361,33.8061],[134.0395,33.8157],[134.0365,33.8235],[134.0358,33.8252],[134.0262,33.8216],[134.0155,33.8187],[134,33.8179],[133.9925,33.8262],[133.9872,33.8375],[133.9776,33.8333],[133.9672,33.8318],[133.9579,33.8276],[133.9548,33.8171],[133.9529,33.8056],[133.9459,33.7977],[133.9349,33.7966],[133.9239,33.7947],[133.9148,33.7891],[133.904,33.7907],[133.8981,33.7997],[133.8876,33.8],[133.8772,33.8023],[133.8726,33.7955],[133.8694,33.788],[133.8669,33.785],[133.8521,33.7705],[133.841,33.7618],[133.8337,33.7544],[133.8251,33.7413],[133.806,33.737],[133.79,33.7213],[133.7825,33.7207],[133.7778,33.7235],[133.7696,33.7261],[133.764,33.7263],[133.7478,33.7246],[133.7446,33.7228],[133.7363,33.7093],[133.7314,33.7052],[133.7126,33.6961],[133.7001,33.6892],[133.6961,33.6882],[133.6812,33.6898],[133.6764,33.6939],[133.6716,33.7016],[133.6657,33.7069],[133.6495,33.7184],[133.6422,33.7139],[133.636,33.7124],[133.6249,33.7082],[133.6182,33.7067],[133.605,33.7009],[133.6002,33.697],[133.6046,33.6939],[133.6124,33.685],[133.6262,33.6732],[133.6309,33.6663],[133.6371,33.6609],[133.6423,33.6584],[133.6575,33.6558],[133.6695,33.6551],[133.6719,33.654],[133.6758,33.6403],[133.6787,33.6322],[133.6791,33.6281],[133.6769,33.6213],[133.6746,33.6101],[133.6792,33.6011],[133.6872,33.5938],[133.6915,33.5877],[133.697,33.5917],[133.7166,33.5959],[133.7255,33.5971],[133.7309,33.5992],[133.7499,33.6024],[133.7674,33.6066],[133.7771,33.6077],[133.7846,33.6095],[133.7997,33.6144],[133.8081,33.6183],[133.8222,33.6226],[133.8351,33.6301],[133.838,33.6331],[133.8411,33.6441],[133.8443,33.6496],[133.8602,33.6562],[133.8693,33.6581],[133.8889,33.6597],[133.9026,33.6594],[133.9075,33.6561],[133.9072,33.646],[133.914,33.6451],[133.9261,33.6452],[133.934,33.6483],[133.9474,33.6546],[133.955,33.6622],[133.9581,33.6675],[133.9689,33.6757],[133.9747,33.6793],[133.9849,33.6895],[133.988,33.6948],[133.9939,33.7011],[133.9981,33.707],[134.0057,33.7099],[134.0153,33.7118],[134.0256,33.7129],[134.0597,33.7155],[134.0679,33.7152]]]}},{"type":"Feature","properties":{"id":39007},"geometry":{"type":"Polygon","coordinates":[[[134.0977,33.4448],[134.1156,33.4553],[134.1228,33.4627],[134.1272,33.4686],[134.1302,33.4691],[134.1436,33.4678],[134.1469,33.4689],[134.1532,33.4748],[134.1608,33.4799],[134.168,33.4833],[134.177,33.4851],[134.1907,33.4862],[134.2037,33.4978],[134.2105,33.5074],[134.211,33.5118],[134.2089,33.5204],[134.2047,33.5262],[134.1974,33.5465],[134.1948,33.5584],[134.198,33.5595],[134.1965,33.5675],[134.188,33.583],[134.1728,33.5983],[134.1588,33.6081],[134.1585,33.6095],[134.1544,33.6081],[134.1506,33.6013],[134.1456,33.5963],[134.1411,33.5935],[134.1346,33.5916],[134.1293,33.5915],[134.1162,33.5952],[134.1004,33.5944],[134.0932,33.5889],[134.0919,33.5852],[134.0922,33.5745],[134.0895,33.5626],[134.0805,33.5444],[134.0737,33.5348],[134.0639,33.5253],[134.0616,33.5217],[134.0533,33.5136],[134.0354,33.5042],[134.0305,33.4949],[134.0264,33.4805],[134.0265,33.4733],[134.0238,33.4568],[134.029,33.4517],[134.0337,33.4453],[134.0427,33.4384],[134.0546,33.4348],[134.063,33.4343],[134.0729,33.436],[134.0768,33.4379],[134.0919,33.4422],[134.0977,33.4448]]]}},{"type":"Feature","properties":{"id":39008},"geometry":{"type":"Polygon","coordinates":[[[133.543,33.4863],[133.5674,33.4942],[133.5748,33.4953],[133.5778,33.5017],[133.5633,33.4973],[133.5594,33.5003],[133.5576,33.5042],[133.5581,33.5094],[133.5517,33.5119],[133.5483,33.5183],[133.5472,33.5233],[133.5539,33.5278],[133.5606,33.53],[133.5617,33.5333],[133.5606,33.5464],[133.5592,33.5497],[133.5689,33.5553],[133.568,33.5481],[133.5694,33.5461],[133.57,33.5392],[133.5667,33.5356],[133.5647,33.5306],[133.565,33.5211],[133.5636,33.5119],[133.5662,33.5092],[133.5625,33.5028],[133.5692,33.5011],[133.5819,33.5126],[133.5897,33.5161],[133.6072,33.5205],[133.6111,33.5253],[133.62,33.5452],[133.6317,33.5563],[133.6324,33.5588],[133.6273,33.562],[133.621,33.5641],[133.6193,33.5673],[133.6252,33.5741],[133.6236,33.5774],[133.6116,33.5795],[133.6095,33.5824],[133.6116,33.5872],[133.6075,33.5918],[133.5937,33.5957],[133.5859,33.6033],[133.5783,33.6181],[133.5772,33.6261],[133.586,33.6288],[133.5906,33.6334],[133.5891,33.6371],[133.5813,33.645],[133.57,33.6602],[133.5665,33.6625],[133.5519,33.6646],[133.5349,33.6757],[133.5287,33.676],[133.5213,33.6725],[133.5136,33.6677],[133.4961,33.6665],[133.4842,33.6674],[133.4588,33.6657],[133.4389,33.6642],[133.4272,33.6606],[133.4223,33.6566],[133.4039,33.6472],[133.4017,33.6359],[133.4027,33.6269],[133.4071,33.6142],[133.4157,33.6044],[133.4119,33.593],[133.412,33.5873],[133.4159,33.5844],[133.4286,33.5803],[133.4367,33.575],[133.4471,33.5709],[133.4679,33.5697],[133.4771,33.5639],[133.4785,33.5598],[133.4747,33.5517],[133.4687,33.5342],[133.4668,33.524],[133.4776,33.5237],[133.4824,33.5224],[133.49,33.5223],[133.5048,33.5207],[133.5279,33.5223],[133.5348,33.5205],[133.5366,33.5169],[133.5362,33.5086],[133.5349,33.5017],[133.5404,33.4928],[133.543,33.4863]]]}},{"type":"Feature","properties":{"id":39009},"geometry":{"type":"Polygon","coordinates":[[[133.9072,33.646],[133.9075,33.6561],[133.9026,33.6594],[133.8889,33.6597],[133.8693,33.6581],[133.8602,33.6562],[133.8443,33.6496],[133.8411,33.6441],[133.838,33.6331],[133.8351,33.6301],[133.8222,33.6226],[133.8081,33.6183],[133.7997,33.6144],[133.7846,33.6095],[133.7771,33.6077],[133.7674,33.6066],[133.7499,33.6024],[133.7309,33.5992],[133.7255,33.5971],[133.7166,33.5959],[133.697,33.5917],[133.6915,33.5877],[133.6892,33.5748],[133.6893,33.5689],[133.691,33.5532],[133.6908,33.5413],[133.6892,33.5366],[133.6978,33.5353],[133.718,33.5378],[133.7211,33.5353],[133.7253,33.5381],[133.7347,33.5382],[133.7467,33.5367],[133.7549,33.5327],[133.7558,33.53],[133.7529,33.5265],[133.7543,33.521],[133.7657,33.517],[133.7706,33.5133],[133.7747,33.5156],[133.7813,33.5244],[133.7872,33.5307],[133.7953,33.5434],[133.8056,33.5509],[133.814,33.5553],[133.8231,33.5575],[133.8277,33.5605],[133.8523,33.5852],[133.8554,33.5906],[133.8643,33.5999],[133.8674,33.605],[133.8734,33.6112],[133.8826,33.6253],[133.8836,33.6329],[133.8922,33.6373],[133.8966,33.641],[133.9072,33.646]]]}},{"type":"Feature","properties":{"id":39010},"geometry":{"type":"Polygon","coordinates":[[[133.0531,33.1206],[133.0463,33.1153],[133.0367,33.1121],[133.0227,33.115],[133.0157,33.115],[133.0093,33.1136],[133.0007,33.1074],[132.9916,33.1028],[132.9752,33.092],[132.9716,33.0904],[132.9686,33.0865],[132.9637,33.0541],[132.9621,33.0499],[132.963,33.0356],[132.9579,33.0276],[132.9588,33.0171],[132.9617,33.0103],[132.9746,33.0015],[132.9762,32.9978],[132.9779,32.9859],[132.9797,32.9844],[132.9903,32.9811],[132.9992,32.9801],[133.0025,32.9914],[133.0081,32.9961],[133.0056,32.9989],[133.0095,33.0071],[133.0086,33.0112],[133.0197,33.0254],[133.0281,33.0331],[133.037,33.0377],[133.0402,33.0368],[133.0446,33.0389],[133.049,33.0377],[133.0551,33.0393],[133.0594,33.0366],[133.0723,33.0371],[133.0793,33.0312],[133.0809,33.0275],[133.0845,33.0255],[133.0894,33.0256],[133.0944,33.0232],[133.0974,33.0251],[133.0977,33.0291],[133.0953,33.0328],[133.0972,33.0486],[133.0992,33.0514],[133.0997,33.0572],[133.1033,33.0608],[133.109,33.0632],[133.1095,33.0663],[133.1048,33.073],[133.1122,33.0787],[133.1175,33.0858],[133.1201,33.0856],[133.1279,33.0903],[133.1347,33.0911],[133.1433,33.0981],[133.1455,33.1044],[133.1482,33.105],[133.1481,33.1109],[133.1541,33.1186],[133.1554,33.1252],[133.1656,33.1367],[133.1675,33.1416],[133.1612,33.1451],[133.1594,33.1483],[133.1599,33.155],[133.1679,33.1638],[133.1736,33.1674],[133.1816,33.1748],[133.1844,33.1791],[133.1836,33.1856],[133.1746,33.1909],[133.1701,33.1908],[133.1526,33.1808],[133.1436,33.172],[133.1389,33.1694],[133.1261,33.1652],[133.114,33.1605],[133.1055,33.1631],[133.1005,33.1635],[133.0945,33.1585],[133.0925,33.1465],[133.0899,33.1432],[133.0804,33.1419],[133.0749,33.1382],[133.0696,33.1261],[133.0653,33.1189],[133.0614,33.1157],[133.0581,33.1165],[133.0531,33.1206]]]}},{"type":"Feature","properties":{"id":39011},"geometry":{"type":"Polygon","coordinates":[[[132.8304,32.9393],[132.8271,32.9329],[132.8199,32.9236],[132.8074,32.9192],[132.8044,32.9149],[132.8051,32.9078],[132.804,32.904],[132.8009,32.9021],[132.7915,32.9025],[132.7865,32.9083],[132.7827,32.911],[132.7784,32.9063],[132.7723,32.895],[132.772,32.8911],[132.777,32.8842],[132.7881,32.8774],[132.7961,32.8802],[132.8011,32.88],[132.8112,32.8733],[132.8198,32.8696],[132.839,32.8642],[132.8456,32.8647],[132.8532,32.8689],[132.8642,32.8722],[132.8818,32.8745],[132.8882,32.874],[132.9,32.8756],[132.9053,32.8782],[132.9123,32.8852],[132.9129,32.889],[132.9097,32.9032],[132.9101,32.9129],[132.9145,32.9222],[132.9195,32.9276],[132.9254,32.9322],[132.9055,32.9401],[132.8865,32.9456],[132.854,32.9432],[132.8454,32.9404],[132.8304,32.9393]]]}},{"type":"Feature","properties":{"id":39012},"geometry":{"type":"Polygon","coordinates":[[[133.5101,33.833],[133.5108,33.8283],[133.5164,33.8185],[133.5234,33.8041],[133.5268,33.7936],[133.5325,33.7804],[133.5424,33.7691],[133.5603,33.757],[133.5672,33.7541],[133.5727,33.7503],[133.5806,33.7354],[133.5816,33.7307],[133.5849,33.7038],[133.5953,33.7001],[133.6002,33.697],[133.605,33.7009],[133.6182,33.7067],[133.6249,33.7082],[133.636,33.7124],[133.6422,33.7139],[133.6495,33.7184],[133.6521,33.7329],[133.6493,33.7597],[133.645,33.7667],[133.641,33.7696],[133.6388,33.7746],[133.6396,33.7776],[133.648,33.7883],[133.6488,33.7933],[133.6465,33.7985],[133.6432,33.8097],[133.6308,33.8172],[133.6152,33.8238],[133.6006,33.8316],[133.5941,33.8381],[133.5907,33.8486],[133.5863,33.8575],[133.5852,33.8621],[133.5775,33.8678],[133.5684,33.8716],[133.5597,33.8787],[133.5493,33.8769],[133.5403,33.8693],[133.5291,33.8514],[133.5211,33.8444],[133.5107,33.8435],[133.5101,33.833]]]}},{"type":"Feature","properties":{"id":39013},"geometry":{"type":"Polygon","coordinates":[[[134.1907,33.4862],[134.177,33.4851],[134.168,33.4833],[134.1608,33.4799],[134.1532,33.4748],[134.1469,33.4689],[134.1436,33.4678],[134.1302,33.4691],[134.1272,33.4686],[134.1228,33.4627],[134.1156,33.4553],[134.0977,33.4448],[134.0992,33.4393],[134.099,33.4329],[134.0948,33.4246],[134.0897,33.4198],[134.0813,33.4159],[134.0733,33.4084],[134.0674,33.4001],[134.0612,33.3962],[134.052,33.3876],[134.0488,33.3862],[134.0424,33.3803],[134.0342,33.3771],[134.0387,33.3696],[134.0419,33.3721],[134.0508,33.3704],[134.0592,33.3631],[134.0622,33.3624],[134.0681,33.356],[134.0763,33.3426],[134.0811,33.3371],[134.0845,33.3365],[134.0984,33.33],[134.105,33.3222],[134.1064,33.3131],[134.1081,33.3111],[134.1089,33.3033],[134.1067,33.2981],[134.1086,33.2953],[134.115,33.2933],[134.1204,33.2984],[134.1275,33.2987],[134.1383,33.2961],[134.1413,33.2917],[134.1445,33.2903],[134.1463,33.2864],[134.1523,33.2811],[134.1535,33.2769],[134.1647,33.2657],[134.1737,33.246],[134.1775,33.2438],[134.1817,33.2485],[134.1828,33.2543],[134.1855,33.2584],[134.1858,33.2702],[134.1886,33.2809],[134.1873,33.288],[134.189,33.2994],[134.1929,33.3076],[134.1944,33.3133],[134.1942,33.3194],[134.1965,33.3218],[134.1989,33.3319],[134.1992,33.343],[134.2033,33.3588],[134.2055,33.3614],[134.2059,33.3692],[134.213,33.3777],[134.2153,33.3888],[134.2103,33.3953],[134.2135,33.4005],[134.2139,33.4041],[134.22,33.4152],[134.2312,33.4322],[134.2343,33.4359],[134.2298,33.4394],[134.2288,33.4528],[134.2279,33.4556],[134.2145,33.463],[134.1978,33.4802],[134.1907,33.4862]]]}},{"type":"Feature","properties":{"id":39014},"geometry":{"type":"Polygon","coordinates":[[[134.0337,33.4453],[134.0282,33.4355],[134.022,33.4289],[134.0175,33.4225],[134.0195,33.4195],[134.0255,33.4166],[134.0325,33.4107],[134.033,33.4042],[134.0361,33.3997],[134.0374,33.3928],[134.0362,33.3874],[134.0373,33.3829],[134.0342,33.3771],[134.0424,33.3803],[134.0488,33.3862],[134.052,33.3876],[134.0612,33.3962],[134.0674,33.4001],[134.0733,33.4084],[134.0813,33.4159],[134.0897,33.4198],[134.0948,33.4246],[134.099,33.4329],[134.0992,33.4393],[134.0977,33.4448],[134.0919,33.4422],[134.0768,33.4379],[134.0729,33.436],[134.063,33.4343],[134.0546,33.4348],[134.0427,33.4384],[134.0337,33.4453]]]}},{"type":"Feature","properties":{"id":39015},"geometry":{"type":"Polygon","coordinates":[[[133.2553,33.2385],[133.2532,33.2417],[133.2479,33.2424],[133.2474,33.2492],[133.2489,33.2507],[133.2554,33.2501],[133.2575,33.2538],[133.2641,33.2577],[133.2591,33.2619],[133.2557,33.2695],[133.2602,33.28],[133.2569,33.2818],[133.249,33.278],[133.2481,33.2748],[133.2434,33.2758],[133.2423,33.2788],[133.244,33.2829],[133.244,33.2895],[133.2454,33.292],[133.2402,33.2953],[133.2414,33.2997],[133.2453,33.3008],[133.2509,33.2993],[133.2492,33.3055],[133.252,33.3074],[133.2605,33.3093],[133.2573,33.3133],[133.2465,33.3157],[133.2412,33.3185],[133.2379,33.3223],[133.2326,33.3231],[133.2331,33.3289],[133.2378,33.3293],[133.2396,33.3333],[133.2478,33.3311],[133.2515,33.3339],[133.2571,33.3332],[133.2569,33.3375],[133.2599,33.3411],[133.2646,33.3432],[133.2608,33.3459],[133.249,33.3552],[133.2474,33.3578],[133.2401,33.363],[133.2354,33.3681],[133.2254,33.3764],[133.218,33.3775],[133.1902,33.3751],[133.1836,33.3751],[133.1799,33.3773],[133.1783,33.3815],[133.1764,33.4027],[133.1646,33.4145],[133.1592,33.4162],[133.1475,33.4177],[133.1404,33.4179],[133.1286,33.4204],[133.1211,33.4206],[133.1164,33.418],[133.1119,33.4082],[133.109,33.3951],[133.1084,33.3829],[133.1061,33.3777],[133.1001,33.3712],[133.0943,33.3717],[133.0774,33.383],[133.0727,33.3823],[133.0675,33.3774],[133.0614,33.37],[133.0591,33.365],[133.0572,33.3491],[133.0606,33.3501],[133.0697,33.3499],[133.0719,33.3478],[133.0718,33.343],[133.0675,33.3406],[133.062,33.3397],[133.0618,33.3348],[133.0706,33.3332],[133.0789,33.3291],[133.0835,33.3241],[133.0925,33.318],[133.1235,33.3046],[133.1286,33.3042],[133.1528,33.3088],[133.1676,33.3164],[133.1729,33.3177],[133.1792,33.3141],[133.1839,33.3055],[133.1929,33.2908],[133.194,33.284],[133.194,33.2704],[133.1927,33.2635],[133.1932,33.2594],[133.1959,33.2564],[133.2079,33.2518],[133.2169,33.247],[133.2319,33.2371],[133.2367,33.2368],[133.2553,33.2385]]]}},{"type":"Feature","properties":{"id":39016},"geometry":{"type":"Polygon","coordinates":[[[133.6002,33.697],[133.5953,33.7001],[133.5849,33.7038],[133.5786,33.6978],[133.5733,33.6944],[133.5704,33.6877],[133.5699,33.6762],[133.5665,33.6625],[133.57,33.6602],[133.5813,33.645],[133.5891,33.6371],[133.5906,33.6334],[133.586,33.6288],[133.5772,33.6261],[133.5783,33.6181],[133.5859,33.6033],[133.5937,33.5957],[133.6075,33.5918],[133.6116,33.5872],[133.6095,33.5824],[133.6116,33.5795],[133.6236,33.5774],[133.6252,33.5741],[133.6193,33.5673],[133.621,33.5641],[133.6273,33.562],[133.6324,33.5588],[133.6317,33.5563],[133.62,33.5452],[133.6111,33.5253],[133.6072,33.5205],[133.6298,33.5253],[133.65,33.529],[133.6715,33.5317],[133.6842,33.5342],[133.6892,33.5366],[133.6908,33.5413],[133.691,33.5532],[133.6893,33.5689],[133.6892,33.5748],[133.6915,33.5877],[133.6872,33.5938],[133.6792,33.6011],[133.6746,33.6101],[133.6769,33.6213],[133.6791,33.6281],[133.6787,33.6322],[133.6758,33.6403],[133.6719,33.654],[133.6695,33.6551],[133.6575,33.6558],[133.6423,33.6584],[133.6371,33.6609],[133.6309,33.6663],[133.6262,33.6732],[133.6124,33.685],[133.6046,33.6939],[133.6002,33.697]]]}},{"type":"Feature","properties":{"id":39017},"geometry":{"type":"Polygon","coordinates":[[[133.0177,33.48],[133.0234,33.479],[133.0433,33.4784],[133.0518,33.476],[133.0588,33.4752],[133.0623,33.4728],[133.0791,33.4516],[133.0832,33.4491],[133.098,33.4456],[133.1052,33.4459],[133.1138,33.4495],[133.1192,33.4542],[133.1246,33.4647],[133.133,33.4733],[133.1514,33.5016],[133.1527,33.5058],[133.161,33.523],[133.1634,33.5256],[133.1741,33.528],[133.1772,33.5299],[133.1841,33.5388],[133.1934,33.5432],[133.2025,33.5548],[133.2053,33.5666],[133.2179,33.5719],[133.22,33.575],[133.2215,33.5826],[133.2213,33.5905],[133.2235,33.5981],[133.2265,33.6019],[133.2294,33.6085],[133.2283,33.6213],[133.2287,33.6249],[133.2332,33.6341],[133.2388,33.6426],[133.2385,33.6492],[133.232,33.6606],[133.2317,33.6652],[133.2328,33.6765],[133.2309,33.6817],[133.228,33.6833],[133.2146,33.6851],[133.2078,33.6872],[133.1885,33.7002],[133.1784,33.7051],[133.1646,33.727],[133.1623,33.7418],[133.1614,33.7386],[133.1631,33.7281],[133.1517,33.7204],[133.1426,33.7111],[133.144,33.6997],[133.1335,33.6959],[133.125,33.6899],[133.1225,33.677],[133.122,33.6666],[133.111,33.6546],[133.101,33.655],[133.0899,33.6532],[133.08,33.6503],[133.0725,33.6328],[133.071,33.6228],[133.0742,33.613],[133.0819,33.6058],[133.0687,33.5972],[133.0583,33.5919],[133.0533,33.5832],[133.0488,33.5722],[133.0633,33.56],[133.0652,33.5381],[133.047,33.5265],[133.0409,33.5185],[133.0368,33.5086],[133.0181,33.4889],[133.0177,33.48]]]}},{"type":"Feature","properties":{"id":39018},"geometry":{"type":"Polygon","coordinates":[[[133.3101,33.5794],[133.3085,33.584],[133.3039,33.5867],[133.2954,33.5841],[133.2909,33.584],[133.2843,33.5891],[133.2804,33.6023],[133.2762,33.6063],[133.2686,33.6072],[133.2532,33.6076],[133.2402,33.6044],[133.2265,33.6019],[133.2235,33.5981],[133.2213,33.5905],[133.2215,33.5826],[133.22,33.575],[133.2179,33.5719],[133.2053,33.5666],[133.2025,33.5548],[133.1934,33.5432],[133.1841,33.5388],[133.1772,33.5299],[133.1741,33.528],[133.1634,33.5256],[133.161,33.523],[133.1527,33.5058],[133.1514,33.5016],[133.133,33.4733],[133.1246,33.4647],[133.1192,33.4542],[133.1295,33.4545],[133.1402,33.4556],[133.1502,33.4588],[133.1563,33.4626],[133.1633,33.4639],[133.1842,33.4655],[133.1915,33.4665],[133.1932,33.4829],[133.199,33.4953],[133.2015,33.5037],[133.2043,33.5073],[133.2109,33.5089],[133.2204,33.5082],[133.2254,33.5068],[133.2321,33.5068],[133.2352,33.5082],[133.24,33.5143],[133.2448,33.5153],[133.2552,33.5153],[133.2612,33.5166],[133.2663,33.5192],[133.2718,33.5243],[133.274,33.5307],[133.2733,33.5432],[133.2756,33.5503],[133.2811,33.5553],[133.2942,33.5608],[133.3002,33.562],[133.3051,33.5676],[133.3101,33.5794]]]}},{"type":"Feature","properties":{"id":39019},"geometry":{"type":"Polygon","coordinates":[[[133.3337,33.8159],[133.3439,33.8014],[133.3473,33.7988],[133.3573,33.7959],[133.3608,33.7935],[133.3642,33.7874],[133.3672,33.7789],[133.3714,33.7722],[133.3732,33.7667],[133.3819,33.7569],[133.3933,33.7562],[133.406,33.7587],[133.429,33.7612],[133.4413,33.7646],[133.4506,33.7662],[133.4679,33.7723],[133.4758,33.7783],[133.4862,33.7838],[133.4979,33.7871],[133.5005,33.7888],[133.5003,33.795],[133.4947,33.8016],[133.4926,33.807],[133.4923,33.819],[133.4934,33.8263],[133.4963,33.8265],[133.49,33.8271],[133.4735,33.8332],[133.4569,33.8333],[133.4404,33.8309],[133.4302,33.8333],[133.4205,33.8367],[133.4062,33.8333],[133.3951,33.823],[133.3848,33.8233],[133.3655,33.829],[133.3547,33.8285],[133.3473,33.8213],[133.3367,33.8185],[133.3337,33.8159]]]}},{"type":"Feature","properties":{"id":39020},"geometry":{"type":"Polygon","coordinates":[[[133.5775,33.8678],[133.5852,33.8621],[133.5863,33.8575],[133.5907,33.8486],[133.5941,33.8381],[133.6006,33.8316],[133.6152,33.8238],[133.6308,33.8172],[133.6432,33.8097],[133.6465,33.7985],[133.6488,33.7933],[133.648,33.7883],[133.6396,33.7776],[133.6388,33.7746],[133.641,33.7696],[133.645,33.7667],[133.6493,33.7597],[133.6521,33.7329],[133.6495,33.7184],[133.6657,33.7069],[133.6716,33.7016],[133.6764,33.6939],[133.6812,33.6898],[133.6961,33.6882],[133.7001,33.6892],[133.7126,33.6961],[133.7314,33.7052],[133.7363,33.7093],[133.7446,33.7228],[133.7478,33.7246],[133.764,33.7263],[133.7696,33.7261],[133.7778,33.7235],[133.7825,33.7207],[133.79,33.7213],[133.806,33.737],[133.8251,33.7413],[133.8337,33.7544],[133.841,33.7618],[133.8521,33.7705],[133.8669,33.785],[133.8694,33.788],[133.8726,33.7955],[133.8772,33.8023],[133.875,33.8028],[133.8707,33.8123],[133.8564,33.8301],[133.842,33.8409],[133.8312,33.8416],[133.8207,33.8341],[133.8079,33.8333],[133.7909,33.8333],[133.7819,33.8388],[133.7502,33.8336],[133.7435,33.8422],[133.7336,33.8476],[133.7215,33.846],[133.7111,33.8481],[133.7009,33.8485],[133.6921,33.8537],[133.6821,33.8557],[133.6654,33.8682],[133.6632,33.8784],[133.6531,33.8794],[133.6425,33.8781],[133.6335,33.8716],[133.619,33.8736],[133.6094,33.8783],[133.595,33.8718],[133.5856,33.8643],[133.5775,33.8678]]]}},{"type":"Feature","properties":{"id":39021},"geometry":{"type":"MultiPolygon","coordinates":[[[[132.5533,32.7477],[132.55,32.7525],[132.5444,32.7547],[132.5436,32.75],[132.5467,32.7464],[132.5436,32.7428],[132.5447,32.7381],[132.5419,32.735],[132.5397,32.7264],[132.5461,32.7192],[132.5489,32.7189],[132.5503,32.7133],[132.5447,32.7114],[132.54,32.7064],[132.5436,32.7022],[132.5492,32.7069],[132.5696,32.7126],[132.5736,32.717],[132.5667,32.7261],[132.5667,32.7288],[132.5711,32.7344],[132.5675,32.7406],[132.5578,32.7433],[132.5594,32.7472],[132.5533,32.7477]]],[[[132.4908,32.7436],[132.4894,32.7439],[132.4842,32.7347],[132.4889,32.735],[132.495,32.7392],[132.4908,32.7436]]],[[[132.4901,32.8066],[132.4794,32.7987],[132.4844,32.7962],[132.4925,32.7977],[132.4959,32.7966],[132.4988,32.8027],[132.4983,32.8056],[132.4901,32.8066]]],[[[132.6273,32.7662],[132.6273,32.7736],[132.6209,32.7719],[132.6185,32.7662],[132.6273,32.7662]]],[[[132.7682,32.8347],[132.7641,32.8373],[132.7502,32.8394],[132.7459,32.8413],[132.7348,32.8497],[132.7287,32.8559],[132.7231,32.8652],[132.72,32.8663],[132.7119,32.8648],[132.7076,32.8664],[132.7,32.8782],[132.6999,32.8855],[132.6968,32.8865],[132.6885,32.8807],[132.6916,32.8773],[132.6887,32.8738],[132.6779,32.8698],[132.6743,32.8656],[132.6646,32.8598],[132.664,32.8574],[132.6585,32.8558],[132.6617,32.8496],[132.6675,32.8455],[132.6686,32.841],[132.6605,32.8402],[132.6591,32.8377],[132.6638,32.8335],[132.6607,32.8318],[132.6567,32.8239],[132.653,32.8289],[132.6493,32.8227],[132.6435,32.8192],[132.6443,32.8127],[132.6522,32.8059],[132.6494,32.8017],[132.6449,32.8008],[132.6395,32.8017],[132.6375,32.7992],[132.631,32.8016],[132.6288,32.7998],[132.6319,32.7929],[132.6346,32.7896],[132.644,32.7859],[132.6417,32.7833],[132.6361,32.7847],[132.6346,32.7827],[132.6362,32.7767],[132.6387,32.7748],[132.6398,32.7692],[132.6308,32.7673],[132.6325,32.7625],[132.6377,32.7667],[132.6418,32.7657],[132.6497,32.7661],[132.6519,32.7681],[132.6475,32.7733],[132.6486,32.7768],[132.6542,32.7778],[132.655,32.7808],[132.6625,32.7804],[132.6678,32.7842],[132.6757,32.7836],[132.6824,32.781],[132.6872,32.7864],[132.6904,32.7876],[132.6975,32.7836],[132.6989,32.7865],[132.6961,32.7896],[132.69,32.7902],[132.6917,32.7937],[132.6957,32.7934],[132.6986,32.7961],[132.7072,32.7944],[132.7109,32.7983],[132.7139,32.7943],[132.7216,32.7931],[132.7222,32.7858],[132.7259,32.7835],[132.7293,32.7781],[132.7324,32.7787],[132.7374,32.7731],[132.742,32.7732],[132.747,32.7678],[132.7496,32.7599],[132.7558,32.7536],[132.7661,32.7561],[132.7654,32.7607],[132.771,32.7615],[132.7748,32.7574],[132.7785,32.7562],[132.7803,32.7531],[132.7854,32.7571],[132.7835,32.7768],[132.7822,32.7831],[132.7787,32.7912],[132.7757,32.7947],[132.7649,32.7983],[132.7611,32.8031],[132.7614,32.8079],[132.77,32.8143],[132.7716,32.8207],[132.7701,32.8296],[132.7682,32.8347]]]]}},{"type":"Feature","properties":{"id":39022},"geometry":{"type":"Polygon","coordinates":[[[133.3002,33.562],[133.2942,33.5608],[133.2811,33.5553],[133.2756,33.5503],[133.2733,33.5432],[133.274,33.5307],[133.2718,33.5243],[133.2663,33.5192],[133.2612,33.5166],[133.2552,33.5153],[133.2448,33.5153],[133.24,33.5143],[133.2352,33.5082],[133.2321,33.5068],[133.2254,33.5068],[133.2204,33.5082],[133.2109,33.5089],[133.2043,33.5073],[133.2015,33.5037],[133.199,33.4953],[133.1932,33.4829],[133.1915,33.4665],[133.2045,33.463],[133.2214,33.4599],[133.2431,33.4583],[133.2467,33.4555],[133.2553,33.4448],[133.2611,33.4389],[133.2737,33.4415],[133.2836,33.4444],[133.2937,33.4496],[133.3004,33.4559],[133.3067,33.4606],[133.3134,33.4699],[133.3212,33.4745],[133.3312,33.482],[133.3358,33.4917],[133.3377,33.5007],[133.3447,33.5076],[133.3471,33.5127],[133.3464,33.5204],[133.3392,33.5305],[133.3291,33.5378],[133.3271,33.5407],[133.3198,33.546],[133.3059,33.5594],[133.3002,33.562]]]}},{"type":"Feature","properties":{"id":39023},"geometry":{"type":"Polygon","coordinates":[[[132.7929,33.2674],[132.789,33.2626],[132.791,33.2563],[132.7957,33.2494],[132.7979,33.2434],[132.8037,33.2357],[132.8065,33.2342],[132.8219,33.2349],[132.825,33.2335],[132.8264,33.2286],[132.8211,33.219],[132.8211,33.2136],[132.8228,33.2],[132.8255,33.1944],[132.8321,33.1901],[132.8402,33.1867],[132.8554,33.182],[132.8689,33.1756],[132.8767,33.1753],[132.8799,33.1735],[132.8806,33.1546],[132.8826,33.152],[132.8918,33.1479],[132.9151,33.1436],[132.9218,33.1353],[132.9266,33.1347],[132.9382,33.1385],[132.9532,33.146],[132.9656,33.153],[132.9746,33.155],[132.99,33.1563],[132.9984,33.1553],[133.0034,33.1477],[133.008,33.1475],[133.0171,33.1511],[133.0224,33.1505],[133.0252,33.1474],[133.0396,33.1394],[133.0492,33.1367],[133.0549,33.1335],[133.056,33.1285],[133.0531,33.1206],[133.0581,33.1165],[133.0614,33.1157],[133.0653,33.1189],[133.0696,33.1261],[133.0749,33.1382],[133.0804,33.1419],[133.0899,33.1432],[133.0925,33.1465],[133.0945,33.1585],[133.1005,33.1635],[133.1055,33.1631],[133.114,33.1605],[133.1261,33.1652],[133.1389,33.1694],[133.1436,33.172],[133.1526,33.1808],[133.1701,33.1908],[133.1746,33.1909],[133.1836,33.1856],[133.1844,33.1791],[133.1816,33.1748],[133.1736,33.1674],[133.1679,33.1638],[133.1599,33.155],[133.1594,33.1483],[133.1612,33.1451],[133.1675,33.1416],[133.1703,33.1504],[133.1814,33.1584],[133.1855,33.1637],[133.1884,33.1636],[133.1919,33.1674],[133.199,33.1678],[133.2082,33.1646],[133.206,33.1582],[133.2107,33.1534],[133.208,33.1501],[133.2117,33.1478],[133.2147,33.1511],[133.2217,33.1521],[133.2197,33.1636],[133.2203,33.1675],[133.225,33.17],[133.2217,33.1736],[133.2169,33.1758],[133.2152,33.1798],[133.2121,33.1809],[133.2113,33.1851],[133.2158,33.1916],[133.2341,33.1983],[133.2419,33.1975],[133.2406,33.2006],[133.235,33.203],[133.2397,33.212],[133.2382,33.2156],[133.2436,33.2172],[133.2467,33.2206],[133.2569,33.2253],[133.2547,33.2301],[133.2501,33.2324],[133.2553,33.2385],[133.2367,33.2368],[133.2319,33.2371],[133.2169,33.247],[133.2079,33.2518],[133.1959,33.2564],[133.1932,33.2594],[133.1927,33.2635],[133.194,33.2704],[133.194,33.284],[133.1929,33.2908],[133.1839,33.3055],[133.1792,33.3141],[133.1729,33.3177],[133.1676,33.3164],[133.1528,33.3088],[133.1286,33.3042],[133.1235,33.3046],[133.0925,33.318],[133.0835,33.3241],[133.0789,33.3291],[133.0706,33.3332],[133.0618,33.3348],[133.062,33.3397],[133.0675,33.3406],[133.0718,33.343],[133.0719,33.3478],[133.0697,33.3499],[133.0606,33.3501],[133.0572,33.3491],[133.047,33.3469],[133.0325,33.3414],[133.0299,33.324],[133.0313,33.3103],[133.0271,33.3053],[133.003,33.3061],[132.9982,33.3043],[132.9906,33.2898],[132.9855,33.2852],[132.9802,33.2848],[132.9699,33.2907],[132.9671,33.2938],[132.962,33.3035],[132.9586,33.3066],[132.9406,33.3184],[132.9344,33.3204],[132.9278,33.3209],[132.9038,33.3253],[132.9029,33.3181],[132.8985,33.3089],[132.8863,33.3037],[132.875,33.3012],[132.8669,33.295],[132.8578,33.2894],[132.8479,33.2856],[132.837,33.2846],[132.8272,33.2792],[132.8165,33.2772],[132.7966,33.2715],[132.7929,33.2674]]]}},{"type":"Feature","properties":{"id":39024},"geometry":{"type":"MultiPolygon","coordinates":[[[[132.9834,32.9375],[132.9822,32.9405],[132.9763,32.9423],[132.9792,32.9366],[132.9834,32.9375]]],[[[132.789,33.2626],[132.7809,33.2496],[132.7773,33.2305],[132.7734,33.2204],[132.7754,33.2102],[132.7719,33.2008],[132.7609,33.1982],[132.75,33.1996],[132.7416,33.1934],[132.7397,33.1829],[132.7345,33.1732],[132.7283,33.1649],[132.7202,33.1578],[132.7125,33.1493],[132.7031,33.1442],[132.6985,33.1346],[132.6888,33.1318],[132.6829,33.1407],[132.6737,33.1474],[132.6641,33.1521],[132.6581,33.1604],[132.6499,33.1666],[132.6408,33.1709],[132.6354,33.182],[132.625,33.1791],[132.618,33.1666],[132.6253,33.1571],[132.633,33.1402],[132.6315,33.1293],[132.6409,33.1243],[132.6472,33.116],[132.6551,33.1077],[132.6658,33.1055],[132.6666,33.1033],[132.6759,33.1012],[132.6904,33.0958],[132.6984,33.0906],[132.7246,33.0771],[132.7366,33.0733],[132.7478,33.0714],[132.7508,33.0669],[132.7483,33.0572],[132.748,33.0525],[132.7524,33.0437],[132.7576,33.042],[132.7718,33.0428],[132.7894,33.0407],[132.7987,33.0368],[132.8105,33.0287],[132.82,33.0183],[132.8209,33.0134],[132.8175,33.0041],[132.8177,33.0002],[132.8209,32.993],[132.8244,32.9755],[132.826,32.962],[132.8297,32.949],[132.8304,32.9393],[132.8454,32.9404],[132.854,32.9432],[132.8865,32.9456],[132.9055,32.9401],[132.9254,32.9322],[132.9429,32.9167],[132.9519,32.9141],[132.9607,32.9146],[132.9711,32.9202],[132.9774,32.9209],[132.9892,32.9196],[133.0093,32.9123],[133.0033,32.9211],[132.9969,32.9233],[132.9971,32.9281],[133.0003,32.9308],[132.9901,32.9325],[132.9834,32.9358],[132.9779,32.9346],[132.9737,32.9453],[132.9725,32.9514],[132.9773,32.949],[132.9803,32.9451],[132.985,32.9454],[132.9919,32.9394],[132.9959,32.9405],[133,32.9442],[132.9925,32.9522],[132.9944,32.9611],[132.9992,32.965],[132.9981,32.9692],[133.0039,32.9769],[132.9992,32.9801],[132.9903,32.9811],[132.9797,32.9844],[132.9779,32.9859],[132.9762,32.9978],[132.9746,33.0015],[132.9617,33.0103],[132.9588,33.0171],[132.9579,33.0276],[132.963,33.0356],[132.9621,33.0499],[132.9637,33.0541],[132.9686,33.0865],[132.9716,33.0904],[132.9752,33.092],[132.9916,33.1028],[133.0007,33.1074],[133.0093,33.1136],[133.0157,33.115],[133.0227,33.115],[133.0367,33.1121],[133.0463,33.1153],[133.0531,33.1206],[133.056,33.1285],[133.0549,33.1335],[133.0492,33.1367],[133.0396,33.1394],[133.0252,33.1474],[133.0224,33.1505],[133.0171,33.1511],[133.008,33.1475],[133.0034,33.1477],[132.9984,33.1553],[132.99,33.1563],[132.9746,33.155],[132.9656,33.153],[132.9532,33.146],[132.9382,33.1385],[132.9266,33.1347],[132.9218,33.1353],[132.9151,33.1436],[132.8918,33.1479],[132.8826,33.152],[132.8806,33.1546],[132.8799,33.1735],[132.8767,33.1753],[132.8689,33.1756],[132.8554,33.182],[132.8402,33.1867],[132.8321,33.1901],[132.8255,33.1944],[132.8228,33.2],[132.8211,33.2136],[132.8211,33.219],[132.8264,33.2286],[132.825,33.2335],[132.8219,33.2349],[132.8065,33.2342],[132.8037,33.2357],[132.7979,33.2434],[132.7957,33.2494],[132.791,33.2563],[132.789,33.2626]]]]}},{"type":"Feature","properties":{"id":39025},"geometry":{"type":"MultiPolygon","coordinates":[[[[132.6941,32.9185],[132.6878,32.9181],[132.6884,32.9127],[132.6926,32.9128],[132.695,32.9095],[132.7008,32.9112],[132.7052,32.9166],[132.6941,32.9185]]],[[[132.6614,33.0547],[132.6603,33.0534],[132.6757,33.0401],[132.681,33.0282],[132.6792,33.0178],[132.6793,33.0075],[132.6861,33],[132.6864,32.9852],[132.6892,32.975],[132.6887,32.9639],[132.6846,32.9544],[132.6855,32.9431],[132.6759,32.9395],[132.6649,32.9387],[132.6621,32.9226],[132.6666,32.9217],[132.6756,32.9228],[132.6847,32.9193],[132.6905,32.9205],[132.6895,32.9244],[132.6946,32.9265],[132.694,32.9212],[132.7,32.9179],[132.7028,32.9249],[132.7145,32.9284],[132.7099,32.9231],[132.7117,32.9178],[132.7163,32.9089],[132.7122,32.9072],[132.7166,32.9004],[132.7218,32.8993],[132.7188,32.8943],[132.7111,32.8936],[132.7085,32.8921],[132.7142,32.8852],[132.7207,32.8814],[132.7196,32.877],[132.7142,32.8828],[132.7094,32.8814],[132.7058,32.8882],[132.6999,32.8855],[132.7,32.8782],[132.7076,32.8664],[132.7119,32.8648],[132.72,32.8663],[132.7231,32.8652],[132.7287,32.8559],[132.7348,32.8497],[132.7459,32.8413],[132.7502,32.8394],[132.7641,32.8373],[132.7682,32.8347],[132.772,32.8381],[132.7851,32.8464],[132.7859,32.8505],[132.7846,32.8632],[132.7861,32.8726],[132.7881,32.8774],[132.777,32.8842],[132.772,32.8911],[132.7723,32.895],[132.7784,32.9063],[132.7827,32.911],[132.7865,32.9083],[132.7915,32.9025],[132.8009,32.9021],[132.804,32.904],[132.8051,32.9078],[132.8044,32.9149],[132.8074,32.9192],[132.8199,32.9236],[132.8271,32.9329],[132.8304,32.9393],[132.8297,32.949],[132.826,32.962],[132.8244,32.9755],[132.8209,32.993],[132.8177,33.0002],[132.8175,33.0041],[132.8209,33.0134],[132.82,33.0183],[132.8105,33.0287],[132.7987,33.0368],[132.7894,33.0407],[132.7718,33.0428],[132.7576,33.042],[132.7524,33.0437],[132.748,33.0525],[132.7483,33.0572],[132.7508,33.0669],[132.7478,33.0714],[132.7366,33.0733],[132.7246,33.0771],[132.6984,33.0906],[132.6904,33.0958],[132.6759,33.1012],[132.6666,33.1033],[132.6703,33.0928],[132.6722,33.0829],[132.6708,33.0712],[132.6669,33.0611],[132.6614,33.0547]]]]}},{"type":"Feature","properties":{"id":39026},"geometry":{"type":"MultiPolygon","coordinates":[[[[133.303,33.3575],[133.3027,33.3642],[133.2972,33.3613],[133.303,33.3575]]],[[[133.1764,33.4027],[133.1783,33.3815],[133.1799,33.3773],[133.1836,33.3751],[133.1902,33.3751],[133.218,33.3775],[133.2254,33.3764],[133.2354,33.3681],[133.2401,33.363],[133.2474,33.3578],[133.249,33.3552],[133.2608,33.3459],[133.2645,33.3504],[133.2629,33.354],[133.2649,33.3571],[133.2634,33.3613],[133.259,33.3641],[133.2635,33.3691],[133.2749,33.375],[133.2812,33.3761],[133.2822,33.3783],[133.278,33.3838],[133.2843,33.3867],[133.291,33.3864],[133.2965,33.39],[133.2961,33.3926],[133.2907,33.3981],[133.2897,33.4021],[133.2925,33.4055],[133.2958,33.3992],[133.3029,33.3918],[133.292,33.3841],[133.2901,33.3816],[133.299,33.3791],[133.2988,33.374],[133.3041,33.3759],[133.3036,33.3783],[133.3093,33.3794],[133.3131,33.3759],[133.3194,33.3825],[133.3241,33.378],[133.3228,33.3732],[133.3122,33.3633],[133.3173,33.3588],[133.3222,33.3606],[133.3276,33.3661],[133.3276,33.3707],[133.3331,33.3761],[133.331,33.3803],[133.3303,33.3865],[133.3324,33.3902],[133.3432,33.3935],[133.3412,33.3955],[133.3464,33.4005],[133.3533,33.3995],[133.3597,33.4024],[133.3661,33.4001],[133.3834,33.4024],[133.3905,33.4061],[133.3934,33.402],[133.4006,33.4046],[133.4046,33.4006],[133.412,33.4054],[133.4121,33.4096],[133.4245,33.4127],[133.4288,33.4109],[133.4296,33.415],[133.4365,33.4144],[133.4402,33.4126],[133.4436,33.4196],[133.4528,33.4211],[133.4586,33.4189],[133.4583,33.4265],[133.4627,33.4307],[133.4571,33.4331],[133.4486,33.434],[133.4454,33.4398],[133.4404,33.4372],[133.4385,33.4333],[133.4344,33.4331],[133.435,33.429],[133.4325,33.4275],[133.4286,33.4302],[133.4235,33.4305],[133.4214,33.4365],[133.4179,33.439],[133.4146,33.4372],[133.4116,33.4306],[133.4042,33.4258],[133.4002,33.4211],[133.3949,33.4243],[133.3934,33.4183],[133.3886,33.4213],[133.3847,33.421],[133.3852,33.4121],[133.3836,33.4119],[133.3714,33.4253],[133.3687,33.4197],[133.3691,33.41],[133.3629,33.4076],[133.3651,33.4133],[133.3556,33.42],[133.3611,33.4215],[133.3644,33.4264],[133.369,33.43],[133.3832,33.4301],[133.3905,33.4262],[133.3972,33.429],[133.4017,33.4327],[133.4066,33.4332],[133.408,33.4386],[133.4027,33.4396],[133.3975,33.4446],[133.4101,33.4431],[133.4171,33.4436],[133.42,33.4497],[133.4234,33.4472],[133.4307,33.4487],[133.4297,33.46],[133.4236,33.4629],[133.407,33.4614],[133.3984,33.459],[133.3844,33.4479],[133.3795,33.4463],[133.3698,33.4492],[133.362,33.4477],[133.3575,33.4438],[133.337,33.4375],[133.3268,33.4359],[133.3199,33.4339],[133.3145,33.4356],[133.3126,33.4383],[133.3093,33.4523],[133.3067,33.4606],[133.3004,33.4559],[133.2937,33.4496],[133.2836,33.4444],[133.2737,33.4415],[133.2611,33.4389],[133.2452,33.4313],[133.2197,33.4287],[133.2136,33.4248],[133.2109,33.4207],[133.2093,33.4086],[133.2064,33.405],[133.1968,33.398],[133.1929,33.3972],[133.1803,33.4009],[133.1764,33.4027]]]]}},{"type":"Feature","properties":{"id":39027},"geometry":{"type":"Polygon","coordinates":[[[134.0238,33.4568],[134.019,33.4533],[134.0128,33.4465],[133.9998,33.4343],[133.9966,33.4268],[134.0034,33.4257],[134.0122,33.4214],[134.0175,33.4225],[134.022,33.4289],[134.0282,33.4355],[134.0337,33.4453],[134.029,33.4517],[134.0238,33.4568]]]}},{"type":"Feature","properties":{"id":39028},"geometry":{"type":"Polygon","coordinates":[[[133.4963,33.8265],[133.4934,33.8263],[133.4923,33.819],[133.4926,33.807],[133.4947,33.8016],[133.5003,33.795],[133.5005,33.7888],[133.4979,33.7871],[133.4862,33.7838],[133.4758,33.7783],[133.4679,33.7723],[133.4506,33.7662],[133.4413,33.7646],[133.429,33.7612],[133.406,33.7587],[133.3933,33.7562],[133.3819,33.7569],[133.3758,33.7469],[133.3749,33.74],[133.3717,33.7326],[133.3728,33.7275],[133.3833,33.7156],[133.3894,33.7076],[133.3914,33.702],[133.3945,33.6977],[133.3994,33.694],[133.4018,33.6899],[133.4027,33.682],[133.4064,33.6788],[133.4106,33.6799],[133.4302,33.6897],[133.4341,33.691],[133.4413,33.6908],[133.4457,33.6891],[133.4497,33.6833],[133.4523,33.6744],[133.4588,33.6657],[133.4842,33.6674],[133.4961,33.6665],[133.5136,33.6677],[133.5213,33.6725],[133.5287,33.676],[133.5349,33.6757],[133.5519,33.6646],[133.5665,33.6625],[133.5699,33.6762],[133.5704,33.6877],[133.5733,33.6944],[133.5786,33.6978],[133.5849,33.7038],[133.5816,33.7307],[133.5806,33.7354],[133.5727,33.7503],[133.5672,33.7541],[133.5603,33.757],[133.5424,33.7691],[133.5325,33.7804],[133.5268,33.7936],[133.5234,33.8041],[133.5164,33.8185],[133.5108,33.8283],[133.5101,33.833],[133.5,33.8261],[133.4963,33.8265]]]}},{"type":"Feature","properties":{"id":39029},"geometry":{"type":"Polygon","coordinates":[[[133.4689,33.4733],[133.4672,33.4814],[133.464,33.4849],[133.4568,33.4874],[133.4519,33.4913],[133.4413,33.5048],[133.4314,33.5188],[133.4271,33.5196],[133.4197,33.5155],[133.4135,33.5136],[133.3962,33.513],[133.3952,33.5114],[133.3857,33.506],[133.3659,33.499],[133.3598,33.4954],[133.3546,33.495],[133.3377,33.5007],[133.3358,33.4917],[133.3312,33.482],[133.3212,33.4745],[133.3134,33.4699],[133.3067,33.4606],[133.3093,33.4523],[133.3126,33.4383],[133.3145,33.4356],[133.3199,33.4339],[133.3268,33.4359],[133.337,33.4375],[133.3575,33.4438],[133.362,33.4477],[133.3698,33.4492],[133.3795,33.4463],[133.3844,33.4479],[133.3984,33.459],[133.407,33.4614],[133.4236,33.4629],[133.4297,33.46],[133.4307,33.4487],[133.4234,33.4472],[133.4233,33.4401],[133.4303,33.4372],[133.437,33.4382],[133.4393,33.4455],[133.4426,33.4495],[133.449,33.4521],[133.4566,33.4467],[133.4756,33.457],[133.4785,33.4579],[133.4795,33.4658],[133.4767,33.4688],[133.4689,33.4733]]]}},{"type":"Feature","properties":{"id":39030},"geometry":{"type":"Polygon","coordinates":[[[132.9254,32.9322],[132.9195,32.9276],[132.9145,32.9222],[132.9101,32.9129],[132.9097,32.9032],[132.9129,32.889],[132.9123,32.8852],[132.9053,32.8782],[132.9,32.8756],[132.8882,32.874],[132.8818,32.8745],[132.8642,32.8722],[132.8532,32.8689],[132.8456,32.8647],[132.839,32.8642],[132.8198,32.8696],[132.8112,32.8733],[132.8011,32.88],[132.7961,32.8802],[132.7881,32.8774],[132.7861,32.8726],[132.7846,32.8632],[132.7859,32.8505],[132.7851,32.8464],[132.772,32.8381],[132.7682,32.8347],[132.7701,32.8296],[132.7716,32.8207],[132.77,32.8143],[132.7614,32.8079],[132.7611,32.8031],[132.7649,32.7983],[132.7757,32.7947],[132.7787,32.7912],[132.7822,32.7831],[132.7835,32.7768],[132.7854,32.7571],[132.7891,32.7498],[132.7924,32.7478],[132.7959,32.749],[132.8008,32.7481],[132.8039,32.7522],[132.8119,32.7534],[132.8153,32.7525],[132.819,32.7601],[132.8267,32.7619],[132.8278,32.7656],[132.8333,32.765],[132.8383,32.7722],[132.8369,32.7758],[132.8403,32.7808],[132.8481,32.7797],[132.8519,32.7861],[132.8638,32.7877],[132.8701,32.787],[132.8707,32.7772],[132.8665,32.7738],[132.869,32.7668],[132.8781,32.7686],[132.88,32.7717],[132.8764,32.7741],[132.8808,32.7833],[132.8758,32.7867],[132.8793,32.7902],[132.8826,32.7878],[132.8883,32.7903],[132.8959,32.7885],[132.9124,32.7874],[132.92,32.7841],[132.9189,32.7783],[132.929,32.7827],[132.9326,32.7795],[132.9342,32.7861],[132.9464,32.7802],[132.9403,32.7794],[132.9392,32.7748],[132.9408,32.7713],[132.9473,32.7652],[132.9521,32.7708],[132.9568,32.768],[132.9533,32.766],[132.9529,32.7588],[132.9542,32.7567],[132.9627,32.7578],[132.9636,32.7505],[132.97,32.7501],[132.9707,32.745],[132.9654,32.737],[132.9646,32.7316],[132.9686,32.7286],[132.9725,32.7317],[132.9785,32.7311],[132.9861,32.7331],[132.9896,32.7292],[132.9951,32.7297],[132.9992,32.7231],[133.0042,32.7211],[133.02,32.7233],[133.0228,32.7267],[133.0225,32.7306],[133.0189,32.7422],[133.0194,32.7447],[133.0158,32.7497],[133.0167,32.7647],[133.0128,32.7672],[133.0089,32.7753],[133.0031,32.7817],[133.0036,32.7864],[132.9949,32.7902],[132.9904,32.7905],[132.9795,32.7937],[132.9746,32.7986],[132.9657,32.7992],[132.9641,32.8033],[132.96,32.8036],[132.9536,32.8127],[132.9516,32.813],[132.9501,32.8229],[132.951,32.8254],[132.9588,32.8262],[132.9596,32.8301],[132.9569,32.8346],[132.9573,32.8396],[132.955,32.8456],[132.9563,32.8513],[132.9496,32.8564],[132.9523,32.8612],[132.9596,32.8619],[132.9657,32.8653],[132.9829,32.8645],[132.9866,32.8676],[132.9933,32.8621],[132.9968,32.864],[132.9942,32.8676],[132.9989,32.873],[133.0019,32.8786],[133.0056,32.8783],[133.01,32.8814],[133.01,32.8903],[133.0075,32.8928],[133.0092,32.8969],[133.0075,32.9006],[133.0093,32.9123],[132.9892,32.9196],[132.9774,32.9209],[132.9711,32.9202],[132.9607,32.9146],[132.9519,32.9141],[132.9429,32.9167],[132.9254,32.9322]]]}},{"type":"Feature","properties":{"id":39031},"geometry":{"type":"Polygon","coordinates":[[[134.198,33.5595],[134.1948,33.5584],[134.1974,33.5465],[134.2047,33.5262],[134.2089,33.5204],[134.211,33.5118],[134.2105,33.5074],[134.2037,33.4978],[134.1907,33.4862],[134.1978,33.4802],[134.2145,33.463],[134.2279,33.4556],[134.2288,33.4528],[134.2298,33.4394],[134.2343,33.4359],[134.236,33.4421],[134.2419,33.451],[134.2413,33.4583],[134.243,33.4642],[134.2497,33.4729],[134.2574,33.4854],[134.26,33.4865],[134.2634,33.4919],[134.2688,33.4939],[134.269,33.4996],[134.272,33.5046],[134.284,33.5149],[134.2888,33.5171],[134.2837,33.5234],[134.2863,33.5308],[134.29,33.532],[134.2941,33.5374],[134.3013,33.5383],[134.2998,33.5409],[134.3056,33.548],[134.2901,33.5562],[134.2784,33.5568],[134.2684,33.5527],[134.2583,33.5499],[134.2319,33.5551],[134.2246,33.562],[134.2135,33.5626],[134.1985,33.5574],[134.198,33.5595]]]}},{"type":"Feature","properties":{"id":39032},"geometry":{"type":"Polygon","coordinates":[[[132.9989,33.4719],[132.9946,33.4696],[132.9974,33.4482],[132.997,33.4427],[132.9923,33.4353],[132.9916,33.4258],[132.9892,33.4201],[132.9845,33.4147],[132.9734,33.4093],[132.9669,33.4074],[132.9622,33.403],[132.9595,33.3946],[132.9622,33.3875],[132.9653,33.3829],[132.9736,33.3813],[132.9803,33.3866],[132.9847,33.3869],[132.9879,33.3843],[132.9953,33.3696],[132.9965,33.3645],[133.0031,33.354],[133.01,33.3493],[133.0182,33.3459],[133.0325,33.3414],[133.047,33.3469],[133.0572,33.3491],[133.0591,33.365],[133.0614,33.37],[133.0675,33.3774],[133.0727,33.3823],[133.0774,33.383],[133.0943,33.3717],[133.1001,33.3712],[133.1061,33.3777],[133.1084,33.3829],[133.109,33.3951],[133.1119,33.4082],[133.1164,33.418],[133.1211,33.4206],[133.1286,33.4204],[133.1404,33.4179],[133.1475,33.4177],[133.1592,33.4162],[133.1646,33.4145],[133.1764,33.4027],[133.1803,33.4009],[133.1929,33.3972],[133.1968,33.398],[133.2064,33.405],[133.2093,33.4086],[133.2109,33.4207],[133.2136,33.4248],[133.2197,33.4287],[133.2452,33.4313],[133.2611,33.4389],[133.2553,33.4448],[133.2467,33.4555],[133.2431,33.4583],[133.2214,33.4599],[133.2045,33.463],[133.1915,33.4665],[133.1842,33.4655],[133.1633,33.4639],[133.1563,33.4626],[133.1502,33.4588],[133.1402,33.4556],[133.1295,33.4545],[133.1192,33.4542],[133.1138,33.4495],[133.1052,33.4459],[133.098,33.4456],[133.0832,33.4491],[133.0791,33.4516],[133.0623,33.4728],[133.0588,33.4752],[133.0518,33.476],[133.0433,33.4784],[133.0234,33.479],[133.0177,33.48],[133.0176,33.4776],[132.9989,33.4719]]]}},{"type":"Feature","properties":{"id":39033},"geometry":{"type":"Polygon","coordinates":[[[134.0327,33.549],[134.0575,33.5324],[134.0639,33.5253],[134.0737,33.5348],[134.0805,33.5444],[134.0895,33.5626],[134.0922,33.5745],[134.0919,33.5852],[134.0932,33.5889],[134.1004,33.5944],[134.1162,33.5952],[134.1293,33.5915],[134.1346,33.5916],[134.1411,33.5935],[134.1456,33.5963],[134.1506,33.6013],[134.1544,33.6081],[134.1585,33.6095],[134.1569,33.6185],[134.1541,33.6282],[134.165,33.6318],[134.1729,33.6383],[134.178,33.6509],[134.1724,33.6662],[134.1781,33.675],[134.1665,33.6849],[134.1654,33.6847],[134.1559,33.6828],[134.1451,33.6843],[134.1362,33.6901],[134.1264,33.6926],[134.1141,33.6919],[134.0925,33.6895],[134.0815,33.6866],[134.0665,33.6873],[134.0669,33.6903],[134.0581,33.6902],[134.0547,33.6847],[134.0526,33.6779],[134.0536,33.6721],[134.0618,33.6669],[134.0629,33.6557],[134.0616,33.651],[134.0582,33.6476],[134.0359,33.6359],[134.0262,33.6261],[134.0161,33.6088],[134.0217,33.6035],[134.0222,33.6002],[134.0192,33.5952],[134.0157,33.5864],[134.0121,33.5826],[134.0106,33.5767],[134.0114,33.5702],[134.0132,33.5671],[134.0207,33.5652],[134.0273,33.5587],[134.0327,33.549]]]}},{"type":"Feature","properties":{"id":39034},"geometry":{"type":"Polygon","coordinates":[[[133.9589,33.4429],[133.9658,33.4404],[133.971,33.4399],[133.976,33.4365],[133.98,33.436],[133.9871,33.43],[133.9966,33.4268],[133.9998,33.4343],[134.0128,33.4465],[134.019,33.4533],[134.0238,33.4568],[134.0265,33.4733],[134.0264,33.4805],[134.0305,33.4949],[134.0354,33.5042],[134.0533,33.5136],[134.0616,33.5217],[134.0639,33.5253],[134.0575,33.5324],[134.0327,33.549],[134.0234,33.5406],[134.0125,33.5238],[134.0099,33.5213],[133.9955,33.5142],[133.9903,33.511],[133.9879,33.5059],[133.9848,33.4799],[133.9808,33.4771],[133.9711,33.4675],[133.9683,33.4556],[133.9589,33.4429]]]}},{"type":"Feature","properties":{"id":39035},"geometry":{"type":"Polygon","coordinates":[[[132.9038,33.3253],[132.9278,33.3209],[132.9344,33.3204],[132.9406,33.3184],[132.9586,33.3066],[132.962,33.3035],[132.9671,33.2938],[132.9699,33.2907],[132.9802,33.2848],[132.9855,33.2852],[132.9906,33.2898],[132.9982,33.3043],[133.003,33.3061],[133.0271,33.3053],[133.0313,33.3103],[133.0299,33.324],[133.0325,33.3414],[133.0182,33.3459],[133.01,33.3493],[133.0031,33.354],[132.9965,33.3645],[132.9953,33.3696],[132.9879,33.3843],[132.9847,33.3869],[132.9803,33.3866],[132.9736,33.3813],[132.9653,33.3829],[132.9622,33.3875],[132.9595,33.3946],[132.9622,33.403],[132.9669,33.4074],[132.9734,33.4093],[132.9845,33.4147],[132.9892,33.4201],[132.9916,33.4258],[132.9923,33.4353],[132.997,33.4427],[132.9974,33.4482],[132.9946,33.4696],[132.9989,33.4719],[132.9897,33.4697],[132.9788,33.468],[132.9679,33.4647],[132.9567,33.4632],[132.9463,33.4686],[132.935,33.4671],[132.9244,33.4648],[132.9125,33.4654],[132.8986,33.4685],[132.8858,33.4695],[132.8738,33.4677],[132.8621,33.4724],[132.8465,33.4742],[132.826,33.4694],[132.8193,33.4619],[132.8095,33.4568],[132.8173,33.4472],[132.8272,33.4432],[132.8283,33.4327],[132.8276,33.4224],[132.8363,33.4166],[132.835,33.4033],[132.8427,33.3948],[132.8528,33.3949],[132.8556,33.3847],[132.8594,33.3736],[132.8644,33.3641],[132.887,33.358],[132.8942,33.3509],[132.9006,33.3426],[132.9049,33.3333],[132.9038,33.3253]]]}}]}