{"type":"FeatureCollection","features":[{"type":"Feature","properties":{"id":4001},"geometry":{"type":"MultiPolygon","coordinates":[[[[141.1275,38.3401],[141.1284,38.3448],[141.1152,38.3349],[141.1173,38.3305],[141.1217,38.3297],[141.1236,38.3246],[141.1287,38.3275],[141.1315,38.3354],[141.1275,38.3401]]],[[[141.0983,38.3337],[141.0926,38.3365],[141.0852,38.3337],[141.0883,38.3307],[141.0983,38.3337]]],[[[141.1156,38.337],[141.108,38.3387],[141.1089,38.3336],[141.1156,38.337]]],[[[141.1236,38.3541],[141.1207,38.3531],[141.1243,38.3482],[141.1272,38.3519],[141.1236,38.3541]]],[[[141.1239,38.3792],[141.1259,38.3798],[141.134,38.3763],[141.138,38.3707],[141.1329,38.3599],[141.1429,38.3598],[141.1496,38.3567],[141.1405,38.3536],[141.1428,38.3483],[141.149,38.3423],[141.1465,38.3384],[141.1361,38.3405],[141.1317,38.3386],[141.1393,38.3264],[141.1437,38.3228],[141.1459,38.3259],[141.155,38.3219],[141.1561,38.3246],[141.1632,38.3279],[141.1687,38.3235],[141.1771,38.322],[141.1782,38.3245],[141.1719,38.3262],[141.1665,38.3333],[141.1691,38.3409],[141.1665,38.344],[141.1678,38.3481],[141.1654,38.3541],[141.1594,38.3469],[141.1547,38.3497],[141.1584,38.3519],[141.1591,38.3646],[141.167,38.372],[141.1931,38.3855],[141.2213,38.3978],[141.2415,38.404],[141.2505,38.4057],[141.2561,38.4078],[141.2662,38.4075],[141.2655,38.412],[141.2576,38.411],[141.2453,38.4119],[141.2486,38.4184],[141.2531,38.4134],[141.2527,38.4262],[141.255,38.4328],[141.2605,38.4404],[141.2603,38.4451],[141.2375,38.4658],[141.2287,38.4669],[141.2201,38.4641],[141.2082,38.456],[141.2005,38.4535],[141.1857,38.4569],[141.1763,38.4623],[141.1706,38.4578],[141.156,38.4496],[141.1369,38.4365],[141.1328,38.437],[141.1279,38.4411],[141.12,38.4456],[141.1186,38.4254],[141.1178,38.4212],[141.1131,38.4176],[141.1051,38.4134],[141.1041,38.4057],[141.1082,38.4001],[141.118,38.3936],[141.1236,38.3838],[141.1239,38.3792]]]]}},{"type":"Feature","properties":{"id":4002},"geometry":{"type":"MultiPolygon","coordinates":[[[[141.5701,38.3128],[141.5664,38.3135],[141.5598,38.3088],[141.553,38.3068],[141.5476,38.3019],[141.5523,38.2926],[141.5521,38.2885],[141.5587,38.2809],[141.568,38.2763],[141.5761,38.2687],[141.5777,38.2716],[141.586,38.2771],[141.5817,38.2792],[141.5832,38.2823],[141.58,38.2866],[141.5826,38.2883],[141.5832,38.2932],[141.5873,38.296],[141.589,38.3022],[141.5811,38.3058],[141.5692,38.3081],[141.5701,38.3128]]],[[[141.5961,38.4014],[141.5905,38.4006],[141.5917,38.3946],[141.5995,38.3975],[141.5961,38.4014]]],[[[141.468,38.2812],[141.4619,38.2832],[141.46,38.2804],[141.4629,38.2772],[141.4577,38.2707],[141.4587,38.2674],[141.4666,38.268],[141.4712,38.2642],[141.4761,38.2523],[141.4937,38.2508],[141.4953,38.2556],[141.4901,38.2603],[141.4907,38.2636],[141.4876,38.27],[141.4842,38.2727],[141.4799,38.2793],[141.4701,38.2831],[141.468,38.2812]]],[[[141.4203,38.3061],[141.422,38.3089],[141.4158,38.3117],[141.4114,38.3086],[141.4097,38.3022],[141.4125,38.2997],[141.4058,38.2886],[141.4097,38.2856],[141.4189,38.2889],[141.422,38.2875],[141.4247,38.2914],[141.4231,38.3],[141.4203,38.3061]]],[[[141.4063,38.4262],[141.4063,38.4232],[141.4099,38.4175],[141.399,38.4127],[141.3956,38.4148],[141.3882,38.4144],[141.3826,38.4163],[141.3777,38.4137],[141.373,38.4161],[141.367,38.4107],[141.3688,38.4058],[141.3677,38.402],[141.3701,38.3995],[141.3666,38.3898],[141.3685,38.3848],[141.3741,38.3831],[141.3788,38.3848],[141.386,38.384],[141.3925,38.3893],[141.3968,38.3912],[141.4023,38.3985],[141.4087,38.4038],[141.4111,38.3953],[141.4155,38.3913],[141.4188,38.3963],[141.4236,38.3948],[141.4309,38.3985],[141.4309,38.3924],[141.4256,38.3897],[141.4234,38.3834],[141.4308,38.3807],[141.4375,38.3816],[141.4385,38.3793],[141.4338,38.3762],[141.4364,38.3718],[141.4399,38.3749],[141.4461,38.376],[141.4535,38.3754],[141.4536,38.3712],[141.4476,38.3714],[141.4425,38.3696],[141.4403,38.3649],[141.4364,38.3659],[141.4294,38.3644],[141.4228,38.3558],[141.4194,38.3544],[141.4166,38.3463],[141.421,38.3473],[141.4332,38.3452],[141.4346,38.341],[141.4406,38.3442],[141.4397,38.3461],[141.4453,38.352],[141.4476,38.3499],[141.4521,38.3405],[141.4549,38.3443],[141.4539,38.3467],[141.4581,38.3504],[141.4618,38.3511],[141.4643,38.3393],[141.4636,38.3357],[141.4737,38.3337],[141.4742,38.3295],[141.468,38.3267],[141.4668,38.3222],[141.4581,38.322],[141.451,38.3176],[141.4595,38.3124],[141.4599,38.31],[141.4664,38.3057],[141.4704,38.3078],[141.4801,38.3067],[141.4909,38.3086],[141.497,38.3044],[141.4918,38.2943],[141.4962,38.2917],[141.5065,38.2971],[141.51,38.2918],[141.5093,38.2818],[141.5122,38.2752],[141.5182,38.2716],[141.5224,38.2713],[141.5269,38.2764],[141.5246,38.2819],[141.5267,38.2955],[141.5311,38.3013],[141.5351,38.3002],[141.5399,38.303],[141.5418,38.3126],[141.5398,38.3185],[141.5328,38.3187],[141.5289,38.3214],[141.5255,38.3267],[141.5305,38.3286],[141.5344,38.3394],[141.5259,38.3466],[141.5229,38.351],[141.5241,38.3559],[141.5196,38.359],[141.5199,38.3661],[141.5124,38.3707],[141.5072,38.3707],[141.4983,38.3686],[141.4936,38.3705],[141.4903,38.3671],[141.4856,38.3698],[141.4815,38.3749],[141.4845,38.3793],[141.4967,38.3807],[141.5067,38.3836],[141.509,38.3904],[141.5163,38.3891],[141.5262,38.3888],[141.5271,38.3839],[141.5307,38.3813],[141.5343,38.3865],[141.5407,38.3885],[141.5384,38.3936],[141.539,38.4001],[141.5343,38.4021],[141.5319,38.3986],[141.5234,38.3973],[141.522,38.3942],[141.5077,38.3974],[141.5038,38.4013],[141.4974,38.3983],[141.4887,38.3926],[141.4751,38.3879],[141.4695,38.3879],[141.4621,38.3913],[141.4474,38.4044],[141.4402,38.4134],[141.4359,38.4145],[141.4225,38.415],[141.4166,38.4165],[141.4084,38.4216],[141.4063,38.4262]]],[[[141.4263,38.3802],[141.4195,38.3806],[141.4203,38.3756],[141.4263,38.3802]]],[[[141.1763,38.4623],[141.1857,38.4569],[141.2005,38.4535],[141.2082,38.456],[141.2201,38.4641],[141.2287,38.4669],[141.2375,38.4658],[141.2603,38.4451],[141.2605,38.4404],[141.255,38.4328],[141.2527,38.4262],[141.2531,38.4134],[141.2674,38.4154],[141.2671,38.4185],[141.2844,38.4188],[141.2764,38.4158],[141.2725,38.4128],[141.2735,38.4102],[141.2791,38.4117],[141.3014,38.4161],[141.3146,38.4112],[141.3205,38.4123],[141.3277,38.4116],[141.3339,38.4125],[141.3422,38.4121],[141.346,38.4134],[141.3584,38.4136],[141.3658,38.4114],[141.3707,38.4162],[141.3786,38.4209],[141.3787,38.4264],[141.3806,38.43],[141.3882,38.4369],[141.3936,38.4353],[141.3981,38.4369],[141.4069,38.4359],[141.4091,38.4578],[141.419,38.4845],[141.426,38.4878],[141.445,38.482],[141.4494,38.4823],[141.4579,38.4881],[141.4657,38.4906],[141.4703,38.4898],[141.4817,38.4827],[141.493,38.4802],[141.4959,38.4807],[141.4915,38.489],[141.4973,38.4953],[141.4967,38.4999],[141.491,38.4985],[141.487,38.5019],[141.4877,38.5075],[141.4806,38.5123],[141.4739,38.518],[141.4656,38.5126],[141.4685,38.5196],[141.477,38.5209],[141.4825,38.52],[141.4852,38.5163],[141.4933,38.5117],[141.5019,38.51],[141.5121,38.5133],[141.5157,38.5074],[141.5158,38.4919],[141.5226,38.4954],[141.5247,38.4893],[141.5288,38.4882],[141.537,38.4911],[141.5356,38.4931],[141.5369,38.4984],[141.5407,38.499],[141.5365,38.5081],[141.5395,38.5118],[141.5386,38.5146],[141.545,38.5209],[141.5489,38.5214],[141.5511,38.5247],[141.5436,38.5247],[141.5401,38.5276],[141.5383,38.5319],[141.5309,38.5329],[141.5312,38.5361],[141.5349,38.542],[141.5331,38.5492],[141.5242,38.5453],[141.5206,38.5395],[141.5168,38.5415],[141.5086,38.5383],[141.5068,38.5334],[141.5016,38.5363],[141.4981,38.5321],[141.4922,38.5342],[141.4864,38.5409],[141.4859,38.5467],[141.4881,38.5539],[141.4833,38.5547],[141.4785,38.5611],[141.4663,38.5604],[141.4597,38.5621],[141.46,38.5581],[141.4645,38.5555],[141.4694,38.5502],[141.4684,38.5451],[141.464,38.5446],[141.4585,38.5402],[141.4567,38.551],[141.4603,38.5537],[141.4563,38.562],[141.4629,38.564],[141.4606,38.5691],[141.4638,38.5803],[141.47,38.5814],[141.4758,38.5854],[141.4807,38.5817],[141.4877,38.5832],[141.4919,38.5873],[141.4926,38.5904],[141.498,38.5907],[141.5002,38.5936],[141.5049,38.595],[141.5012,38.6022],[141.506,38.6017],[141.5111,38.6046],[141.5184,38.6046],[141.5199,38.6072],[141.5251,38.6095],[141.5288,38.6269],[141.5274,38.6294],[141.5305,38.6356],[141.5263,38.6374],[141.5272,38.6355],[141.5089,38.6223],[141.5052,38.6202],[141.497,38.6188],[141.4847,38.6189],[141.4676,38.6178],[141.4529,38.6112],[141.4376,38.6007],[141.4324,38.5992],[141.4216,38.5996],[141.4194,38.6008],[141.4183,38.6078],[141.4145,38.612],[141.4029,38.6156],[141.3879,38.6009],[141.3839,38.5983],[141.3599,38.5905],[141.3441,38.5799],[141.3291,38.5757],[141.3203,38.5748],[141.3108,38.5716],[141.305,38.5721],[141.2993,38.5817],[141.2989,38.5862],[141.3001,38.5975],[141.2984,38.6012],[141.2841,38.6024],[141.2786,38.6015],[141.2636,38.5865],[141.2582,38.5823],[141.2479,38.5702],[141.2425,38.5623],[141.2336,38.5565],[141.2328,38.5512],[141.2289,38.5391],[141.2238,38.5366],[141.2012,38.5398],[141.1938,38.5383],[141.1884,38.5333],[141.1829,38.525],[141.1722,38.5163],[141.1723,38.5019],[141.1741,38.4958],[141.1743,38.4884],[141.1729,38.4712],[141.1763,38.4623]]]]}},{"type":"Feature","properties":{"id":4003},"geometry":{"type":"Polygon","coordinates":[[[140.94,38.1291],[140.9252,38.1316],[140.9141,38.1351],[140.9083,38.1347],[140.8955,38.1255],[140.8855,38.1109],[140.8791,38.1089],[140.8744,38.1121],[140.8692,38.1288],[140.8654,38.1323],[140.862,38.1324],[140.8537,38.1289],[140.847,38.1285],[140.8324,38.1299],[140.8188,38.1345],[140.8073,38.1375],[140.7955,38.1396],[140.7893,38.1357],[140.7826,38.1283],[140.7911,38.1182],[140.7941,38.1161],[140.8004,38.1158],[140.8102,38.1184],[140.8174,38.1182],[140.8264,38.1145],[140.8302,38.1092],[140.8298,38.0956],[140.8316,38.0914],[140.832,38.0806],[140.8402,38.0807],[140.8516,38.0783],[140.8582,38.0786],[140.8698,38.0868],[140.8757,38.0895],[140.8808,38.089],[140.8927,38.0857],[140.9083,38.0773],[140.9119,38.0721],[140.911,38.0617],[140.9117,38.0584],[140.9226,38.0484],[140.9228,38.0594],[140.9253,38.0786],[140.9289,38.0911],[140.9294,38.0983],[140.9336,38.1078],[140.9353,38.1186],[140.94,38.1291]]]}},{"type":"Feature","properties":{"id":4004},"geometry":{"type":"Polygon","coordinates":[[[140.832,38.0806],[140.8177,38.0659],[140.8053,38.0485],[140.7986,38.0438],[140.7914,38.0413],[140.7774,38.0381],[140.7535,38.0389],[140.7442,38.0338],[140.7327,38.0295],[140.7139,38.0248],[140.7008,38.023],[140.6986,38.0053],[140.696,37.9957],[140.6911,37.9827],[140.6872,37.9694],[140.6823,37.9603],[140.6878,37.9613],[140.6983,37.9614],[140.7051,37.9572],[140.705,37.9486],[140.7061,37.9457],[140.7109,37.9433],[140.724,37.9408],[140.7466,37.9461],[140.7546,37.9469],[140.7769,37.947],[140.7835,37.9456],[140.7891,37.9427],[140.7915,37.9388],[140.8001,37.9308],[140.8047,37.9298],[140.8176,37.929],[140.8378,37.9204],[140.8515,37.9107],[140.8505,37.9394],[140.8509,37.9485],[140.8493,37.9556],[140.8488,37.9677],[140.8468,37.9784],[140.845,37.9827],[140.8428,37.994],[140.8442,38.0181],[140.8371,38.0319],[140.8365,38.0352],[140.8354,38.0686],[140.832,38.0806]]]}},{"type":"Feature","properties":{"id":4005},"geometry":{"type":"Polygon","coordinates":[[[140.625,38.687],[140.625,38.682],[140.6202,38.6681],[140.6124,38.656],[140.6091,38.6455],[140.6032,38.6364],[140.5938,38.6312],[140.5831,38.6326],[140.5728,38.6353],[140.5666,38.6448],[140.5497,38.6464],[140.5447,38.6377],[140.5458,38.6264],[140.5577,38.6091],[140.5656,38.602],[140.5696,38.5917],[140.5754,38.5833],[140.5774,38.573],[140.577,38.562],[140.5732,38.5519],[140.5676,38.5425],[140.5579,38.5362],[140.5626,38.5263],[140.5723,38.5201],[140.5691,38.5101],[140.5714,38.5],[140.5795,38.4912],[140.6016,38.4842],[140.6118,38.4662],[140.6116,38.4561],[140.623,38.4523],[140.6269,38.4619],[140.6324,38.4643],[140.6513,38.47],[140.67,38.4776],[140.6733,38.4819],[140.6788,38.4922],[140.6971,38.5053],[140.7061,38.516],[140.7332,38.5258],[140.7569,38.5426],[140.7691,38.5557],[140.7763,38.5581],[140.787,38.5587],[140.7954,38.5607],[140.8038,38.5642],[140.8241,38.568],[140.8391,38.5727],[140.8515,38.5725],[140.8597,38.566],[140.8666,38.5551],[140.8752,38.547],[140.8792,38.5445],[140.8953,38.5313],[140.9017,38.5419],[140.906,38.5532],[140.9063,38.5598],[140.9032,38.5673],[140.8876,38.5761],[140.8839,38.5808],[140.8873,38.5879],[140.8892,38.6],[140.8871,38.6031],[140.8745,38.6099],[140.8663,38.6157],[140.8554,38.6255],[140.8492,38.6297],[140.8388,38.6342],[140.8292,38.6394],[140.8093,38.6581],[140.8051,38.6644],[140.795,38.6738],[140.782,38.6882],[140.7732,38.6961],[140.7686,38.6971],[140.7457,38.698],[140.7381,38.6989],[140.7273,38.7034],[140.7196,38.7052],[140.7053,38.7064],[140.6947,38.7053],[140.6899,38.702],[140.682,38.6925],[140.6751,38.6911],[140.6679,38.6925],[140.6594,38.6976],[140.6507,38.6974],[140.6414,38.6947],[140.625,38.687]]]}},{"type":"Feature","properties":{"id":4006},"geometry":{"type":"Polygon","coordinates":[[[140.7585,38.1733],[140.746,38.1799],[140.7434,38.1972],[140.7404,38.201],[140.7345,38.2037],[140.7197,38.208],[140.7083,38.2123],[140.687,38.2223],[140.6762,38.2288],[140.6672,38.2328],[140.6552,38.2475],[140.6373,38.2536],[140.6142,38.2585],[140.5992,38.2606],[140.5729,38.2621],[140.5654,38.2619],[140.5441,38.2563],[140.5255,38.2542],[140.5024,38.2551],[140.474,38.2491],[140.4715,38.229],[140.4775,38.2205],[140.4743,38.2104],[140.4819,38.1908],[140.4835,38.18],[140.4772,38.1721],[140.4725,38.1632],[140.4686,38.1533],[140.4581,38.1492],[140.4539,38.1452],[140.4492,38.1407],[140.4483,38.1309],[140.4579,38.1326],[140.4675,38.1356],[140.4803,38.1365],[140.495,38.1389],[140.5115,38.138],[140.5286,38.1337],[140.546,38.1329],[140.5492,38.1338],[140.5605,38.1413],[140.565,38.142],[140.5821,38.1408],[140.5917,38.1359],[140.6003,38.134],[140.617,38.1333],[140.6353,38.1338],[140.6472,38.1347],[140.6487,38.1453],[140.6537,38.1539],[140.6589,38.1592],[140.6634,38.1603],[140.6799,38.1559],[140.6889,38.152],[140.7054,38.1491],[140.724,38.1485],[140.7292,38.1499],[140.739,38.1544],[140.7456,38.1592],[140.7479,38.1626],[140.7585,38.1733]]]}},{"type":"Feature","properties":{"id":4007},"geometry":{"type":"MultiPolygon","coordinates":[[[[141.629,38.8787],[141.6276,38.8828],[141.6223,38.8815],[141.6171,38.8782],[141.612,38.8785],[141.6045,38.8772],[141.6016,38.8737],[141.6026,38.871],[141.6101,38.864],[141.6046,38.8621],[141.6074,38.8546],[141.6136,38.8493],[141.6118,38.8461],[141.6174,38.8418],[141.6156,38.8389],[141.6233,38.8342],[141.6269,38.8344],[141.6283,38.8387],[141.6343,38.8379],[141.638,38.8407],[141.6338,38.8462],[141.6259,38.8487],[141.6221,38.8521],[141.6268,38.854],[141.6222,38.8617],[141.6336,38.8661],[141.6319,38.8757],[141.629,38.8787]]],[[[141.4889,38.982],[141.4873,38.975],[141.4937,38.9601],[141.4945,38.9488],[141.4902,38.9274],[141.4946,38.9166],[141.4927,38.9045],[141.4743,38.8926],[141.4695,38.8825],[141.4583,38.8766],[141.4556,38.8668],[141.4634,38.8563],[141.4711,38.8476],[141.4804,38.8442],[141.4866,38.8432],[141.4954,38.8403],[141.5164,38.8301],[141.5219,38.8286],[141.5284,38.8308],[141.5304,38.8394],[141.5335,38.8428],[141.5398,38.8458],[141.5476,38.8457],[141.5609,38.8388],[141.5783,38.8228],[141.5834,38.8247],[141.5879,38.8243],[141.5974,38.8292],[141.6043,38.8292],[141.6001,38.834],[141.5916,38.8342],[141.586,38.846],[141.5838,38.8479],[141.5826,38.8534],[141.5854,38.8588],[141.5855,38.8671],[141.5904,38.8706],[141.5892,38.8759],[141.5919,38.8796],[141.5906,38.8836],[141.595,38.8879],[141.5929,38.8905],[141.5857,38.8935],[141.5802,38.9045],[141.5854,38.9081],[141.587,38.9002],[141.5913,38.8944],[141.5973,38.8929],[141.6049,38.8796],[141.6088,38.8802],[141.6153,38.8854],[141.6163,38.8883],[141.6332,38.8964],[141.6364,38.8929],[141.6349,38.8906],[141.6379,38.8849],[141.6412,38.8837],[141.6437,38.8783],[141.649,38.8749],[141.6498,38.8705],[141.6553,38.8639],[141.6653,38.8621],[141.6731,38.8566],[141.6756,38.8641],[141.6711,38.8688],[141.6714,38.8733],[141.6631,38.8816],[141.6655,38.8838],[141.6627,38.8882],[141.6688,38.8898],[141.6657,38.8955],[141.6613,38.8959],[141.6575,38.9001],[141.6516,38.9023],[141.6541,38.9068],[141.6513,38.9095],[141.6518,38.917],[141.6534,38.9186],[141.6459,38.9228],[141.6391,38.9311],[141.6436,38.9331],[141.6443,38.9438],[141.6382,38.9473],[141.6318,38.9548],[141.6419,38.9539],[141.6439,38.9555],[141.64,38.9612],[141.6364,38.9634],[141.632,38.9712],[141.5728,38.9907],[141.5505,38.9931],[141.5404,38.9923],[141.5304,38.9896],[141.5116,38.9991],[141.4995,38.9957],[141.4897,38.9851],[141.4889,38.982]]]]}},{"type":"Feature","properties":{"id":4008},"geometry":{"type":"Polygon","coordinates":[[[140.7517,38.9522],[140.7407,38.9482],[140.7307,38.9415],[140.7264,38.9316],[140.7185,38.9242],[140.7084,38.9214],[140.715,38.9135],[140.7405,38.8984],[140.7434,38.8938],[140.754,38.8731],[140.7544,38.8683],[140.7522,38.8409],[140.7566,38.8271],[140.7579,38.8184],[140.756,38.7976],[140.7511,38.7744],[140.7526,38.7694],[140.7571,38.7669],[140.7648,38.7606],[140.7702,38.7577],[140.7918,38.7518],[140.8026,38.7501],[140.8164,38.7455],[140.8268,38.7439],[140.8396,38.7341],[140.8608,38.7309],[140.8769,38.7264],[140.8842,38.7225],[140.8915,38.7212],[140.9134,38.7202],[140.9282,38.7178],[140.941,38.7137],[140.9516,38.709],[140.9649,38.7048],[140.9687,38.7018],[140.9729,38.6956],[140.9795,38.6893],[140.9799,38.6846],[140.9738,38.6753],[140.9739,38.6704],[140.9964,38.655],[141.0049,38.6445],[141.0087,38.6387],[141.0146,38.6333],[141.0204,38.6313],[141.0344,38.6294],[141.0587,38.6272],[141.0646,38.628],[141.0817,38.6348],[141.0909,38.6408],[141.1015,38.6442],[141.0946,38.6496],[141.0828,38.6607],[141.0788,38.669],[141.066,38.681],[141.0659,38.6843],[141.0766,38.6968],[141.1036,38.7155],[141.1081,38.7168],[141.1203,38.7226],[141.1297,38.7248],[141.14,38.7249],[141.1499,38.7268],[141.1652,38.7332],[141.1664,38.7382],[141.1595,38.7444],[141.1588,38.7477],[141.1605,38.7646],[141.1656,38.7782],[141.1504,38.782],[141.1429,38.7901],[141.1443,38.8016],[141.1352,38.8098],[141.125,38.8228],[141.119,38.8335],[141.134,38.8398],[141.1429,38.8472],[141.1491,38.8552],[141.1495,38.8659],[141.1363,38.8752],[141.125,38.8773],[141.1075,38.8769],[141.0997,38.8832],[141.0794,38.8771],[141.069,38.8797],[141.0587,38.879],[141.0486,38.8755],[141.0387,38.8747],[141.0296,38.8798],[141.0191,38.8806],[141.0099,38.8763],[141,38.8778],[140.9876,38.8732],[140.9746,38.8896],[140.9686,38.8986],[140.9597,38.9055],[140.9498,38.9079],[140.9272,38.9166],[140.9165,38.9198],[140.9083,38.9259],[140.898,38.9245],[140.8868,38.9247],[140.875,38.9329],[140.8654,38.9386],[140.8434,38.9485],[140.8356,38.9565],[140.825,38.9608],[140.8147,38.9616],[140.8037,38.9591],[140.7928,38.9583],[140.7768,38.9551],[140.7595,38.9551],[140.7517,38.9522]]]}},{"type":"Feature","properties":{"id":4009},"geometry":{"type":"Polygon","coordinates":[[[140.6984,37.8028],[140.7134,37.7982],[140.7214,37.7914],[140.7288,37.7831],[140.7397,37.7827],[140.75,37.7846],[140.7636,37.7821],[140.7794,37.7785],[140.7901,37.7723],[140.7979,37.7789],[140.7902,37.7864],[140.7739,37.7946],[140.7888,37.8002],[140.7995,37.7967],[140.811,37.7944],[140.8214,37.7952],[140.8313,37.7928],[140.8543,37.792],[140.861,37.8008],[140.8613,37.8113],[140.8578,37.8216],[140.8575,37.8389],[140.8587,37.8479],[140.8592,37.8509],[140.8644,37.8602],[140.8595,37.8695],[140.8637,37.8789],[140.8596,37.8881],[140.8618,37.889],[140.8533,37.9087],[140.8515,37.9107],[140.8378,37.9204],[140.8176,37.929],[140.8047,37.9298],[140.8001,37.9308],[140.7915,37.9388],[140.7891,37.9427],[140.7835,37.9456],[140.7769,37.947],[140.7546,37.9469],[140.7466,37.9461],[140.724,37.9408],[140.7109,37.9433],[140.7061,37.9457],[140.705,37.9486],[140.7051,37.9572],[140.6983,37.9614],[140.6878,37.9613],[140.6823,37.9603],[140.6778,37.9541],[140.6702,37.9501],[140.655,37.9492],[140.6384,37.9448],[140.6343,37.9423],[140.63,37.9357],[140.6286,37.9283],[140.62,37.9088],[140.6219,37.9092],[140.6298,37.8962],[140.6506,37.8959],[140.6635,37.8978],[140.6756,37.89],[140.6855,37.8875],[140.6919,37.8793],[140.6861,37.8709],[140.6908,37.8619],[140.6943,37.8504],[140.6897,37.8404],[140.6827,37.8333],[140.6881,37.8221],[140.6896,37.8116],[140.6968,37.8033],[140.6984,37.8028]]]}},{"type":"Feature","properties":{"id":4010},"geometry":{"type":"Polygon","coordinates":[[[141.1239,38.3792],[141.1236,38.3838],[141.118,38.3936],[141.1082,38.4001],[141.1041,38.4057],[141.1051,38.4134],[141.1131,38.4176],[141.1178,38.4212],[141.1186,38.4254],[141.12,38.4456],[141.1121,38.4472],[141.0924,38.4488],[141.0859,38.4506],[141.0806,38.4506],[141.0708,38.4462],[141.0619,38.4381],[141.0598,38.4372],[141.0584,38.43],[141.053,38.4237],[141.051,38.4179],[141.0399,38.3967],[141.0257,38.3773],[141.0217,38.3726],[141.0265,38.3694],[141.04,38.3675],[141.0488,38.3645],[141.0569,38.3577],[141.0625,38.3547],[141.0632,38.3591],[141.0612,38.3624],[141.0618,38.369],[141.0701,38.3706],[141.0765,38.3779],[141.0816,38.3784],[141.0875,38.3813],[141.0912,38.3786],[141.0983,38.3779],[141.1055,38.3681],[141.1084,38.3712],[141.1097,38.3763],[141.1072,38.3832],[141.1132,38.3828],[141.1239,38.3792]]]}},{"type":"Feature","properties":{"id":4011},"geometry":{"type":"Polygon","coordinates":[[[141.4029,38.6156],[141.4145,38.612],[141.4183,38.6078],[141.4194,38.6008],[141.4216,38.5996],[141.4324,38.5992],[141.4376,38.6007],[141.4529,38.6112],[141.4676,38.6178],[141.4847,38.6189],[141.497,38.6188],[141.5052,38.6202],[141.5089,38.6223],[141.5272,38.6355],[141.5263,38.6374],[141.515,38.6384],[141.5058,38.6373],[141.5022,38.6419],[141.4974,38.6441],[141.486,38.6416],[141.4764,38.6453],[141.4699,38.6448],[141.4656,38.6477],[141.4581,38.6399],[141.4538,38.6435],[141.4481,38.6424],[141.4434,38.6437],[141.4416,38.6464],[141.4457,38.6533],[141.4499,38.6582],[141.4459,38.6642],[141.4503,38.674],[141.4588,38.6706],[141.468,38.6726],[141.4751,38.6796],[141.4844,38.6759],[141.495,38.6767],[141.4971,38.68],[141.4919,38.6863],[141.4974,38.6902],[141.5032,38.6904],[141.5112,38.6858],[141.5157,38.6881],[141.5193,38.6942],[141.5177,38.6973],[141.524,38.7048],[141.5209,38.7085],[141.5265,38.7105],[141.5223,38.7154],[141.5292,38.7171],[141.5338,38.7141],[141.5357,38.7105],[141.5415,38.708],[141.5476,38.7118],[141.5526,38.7097],[141.558,38.7047],[141.5587,38.7007],[141.5548,38.6979],[141.5554,38.6941],[141.5607,38.695],[141.5644,38.6977],[141.5641,38.703],[141.5664,38.7058],[141.5666,38.7115],[141.5586,38.7148],[141.5568,38.718],[141.5584,38.7234],[141.5669,38.7257],[141.5619,38.7313],[141.5662,38.736],[141.5607,38.7384],[141.5521,38.7381],[141.5403,38.7397],[141.5404,38.7469],[141.5315,38.7507],[141.5291,38.751],[141.5186,38.7473],[141.5015,38.7431],[141.4926,38.7438],[141.4869,38.7471],[141.4806,38.7487],[141.4704,38.7485],[141.46,38.7452],[141.4526,38.7443],[141.44,38.7408],[141.4311,38.7398],[141.4203,38.7401],[141.4102,38.7362],[141.4016,38.7304],[141.3938,38.727],[141.3742,38.7157],[141.3725,38.7114],[141.371,38.6931],[141.3736,38.6818],[141.3765,38.6788],[141.3836,38.675],[141.3844,38.6687],[141.3808,38.6589],[141.3814,38.6532],[141.3886,38.6464],[141.3968,38.6337],[141.3976,38.6273],[141.4029,38.6156]]]}},{"type":"Feature","properties":{"id":4012},"geometry":{"type":"Polygon","coordinates":[[[141.1763,38.4623],[141.1729,38.4712],[141.1743,38.4884],[141.1741,38.4958],[141.1723,38.5019],[141.1722,38.5163],[141.1605,38.5129],[141.1503,38.5128],[141.1457,38.5141],[141.1401,38.5195],[141.1356,38.5258],[141.1179,38.5332],[141.1108,38.5372],[141.0985,38.5413],[141.0926,38.5441],[141.0886,38.5513],[141.0901,38.5632],[141.0682,38.5599],[141.0613,38.5613],[141.056,38.5693],[141.0535,38.5776],[141.0528,38.5883],[141.0477,38.591],[141.0215,38.5948],[141.0144,38.5928],[141.0126,38.5871],[141.0203,38.5818],[141.0215,38.575],[141.0184,38.5436],[141.0192,38.5401],[141.0331,38.5352],[141.0372,38.5295],[141.042,38.5274],[141.0544,38.5267],[141.0675,38.5275],[141.075,38.5289],[141.0968,38.518],[141.1112,38.5056],[141.1209,38.5014],[141.1239,38.4987],[141.1266,38.4891],[141.1266,38.4828],[141.125,38.4687],[141.119,38.4608],[141.1174,38.4564],[141.1179,38.4507],[141.12,38.4456],[141.1279,38.4411],[141.1328,38.437],[141.1369,38.4365],[141.156,38.4496],[141.1706,38.4578],[141.1763,38.4623]]]}},{"type":"Feature","properties":{"id":4013},"geometry":{"type":"Polygon","coordinates":[[[141.4199,38.7783],[141.4179,38.7698],[141.4096,38.7617],[141.4079,38.7538],[141.4137,38.7454],[141.4203,38.7401],[141.4311,38.7398],[141.44,38.7408],[141.4526,38.7443],[141.46,38.7452],[141.4704,38.7485],[141.4806,38.7487],[141.4869,38.7471],[141.4926,38.7438],[141.5015,38.7431],[141.5186,38.7473],[141.5291,38.751],[141.5315,38.7507],[141.5279,38.7535],[141.5293,38.759],[141.5196,38.7601],[141.5213,38.7632],[141.5158,38.765],[141.5159,38.7717],[141.5188,38.7762],[141.5184,38.7796],[141.5203,38.7875],[141.5343,38.7942],[141.5394,38.7979],[141.5438,38.7964],[141.5463,38.7999],[141.5505,38.7979],[141.5555,38.8006],[141.5587,38.806],[141.555,38.8085],[141.5613,38.813],[141.568,38.8133],[141.5708,38.808],[141.5763,38.8121],[141.5753,38.8181],[141.5783,38.8228],[141.5609,38.8388],[141.5476,38.8457],[141.5398,38.8458],[141.5335,38.8428],[141.5304,38.8394],[141.5284,38.8308],[141.5219,38.8286],[141.5164,38.8301],[141.4954,38.8403],[141.4866,38.8432],[141.4804,38.8442],[141.4711,38.8476],[141.4634,38.8563],[141.4605,38.8467],[141.4541,38.8359],[141.4565,38.8227],[141.4601,38.8128],[141.4506,38.8076],[141.4382,38.8082],[141.4379,38.7796],[141.4199,38.7783]]]}},{"type":"Feature","properties":{"id":4014},"geometry":{"type":"Polygon","coordinates":[[[140.7955,38.1396],[140.7971,38.1456],[140.798,38.1576],[140.7971,38.1632],[140.7848,38.1686],[140.7748,38.1718],[140.7585,38.1733],[140.7479,38.1626],[140.7456,38.1592],[140.739,38.1544],[140.7292,38.1499],[140.724,38.1485],[140.7054,38.1491],[140.6889,38.152],[140.6799,38.1559],[140.6634,38.1603],[140.6589,38.1592],[140.6537,38.1539],[140.6487,38.1453],[140.6472,38.1347],[140.6632,38.137],[140.6714,38.1361],[140.6846,38.1294],[140.6985,38.1259],[140.7026,38.1209],[140.7013,38.1089],[140.6955,38.0942],[140.6944,38.082],[140.6949,38.0758],[140.7103,38.0734],[140.7247,38.0688],[140.7345,38.0631],[140.7428,38.0549],[140.7474,38.0486],[140.7526,38.0465],[140.755,38.056],[140.7569,38.0801],[140.7558,38.0949],[140.758,38.1041],[140.7685,38.1185],[140.7826,38.1283],[140.7893,38.1357],[140.7955,38.1396]]]}},{"type":"Feature","properties":{"id":4015},"geometry":{"type":"Polygon","coordinates":[[[140.94,38.1291],[140.9486,38.1525],[140.9522,38.1572],[140.9594,38.1694],[140.9583,38.1739],[140.9547,38.1775],[140.9497,38.1789],[140.9464,38.1825],[140.9389,38.1858],[140.9358,38.1894],[140.9347,38.1947],[140.9301,38.1909],[140.9281,38.1835],[140.9238,38.1815],[140.9127,38.182],[140.8995,38.1859],[140.8884,38.1866],[140.8756,38.1849],[140.8687,38.1859],[140.8659,38.1942],[140.8586,38.2006],[140.8496,38.2058],[140.8349,38.2118],[140.8292,38.2134],[140.8191,38.2135],[140.8057,38.2089],[140.7932,38.2111],[140.79,38.2052],[140.7894,38.2005],[140.7911,38.197],[140.8011,38.1907],[140.8085,38.184],[140.8076,38.1807],[140.8018,38.174],[140.7971,38.1632],[140.798,38.1576],[140.7971,38.1456],[140.7955,38.1396],[140.8073,38.1375],[140.8188,38.1345],[140.8324,38.1299],[140.847,38.1285],[140.8537,38.1289],[140.862,38.1324],[140.8654,38.1323],[140.8692,38.1288],[140.8744,38.1121],[140.8791,38.1089],[140.8855,38.1109],[140.8955,38.1255],[140.9083,38.1347],[140.9141,38.1351],[140.9252,38.1316],[140.94,38.1291]]]}},{"type":"Feature","properties":{"id":4016},"geometry":{"type":"Polygon","coordinates":[[[140.7535,38.0389],[140.7526,38.0465],[140.7474,38.0486],[140.7428,38.0549],[140.7345,38.0631],[140.7247,38.0688],[140.7103,38.0734],[140.6949,38.0758],[140.6852,38.0615],[140.6855,38.0578],[140.691,38.0476],[140.6999,38.0388],[140.7023,38.0321],[140.7008,38.023],[140.7139,38.0248],[140.7327,38.0295],[140.7442,38.0338],[140.7535,38.0389]]]}},{"type":"Feature","properties":{"id":4017},"geometry":{"type":"Polygon","coordinates":[[[140.8883,38.5117],[140.8825,38.5065],[140.8722,38.5019],[140.8658,38.5035],[140.8535,38.5052],[140.8456,38.5049],[140.8324,38.5014],[140.8248,38.5005],[140.8132,38.4972],[140.8056,38.4964],[140.7895,38.4919],[140.7938,38.4782],[140.8015,38.4729],[140.8154,38.4693],[140.8367,38.465],[140.8465,38.4619],[140.8556,38.4574],[140.8644,38.4544],[140.8738,38.4535],[140.8827,38.4508],[140.897,38.4476],[140.908,38.4479],[140.9135,38.45],[140.9217,38.4629],[140.9349,38.4652],[140.943,38.4654],[140.9621,38.4645],[140.9566,38.4768],[140.9543,38.4858],[140.9534,38.4941],[140.9449,38.4927],[140.9339,38.4889],[140.9215,38.492],[140.9059,38.5005],[140.9008,38.5046],[140.8883,38.5117]]]}},{"type":"Feature","properties":{"id":4018},"geometry":{"type":"MultiPolygon","coordinates":[[[[141.4063,38.4262],[141.4084,38.4216],[141.4166,38.4165],[141.4225,38.415],[141.4359,38.4145],[141.4402,38.4134],[141.4474,38.4044],[141.4621,38.3913],[141.4695,38.3879],[141.4751,38.3879],[141.4887,38.3926],[141.4974,38.3983],[141.5038,38.4013],[141.5015,38.4061],[141.5044,38.4098],[141.5037,38.4144],[141.4985,38.4147],[141.4967,38.4113],[141.4931,38.4113],[141.4904,38.4055],[141.4847,38.4045],[141.4801,38.3981],[141.4752,38.3989],[141.4719,38.3935],[141.4664,38.3973],[141.4671,38.4005],[141.4743,38.4106],[141.4708,38.4147],[141.4751,38.4196],[141.4711,38.4252],[141.4642,38.4237],[141.466,38.4304],[141.4601,38.4347],[141.4507,38.4445],[141.4577,38.446],[141.4619,38.4439],[141.4673,38.4388],[141.4741,38.4405],[141.4789,38.4396],[141.4844,38.4367],[141.4874,38.4405],[141.4968,38.4399],[141.5009,38.4431],[141.5131,38.4491],[141.5019,38.4476],[141.4969,38.4496],[141.4951,38.4562],[141.5002,38.4578],[141.4985,38.4614],[141.4929,38.4601],[141.49,38.4624],[141.4859,38.4609],[141.4769,38.4638],[141.476,38.4671],[141.4835,38.4708],[141.4891,38.469],[141.4949,38.4739],[141.4986,38.4792],[141.4959,38.4807],[141.493,38.4802],[141.4817,38.4827],[141.4703,38.4898],[141.4657,38.4906],[141.4579,38.4881],[141.4494,38.4823],[141.445,38.482],[141.426,38.4878],[141.419,38.4845],[141.4091,38.4578],[141.4069,38.4359],[141.41,38.4329],[141.4167,38.4339],[141.4201,38.4359],[141.4234,38.4336],[141.4222,38.4266],[141.4132,38.4246],[141.4063,38.4262]]],[[[141.5242,38.4607],[141.5227,38.464],[141.5162,38.4647],[141.5189,38.4541],[141.5164,38.4505],[141.5172,38.4456],[141.521,38.4414],[141.5256,38.4407],[141.5284,38.4374],[141.5351,38.4448],[141.5295,38.4503],[141.5311,38.4528],[141.5242,38.4607]]]]}},{"type":"Feature","properties":{"id":4019},"geometry":{"type":"Polygon","coordinates":[[[140.5545,38.8789],[140.543,38.8648],[140.5516,38.8578],[140.56,38.8522],[140.5689,38.8451],[140.5793,38.8383],[140.5895,38.8336],[140.597,38.8246],[140.6028,38.8157],[140.6004,38.8051],[140.602,38.7941],[140.6064,38.7823],[140.6158,38.779],[140.625,38.7727],[140.6424,38.7737],[140.6484,38.7645],[140.6396,38.7592],[140.635,38.75],[140.625,38.7371],[140.614,38.7208],[140.6109,38.7098],[140.6144,38.6989],[140.6249,38.6973],[140.625,38.687],[140.6414,38.6947],[140.6507,38.6974],[140.6594,38.6976],[140.6679,38.6925],[140.6751,38.6911],[140.682,38.6925],[140.6899,38.702],[140.6947,38.7053],[140.7053,38.7064],[140.7196,38.7052],[140.7273,38.7034],[140.7381,38.6989],[140.7457,38.698],[140.7686,38.6971],[140.7732,38.6961],[140.782,38.6882],[140.795,38.6738],[140.8051,38.6644],[140.8093,38.6581],[140.8292,38.6394],[140.8388,38.6342],[140.8492,38.6297],[140.8554,38.6255],[140.8663,38.6157],[140.8745,38.6099],[140.8871,38.6031],[140.8892,38.6],[140.8873,38.5879],[140.8839,38.5808],[140.8876,38.5761],[140.9032,38.5673],[140.9063,38.5598],[140.906,38.5532],[140.9017,38.5419],[140.8953,38.5313],[140.8941,38.5201],[140.8927,38.5161],[140.8883,38.5117],[140.9008,38.5046],[140.9059,38.5005],[140.9215,38.492],[140.9339,38.4889],[140.9449,38.4927],[140.9534,38.4941],[140.9554,38.4965],[140.9658,38.5038],[140.9766,38.5033],[140.9881,38.4979],[141.0033,38.4844],[141.0074,38.4781],[141.0134,38.4728],[141.0186,38.4725],[141.0257,38.474],[141.0304,38.4729],[141.0336,38.4674],[141.0357,38.4603],[141.0351,38.4555],[141.0304,38.4506],[141.03,38.4468],[141.0376,38.4415],[141.0427,38.4406],[141.0554,38.4412],[141.0598,38.4372],[141.0619,38.4381],[141.0708,38.4462],[141.0806,38.4506],[141.0859,38.4506],[141.0924,38.4488],[141.1121,38.4472],[141.12,38.4456],[141.1179,38.4507],[141.1174,38.4564],[141.119,38.4608],[141.125,38.4687],[141.1266,38.4828],[141.1266,38.4891],[141.1239,38.4987],[141.1209,38.5014],[141.1112,38.5056],[141.0968,38.518],[141.075,38.5289],[141.0675,38.5275],[141.0544,38.5267],[141.042,38.5274],[141.0372,38.5295],[141.0331,38.5352],[141.0192,38.5401],[141.0184,38.5436],[141.0215,38.575],[141.0203,38.5818],[141.0126,38.5871],[141.0144,38.5928],[141.0215,38.5948],[141.0477,38.591],[141.0528,38.5883],[141.0535,38.5776],[141.056,38.5693],[141.0613,38.5613],[141.0682,38.5599],[141.0901,38.5632],[141.0903,38.5707],[141.0951,38.579],[141.101,38.5837],[141.109,38.5864],[141.1224,38.5863],[141.1285,38.5877],[141.1403,38.5959],[141.1551,38.6015],[141.1619,38.6057],[141.1464,38.6096],[141.1376,38.6146],[141.1269,38.6262],[141.1237,38.6387],[141.1213,38.644],[141.117,38.6462],[141.1073,38.6458],[141.1015,38.6442],[141.0909,38.6408],[141.0817,38.6348],[141.0646,38.628],[141.0587,38.6272],[141.0344,38.6294],[141.0204,38.6313],[141.0146,38.6333],[141.0087,38.6387],[141.0049,38.6445],[140.9964,38.655],[140.9739,38.6704],[140.9738,38.6753],[140.9799,38.6846],[140.9795,38.6893],[140.9729,38.6956],[140.9687,38.7018],[140.9649,38.7048],[140.9516,38.709],[140.941,38.7137],[140.9282,38.7178],[140.9134,38.7202],[140.8915,38.7212],[140.8842,38.7225],[140.8769,38.7264],[140.8608,38.7309],[140.8396,38.7341],[140.8268,38.7439],[140.8164,38.7455],[140.8026,38.7501],[140.7918,38.7518],[140.7702,38.7577],[140.7648,38.7606],[140.7571,38.7669],[140.7526,38.7694],[140.7511,38.7744],[140.756,38.7976],[140.7579,38.8184],[140.7566,38.8271],[140.7522,38.8409],[140.7544,38.8683],[140.754,38.8731],[140.7434,38.8938],[140.7405,38.8984],[140.715,38.9135],[140.7084,38.9214],[140.6986,38.9186],[140.6881,38.9139],[140.6753,38.8957],[140.6661,38.8913],[140.6575,38.8861],[140.6456,38.8839],[140.6354,38.8844],[140.6181,38.8911],[140.6104,38.8836],[140.5981,38.8833],[140.5888,38.8773],[140.5777,38.8759],[140.568,38.8717],[140.5545,38.8789]]]}},{"type":"Feature","properties":{"id":4020},"geometry":{"type":"Polygon","coordinates":[[[141.0598,38.4372],[141.0554,38.4412],[141.0427,38.4406],[141.0376,38.4415],[141.03,38.4468],[141.0304,38.4506],[141.0351,38.4555],[141.0357,38.4603],[141.0336,38.4674],[141.0304,38.4729],[141.0257,38.474],[141.0186,38.4725],[141.0134,38.4728],[141.0074,38.4781],[141.0033,38.4844],[140.9881,38.4979],[140.9766,38.5033],[140.9658,38.5038],[140.9554,38.4965],[140.9534,38.4941],[140.9543,38.4858],[140.9566,38.4768],[140.9621,38.4645],[140.968,38.4549],[140.9752,38.4452],[140.9777,38.4377],[140.9778,38.428],[140.9797,38.4234],[140.9791,38.4193],[140.9728,38.4079],[140.971,38.4024],[140.971,38.3919],[140.9736,38.3851],[140.9831,38.3763],[140.9899,38.371],[140.9962,38.3677],[141.008,38.3671],[141.0217,38.3726],[141.0257,38.3773],[141.0399,38.3967],[141.051,38.4179],[141.053,38.4237],[141.0584,38.43],[141.0598,38.4372]]]}},{"type":"Feature","properties":{"id":4021},"geometry":{"type":"Polygon","coordinates":[[[141.0632,38.3544],[141.0625,38.3547],[141.0569,38.3577],[141.0488,38.3645],[141.04,38.3675],[141.0265,38.3694],[141.0217,38.3726],[141.008,38.3671],[140.9962,38.3677],[140.9899,38.371],[140.9789,38.365],[140.9735,38.3594],[140.9606,38.3541],[140.9395,38.3554],[140.9375,38.3416],[140.9428,38.3327],[140.9442,38.3285],[140.9523,38.3129],[140.9542,38.3108],[140.9752,38.3095],[140.9894,38.3104],[140.9997,38.3134],[140.9939,38.3236],[140.9932,38.3287],[140.9948,38.3337],[140.9986,38.339],[141.0028,38.3416],[141.0261,38.3414],[141.0378,38.3427],[141.043,38.3461],[141.0506,38.3452],[141.0588,38.3478],[141.0602,38.3524],[141.0657,38.3533],[141.0632,38.3544]]]}},{"type":"Feature","properties":{"id":4022},"geometry":{"type":"Polygon","coordinates":[[[140.7585,38.1733],[140.7748,38.1718],[140.7848,38.1686],[140.7971,38.1632],[140.8018,38.174],[140.8076,38.1807],[140.8085,38.184],[140.8011,38.1907],[140.7911,38.197],[140.7894,38.2005],[140.79,38.2052],[140.7932,38.2111],[140.8057,38.2089],[140.8191,38.2135],[140.8292,38.2134],[140.8349,38.2118],[140.8496,38.2058],[140.8586,38.2006],[140.8659,38.1942],[140.8687,38.1859],[140.8756,38.1849],[140.8884,38.1866],[140.8995,38.1859],[140.9127,38.182],[140.9238,38.1815],[140.9281,38.1835],[140.9301,38.1909],[140.9347,38.1947],[140.9427,38.1858],[140.9461,38.1853],[140.9569,38.1778],[140.96,38.1811],[140.9633,38.1886],[140.9678,38.19],[140.9697,38.1947],[140.9837,38.2136],[140.995,38.2308],[141.0072,38.2429],[141.0125,38.2506],[141.0161,38.254],[141.0227,38.2642],[141.0234,38.2678],[141.0114,38.2685],[141.0127,38.2712],[141.0206,38.2703],[141.0249,38.2734],[141.0282,38.2805],[141.0254,38.2815],[141.0176,38.2811],[140.9989,38.2821],[140.9909,38.2819],[140.9835,38.2803],[140.9755,38.281],[140.9633,38.292],[140.9542,38.3108],[140.9523,38.3129],[140.9442,38.3285],[140.9428,38.3327],[140.9375,38.3416],[140.9309,38.336],[140.9227,38.3328],[140.9104,38.3346],[140.8987,38.3398],[140.8936,38.3441],[140.8817,38.3521],[140.8775,38.3538],[140.866,38.3626],[140.8587,38.3557],[140.8508,38.3458],[140.8457,38.3439],[140.8384,38.3467],[140.835,38.3568],[140.8276,38.364],[140.8183,38.3781],[140.8121,38.383],[140.8026,38.3887],[140.7928,38.3929],[140.7755,38.4025],[140.7537,38.4123],[140.7486,38.4165],[140.7358,38.4233],[140.7311,38.427],[140.7221,38.4274],[140.7113,38.4241],[140.7048,38.4232],[140.6911,38.4248],[140.6839,38.4273],[140.6767,38.4281],[140.6617,38.4316],[140.649,38.4374],[140.6442,38.4411],[140.6342,38.4461],[140.6203,38.4501],[140.6003,38.434],[140.59,38.4381],[140.5849,38.4294],[140.5765,38.4023],[140.5805,38.3923],[140.5743,38.3842],[140.5654,38.3743],[140.5553,38.373],[140.5505,38.364],[140.5311,38.3558],[140.5253,38.3467],[140.5258,38.3438],[140.5271,38.3367],[140.5333,38.3227],[140.5272,38.3136],[140.5061,38.3028],[140.4959,38.2908],[140.5004,38.2804],[140.4926,38.2727],[140.4798,38.2697],[140.4757,38.2599],[140.474,38.2491],[140.5024,38.2551],[140.5255,38.2542],[140.5441,38.2563],[140.5654,38.2619],[140.5729,38.2621],[140.5992,38.2606],[140.6142,38.2585],[140.6373,38.2536],[140.6552,38.2475],[140.6672,38.2328],[140.6762,38.2288],[140.687,38.2223],[140.7083,38.2123],[140.7197,38.208],[140.7345,38.2037],[140.7404,38.201],[140.7434,38.1972],[140.746,38.1799],[140.7585,38.1733]]]}},{"type":"Feature","properties":{"id":4023},"geometry":{"type":"Polygon","coordinates":[[[140.7826,38.1283],[140.7685,38.1185],[140.758,38.1041],[140.7558,38.0949],[140.7569,38.0801],[140.755,38.056],[140.7526,38.0465],[140.7535,38.0389],[140.7774,38.0381],[140.7914,38.0413],[140.7986,38.0438],[140.8053,38.0485],[140.8177,38.0659],[140.832,38.0806],[140.8316,38.0914],[140.8298,38.0956],[140.8302,38.1092],[140.8264,38.1145],[140.8174,38.1182],[140.8102,38.1184],[140.8004,38.1158],[140.7941,38.1161],[140.7911,38.1182],[140.7826,38.1283]]]}},{"type":"Feature","properties":{"id":4024},"geometry":{"type":"Polygon","coordinates":[[[141.0254,38.2815],[141.0282,38.2805],[141.0287,38.2758],[141.0406,38.2723],[141.0444,38.2742],[141.0442,38.2771],[141.0615,38.2824],[141.0656,38.2892],[141.073,38.2946],[141.0775,38.2956],[141.0844,38.2929],[141.0878,38.2959],[141.0896,38.302],[141.0812,38.3064],[141.0817,38.3085],[141.0772,38.3189],[141.0662,38.3222],[141.064,38.3185],[141.0535,38.3135],[141.0484,38.3138],[141.041,38.3082],[141.037,38.3047],[141.0254,38.2815]]]}},{"type":"Feature","properties":{"id":4025},"geometry":{"type":"Polygon","coordinates":[[[140.4685,37.9424],[140.4692,37.9503],[140.4779,37.9491],[140.4951,37.9482],[140.5068,37.9494],[140.5172,37.9543],[140.5246,37.962],[140.5257,37.9664],[140.5246,37.976],[140.5204,37.9913],[140.5168,37.999],[140.5156,38.0048],[140.5115,38.0117],[140.5077,38.0235],[140.5047,38.0285],[140.4978,38.0329],[140.4884,38.0414],[140.486,38.0455],[140.4837,38.0589],[140.4837,38.0654],[140.4794,38.0793],[140.4786,38.0889],[140.4731,38.0954],[140.4642,38.1034],[140.4537,38.1085],[140.4512,38.1149],[140.4503,38.1226],[140.4482,38.1288],[140.4357,38.1244],[140.4272,38.1167],[140.4223,38.0957],[140.4245,38.0856],[140.4177,38.0757],[140.4074,38.0703],[140.3971,38.067],[140.3861,38.0683],[140.3829,38.0588],[140.3675,38.0536],[140.3569,38.0549],[140.3456,38.0518],[140.3348,38.0531],[140.3219,38.0527],[140.3116,38.0548],[140.3016,38.0532],[140.2914,38.0563],[140.2836,38.054],[140.2804,38.0531],[140.2856,38.0438],[140.279,38.0329],[140.2835,38.023],[140.2867,38.0132],[140.2921,38.0047],[140.2841,37.9947],[140.2793,37.984],[140.2833,37.9737],[140.2927,37.9694],[140.3036,37.9665],[140.3122,37.9606],[140.3217,37.9552],[140.3323,37.9549],[140.3441,37.95],[140.3537,37.9471],[140.36,37.955],[140.3893,37.9525],[140.3901,37.9632],[140.4004,37.9707],[140.4111,37.9699],[140.4149,37.9602],[140.4366,37.9508],[140.4478,37.9539],[140.4569,37.9477],[140.4685,37.9424]]]}},{"type":"Feature","properties":{"id":4026},"geometry":{"type":"Polygon","coordinates":[[[140.623,38.4523],[140.6203,38.4501],[140.6342,38.4461],[140.645,38.4502],[140.6584,38.4568],[140.6735,38.4675],[140.6867,38.4742],[140.7006,38.4797],[140.7096,38.4859],[140.7241,38.4905],[140.7447,38.4927],[140.7488,38.4941],[140.7569,38.4943],[140.7802,38.4932],[140.7895,38.4919],[140.8056,38.4964],[140.8132,38.4972],[140.8248,38.5005],[140.8324,38.5014],[140.8456,38.5049],[140.8535,38.5052],[140.8658,38.5035],[140.8722,38.5019],[140.8825,38.5065],[140.8883,38.5117],[140.8927,38.5161],[140.8941,38.5201],[140.8953,38.5313],[140.8792,38.5445],[140.8752,38.547],[140.8666,38.5551],[140.8597,38.566],[140.8515,38.5725],[140.8391,38.5727],[140.8241,38.568],[140.8038,38.5642],[140.7954,38.5607],[140.787,38.5587],[140.7763,38.5581],[140.7691,38.5557],[140.7569,38.5426],[140.7332,38.5258],[140.7061,38.516],[140.6971,38.5053],[140.6788,38.4922],[140.6733,38.4819],[140.67,38.4776],[140.6513,38.47],[140.6324,38.4643],[140.6269,38.4619],[140.623,38.4523]]]}},{"type":"Feature","properties":{"id":4027},"geometry":{"type":"Polygon","coordinates":[[[141.0378,38.3427],[141.0261,38.3414],[141.0028,38.3416],[140.9986,38.339],[140.9948,38.3337],[140.9932,38.3287],[140.9939,38.3236],[140.9997,38.3134],[141.0073,38.3095],[141.0223,38.3062],[141.037,38.3047],[141.041,38.3082],[141.0454,38.3178],[141.0352,38.3199],[141.0393,38.3239],[141.043,38.3231],[141.0472,38.3257],[141.0517,38.3326],[141.0503,38.3355],[141.0423,38.3357],[141.0371,38.3393],[141.0378,38.3427]]]}},{"type":"Feature","properties":{"id":4028},"geometry":{"type":"Polygon","coordinates":[[[140.62,37.9088],[140.6286,37.9283],[140.63,37.9357],[140.6343,37.9423],[140.6384,37.9448],[140.655,37.9492],[140.6702,37.9501],[140.6778,37.9541],[140.6823,37.9603],[140.6872,37.9694],[140.6911,37.9827],[140.696,37.9957],[140.6986,38.0053],[140.7008,38.023],[140.7023,38.0321],[140.6999,38.0388],[140.6764,38.0404],[140.6653,38.0421],[140.6604,38.0412],[140.6521,38.0376],[140.6472,38.0371],[140.6424,38.0391],[140.6392,38.0487],[140.6336,38.0571],[140.6196,38.0622],[140.608,38.0729],[140.604,38.0786],[140.5969,38.0803],[140.5747,38.0813],[140.5679,38.0807],[140.5596,38.077],[140.5545,38.0781],[140.5399,38.0902],[140.5354,38.0928],[140.5304,38.093],[140.5069,38.0898],[140.4862,38.09],[140.4786,38.0889],[140.4794,38.0793],[140.4837,38.0654],[140.4837,38.0589],[140.486,38.0455],[140.4884,38.0414],[140.4978,38.0329],[140.5047,38.0285],[140.5077,38.0235],[140.5115,38.0117],[140.5156,38.0048],[140.5168,37.999],[140.5204,37.9913],[140.5246,37.976],[140.5257,37.9664],[140.5246,37.962],[140.5172,37.9543],[140.5068,37.9494],[140.4951,37.9482],[140.4779,37.9491],[140.4692,37.9503],[140.4685,37.9424],[140.4724,37.9254],[140.4729,37.9153],[140.4784,37.9066],[140.4822,37.9032],[140.4875,37.8985],[140.5,37.8971],[140.5099,37.9017],[140.5207,37.9046],[140.5315,37.9038],[140.5413,37.9021],[140.5523,37.9067],[140.5636,37.9077],[140.5731,37.9174],[140.5907,37.9063],[140.6016,37.9046],[140.6083,37.9061],[140.62,37.9088]]]}},{"type":"Feature","properties":{"id":4029},"geometry":{"type":"Polygon","coordinates":[[[140.9542,38.3108],[140.9633,38.292],[140.9755,38.281],[140.9835,38.2803],[140.9909,38.2819],[140.9989,38.2821],[141.0176,38.2811],[141.0254,38.2815],[141.037,38.3047],[141.0223,38.3062],[141.0073,38.3095],[140.9997,38.3134],[140.9894,38.3104],[140.9752,38.3095],[140.9542,38.3108]]]}},{"type":"Feature","properties":{"id":4030},"geometry":{"type":"Polygon","coordinates":[[[140.7895,38.4919],[140.7802,38.4932],[140.7569,38.4943],[140.7488,38.4941],[140.7447,38.4927],[140.7241,38.4905],[140.7096,38.4859],[140.7006,38.4797],[140.6867,38.4742],[140.6735,38.4675],[140.6584,38.4568],[140.645,38.4502],[140.6342,38.4461],[140.6442,38.4411],[140.649,38.4374],[140.6617,38.4316],[140.6767,38.4281],[140.6839,38.4273],[140.6911,38.4248],[140.7048,38.4232],[140.7113,38.4241],[140.7221,38.4274],[140.7311,38.427],[140.7358,38.4233],[140.7486,38.4165],[140.7537,38.4123],[140.7755,38.4025],[140.7928,38.3929],[140.8026,38.3887],[140.8121,38.383],[140.8183,38.3781],[140.8276,38.364],[140.835,38.3568],[140.8384,38.3467],[140.8457,38.3439],[140.8508,38.3458],[140.8587,38.3557],[140.866,38.3626],[140.8692,38.3761],[140.8713,38.3815],[140.8756,38.3871],[140.8798,38.395],[140.8808,38.4042],[140.8739,38.405],[140.8657,38.4014],[140.8616,38.4045],[140.8627,38.4088],[140.8719,38.4146],[140.8771,38.4271],[140.8816,38.4318],[140.8886,38.4353],[140.8985,38.4342],[140.9072,38.4233],[140.9111,38.4174],[140.917,38.412],[140.9273,38.4053],[140.9335,38.3995],[140.9387,38.3921],[140.9414,38.3825],[140.9414,38.3759],[140.9395,38.3554],[140.9606,38.3541],[140.9735,38.3594],[140.9789,38.365],[140.9899,38.371],[140.9831,38.3763],[140.9736,38.3851],[140.971,38.3919],[140.971,38.4024],[140.9728,38.4079],[140.9791,38.4193],[140.9797,38.4234],[140.9778,38.428],[140.9777,38.4377],[140.9752,38.4452],[140.968,38.4549],[140.9621,38.4645],[140.943,38.4654],[140.9349,38.4652],[140.9217,38.4629],[140.9135,38.45],[140.908,38.4479],[140.897,38.4476],[140.8827,38.4508],[140.8738,38.4535],[140.8644,38.4544],[140.8556,38.4574],[140.8465,38.4619],[140.8367,38.465],[140.8154,38.4693],[140.8015,38.4729],[140.7938,38.4782],[140.7895,38.4919]]]}},{"type":"Feature","properties":{"id":4031},"geometry":{"type":"Polygon","coordinates":[[[141.2676,38.784],[141.2595,38.7674],[141.2591,38.7572],[141.2438,38.7525],[141.2327,38.7499],[141.2155,38.7499],[141.2105,38.7595],[141.2043,38.7682],[141.1843,38.7809],[141.1751,38.7757],[141.1656,38.7782],[141.1605,38.7646],[141.1588,38.7477],[141.1595,38.7444],[141.1664,38.7382],[141.1652,38.7332],[141.1499,38.7268],[141.14,38.7249],[141.1297,38.7248],[141.1203,38.7226],[141.1081,38.7168],[141.1036,38.7155],[141.0766,38.6968],[141.0659,38.6843],[141.066,38.681],[141.0788,38.669],[141.0828,38.6607],[141.0946,38.6496],[141.1015,38.6442],[141.1073,38.6458],[141.117,38.6462],[141.1213,38.644],[141.1237,38.6387],[141.1269,38.6262],[141.1376,38.6146],[141.1464,38.6096],[141.1619,38.6057],[141.174,38.6037],[141.1935,38.6024],[141.1975,38.5975],[141.2014,38.5829],[141.2043,38.5773],[141.2179,38.5695],[141.2336,38.5565],[141.2425,38.5623],[141.2479,38.5702],[141.2582,38.5823],[141.2636,38.5865],[141.2786,38.6015],[141.2841,38.6024],[141.2984,38.6012],[141.3001,38.5975],[141.2989,38.5862],[141.2993,38.5817],[141.305,38.5721],[141.3108,38.5716],[141.3203,38.5748],[141.3291,38.5757],[141.3441,38.5799],[141.3599,38.5905],[141.3839,38.5983],[141.3879,38.6009],[141.4029,38.6156],[141.3976,38.6273],[141.3968,38.6337],[141.3886,38.6464],[141.3814,38.6532],[141.3808,38.6589],[141.3844,38.6687],[141.3836,38.675],[141.3765,38.6788],[141.3736,38.6818],[141.371,38.6931],[141.3725,38.7114],[141.3742,38.7157],[141.3938,38.727],[141.4016,38.7304],[141.4102,38.7362],[141.4203,38.7401],[141.4137,38.7454],[141.4079,38.7538],[141.4096,38.7617],[141.4179,38.7698],[141.4199,38.7783],[141.4107,38.7841],[141.3999,38.7872],[141.3939,38.7953],[141.3826,38.7931],[141.375,38.8035],[141.3644,38.8059],[141.354,38.8092],[141.3444,38.8055],[141.3343,38.8097],[141.3241,38.8155],[141.3135,38.8193],[141.3069,38.7991],[141.3008,38.7905],[141.2903,38.794],[141.279,38.7911],[141.2676,38.784]]]}},{"type":"Feature","properties":{"id":4032},"geometry":{"type":"Polygon","coordinates":[[[140.9395,38.3554],[140.9414,38.3759],[140.9414,38.3825],[140.9387,38.3921],[140.9335,38.3995],[140.9273,38.4053],[140.917,38.412],[140.9111,38.4174],[140.9072,38.4233],[140.8985,38.4342],[140.8886,38.4353],[140.8816,38.4318],[140.8771,38.4271],[140.8719,38.4146],[140.8627,38.4088],[140.8616,38.4045],[140.8657,38.4014],[140.8739,38.405],[140.8808,38.4042],[140.8798,38.395],[140.8756,38.3871],[140.8713,38.3815],[140.8692,38.3761],[140.866,38.3626],[140.8775,38.3538],[140.8817,38.3521],[140.8936,38.3441],[140.8987,38.3398],[140.9104,38.3346],[140.9227,38.3328],[140.9309,38.336],[140.9375,38.3416],[140.9395,38.3554]]]}},{"type":"Feature","properties":{"id":4033},"geometry":{"type":"Polygon","coordinates":[[[141.2336,38.5565],[141.2179,38.5695],[141.2043,38.5773],[141.2014,38.5829],[141.1975,38.5975],[141.1935,38.6024],[141.174,38.6037],[141.1619,38.6057],[141.1551,38.6015],[141.1403,38.5959],[141.1285,38.5877],[141.1224,38.5863],[141.109,38.5864],[141.101,38.5837],[141.0951,38.579],[141.0903,38.5707],[141.0901,38.5632],[141.0886,38.5513],[141.0926,38.5441],[141.0985,38.5413],[141.1108,38.5372],[141.1179,38.5332],[141.1356,38.5258],[141.1401,38.5195],[141.1457,38.5141],[141.1503,38.5128],[141.1605,38.5129],[141.1722,38.5163],[141.1829,38.525],[141.1884,38.5333],[141.1938,38.5383],[141.2012,38.5398],[141.2238,38.5366],[141.2289,38.5391],[141.2328,38.5512],[141.2336,38.5565]]]}},{"type":"Feature","properties":{"id":4034},"geometry":{"type":"Polygon","coordinates":[[[140.9226,38.0484],[140.9117,38.0584],[140.911,38.0617],[140.9119,38.0721],[140.9083,38.0773],[140.8927,38.0857],[140.8808,38.089],[140.8757,38.0895],[140.8698,38.0868],[140.8582,38.0786],[140.8516,38.0783],[140.8402,38.0807],[140.832,38.0806],[140.8354,38.0686],[140.8365,38.0352],[140.8371,38.0319],[140.8442,38.0181],[140.8428,37.994],[140.8506,37.9974],[140.8636,38.0007],[140.8696,38.0007],[140.8764,37.9985],[140.8807,37.9946],[140.8873,37.9937],[140.9034,37.9951],[140.9144,37.9953],[140.9153,38],[140.9153,38.0125],[140.9183,38.0278],[140.9156,38.03],[140.9003,38.0311],[140.8967,38.0342],[140.9031,38.0378],[140.9122,38.0392],[140.9217,38.0353],[140.9206,38.0447],[140.9226,38.0484]]]}},{"type":"Feature","properties":{"id":4035},"geometry":{"type":"Polygon","coordinates":[[[140.9314,37.8918],[140.9306,37.9011],[140.9258,37.9031],[140.9225,37.9142],[140.92,37.9308],[140.9183,37.9472],[140.9161,37.9578],[140.9153,37.9678],[140.9144,37.9953],[140.9034,37.9951],[140.8873,37.9937],[140.8807,37.9946],[140.8764,37.9985],[140.8696,38.0007],[140.8636,38.0007],[140.8506,37.9974],[140.8428,37.994],[140.845,37.9827],[140.8468,37.9784],[140.8488,37.9677],[140.8493,37.9556],[140.8509,37.9485],[140.8505,37.9394],[140.8515,37.9107],[140.8533,37.9087],[140.8618,37.889],[140.8745,37.8935],[140.8846,37.8947],[140.8962,37.8992],[140.9055,37.8943],[140.9314,37.8918]]]}},{"type":"Feature","properties":{"id":4036},"geometry":{"type":"Polygon","coordinates":[[[140.4483,38.1309],[140.4482,38.1288],[140.4503,38.1226],[140.4512,38.1149],[140.4537,38.1085],[140.4642,38.1034],[140.4731,38.0954],[140.4786,38.0889],[140.4862,38.09],[140.5069,38.0898],[140.5304,38.093],[140.5354,38.0928],[140.5399,38.0902],[140.5545,38.0781],[140.5596,38.077],[140.5679,38.0807],[140.5747,38.0813],[140.5969,38.0803],[140.604,38.0786],[140.608,38.0729],[140.6196,38.0622],[140.6336,38.0571],[140.6392,38.0487],[140.6424,38.0391],[140.6472,38.0371],[140.6521,38.0376],[140.6604,38.0412],[140.6653,38.0421],[140.6764,38.0404],[140.6999,38.0388],[140.691,38.0476],[140.6855,38.0578],[140.6852,38.0615],[140.6949,38.0758],[140.6944,38.082],[140.6955,38.0942],[140.7013,38.1089],[140.7026,38.1209],[140.6985,38.1259],[140.6846,38.1294],[140.6714,38.1361],[140.6632,38.137],[140.6472,38.1347],[140.6353,38.1338],[140.617,38.1333],[140.6003,38.134],[140.5917,38.1359],[140.5821,38.1408],[140.565,38.142],[140.5605,38.1413],[140.5492,38.1338],[140.546,38.1329],[140.5286,38.1337],[140.5115,38.138],[140.495,38.1389],[140.4803,38.1365],[140.4675,38.1356],[140.4579,38.1326],[140.4483,38.1309]]]}}]}