{"type":"FeatureCollection","features":[{"type":"Feature","properties":{"id":40001},"geometry":{"type":"Polygon","coordinates":[[[130.8644,33.6403],[130.8677,33.6234],[130.868,33.5892],[130.8734,33.5788],[130.8764,33.5761],[130.882,33.5743],[130.8908,33.5743],[130.8968,33.5758],[130.9068,33.5736],[130.9138,33.5698],[130.9158,33.5669],[130.9245,33.5596],[130.9264,33.5631],[130.9276,33.5703],[130.9262,33.5783],[130.9151,33.5901],[130.9145,33.5984],[130.9086,33.6075],[130.9088,33.6152],[130.9141,33.6253],[130.9132,33.6329],[130.8989,33.6378],[130.8929,33.6409],[130.8842,33.6403],[130.8644,33.6403]]]}},{"type":"Feature","properties":{"id":40002},"geometry":{"type":"Polygon","coordinates":[[[130.6151,33.397],[130.6207,33.3917],[130.6349,33.3803],[130.6477,33.3734],[130.6614,33.3624],[130.6672,33.3608],[130.6762,33.3602],[130.6817,33.3586],[130.7018,33.3566],[130.7144,33.3566],[130.7221,33.359],[130.7327,33.3669],[130.7412,33.3624],[130.7594,33.3588],[130.7661,33.3582],[130.7813,33.354],[130.796,33.3473],[130.799,33.3475],[130.8048,33.3523],[130.8093,33.3537],[130.8195,33.3533],[130.8411,33.3429],[130.8463,33.3477],[130.8592,33.3551],[130.8619,33.3698],[130.8694,33.372],[130.8674,33.3745],[130.8638,33.3898],[130.8589,33.4019],[130.8562,33.4061],[130.8479,33.4152],[130.8409,33.4299],[130.8397,33.4345],[130.8351,33.4422],[130.8259,33.4485],[130.8152,33.4507],[130.8067,33.4507],[130.7938,33.4482],[130.7809,33.4479],[130.7749,33.4497],[130.7753,33.4543],[130.7846,33.4619],[130.7969,33.4684],[130.7831,33.4772],[130.7697,33.4832],[130.7615,33.4845],[130.7323,33.4845],[130.7203,33.4856],[130.7151,33.4875],[130.7067,33.4927],[130.6969,33.4934],[130.6855,33.4933],[130.6727,33.5],[130.668,33.4909],[130.667,33.4864],[130.6586,33.4725],[130.657,33.4621],[130.6545,33.4564],[130.6544,33.4515],[130.6587,33.4399],[130.6594,33.4344],[130.6581,33.4299],[130.6424,33.4128],[130.6373,33.4087],[130.6284,33.4033],[130.6151,33.397]]]}},{"type":"Feature","properties":{"id":40003},"geometry":{"type":"Polygon","coordinates":[[[130.6385,33.8859],[130.6401,33.8777],[130.6427,33.8701],[130.6568,33.8699],[130.6617,33.8715],[130.6653,33.8779],[130.6751,33.8822],[130.6856,33.8884],[130.6847,33.8966],[130.6774,33.9077],[130.6684,33.9166],[130.6625,33.9135],[130.6652,33.9102],[130.6608,33.9084],[130.6636,33.8997],[130.6566,33.8976],[130.6541,33.8938],[130.6498,33.8907],[130.6385,33.8859]]]}},{"type":"Feature","properties":{"id":40004},"geometry":{"type":"Polygon","coordinates":[[[131.0902,33.6326],[131.0856,33.6265],[131.073,33.6158],[131.0603,33.5958],[131.0549,33.5908],[131.05,33.5846],[131.0426,33.5677],[131.041,33.5662],[131.025,33.56],[131.0202,33.5565],[131.0148,33.5442],[130.992,33.5057],[131.0002,33.5071],[131.0119,33.5066],[131.0217,33.5093],[131.0309,33.5142],[131.0434,33.5115],[131.0538,33.5067],[131.0643,33.5063],[131.0692,33.5052],[131.0861,33.5196],[131.0893,33.5208],[131.0963,33.5265],[131.102,33.5331],[131.1116,33.5411],[131.1192,33.5457],[131.1242,33.5504],[131.1271,33.5578],[131.1319,33.5658],[131.1432,33.5793],[131.1513,33.5861],[131.1582,33.5946],[131.1602,33.5977],[131.1628,33.6075],[131.1633,33.6148],[131.1613,33.6166],[131.1538,33.6212],[131.1395,33.6263],[131.1325,33.627],[131.1229,33.6245],[131.1201,33.6304],[131.115,33.6301],[131.1163,33.6243],[131.1079,33.623],[131.1063,33.6175],[131.0988,33.6199],[131.0938,33.6291],[131.0902,33.6326]]]}},{"type":"Feature","properties":{"id":40005},"geometry":{"type":"Polygon","coordinates":[[[130.5147,33.2463],[130.5038,33.2458],[130.4951,33.2475],[130.489,33.2541],[130.4831,33.2541],[130.4671,33.2424],[130.4589,33.2303],[130.4555,33.2245],[130.454,33.2145],[130.4546,33.1773],[130.4547,33.1673],[130.4622,33.1669],[130.4672,33.1688],[130.4704,33.1751],[130.4747,33.1779],[130.481,33.1769],[130.4907,33.1704],[130.4946,33.172],[130.5051,33.181],[130.5081,33.182],[130.5231,33.1815],[130.5266,33.1844],[130.5252,33.1893],[130.5164,33.1978],[130.5162,33.2006],[130.521,33.2175],[130.519,33.2305],[130.5147,33.2463]]]}},{"type":"Feature","properties":{"id":40006},"geometry":{"type":"Polygon","coordinates":[[[131.0902,33.6326],[131.0841,33.6351],[131.0807,33.6475],[131.0728,33.6566],[131.069,33.6551],[131.0634,33.6704],[131.0592,33.6739],[131.0568,33.6805],[131.0534,33.6835],[131.0469,33.6802],[131.0416,33.6791],[131.022,33.68],[131.0128,33.6812],[131.0058,33.6679],[130.9982,33.6589],[130.9922,33.6419],[130.9841,33.6321],[130.9809,33.6229],[130.9792,33.6113],[130.9742,33.5949],[130.9681,33.5815],[130.9711,33.5679],[130.975,33.5604],[130.976,33.5553],[130.9747,33.546],[130.9749,33.5296],[130.9763,33.5196],[130.9802,33.5097],[130.9833,33.5041],[130.992,33.5057],[131.0148,33.5442],[131.0202,33.5565],[131.025,33.56],[131.041,33.5662],[131.0426,33.5677],[131.05,33.5846],[131.0549,33.5908],[131.0603,33.5958],[131.073,33.6158],[131.0856,33.6265],[131.0902,33.6326]]]}},{"type":"Feature","properties":{"id":40007},"geometry":{"type":"Polygon","coordinates":[[[130.6265,33.5039],[130.6175,33.5175],[130.6115,33.5228],[130.5939,33.5463],[130.5875,33.5517],[130.5715,33.5426],[130.5714,33.5386],[130.5663,33.5244],[130.5573,33.5127],[130.5454,33.5029],[130.5416,33.5012],[130.5325,33.5001],[130.5266,33.5011],[130.517,33.5057],[130.5127,33.5066],[130.5077,33.5043],[130.4986,33.4894],[130.4948,33.4812],[130.4907,33.4763],[130.4884,33.471],[130.4835,33.4666],[130.4726,33.4632],[130.462,33.4637],[130.4603,33.4529],[130.4617,33.4432],[130.4691,33.4267],[130.4705,33.4283],[130.481,33.4339],[130.4911,33.4369],[130.5082,33.443],[130.5186,33.4443],[130.5301,33.4401],[130.5373,33.4365],[130.5525,33.4425],[130.5574,33.443],[130.5679,33.4399],[130.5775,33.4389],[130.5774,33.4454],[130.5743,33.4521],[130.5684,33.4575],[130.5683,33.4678],[130.5773,33.4707],[130.581,33.4744],[130.5844,33.4806],[130.6063,33.4916],[130.6122,33.4964],[130.6215,33.5021],[130.6265,33.5039]]]}},{"type":"Feature","properties":{"id":40008},"geometry":{"type":"Polygon","coordinates":[[[130.6727,33.5],[130.6643,33.5039],[130.6449,33.5071],[130.6406,33.5071],[130.6265,33.5039],[130.6215,33.5021],[130.6122,33.4964],[130.6063,33.4916],[130.5844,33.4806],[130.581,33.4744],[130.5773,33.4707],[130.5683,33.4678],[130.5684,33.4575],[130.5743,33.4521],[130.5774,33.4454],[130.5775,33.4389],[130.5834,33.4338],[130.5929,33.4294],[130.6005,33.4229],[130.6049,33.4135],[130.6151,33.397],[130.6284,33.4033],[130.6373,33.4087],[130.6424,33.4128],[130.6581,33.4299],[130.6594,33.4344],[130.6587,33.4399],[130.6544,33.4515],[130.6545,33.4564],[130.657,33.4621],[130.6586,33.4725],[130.667,33.4864],[130.668,33.4909],[130.6727,33.5]]]}},{"type":"Feature","properties":{"id":40009},"geometry":{"type":"Polygon","coordinates":[[[130.5715,33.5426],[130.5637,33.5484],[130.5595,33.5503],[130.5475,33.5508],[130.544,33.5502],[130.5301,33.5388],[130.5244,33.5302],[130.5187,33.53],[130.5072,33.5384],[130.4953,33.5211],[130.4896,33.4978],[130.4897,33.4848],[130.4907,33.4763],[130.4948,33.4812],[130.4986,33.4894],[130.5077,33.5043],[130.5127,33.5066],[130.517,33.5057],[130.5266,33.5011],[130.5325,33.5001],[130.5416,33.5012],[130.5454,33.5029],[130.5573,33.5127],[130.5663,33.5244],[130.5714,33.5386],[130.5715,33.5426]]]}},{"type":"Feature","properties":{"id":40010},"geometry":{"type":"Polygon","coordinates":[[[130.7628,33.6626],[130.7679,33.6657],[130.7787,33.67],[130.787,33.6679],[130.7925,33.6635],[130.7954,33.6594],[130.8061,33.6686],[130.8088,33.672],[130.8114,33.6848],[130.8132,33.6882],[130.8185,33.6913],[130.8323,33.691],[130.8329,33.6984],[130.8325,33.7251],[130.8256,33.7263],[130.8092,33.732],[130.8043,33.7405],[130.7901,33.7349],[130.7785,33.7253],[130.7728,33.7186],[130.7605,33.7122],[130.754,33.7078],[130.7433,33.6989],[130.7549,33.6891],[130.7574,33.6841],[130.7582,33.6779],[130.7628,33.6626]]]}},{"type":"Feature","properties":{"id":40011},"geometry":{"type":"MultiPolygon","coordinates":[[[[130.478,33.568],[130.4773,33.5713],[130.469,33.5786],[130.4642,33.5842],[130.4543,33.5987],[130.4434,33.6052],[130.4413,33.6133],[130.4458,33.6198],[130.4556,33.6244],[130.46,33.6276],[130.4721,33.6322],[130.4866,33.6335],[130.4957,33.6353],[130.493,33.6403],[130.4829,33.6515],[130.4749,33.658],[130.4702,33.6644],[130.4651,33.6761],[130.4643,33.6771],[130.4231,33.7108],[130.4191,33.7149],[130.4157,33.7073],[130.4163,33.7033],[130.4011,33.6887],[130.3898,33.6806],[130.3763,33.6729],[130.3659,33.6683],[130.3509,33.6645],[130.3467,33.6622],[130.3334,33.66],[130.324,33.6605],[130.316,33.6628],[130.3111,33.6781],[130.3067,33.6828],[130.3042,33.6878],[130.3002,33.6892],[130.2899,33.6875],[130.2895,33.6844],[130.2858,33.6803],[130.2892,33.6769],[130.2892,33.6703],[130.2986,33.6602],[130.3092,33.6586],[130.3133,33.6621],[130.3197,33.6594],[130.3261,33.6589],[130.3329,33.6501],[130.3394,33.6519],[130.3502,33.6478],[130.3558,33.6433],[130.3617,33.6443],[130.3595,33.6524],[130.3614,33.6591],[130.3663,33.661],[130.3696,33.6654],[130.3766,33.6671],[130.3951,33.6697],[130.4057,33.6747],[130.4033,33.6783],[130.4078,33.6833],[130.4132,33.6836],[130.4193,33.6864],[130.4305,33.6862],[130.4322,33.6794],[130.4258,33.6752],[130.4352,33.6622],[130.4322,33.6586],[130.4228,33.6604],[130.4181,33.6564],[130.4128,33.6564],[130.4053,33.6514],[130.4106,33.6478],[130.42,33.6486],[130.4212,33.6432],[130.4356,33.6353],[130.43,33.6336],[130.4267,33.6389],[130.4208,33.642],[130.413,33.6437],[130.407,33.6413],[130.404,33.6344],[130.4084,33.6328],[130.4028,33.6249],[130.4079,33.6216],[130.4086,33.6191],[130.4012,33.6187],[130.3958,33.6093],[130.3994,33.6068],[130.3961,33.6038],[130.3891,33.6096],[130.385,33.6075],[130.3875,33.6026],[130.3849,33.5993],[130.3777,33.6052],[130.3724,33.6042],[130.3711,33.6009],[130.3665,33.6014],[130.3628,33.5982],[130.3561,33.5954],[130.351,33.5962],[130.3463,33.595],[130.3446,33.5876],[130.3414,33.5886],[130.3397,33.5958],[130.3271,33.5985],[130.312,33.5974],[130.3101,33.594],[130.3116,33.5893],[130.3053,33.5839],[130.3008,33.5816],[130.2929,33.5804],[130.2878,33.5835],[130.2799,33.5803],[130.2708,33.5839],[130.2655,33.5894],[130.2658,33.5933],[130.2597,33.5922],[130.2511,33.5967],[130.2517,33.6006],[130.2626,33.6022],[130.265,33.5972],[130.2703,33.5961],[130.274,33.603],[130.2746,33.6108],[130.2716,33.6127],[130.2666,33.6129],[130.2603,33.6103],[130.2438,33.6119],[130.2362,33.6137],[130.2331,33.6162],[130.2297,33.6228],[130.2297,33.6258],[130.2245,33.6334],[130.2257,33.6367],[130.2325,33.6406],[130.2372,33.6456],[130.2367,33.65],[130.233,33.6512],[130.2315,33.6549],[130.222,33.6596],[130.2126,33.6664],[130.2068,33.6661],[130.2069,33.656],[130.209,33.6534],[130.2074,33.6476],[130.2003,33.6451],[130.1991,33.6405],[130.2047,33.6342],[130.2096,33.6259],[130.2105,33.6129],[130.2158,33.6008],[130.2171,33.5843],[130.2229,33.5762],[130.2355,33.575],[130.2383,33.5711],[130.2411,33.5564],[130.2452,33.5541],[130.2544,33.5567],[130.2611,33.5543],[130.2675,33.5474],[130.2726,33.5433],[130.2849,33.5386],[130.288,33.5336],[130.2887,33.52],[130.291,33.5135],[130.2878,33.5069],[130.2808,33.5011],[130.2756,33.4984],[130.2714,33.4893],[130.2706,33.4758],[130.2736,33.4766],[130.2932,33.4664],[130.3004,33.4592],[130.3123,33.4588],[130.3222,33.4553],[130.3326,33.4492],[130.342,33.4411],[130.3449,33.4399],[130.3515,33.4372],[130.36,33.4309],[130.3705,33.4317],[130.3867,33.4244],[130.392,33.4241],[130.3916,33.4311],[130.3928,33.4351],[130.3967,33.4385],[130.3951,33.4466],[130.3894,33.4527],[130.3867,33.4584],[130.3855,33.4651],[130.3852,33.4766],[130.3838,33.4838],[130.3724,33.4996],[130.3743,33.5049],[130.3874,33.5087],[130.4015,33.5146],[130.4061,33.5185],[130.4142,33.5328],[130.418,33.5384],[130.4217,33.5392],[130.4257,33.532],[130.4366,33.5246],[130.442,33.5386],[130.4511,33.5463],[130.455,33.548],[130.4602,33.5598],[130.4622,33.5615],[130.4702,33.5626],[130.478,33.568]]],[[[130.307,33.6084],[130.3113,33.6113],[130.3138,33.6152],[130.3138,33.6226],[130.3088,33.6281],[130.3073,33.6355],[130.3031,33.6382],[130.2978,33.635],[130.2975,33.6306],[130.2994,33.6261],[130.2971,33.6202],[130.2941,33.6167],[130.2979,33.6087],[130.3003,33.6071],[130.307,33.6084]]],[[[130.2311,33.6944],[130.2264,33.6944],[130.2241,33.6914],[130.2336,33.6815],[130.2369,33.6832],[130.238,33.6879],[130.2369,33.6913],[130.2311,33.6944]]],[[[130.0371,33.8619],[130.0388,33.8692],[130.0346,33.8704],[130.0322,33.865],[130.0371,33.8619]]]]}},{"type":"Feature","properties":{"id":40012},"geometry":{"type":"Polygon","coordinates":[[[130.4668,33.7533],[130.4836,33.7484],[130.4952,33.7434],[130.5153,33.7377],[130.5302,33.7369],[130.54,33.7291],[130.5449,33.7344],[130.548,33.7421],[130.5548,33.7518],[130.5455,33.7644],[130.5395,33.7752],[130.5322,33.7813],[130.5252,33.7832],[130.5087,33.7857],[130.4962,33.7921],[130.4953,33.7941],[130.5,33.8085],[130.4975,33.8231],[130.4954,33.8279],[130.4937,33.8394],[130.4907,33.8424],[130.4821,33.8431],[130.4797,33.8312],[130.4763,33.8224],[130.4726,33.817],[130.4677,33.8127],[130.4606,33.8094],[130.4556,33.8114],[130.4515,33.8109],[130.4467,33.8127],[130.4465,33.8084],[130.4499,33.8058],[130.4511,33.8012],[130.4458,33.7906],[130.4501,33.7847],[130.4646,33.7864],[130.469,33.7798],[130.4707,33.7711],[130.4688,33.7594],[130.4668,33.7533]]]}},{"type":"Feature","properties":{"id":40013},"geometry":{"type":"Polygon","coordinates":[[[130.519,33.2305],[130.561,33.2307],[130.5828,33.2336],[130.5899,33.2368],[130.5955,33.2377],[130.603,33.2367],[130.6113,33.2301],[130.6147,33.2292],[130.6304,33.2339],[130.6369,33.2367],[130.6321,33.2397],[130.6237,33.2483],[130.6179,33.2512],[130.611,33.257],[130.6097,33.2691],[130.607,33.2732],[130.6019,33.2771],[130.6001,33.2725],[130.5947,33.2676],[130.589,33.2672],[130.5763,33.2706],[130.572,33.2706],[130.5648,33.2677],[130.5562,33.2584],[130.5497,33.2584],[130.5335,33.264],[130.5223,33.2643],[130.5176,33.2633],[130.5179,33.2588],[130.5211,33.2563],[130.5216,33.2512],[130.5147,33.2463],[130.519,33.2305]]]}},{"type":"Feature","properties":{"id":40014},"geometry":{"type":"Polygon","coordinates":[[[130.4957,33.6353],[130.4968,33.6344],[130.5074,33.6369],[130.5275,33.6379],[130.5409,33.6435],[130.5505,33.6532],[130.5541,33.6598],[130.5591,33.6657],[130.5459,33.6686],[130.5402,33.6717],[130.5391,33.6757],[130.539,33.6876],[130.5411,33.6951],[130.5414,33.7052],[130.5427,33.711],[130.531,33.7102],[130.5253,33.7075],[130.521,33.7021],[130.5175,33.6955],[130.5127,33.6898],[130.5087,33.6877],[130.5012,33.6861],[130.4991,33.6801],[130.4954,33.6764],[130.4921,33.6757],[130.4651,33.6761],[130.4702,33.6644],[130.4749,33.658],[130.4829,33.6515],[130.493,33.6403],[130.4957,33.6353]]]}},{"type":"Feature","properties":{"id":40015},"geometry":{"type":"Polygon","coordinates":[[[130.8024,33.1923],[130.811,33.1907],[130.8199,33.1876],[130.824,33.1877],[130.8356,33.1915],[130.8372,33.1941],[130.8466,33.203],[130.8452,33.2039],[130.8426,33.2143],[130.8467,33.2301],[130.8362,33.2304],[130.8284,33.2381],[130.8338,33.2528],[130.8275,33.2546],[130.8066,33.2628],[130.8024,33.2656],[130.7934,33.2689],[130.7831,33.2703],[130.7716,33.2793],[130.7677,33.2797],[130.7468,33.2796],[130.7431,33.2802],[130.7312,33.2902],[130.7309,33.2998],[130.7138,33.2996],[130.7079,33.2902],[130.7081,33.2817],[130.7141,33.2734],[130.7143,33.2709],[130.7036,33.2595],[130.6912,33.2417],[130.6839,33.2335],[130.7466,33.2335],[130.7574,33.2302],[130.763,33.2293],[130.7685,33.2261],[130.7775,33.2184],[130.7825,33.2064],[130.7833,33.202],[130.7866,33.1973],[130.8024,33.1923]]]}},{"type":"Feature","properties":{"id":40016},"geometry":{"type":"Polygon","coordinates":[[[130.6265,33.5039],[130.6406,33.5071],[130.6449,33.5071],[130.6643,33.5039],[130.6605,33.5125],[130.6605,33.5199],[130.6673,33.5344],[130.6748,33.5479],[130.6671,33.5552],[130.6625,33.561],[130.6606,33.5742],[130.6505,33.5827],[130.6484,33.5875],[130.6573,33.5925],[130.667,33.5941],[130.6967,33.5943],[130.7024,33.6029],[130.7064,33.6165],[130.7097,33.6184],[130.7142,33.6178],[130.7287,33.6129],[130.7407,33.6094],[130.7444,33.6007],[130.7452,33.5938],[130.7478,33.5857],[130.7505,33.5837],[130.7598,33.5818],[130.7635,33.5821],[130.774,33.5891],[130.7814,33.5918],[130.7878,33.5955],[130.7813,33.6041],[130.7763,33.6083],[130.7635,33.6151],[130.7587,33.6225],[130.7575,33.6276],[130.7589,33.6413],[130.7595,33.6529],[130.7628,33.6626],[130.7582,33.6779],[130.7574,33.6841],[130.7549,33.6891],[130.7433,33.6989],[130.7315,33.6995],[130.7232,33.6964],[130.7185,33.6927],[130.7155,33.6842],[130.7124,33.6797],[130.7072,33.6801],[130.7007,33.6831],[130.6887,33.6857],[130.6701,33.6915],[130.6567,33.6877],[130.6495,33.687],[130.6443,33.683],[130.6398,33.6772],[130.6344,33.667],[130.6298,33.6628],[130.6207,33.6606],[130.6082,33.6644],[130.6051,33.6618],[130.6019,33.6555],[130.5822,33.6387],[130.5776,33.6342],[130.5813,33.6256],[130.5824,33.6175],[130.5814,33.6147],[130.5659,33.6],[130.5661,33.5869],[130.5761,33.5709],[130.5796,33.5675],[130.5868,33.556],[130.5875,33.5517],[130.5939,33.5463],[130.6115,33.5228],[130.6175,33.5175],[130.6265,33.5039]]]}},{"type":"Feature","properties":{"id":40017},"geometry":{"type":"Polygon","coordinates":[[[130.7628,33.6626],[130.7595,33.6529],[130.7589,33.6413],[130.7733,33.6402],[130.7787,33.6415],[130.7954,33.6594],[130.7925,33.6635],[130.787,33.6679],[130.7787,33.67],[130.7679,33.6657],[130.7628,33.6626]]]}},{"type":"Feature","properties":{"id":40018},"geometry":{"type":"Polygon","coordinates":[[[130.7969,33.4684],[130.8068,33.4674],[130.8111,33.4717],[130.8145,33.4788],[130.8206,33.4861],[130.8203,33.4892],[130.8156,33.5052],[130.8126,33.5105],[130.8072,33.5178],[130.8056,33.5217],[130.8067,33.5406],[130.7993,33.5518],[130.7977,33.5601],[130.7977,33.5824],[130.7922,33.5879],[130.7878,33.5955],[130.7814,33.5918],[130.774,33.5891],[130.7635,33.5821],[130.7598,33.5818],[130.7505,33.5837],[130.7478,33.5857],[130.7452,33.5938],[130.7444,33.6007],[130.7407,33.6094],[130.7287,33.6129],[130.7142,33.6178],[130.7097,33.6184],[130.7064,33.6165],[130.7024,33.6029],[130.6967,33.5943],[130.7028,33.5833],[130.7037,33.5772],[130.7009,33.5631],[130.6968,33.5529],[130.6941,33.5509],[130.6748,33.5479],[130.6673,33.5344],[130.6605,33.5199],[130.6605,33.5125],[130.6643,33.5039],[130.6727,33.5],[130.6855,33.4933],[130.6969,33.4934],[130.7067,33.4927],[130.7151,33.4875],[130.7203,33.4856],[130.7323,33.4845],[130.7615,33.4845],[130.7697,33.4832],[130.7831,33.4772],[130.7969,33.4684]]]}},{"type":"Feature","properties":{"id":40019},"geometry":{"type":"MultiPolygon","coordinates":[[[[130.9763,33.8112],[130.9695,33.8],[130.9656,33.795],[130.961,33.7843],[130.9536,33.7802],[130.9471,33.779],[130.9311,33.7789],[130.9248,33.7777],[130.9193,33.7707],[130.919,33.7632],[130.917,33.7566],[130.9167,33.7504],[130.9248,33.7457],[130.9331,33.742],[130.9453,33.7379],[130.9608,33.7374],[130.9664,33.7381],[130.9771,33.7419],[130.9853,33.7411],[130.9964,33.7467],[131.0043,33.752],[131.0021,33.756],[131.0061,33.7603],[131.0173,33.7679],[131.0126,33.7768],[131,33.7697],[130.9963,33.7734],[130.9991,33.7785],[131.0034,33.78],[131.004,33.7849],[131.0013,33.7891],[130.9965,33.7919],[130.9996,33.7946],[130.9963,33.7999],[131.0008,33.8017],[131,33.8064],[131.0044,33.8089],[131.0006,33.8157],[130.9839,33.8089],[130.9792,33.8118],[130.9763,33.8112]]],[[[131.0322,33.8193],[131.0425,33.8213],[131.0372,33.8457],[131.0355,33.8571],[131.0292,33.8579],[131.0242,33.8568],[131.0322,33.8193]]]]}},{"type":"Feature","properties":{"id":40020},"geometry":{"type":"Polygon","coordinates":[[[130.4366,33.5246],[130.44,33.5177],[130.4472,33.5062],[130.451,33.5017],[130.4634,33.5047],[130.4667,33.507],[130.474,33.518],[130.474,33.5266],[130.4688,33.5363],[130.455,33.548],[130.4511,33.5463],[130.442,33.5386],[130.4366,33.5246]]]}},{"type":"Feature","properties":{"id":40021},"geometry":{"type":"Polygon","coordinates":[[[130.4543,33.5987],[130.4669,33.5971],[130.4887,33.5962],[130.4892,33.6035],[130.4919,33.6093],[130.5034,33.6154],[130.4968,33.6344],[130.4957,33.6353],[130.4866,33.6335],[130.4721,33.6322],[130.46,33.6276],[130.4556,33.6244],[130.4458,33.6198],[130.4413,33.6133],[130.4434,33.6052],[130.4543,33.5987]]]}},{"type":"Feature","properties":{"id":40022},"geometry":{"type":"Polygon","coordinates":[[[130.8929,33.6409],[130.8951,33.6587],[130.8948,33.6648],[130.8857,33.6793],[130.881,33.6947],[130.8783,33.708],[130.8777,33.7167],[130.8727,33.7288],[130.8683,33.7338],[130.8599,33.733],[130.8518,33.7262],[130.8445,33.7248],[130.8325,33.7251],[130.8329,33.6984],[130.8323,33.691],[130.8315,33.6807],[130.8299,33.6768],[130.8328,33.6664],[130.8415,33.6513],[130.8422,33.6404],[130.8644,33.6403],[130.8842,33.6403],[130.8929,33.6409]]]}},{"type":"Feature","properties":{"id":40023},"geometry":{"type":"Polygon","coordinates":[[[130.8126,33.5105],[130.8209,33.513],[130.8295,33.5166],[130.8342,33.521],[130.8387,33.5305],[130.8408,33.549],[130.8409,33.563],[130.8447,33.5741],[130.8458,33.5839],[130.8489,33.5896],[130.8452,33.5947],[130.8444,33.6047],[130.8344,33.607],[130.8174,33.613],[130.8092,33.6177],[130.805,33.6184],[130.8019,33.614],[130.804,33.6056],[130.8039,33.5987],[130.8026,33.5933],[130.7977,33.5824],[130.7977,33.5601],[130.7993,33.5518],[130.8067,33.5406],[130.8056,33.5217],[130.8072,33.5178],[130.8126,33.5105]]]}},{"type":"Feature","properties":{"id":40024},"geometry":{"type":"Polygon","coordinates":[[[130.6748,33.5479],[130.6941,33.5509],[130.6968,33.5529],[130.7009,33.5631],[130.7037,33.5772],[130.7028,33.5833],[130.6967,33.5943],[130.667,33.5941],[130.6573,33.5925],[130.6484,33.5875],[130.6505,33.5827],[130.6606,33.5742],[130.6625,33.561],[130.6671,33.5552],[130.6748,33.5479]]]}},{"type":"Feature","properties":{"id":40025},"geometry":{"type":"MultiPolygon","coordinates":[[[[130.6684,33.9166],[130.6774,33.9077],[130.6847,33.8966],[130.6856,33.8884],[130.6903,33.8821],[130.6987,33.8749],[130.7082,33.8595],[130.7115,33.8518],[130.7194,33.8375],[130.7284,33.8323],[130.7361,33.8291],[130.7413,33.8211],[130.7415,33.8177],[130.7342,33.8053],[130.7255,33.8013],[130.7106,33.7978],[130.7136,33.7929],[130.7171,33.7845],[130.7209,33.7787],[130.723,33.7728],[130.7544,33.7712],[130.7626,33.7726],[130.7685,33.7791],[130.7734,33.7814],[130.7819,33.7833],[130.7858,33.783],[130.7923,33.7796],[130.7999,33.7734],[130.8028,33.7667],[130.8041,33.7554],[130.8043,33.7405],[130.8092,33.732],[130.8256,33.7263],[130.8325,33.7251],[130.8445,33.7248],[130.8518,33.7262],[130.8599,33.733],[130.8683,33.7338],[130.8767,33.7362],[130.8968,33.7403],[130.9048,33.7438],[130.9167,33.7504],[130.917,33.7566],[130.919,33.7632],[130.9193,33.7707],[130.9248,33.7777],[130.9311,33.7789],[130.9471,33.779],[130.9536,33.7802],[130.961,33.7843],[130.9656,33.795],[130.9695,33.8],[130.9763,33.8112],[130.9675,33.8096],[130.9638,33.8179],[130.9565,33.8293],[130.9603,33.8372],[130.9622,33.8386],[130.9758,33.8343],[130.9803,33.8421],[130.9879,33.8502],[130.9939,33.8518],[130.9963,33.859],[130.9975,33.8684],[130.9856,33.869],[130.989,33.8737],[130.9869,33.8767],[130.9901,33.881],[130.9911,33.8853],[130.9951,33.8847],[130.9949,33.88],[130.9995,33.8817],[130.9995,33.8875],[131.0042,33.8891],[130.9995,33.8925],[130.9975,33.8901],[130.9914,33.8946],[130.9883,33.8933],[130.9882,33.9002],[130.9944,33.9025],[131,33.9031],[131.0034,33.9066],[131.0024,33.91],[131.0049,33.9151],[131.0086,33.9146],[131.0139,33.9166],[131.0121,33.9201],[131.0024,33.922],[131.0038,33.9253],[131.0109,33.9312],[131.0085,33.9341],[131.0104,33.9407],[131.013,33.9419],[131.0208,33.9417],[131.0223,33.9463],[131.0184,33.9512],[131.0242,33.9567],[131.0233,33.9599],[131.0193,33.9629],[131.0109,33.9654],[131.0021,33.9695],[130.9919,33.9625],[130.9789,33.9597],[130.9747,33.9597],[130.9706,33.9619],[130.9641,33.962],[130.9615,33.9597],[130.9621,33.9494],[130.9633,33.9474],[130.9539,33.9436],[130.9533,33.9414],[130.9452,33.9377],[130.9431,33.9308],[130.937,33.9199],[130.9368,33.9172],[130.9303,33.9069],[130.9274,33.9037],[130.9158,33.8959],[130.9092,33.895],[130.9019,33.8925],[130.8952,33.8922],[130.8899,33.8934],[130.8817,33.8915],[130.8842,33.8958],[130.8893,33.8958],[130.8931,33.8978],[130.8867,33.9023],[130.8742,33.8977],[130.8734,33.8998],[130.8846,33.9048],[130.8776,33.9123],[130.8701,33.9163],[130.8648,33.912],[130.8628,33.9127],[130.8556,33.9094],[130.8542,33.9049],[130.8494,33.9059],[130.8505,33.9094],[130.8553,33.9108],[130.8693,33.918],[130.8664,33.9203],[130.8625,33.9196],[130.8556,33.9156],[130.8518,33.916],[130.8504,33.9194],[130.8591,33.9223],[130.8531,33.9293],[130.8449,33.9277],[130.8247,33.9203],[130.8211,33.9142],[130.8214,33.9089],[130.8186,33.9064],[130.8197,33.9033],[130.8056,33.8903],[130.8084,33.88],[130.8072,33.8769],[130.8009,33.8753],[130.8052,33.8816],[130.8041,33.8895],[130.792,33.8845],[130.786,33.884],[130.7773,33.8812],[130.7742,33.8789],[130.7688,33.879],[130.7504,33.8743],[130.7528,33.8779],[130.7716,33.8824],[130.7823,33.8854],[130.7847,33.8901],[130.7942,33.8897],[130.7992,33.8915],[130.8106,33.9011],[130.8156,33.9024],[130.8156,33.908],[130.8188,33.9217],[130.8176,33.9255],[130.813,33.9265],[130.8073,33.9312],[130.7785,33.9346],[130.7726,33.9246],[130.7691,33.925],[130.757,33.9202],[130.7518,33.9242],[130.7608,33.9258],[130.7583,33.9303],[130.7525,33.9308],[130.7488,33.9238],[130.7464,33.9253],[130.7483,33.9311],[130.7425,33.9303],[130.7392,33.9322],[130.7369,33.9264],[130.7302,33.9283],[130.7292,33.9347],[130.725,33.9341],[130.713,33.939],[130.7095,33.9376],[130.6998,33.9393],[130.6945,33.9377],[130.6917,33.9348],[130.6875,33.9345],[130.6854,33.9289],[130.6812,33.9225],[130.6684,33.9166]]],[[[130.8296,33.9472],[130.8292,33.9495],[130.8184,33.9448],[130.8144,33.944],[130.8124,33.948],[130.8062,33.9481],[130.8001,33.9463],[130.7919,33.9464],[130.7917,33.9414],[130.7828,33.9392],[130.7864,33.9347],[130.8065,33.933],[130.8128,33.9309],[130.815,33.9331],[130.8253,33.9317],[130.8381,33.9364],[130.8443,33.9397],[130.8352,33.9481],[130.8334,33.9431],[130.8296,33.9472]]]]}},{"type":"Feature","properties":{"id":40026},"geometry":{"type":"Polygon","coordinates":[[[130.4668,33.7533],[130.4637,33.7457],[130.4592,33.7378],[130.454,33.7319],[130.4463,33.7248],[130.4588,33.7164],[130.4616,33.7133],[130.4698,33.6994],[130.4747,33.6947],[130.4868,33.6941],[130.4953,33.6951],[130.4992,33.6922],[130.5012,33.6861],[130.5087,33.6877],[130.5127,33.6898],[130.5175,33.6955],[130.521,33.7021],[130.5253,33.7075],[130.531,33.7102],[130.5427,33.711],[130.555,33.7142],[130.5574,33.7168],[130.5555,33.7248],[130.5446,33.729],[130.54,33.7291],[130.5302,33.7369],[130.5153,33.7377],[130.4952,33.7434],[130.4836,33.7484],[130.4668,33.7533]]]}},{"type":"Feature","properties":{"id":40027},"geometry":{"type":"MultiPolygon","coordinates":[[[[131.1613,33.6166],[131.1633,33.6148],[131.1628,33.6075],[131.1602,33.5977],[131.1582,33.5946],[131.1674,33.589],[131.1755,33.583],[131.1877,33.6009],[131.183,33.5989],[131.1844,33.6061],[131.1769,33.6048],[131.1828,33.6157],[131.1799,33.62],[131.1714,33.6191],[131.1695,33.617],[131.1613,33.6166]]],[[[131.1875,33.6161],[131.1856,33.6153],[131.1804,33.6075],[131.1853,33.608],[131.1887,33.6147],[131.1875,33.6161]]]]}},{"type":"Feature","properties":{"id":40028},"geometry":{"type":"Polygon","coordinates":[[[130.7315,33.6995],[130.7299,33.7048],[130.7291,33.715],[130.7265,33.7231],[130.7178,33.7328],[130.7145,33.7283],[130.7067,33.7214],[130.7032,33.7166],[130.6951,33.7099],[130.6934,33.7018],[130.6917,33.6994],[130.6851,33.6981],[130.6701,33.6915],[130.6887,33.6857],[130.7007,33.6831],[130.7072,33.6801],[130.7124,33.6797],[130.7155,33.6842],[130.7185,33.6927],[130.7232,33.6964],[130.7315,33.6995]]]}},{"type":"Feature","properties":{"id":40029},"geometry":{"type":"Polygon","coordinates":[[[130.7106,33.7978],[130.706,33.8004],[130.6942,33.805],[130.6913,33.807],[130.6737,33.8219],[130.6568,33.8166],[130.6451,33.8144],[130.6356,33.8141],[130.6362,33.8062],[130.6363,33.7866],[130.6443,33.7786],[130.6481,33.7703],[130.6511,33.7557],[130.6571,33.7441],[130.6621,33.7403],[130.6746,33.7414],[130.6882,33.7479],[130.6823,33.7559],[130.6825,33.7595],[130.6931,33.7679],[130.713,33.7717],[130.723,33.7728],[130.7209,33.7787],[130.7171,33.7845],[130.7136,33.7929],[130.7106,33.7978]]]}},{"type":"Feature","properties":{"id":40030},"geometry":{"type":"Polygon","coordinates":[[[130.6839,33.2335],[130.6797,33.2302],[130.6677,33.2242],[130.6622,33.2231],[130.632,33.2214],[130.6275,33.2179],[130.6254,33.214],[130.6247,33.2055],[130.6259,33.1985],[130.6291,33.1934],[130.6295,33.188],[130.6282,33.1816],[130.6305,33.1767],[130.6367,33.1691],[130.6415,33.1583],[130.6413,33.1523],[130.6358,33.1444],[130.6357,33.1383],[130.6431,33.1274],[130.6463,33.1259],[130.664,33.1264],[130.6711,33.135],[130.6694,33.1449],[130.6746,33.1553],[130.6852,33.1666],[130.6932,33.1606],[130.6933,33.1495],[130.7036,33.1491],[130.7141,33.1518],[130.7238,33.1486],[130.7343,33.1511],[130.7407,33.1425],[130.75,33.1374],[130.7587,33.1297],[130.769,33.1248],[130.7733,33.1409],[130.775,33.1507],[130.7774,33.1561],[130.7948,33.171],[130.8014,33.1837],[130.8024,33.1923],[130.7866,33.1973],[130.7833,33.202],[130.7825,33.2064],[130.7775,33.2184],[130.7685,33.2261],[130.763,33.2293],[130.7574,33.2302],[130.7466,33.2335],[130.6839,33.2335]]]}},{"type":"Feature","properties":{"id":40031},"geometry":{"type":"Polygon","coordinates":[[[130.6614,33.3624],[130.6501,33.3552],[130.6438,33.353],[130.6395,33.3531],[130.6301,33.3616],[130.6219,33.3659],[130.5992,33.3661],[130.5936,33.3676],[130.5773,33.3681],[130.5736,33.3594],[130.5687,33.3524],[130.5567,33.3484],[130.548,33.3436],[130.5387,33.343],[130.5382,33.3395],[130.5125,33.341],[130.5001,33.3229],[130.4912,33.3147],[130.4864,33.3043],[130.4736,33.3025],[130.4655,33.2896],[130.4515,33.2773],[130.4381,33.2687],[130.4245,33.2633],[130.4197,33.2614],[130.4034,33.25],[130.3927,33.2436],[130.3885,33.2381],[130.3796,33.2256],[130.3844,33.2259],[130.4011,33.2328],[130.4054,33.2331],[130.4114,33.2313],[130.4133,33.2283],[130.4129,33.2185],[130.4219,33.2224],[130.4438,33.2368],[130.4485,33.2373],[130.4589,33.2303],[130.4671,33.2424],[130.4831,33.2541],[130.489,33.2541],[130.4951,33.2475],[130.5038,33.2458],[130.5147,33.2463],[130.5216,33.2512],[130.5211,33.2563],[130.5179,33.2588],[130.5176,33.2633],[130.5223,33.2643],[130.5335,33.264],[130.5497,33.2584],[130.5562,33.2584],[130.5648,33.2677],[130.572,33.2706],[130.5763,33.2706],[130.589,33.2672],[130.5947,33.2676],[130.6001,33.2725],[130.6019,33.2771],[130.607,33.2801],[130.6158,33.2869],[130.638,33.2945],[130.6506,33.2975],[130.6658,33.2981],[130.6739,33.2991],[130.6919,33.3025],[130.6972,33.3027],[130.7138,33.2996],[130.7309,33.2998],[130.7303,33.3255],[130.7334,33.3419],[130.7327,33.3669],[130.7221,33.359],[130.7144,33.3566],[130.7018,33.3566],[130.6817,33.3586],[130.6762,33.3602],[130.6672,33.3608],[130.6614,33.3624]]]}},{"type":"Feature","properties":{"id":40032},"geometry":{"type":"Polygon","coordinates":[[[130.2171,33.5843],[130.1899,33.5762],[130.1884,33.5677],[130.1868,33.5647],[130.1753,33.5589],[130.165,33.5555],[130.1632,33.5509],[130.1586,33.5481],[130.1588,33.5459],[130.1672,33.5413],[130.1783,33.5383],[130.1808,33.5357],[130.1856,33.5211],[130.1857,33.5166],[130.1831,33.5031],[130.1788,33.4939],[130.174,33.4858],[130.1628,33.4716],[130.1709,33.4643],[130.1887,33.4652],[130.1969,33.4731],[130.2062,33.4779],[130.2186,33.4762],[130.2293,33.4734],[130.2401,33.4714],[130.25,33.4677],[130.2598,33.4731],[130.2706,33.4758],[130.2714,33.4893],[130.2756,33.4984],[130.2808,33.5011],[130.2878,33.5069],[130.291,33.5135],[130.2887,33.52],[130.288,33.5336],[130.2849,33.5386],[130.2726,33.5433],[130.2675,33.5474],[130.2611,33.5543],[130.2544,33.5567],[130.2452,33.5541],[130.2411,33.5564],[130.2383,33.5711],[130.2355,33.575],[130.2229,33.5762],[130.2171,33.5843]]]}},{"type":"Feature","properties":{"id":40033},"geometry":{"type":"Polygon","coordinates":[[[130.9245,33.5596],[130.9313,33.5455],[130.9346,33.5318],[130.9371,33.5242],[130.9482,33.5053],[130.9513,33.4939],[130.9553,33.4865],[130.9735,33.5],[130.9833,33.5041],[130.9802,33.5097],[130.9763,33.5196],[130.9749,33.5296],[130.9747,33.546],[130.976,33.5553],[130.975,33.5604],[130.9711,33.5679],[130.9681,33.5815],[130.9742,33.5949],[130.9792,33.6113],[130.9809,33.6229],[130.9841,33.6321],[130.9922,33.6419],[130.9982,33.6589],[131.0058,33.6679],[131.0128,33.6812],[131.0061,33.6867],[130.9978,33.6885],[130.9829,33.6885],[130.9726,33.6871],[130.9675,33.685],[130.9568,33.676],[130.9486,33.673],[130.9366,33.6731],[130.933,33.6746],[130.9325,33.6784],[130.9349,33.6847],[130.9363,33.6952],[130.9373,33.7114],[130.9342,33.7158],[130.9239,33.7186],[130.9205,33.7175],[130.9174,33.7135],[130.9134,33.7118],[130.9083,33.7153],[130.9028,33.7247],[130.9005,33.7325],[130.8968,33.7403],[130.8767,33.7362],[130.8683,33.7338],[130.8727,33.7288],[130.8777,33.7167],[130.8783,33.708],[130.881,33.6947],[130.8857,33.6793],[130.8948,33.6648],[130.8951,33.6587],[130.8929,33.6409],[130.8989,33.6378],[130.9132,33.6329],[130.9141,33.6253],[130.9088,33.6152],[130.9086,33.6075],[130.9145,33.5984],[130.9151,33.5901],[130.9262,33.5783],[130.9276,33.5703],[130.9264,33.5631],[130.9245,33.5596]]]}},{"type":"Feature","properties":{"id":40034},"geometry":{"type":"Polygon","coordinates":[[[130.4547,33.1673],[130.4528,33.1605],[130.4513,33.1482],[130.4465,33.1336],[130.4418,33.1215],[130.4374,33.1128],[130.4347,33.1128],[130.4293,33.1038],[130.4254,33.0999],[130.4256,33.0971],[130.4136,33.0852],[130.412,33.0811],[130.4147,33.0788],[130.419,33.0685],[130.4351,33.0712],[130.4452,33.0747],[130.4509,33.0809],[130.463,33.0849],[130.4678,33.0853],[130.4874,33.0852],[130.4916,33.0861],[130.4986,33.0905],[130.504,33.1],[130.5075,33.1003],[130.5137,33.0964],[130.5143,33.0864],[130.5153,33.0829],[130.5198,33.0811],[130.535,33.0847],[130.5381,33.0794],[130.5391,33.0727],[130.5444,33.0783],[130.5556,33.08],[130.566,33.0898],[130.5641,33.1008],[130.5653,33.1013],[130.556,33.1077],[130.5528,33.109],[130.5507,33.1159],[130.5505,33.1489],[130.5495,33.1532],[130.5453,33.1562],[130.5343,33.1584],[130.5412,33.1774],[130.535,33.1781],[130.5289,33.1805],[130.5266,33.1844],[130.5231,33.1815],[130.5081,33.182],[130.5051,33.181],[130.4946,33.172],[130.4907,33.1704],[130.481,33.1769],[130.4747,33.1779],[130.4704,33.1751],[130.4672,33.1688],[130.4622,33.1669],[130.4547,33.1673]]]}},{"type":"Feature","properties":{"id":40035},"geometry":{"type":"Polygon","coordinates":[[[130.54,33.7291],[130.5446,33.729],[130.5555,33.7248],[130.5574,33.7168],[130.555,33.7142],[130.5427,33.711],[130.5414,33.7052],[130.5411,33.6951],[130.539,33.6876],[130.5391,33.6757],[130.5402,33.6717],[130.5459,33.6686],[130.5591,33.6657],[130.5667,33.6619],[130.572,33.6579],[130.5718,33.6498],[130.5776,33.6342],[130.5822,33.6387],[130.6019,33.6555],[130.6051,33.6618],[130.6082,33.6644],[130.6207,33.6606],[130.6298,33.6628],[130.6344,33.667],[130.6398,33.6772],[130.6443,33.683],[130.6495,33.687],[130.6567,33.6877],[130.6701,33.6915],[130.6851,33.6981],[130.6917,33.6994],[130.6934,33.7018],[130.6951,33.7099],[130.7032,33.7166],[130.7067,33.7214],[130.7145,33.7283],[130.7178,33.7328],[130.705,33.7426],[130.6882,33.7479],[130.6746,33.7414],[130.6621,33.7403],[130.6571,33.7441],[130.6511,33.7557],[130.6481,33.7703],[130.6443,33.7786],[130.6363,33.7866],[130.6225,33.7801],[130.6175,33.779],[130.6,33.7648],[130.5826,33.7572],[130.5703,33.7554],[130.5548,33.7518],[130.548,33.7421],[130.5449,33.7344],[130.54,33.7291]]]}},{"type":"Feature","properties":{"id":40036},"geometry":{"type":"Polygon","coordinates":[[[130.6653,33.8779],[130.6686,33.8719],[130.6741,33.8554],[130.6766,33.8499],[130.6815,33.8437],[130.6897,33.8374],[130.6957,33.8355],[130.7054,33.8349],[130.7129,33.8355],[130.7194,33.8375],[130.7115,33.8518],[130.7082,33.8595],[130.6987,33.8749],[130.6903,33.8821],[130.6856,33.8884],[130.6751,33.8822],[130.6653,33.8779]]]}},{"type":"Feature","properties":{"id":40037},"geometry":{"type":"MultiPolygon","coordinates":[[[[130.4821,33.8431],[130.4907,33.8424],[130.4937,33.8394],[130.4954,33.8279],[130.4975,33.8231],[130.5,33.8085],[130.4953,33.7941],[130.4962,33.7921],[130.5087,33.7857],[130.5252,33.7832],[130.5322,33.7813],[130.5395,33.7752],[130.5455,33.7644],[130.5548,33.7518],[130.5703,33.7554],[130.5826,33.7572],[130.6,33.7648],[130.6175,33.779],[130.6225,33.7801],[130.6363,33.7866],[130.6362,33.8062],[130.6356,33.8141],[130.6179,33.8214],[130.6054,33.8198],[130.5965,33.8165],[130.5891,33.8168],[130.5841,33.8249],[130.5807,33.8364],[130.5724,33.8416],[130.5684,33.8467],[130.5665,33.8557],[130.5535,33.8667],[130.5428,33.8845],[130.5403,33.8871],[130.5249,33.8872],[130.5302,33.8822],[130.5292,33.8754],[130.5269,33.8701],[130.5185,33.8604],[130.5119,33.8567],[130.5009,33.8525],[130.4853,33.8515],[130.4796,33.8574],[130.4783,33.8518],[130.4819,33.8492],[130.4821,33.8431]]],[[[130.4964,33.9124],[130.4905,33.9134],[130.4872,33.9107],[130.4945,33.9049],[130.496,33.8982],[130.5002,33.8956],[130.5085,33.8968],[130.5065,33.9013],[130.4993,33.907],[130.4964,33.9124]]],[[[130.4475,33.9136],[130.4458,33.9158],[130.4353,33.9142],[130.4321,33.9149],[130.4303,33.9102],[130.4278,33.9094],[130.4194,33.9131],[130.415,33.9128],[130.4061,33.9097],[130.4083,33.9056],[130.4058,33.9014],[130.4058,33.8967],[130.4094,33.8922],[130.4167,33.8908],[130.42,33.8883],[130.4298,33.887],[130.4328,33.8956],[130.4367,33.8983],[130.4389,33.9025],[130.4453,33.9089],[130.4503,33.9114],[130.4475,33.9136]]],[[[130.1044,34.2497],[130.103,34.2502],[130.0975,34.2424],[130.1028,34.2372],[130.1114,34.2453],[130.1113,34.2502],[130.1044,34.2497]]]]}},{"type":"Feature","properties":{"id":40038},"geometry":{"type":"Polygon","coordinates":[[[130.462,33.4637],[130.4604,33.4692],[130.4568,33.4759],[130.4513,33.4929],[130.451,33.5017],[130.4472,33.5062],[130.44,33.5177],[130.4366,33.5246],[130.4257,33.532],[130.4217,33.5392],[130.418,33.5384],[130.4142,33.5328],[130.4061,33.5185],[130.4015,33.5146],[130.3874,33.5087],[130.3743,33.5049],[130.3724,33.4996],[130.3838,33.4838],[130.3852,33.4766],[130.3855,33.4651],[130.3867,33.4584],[130.3894,33.4527],[130.3951,33.4466],[130.3967,33.4385],[130.3928,33.4351],[130.3916,33.4311],[130.392,33.4241],[130.3989,33.4239],[130.4087,33.4128],[130.4149,33.4038],[130.4173,33.4022],[130.4305,33.3935],[130.4375,33.4014],[130.4496,33.4148],[130.4608,33.417],[130.4691,33.4267],[130.4617,33.4432],[130.4603,33.4529],[130.462,33.4637]]]}},{"type":"Feature","properties":{"id":40039},"geometry":{"type":"Polygon","coordinates":[[[130.7194,33.8375],[130.7129,33.8355],[130.7054,33.8349],[130.6957,33.8355],[130.6897,33.8374],[130.6839,33.8326],[130.6806,33.8282],[130.6737,33.8219],[130.6913,33.807],[130.6942,33.805],[130.706,33.8004],[130.7106,33.7978],[130.7255,33.8013],[130.7342,33.8053],[130.7415,33.8177],[130.7413,33.8211],[130.7361,33.8291],[130.7284,33.8323],[130.7194,33.8375]]]}},{"type":"Feature","properties":{"id":40040},"geometry":{"type":"Polygon","coordinates":[[[130.1628,33.4716],[130.174,33.4858],[130.1788,33.4939],[130.1831,33.5031],[130.1857,33.5166],[130.1856,33.5211],[130.1808,33.5357],[130.1783,33.5383],[130.1672,33.5413],[130.1588,33.5459],[130.1541,33.5424],[130.1537,33.5373],[130.143,33.5344],[130.1383,33.53],[130.1294,33.5285],[130.1247,33.5251],[130.1335,33.5188],[130.1271,33.5105],[130.1158,33.5075],[130.1113,33.5105],[130.1079,33.5093],[130.0989,33.5152],[130.0997,33.5108],[130.0915,33.5056],[130.0851,33.5056],[130.0793,33.5035],[130.0714,33.503],[130.0626,33.4982],[130.0503,33.4949],[130.044,33.4949],[130.0496,33.49],[130.0419,33.4789],[130.04,33.4706],[130.0373,33.4677],[130.0528,33.4659],[130.0629,33.469],[130.0759,33.4658],[130.0992,33.4666],[130.1076,33.4728],[130.1239,33.4722],[130.144,33.4695],[130.1531,33.4744],[130.1628,33.4716]]]}},{"type":"Feature","properties":{"id":40041},"geometry":{"type":"Polygon","coordinates":[[[130.8043,33.7405],[130.8041,33.7554],[130.8028,33.7667],[130.7999,33.7734],[130.7923,33.7796],[130.7858,33.783],[130.7819,33.7833],[130.7734,33.7814],[130.7685,33.7791],[130.7626,33.7726],[130.7544,33.7712],[130.723,33.7728],[130.713,33.7717],[130.6931,33.7679],[130.6825,33.7595],[130.6823,33.7559],[130.6882,33.7479],[130.705,33.7426],[130.7178,33.7328],[130.7265,33.7231],[130.7291,33.715],[130.7299,33.7048],[130.7315,33.6995],[130.7433,33.6989],[130.754,33.7078],[130.7605,33.7122],[130.7728,33.7186],[130.7785,33.7253],[130.7901,33.7349],[130.8043,33.7405]]]}},{"type":"Feature","properties":{"id":40042},"geometry":{"type":"Polygon","coordinates":[[[130.5373,33.4365],[130.5394,33.4354],[130.5437,33.4166],[130.544,33.3975],[130.5428,33.362],[130.5397,33.3502],[130.5387,33.343],[130.548,33.3436],[130.5567,33.3484],[130.5687,33.3524],[130.5736,33.3594],[130.5773,33.3681],[130.5872,33.3824],[130.5925,33.3979],[130.5947,33.4018],[130.6009,33.4074],[130.6049,33.4135],[130.6005,33.4229],[130.5929,33.4294],[130.5834,33.4338],[130.5775,33.4389],[130.5679,33.4399],[130.5574,33.443],[130.5525,33.4425],[130.5373,33.4365]]]}},{"type":"Feature","properties":{"id":40043},"geometry":{"type":"Polygon","coordinates":[[[130.6385,33.8859],[130.6291,33.8828],[130.6165,33.8797],[130.5913,33.8774],[130.5764,33.8782],[130.5671,33.8824],[130.5649,33.8902],[130.5546,33.8906],[130.5403,33.8871],[130.5428,33.8845],[130.5535,33.8667],[130.5665,33.8557],[130.5684,33.8467],[130.5724,33.8416],[130.5807,33.8364],[130.5841,33.8249],[130.5891,33.8168],[130.5965,33.8165],[130.6054,33.8198],[130.6179,33.8214],[130.6356,33.8141],[130.6451,33.8144],[130.6448,33.8508],[130.6427,33.8701],[130.6401,33.8777],[130.6385,33.8859]]]}},{"type":"Feature","properties":{"id":40044},"geometry":{"type":"Polygon","coordinates":[[[130.3796,33.2256],[130.375,33.2164],[130.3628,33.1993],[130.3618,33.1892],[130.3582,33.1694],[130.3621,33.17],[130.3654,33.1769],[130.372,33.1795],[130.38,33.1795],[130.389,33.1762],[130.3947,33.1761],[130.4015,33.1801],[130.4072,33.192],[130.4137,33.198],[130.4129,33.2185],[130.4133,33.2283],[130.4114,33.2313],[130.4054,33.2331],[130.4011,33.2328],[130.3844,33.2259],[130.3796,33.2256]]]}},{"type":"Feature","properties":{"id":40045},"geometry":{"type":"Polygon","coordinates":[[[130.4589,33.2303],[130.4485,33.2373],[130.4438,33.2368],[130.4219,33.2224],[130.4129,33.2185],[130.4137,33.198],[130.4246,33.1924],[130.4297,33.1883],[130.4329,33.1837],[130.438,33.1816],[130.448,33.1808],[130.4546,33.1773],[130.454,33.2145],[130.4555,33.2245],[130.4589,33.2303]]]}},{"type":"Feature","properties":{"id":40046},"geometry":{"type":"Polygon","coordinates":[[[130.419,33.0685],[130.425,33.0528],[130.423,33.0522],[130.4187,33.0357],[130.4225,33.0297],[130.4151,33.0243],[130.4068,33.0168],[130.4094,33.0119],[130.4126,33.0152],[130.4158,33.0139],[130.418,33.0082],[130.4096,33.0096],[130.4008,33.0064],[130.4694,32.9994],[130.4826,33],[130.5093,33.0031],[130.5148,33.0116],[130.5157,33.013],[130.5097,33.0219],[130.5067,33.0325],[130.5,33.0489],[130.5083,33.0554],[130.5185,33.0609],[130.5284,33.063],[130.5391,33.0727],[130.5381,33.0794],[130.535,33.0847],[130.5198,33.0811],[130.5153,33.0829],[130.5143,33.0864],[130.5137,33.0964],[130.5075,33.1003],[130.504,33.1],[130.4986,33.0905],[130.4916,33.0861],[130.4874,33.0852],[130.4678,33.0853],[130.463,33.0849],[130.4509,33.0809],[130.4452,33.0747],[130.4351,33.0712],[130.419,33.0685]]]}},{"type":"Feature","properties":{"id":40047},"geometry":{"type":"Polygon","coordinates":[[[130.6427,33.8701],[130.6448,33.8508],[130.6451,33.8144],[130.6568,33.8166],[130.6737,33.8219],[130.6806,33.8282],[130.6839,33.8326],[130.6897,33.8374],[130.6815,33.8437],[130.6766,33.8499],[130.6741,33.8554],[130.6686,33.8719],[130.6653,33.8779],[130.6617,33.8715],[130.6568,33.8699],[130.6427,33.8701]]]}},{"type":"Feature","properties":{"id":40048},"geometry":{"type":"Polygon","coordinates":[[[130.4907,33.4763],[130.4897,33.4848],[130.4896,33.4978],[130.4953,33.5211],[130.5072,33.5384],[130.5069,33.5515],[130.5032,33.5582],[130.4983,33.5617],[130.4886,33.5645],[130.4862,33.5671],[130.478,33.568],[130.4702,33.5626],[130.4622,33.5615],[130.4602,33.5598],[130.455,33.548],[130.4688,33.5363],[130.474,33.5266],[130.474,33.518],[130.4667,33.507],[130.4634,33.5047],[130.451,33.5017],[130.4513,33.4929],[130.4568,33.4759],[130.4604,33.4692],[130.462,33.4637],[130.4726,33.4632],[130.4835,33.4666],[130.4884,33.471],[130.4907,33.4763]]]}},{"type":"Feature","properties":{"id":40049},"geometry":{"type":"Polygon","coordinates":[[[130.8644,33.6403],[130.8422,33.6404],[130.8431,33.6344],[130.8435,33.6124],[130.8444,33.6047],[130.8452,33.5947],[130.8489,33.5896],[130.868,33.5892],[130.8677,33.6234],[130.8644,33.6403]]]}},{"type":"Feature","properties":{"id":40050},"geometry":{"type":"Polygon","coordinates":[[[130.4968,33.6344],[130.5034,33.6154],[130.5058,33.6128],[130.5201,33.6013],[130.5366,33.5945],[130.545,33.5951],[130.5569,33.5974],[130.5659,33.6],[130.5814,33.6147],[130.5824,33.6175],[130.5813,33.6256],[130.5776,33.6342],[130.5718,33.6498],[130.572,33.6579],[130.5667,33.6619],[130.5591,33.6657],[130.5541,33.6598],[130.5505,33.6532],[130.5409,33.6435],[130.5275,33.6379],[130.5074,33.6369],[130.4968,33.6344]]]}},{"type":"Feature","properties":{"id":40051},"geometry":{"type":"MultiPolygon","coordinates":[[[[130.0511,33.564],[130.0547,33.5719],[130.0529,33.575],[130.0488,33.5764],[130.0445,33.5739],[130.0437,33.57],[130.0511,33.564]]],[[[130.2171,33.5843],[130.2158,33.6008],[130.2105,33.6129],[130.2096,33.6259],[130.2047,33.6342],[130.1991,33.6405],[130.1884,33.6353],[130.1855,33.6328],[130.1794,33.6328],[130.1721,33.6294],[130.1664,33.6325],[130.1599,33.6307],[130.1563,33.628],[130.154,33.6215],[130.156,33.6171],[130.1613,33.6143],[130.1621,33.6117],[130.1593,33.6065],[130.1474,33.5956],[130.1406,33.5921],[130.1313,33.5901],[130.1232,33.5904],[130.118,33.5918],[130.1088,33.5965],[130.1062,33.5928],[130.1073,33.5848],[130.1024,33.5875],[130.0966,33.5864],[130.0886,33.5835],[130.088,33.5776],[130.0979,33.5721],[130.0976,33.5646],[130.1012,33.5634],[130.1062,33.5663],[130.1093,33.5704],[130.1198,33.5737],[130.1266,33.5719],[130.1295,33.568],[130.135,33.5664],[130.1347,33.562],[130.13,33.5581],[130.1268,33.5613],[130.1199,33.5586],[130.1149,33.5498],[130.1197,33.5475],[130.1258,33.5564],[130.1355,33.5554],[130.1393,33.5526],[130.1419,33.5482],[130.1482,33.5515],[130.1515,33.5562],[130.1567,33.5601],[130.1636,33.5608],[130.165,33.5555],[130.1753,33.5589],[130.1868,33.5647],[130.1884,33.5677],[130.1899,33.5762],[130.2171,33.5843]]]]}},{"type":"Feature","properties":{"id":40052},"geometry":{"type":"Polygon","coordinates":[[[130.478,33.568],[130.4862,33.5671],[130.5042,33.5793],[130.49,33.5936],[130.4887,33.5962],[130.4669,33.5971],[130.4543,33.5987],[130.4642,33.5842],[130.469,33.5786],[130.4773,33.5713],[130.478,33.568]]]}},{"type":"Feature","properties":{"id":40053},"geometry":{"type":"MultiPolygon","coordinates":[[[[130.4191,33.7149],[130.4231,33.7108],[130.4643,33.6771],[130.4651,33.6761],[130.4921,33.6757],[130.4954,33.6764],[130.4991,33.6801],[130.5012,33.6861],[130.4992,33.6922],[130.4953,33.6951],[130.4868,33.6941],[130.4747,33.6947],[130.4698,33.6994],[130.4616,33.7133],[130.4588,33.7164],[130.4463,33.7248],[130.434,33.7168],[130.4287,33.7148],[130.4217,33.7187],[130.4191,33.7149]]],[[[130.3859,33.7517],[130.3789,33.7536],[130.379,33.7459],[130.3814,33.744],[130.393,33.744],[130.393,33.7459],[130.3859,33.7517]]],[[[130.3644,33.7671],[130.3622,33.7671],[130.3587,33.7617],[130.3622,33.7551],[130.3652,33.7553],[130.3677,33.7602],[130.381,33.7591],[130.3714,33.7653],[130.3644,33.7671]]]]}},{"type":"Feature","properties":{"id":40054},"geometry":{"type":"Polygon","coordinates":[[[130.868,33.5892],[130.8489,33.5896],[130.8458,33.5839],[130.8447,33.5741],[130.8409,33.563],[130.8408,33.549],[130.8387,33.5305],[130.8342,33.521],[130.8295,33.5166],[130.8209,33.513],[130.8126,33.5105],[130.8156,33.5052],[130.8203,33.4892],[130.8206,33.4861],[130.8327,33.4864],[130.8367,33.4852],[130.8423,33.4802],[130.8478,33.4777],[130.8496,33.4748],[130.8464,33.4664],[130.8471,33.4612],[130.8499,33.4553],[130.8638,33.4436],[130.8698,33.4418],[130.8762,33.4447],[130.8863,33.4461],[130.9052,33.4459],[130.9129,33.4465],[130.9211,33.4523],[130.9241,33.4557],[130.931,33.4634],[130.934,33.4761],[130.9438,33.4801],[130.9553,33.4865],[130.9513,33.4939],[130.9482,33.5053],[130.9371,33.5242],[130.9346,33.5318],[130.9313,33.5455],[130.9245,33.5596],[130.9158,33.5669],[130.9138,33.5698],[130.9068,33.5736],[130.8968,33.5758],[130.8908,33.5743],[130.882,33.5743],[130.8764,33.5761],[130.8734,33.5788],[130.868,33.5892]]]}},{"type":"Feature","properties":{"id":40055},"geometry":{"type":"Polygon","coordinates":[[[130.5659,33.6],[130.5569,33.5974],[130.545,33.5951],[130.5366,33.5945],[130.5201,33.6013],[130.5058,33.6128],[130.5034,33.6154],[130.4919,33.6093],[130.4892,33.6035],[130.4887,33.5962],[130.49,33.5936],[130.5042,33.5793],[130.5163,33.5723],[130.5262,33.5696],[130.5327,33.5703],[130.5419,33.5742],[130.546,33.5771],[130.5539,33.5802],[130.5661,33.5869],[130.5659,33.6]]]}},{"type":"Feature","properties":{"id":40056},"geometry":{"type":"Polygon","coordinates":[[[130.6151,33.397],[130.6049,33.4135],[130.6009,33.4074],[130.5947,33.4018],[130.5925,33.3979],[130.5872,33.3824],[130.5773,33.3681],[130.5936,33.3676],[130.5992,33.3661],[130.6219,33.3659],[130.6301,33.3616],[130.6395,33.3531],[130.6438,33.353],[130.6501,33.3552],[130.6614,33.3624],[130.6477,33.3734],[130.6349,33.3803],[130.6207,33.3917],[130.6151,33.397]]]}},{"type":"Feature","properties":{"id":40057},"geometry":{"type":"Polygon","coordinates":[[[130.6247,33.2055],[130.6064,33.2055],[130.5979,33.2067],[130.5878,33.21],[130.5836,33.208],[130.5769,33.2021],[130.5712,33.1936],[130.5666,33.1896],[130.5567,33.1838],[130.5412,33.1774],[130.5343,33.1584],[130.5453,33.1562],[130.5495,33.1532],[130.5505,33.1489],[130.5507,33.1159],[130.5528,33.109],[130.556,33.1077],[130.5653,33.1013],[130.5735,33.1057],[130.5823,33.1127],[130.593,33.1104],[130.6053,33.1104],[130.6152,33.1053],[130.6251,33.1076],[130.6378,33.1084],[130.6535,33.1062],[130.6583,33.1053],[130.6621,33.1159],[130.664,33.1264],[130.6463,33.1259],[130.6431,33.1274],[130.6357,33.1383],[130.6358,33.1444],[130.6413,33.1523],[130.6415,33.1583],[130.6367,33.1691],[130.6305,33.1767],[130.6282,33.1816],[130.6295,33.188],[130.6291,33.1934],[130.6259,33.1985],[130.6247,33.2055]]]}},{"type":"Feature","properties":{"id":40058},"geometry":{"type":"Polygon","coordinates":[[[130.7954,33.6594],[130.7787,33.6415],[130.7733,33.6402],[130.7589,33.6413],[130.7575,33.6276],[130.7587,33.6225],[130.7635,33.6151],[130.7763,33.6083],[130.7813,33.6041],[130.7878,33.5955],[130.7922,33.5879],[130.7977,33.5824],[130.8026,33.5933],[130.8039,33.5987],[130.804,33.6056],[130.8019,33.614],[130.805,33.6184],[130.8092,33.6177],[130.8174,33.613],[130.8344,33.607],[130.8444,33.6047],[130.8435,33.6124],[130.8431,33.6344],[130.8422,33.6404],[130.8415,33.6513],[130.8328,33.6664],[130.8299,33.6768],[130.8315,33.6807],[130.8323,33.691],[130.8185,33.6913],[130.8132,33.6882],[130.8114,33.6848],[130.8088,33.672],[130.8061,33.6686],[130.7954,33.6594]]]}},{"type":"Feature","properties":{"id":40059},"geometry":{"type":"Polygon","coordinates":[[[130.8694,33.372],[130.875,33.3737],[130.8869,33.3752],[130.8871,33.3859],[130.8928,33.4064],[130.8933,33.4246],[130.8996,33.4343],[130.9023,33.4457],[130.9052,33.4459],[130.8863,33.4461],[130.8762,33.4447],[130.8698,33.4418],[130.8638,33.4436],[130.8499,33.4553],[130.8471,33.4612],[130.8464,33.4664],[130.8496,33.4748],[130.8478,33.4777],[130.8423,33.4802],[130.8367,33.4852],[130.8327,33.4864],[130.8206,33.4861],[130.8145,33.4788],[130.8111,33.4717],[130.8068,33.4674],[130.7969,33.4684],[130.7846,33.4619],[130.7753,33.4543],[130.7749,33.4497],[130.7809,33.4479],[130.7938,33.4482],[130.8067,33.4507],[130.8152,33.4507],[130.8259,33.4485],[130.8351,33.4422],[130.8397,33.4345],[130.8409,33.4299],[130.8479,33.4152],[130.8562,33.4061],[130.8589,33.4019],[130.8638,33.3898],[130.8674,33.3745],[130.8694,33.372]]]}},{"type":"Feature","properties":{"id":40060},"geometry":{"type":"Polygon","coordinates":[[[130.7327,33.3669],[130.7334,33.3419],[130.7303,33.3255],[130.7309,33.2998],[130.7312,33.2902],[130.7431,33.2802],[130.7468,33.2796],[130.7677,33.2797],[130.7716,33.2793],[130.7831,33.2703],[130.7934,33.2689],[130.8024,33.2656],[130.8066,33.2628],[130.8275,33.2546],[130.8338,33.2528],[130.8344,33.2545],[130.8445,33.2539],[130.8605,33.2658],[130.8551,33.2759],[130.8627,33.2834],[130.8678,33.293],[130.8647,33.3026],[130.8598,33.3123],[130.859,33.3238],[130.8532,33.3333],[130.8382,33.3403],[130.8411,33.3429],[130.8195,33.3533],[130.8093,33.3537],[130.8048,33.3523],[130.799,33.3475],[130.796,33.3473],[130.7813,33.354],[130.7661,33.3582],[130.7594,33.3588],[130.7412,33.3624],[130.7327,33.3669]]]}},{"type":"Feature","properties":{"id":40061},"geometry":{"type":"Polygon","coordinates":[[[130.5875,33.5517],[130.5868,33.556],[130.5796,33.5675],[130.5761,33.5709],[130.5661,33.5869],[130.5539,33.5802],[130.546,33.5771],[130.5419,33.5742],[130.5327,33.5703],[130.5262,33.5696],[130.5163,33.5723],[130.5042,33.5793],[130.4862,33.5671],[130.4886,33.5645],[130.4983,33.5617],[130.5032,33.5582],[130.5069,33.5515],[130.5072,33.5384],[130.5187,33.53],[130.5244,33.5302],[130.5301,33.5388],[130.544,33.5502],[130.5475,33.5508],[130.5595,33.5503],[130.5637,33.5484],[130.5715,33.5426],[130.5875,33.5517]]]}},{"type":"Feature","properties":{"id":40062},"geometry":{"type":"Polygon","coordinates":[[[130.8024,33.1923],[130.8014,33.1837],[130.7948,33.171],[130.7774,33.1561],[130.775,33.1507],[130.7733,33.1409],[130.769,33.1248],[130.7802,33.1202],[130.7915,33.1207],[130.8218,33.1089],[130.8316,33.1032],[130.8456,33.1032],[130.8557,33.1061],[130.8633,33.1137],[130.8685,33.1236],[130.8714,33.1343],[130.8772,33.1453],[130.8794,33.1562],[130.8777,33.1666],[130.8879,33.1728],[130.885,33.1837],[130.8653,33.1912],[130.8466,33.203],[130.8372,33.1941],[130.8356,33.1915],[130.824,33.1877],[130.8199,33.1876],[130.811,33.1907],[130.8024,33.1923]]]}},{"type":"Feature","properties":{"id":40063},"geometry":{"type":"Polygon","coordinates":[[[130.5266,33.1844],[130.5289,33.1805],[130.535,33.1781],[130.5412,33.1774],[130.5567,33.1838],[130.5666,33.1896],[130.5712,33.1936],[130.5769,33.2021],[130.5836,33.208],[130.5878,33.21],[130.5979,33.2067],[130.6064,33.2055],[130.6247,33.2055],[130.6254,33.214],[130.6275,33.2179],[130.632,33.2214],[130.6622,33.2231],[130.6677,33.2242],[130.6797,33.2302],[130.6839,33.2335],[130.6912,33.2417],[130.7036,33.2595],[130.7143,33.2709],[130.7141,33.2734],[130.7081,33.2817],[130.7079,33.2902],[130.7138,33.2996],[130.6972,33.3027],[130.6919,33.3025],[130.6739,33.2991],[130.6658,33.2981],[130.6506,33.2975],[130.638,33.2945],[130.6158,33.2869],[130.607,33.2801],[130.6019,33.2771],[130.607,33.2732],[130.6097,33.2691],[130.611,33.257],[130.6179,33.2512],[130.6237,33.2483],[130.6321,33.2397],[130.6369,33.2367],[130.6304,33.2339],[130.6147,33.2292],[130.6113,33.2301],[130.603,33.2367],[130.5955,33.2377],[130.5899,33.2368],[130.5828,33.2336],[130.561,33.2307],[130.519,33.2305],[130.521,33.2175],[130.5162,33.2006],[130.5164,33.1978],[130.5252,33.1893],[130.5266,33.1844]]]}},{"type":"Feature","properties":{"id":40064},"geometry":{"type":"Polygon","coordinates":[[[130.4546,33.1773],[130.448,33.1808],[130.438,33.1816],[130.4329,33.1837],[130.4297,33.1883],[130.4246,33.1924],[130.4137,33.198],[130.4072,33.192],[130.4015,33.1801],[130.3947,33.1761],[130.389,33.1762],[130.38,33.1795],[130.372,33.1795],[130.3654,33.1769],[130.3621,33.17],[130.3582,33.1694],[130.3541,33.1469],[130.3606,33.1473],[130.3651,33.1398],[130.3729,33.1383],[130.3761,33.1276],[130.3722,33.1233],[130.3722,33.1198],[130.3866,33.1118],[130.3961,33.1083],[130.3972,33.1066],[130.3872,33.0955],[130.393,33.0924],[130.4084,33.0875],[130.4163,33.092],[130.4347,33.1128],[130.4374,33.1128],[130.4418,33.1215],[130.4465,33.1336],[130.4513,33.1482],[130.4528,33.1605],[130.4547,33.1673],[130.4546,33.1773]]]}},{"type":"Feature","properties":{"id":40065},"geometry":{"type":"Polygon","coordinates":[[[131.0692,33.5052],[131.0802,33.5028],[131.0925,33.5034],[131.1032,33.5019],[131.1141,33.503],[131.1335,33.502],[131.1503,33.5017],[131.1608,33.5045],[131.1773,33.5074],[131.171,33.5165],[131.1707,33.527],[131.1875,33.5395],[131.1906,33.5493],[131.1891,33.5622],[131.1805,33.5689],[131.1755,33.583],[131.1674,33.589],[131.1582,33.5946],[131.1513,33.5861],[131.1432,33.5793],[131.1319,33.5658],[131.1271,33.5578],[131.1242,33.5504],[131.1192,33.5457],[131.1116,33.5411],[131.102,33.5331],[131.0963,33.5265],[131.0893,33.5208],[131.0861,33.5196],[131.0692,33.5052]]]}},{"type":"Feature","properties":{"id":40066},"geometry":{"type":"Polygon","coordinates":[[[131.0534,33.6835],[131.0508,33.6889],[131.0421,33.6895],[131.0362,33.6973],[131.0344,33.702],[131.0301,33.7066],[131.0259,33.7148],[131.0202,33.7317],[131.0139,33.7333],[131.018,33.7382],[131.0196,33.7456],[131.0166,33.7506],[131.0103,33.7495],[131.0108,33.7464],[130.9997,33.7478],[130.9892,33.7414],[130.9853,33.7411],[130.9771,33.7419],[130.9664,33.7381],[130.9608,33.7374],[130.9453,33.7379],[130.9331,33.742],[130.9248,33.7457],[130.9167,33.7504],[130.9048,33.7438],[130.8968,33.7403],[130.9005,33.7325],[130.9028,33.7247],[130.9083,33.7153],[130.9134,33.7118],[130.9174,33.7135],[130.9205,33.7175],[130.9239,33.7186],[130.9342,33.7158],[130.9373,33.7114],[130.9363,33.6952],[130.9349,33.6847],[130.9325,33.6784],[130.933,33.6746],[130.9366,33.6731],[130.9486,33.673],[130.9568,33.676],[130.9675,33.685],[130.9726,33.6871],[130.9829,33.6885],[130.9978,33.6885],[131.0061,33.6867],[131.0128,33.6812],[131.022,33.68],[131.0416,33.6791],[131.0469,33.6802],[131.0534,33.6835]]]}}]}