{"type":"FeatureCollection","features":[{"type":"Feature","properties":{"id":41001},"geometry":{"type":"Polygon","coordinates":[[[129.9406,33.1621],[129.9416,33.1642],[129.9333,33.1705],[129.92,33.1735],[129.9138,33.1854],[129.9129,33.1921],[129.9096,33.197],[129.9028,33.2099],[129.8998,33.2225],[129.8887,33.2213],[129.8823,33.2227],[129.8735,33.2274],[129.8672,33.2347],[129.8598,33.2368],[129.8509,33.2375],[129.8456,33.2351],[129.8329,33.2324],[129.8162,33.234],[129.8122,33.2233],[129.811,33.2112],[129.8109,33.2007],[129.8175,33.1927],[129.8184,33.1824],[129.8274,33.1763],[129.8364,33.1711],[129.8486,33.1733],[129.8648,33.1676],[129.875,33.162],[129.8803,33.1604],[129.8886,33.1579],[129.8986,33.1563],[129.9094,33.1556],[129.9195,33.1569],[129.93,33.1604],[129.9406,33.1621]]]}},{"type":"Feature","properties":{"id":41002},"geometry":{"type":"Polygon","coordinates":[[[129.851,33.447],[129.8583,33.4429],[129.8654,33.4349],[129.8739,33.4287],[129.8819,33.4336],[129.8876,33.4413],[129.8912,33.4496],[129.899,33.4547],[129.9043,33.4625],[129.9082,33.4641],[129.91,33.4695],[129.9035,33.4791],[129.8789,33.4997],[129.8661,33.5058],[129.8558,33.5077],[129.8527,33.508],[129.8506,33.5118],[129.8417,33.5179],[129.8311,33.5194],[129.8288,33.5172],[129.8346,33.5137],[129.8327,33.5078],[129.8296,33.5057],[129.8395,33.4941],[129.8345,33.4892],[129.8431,33.4813],[129.8347,33.4761],[129.8351,33.4717],[129.8395,33.47],[129.8478,33.4747],[129.8497,33.4684],[129.8561,33.4649],[129.8565,33.4581],[129.8514,33.4544],[129.8491,33.4495],[129.851,33.447]]]}},{"type":"Feature","properties":{"id":41003},"geometry":{"type":"Polygon","coordinates":[[[129.7816,33.2661],[129.7868,33.2593],[129.817,33.236],[129.8162,33.234],[129.8329,33.2324],[129.8456,33.2351],[129.8509,33.2375],[129.8598,33.2368],[129.8672,33.2347],[129.8735,33.2274],[129.8823,33.2227],[129.8887,33.2213],[129.8998,33.2225],[129.9063,33.2239],[129.9294,33.2258],[129.9333,33.228],[129.9382,33.2385],[129.9453,33.249],[129.9511,33.2537],[129.9563,33.2556],[129.9648,33.2567],[129.974,33.2675],[129.9772,33.27],[129.9869,33.2748],[129.9941,33.2773],[130.0123,33.2773],[130.0273,33.2798],[130.0217,33.2868],[130.0067,33.3123],[129.9942,33.3201],[129.9874,33.3217],[129.9696,33.3362],[129.9633,33.3454],[129.9594,33.3431],[129.9584,33.3375],[129.9585,33.3275],[129.9572,33.3238],[129.9533,33.325],[129.9501,33.3325],[129.9443,33.343],[129.9364,33.3497],[129.9244,33.3638],[129.9216,33.3765],[129.9211,33.3941],[129.9169,33.4014],[129.9085,33.4095],[129.9045,33.4107],[129.8927,33.4053],[129.8844,33.405],[129.8823,33.4026],[129.8825,33.3936],[129.8783,33.3898],[129.8696,33.3899],[129.8652,33.3884],[129.8643,33.3844],[129.8661,33.3816],[129.8615,33.3736],[129.8589,33.3735],[129.8576,33.3681],[129.852,33.3639],[129.8497,33.3587],[129.8447,33.353],[129.8498,33.3517],[129.8504,33.3489],[129.8437,33.3487],[129.8416,33.341],[129.8353,33.3368],[129.833,33.3397],[129.8284,33.3378],[129.8332,33.3291],[129.8417,33.3306],[129.8467,33.3272],[129.8417,33.3223],[129.8356,33.3209],[129.8382,33.3175],[129.8358,33.3121],[129.8288,33.313],[129.8273,33.3093],[129.8301,33.3042],[129.84,33.3041],[129.8451,33.3018],[129.8527,33.2939],[129.8584,33.284],[129.8476,33.2928],[129.8439,33.2927],[129.8427,33.2886],[129.8386,33.2876],[129.8336,33.2918],[129.8304,33.2982],[129.8227,33.308],[129.8219,33.3102],[129.816,33.3103],[129.8153,33.3147],[129.8111,33.3194],[129.8081,33.3265],[129.8043,33.3288],[129.8016,33.3338],[129.7962,33.3345],[129.7939,33.3371],[129.7769,33.3255],[129.7712,33.3163],[129.7688,33.3054],[129.7638,33.2948],[129.7682,33.283],[129.7816,33.2661]]]}},{"type":"Feature","properties":{"id":41004},"geometry":{"type":"Polygon","coordinates":[[[130.4205,33.3772],[130.4207,33.349],[130.4228,33.3399],[130.4229,33.3253],[130.4206,33.3127],[130.4167,33.2997],[130.4165,33.2912],[130.4263,33.297],[130.4328,33.295],[130.4401,33.2972],[130.4423,33.3013],[130.4443,33.3124],[130.4376,33.3222],[130.4359,33.3268],[130.436,33.3328],[130.4391,33.3394],[130.4363,33.3439],[130.4356,33.3581],[130.4318,33.3651],[130.4292,33.3726],[130.4205,33.3772]]]}},{"type":"Feature","properties":{"id":41005},"geometry":{"type":"Polygon","coordinates":[[[130.3449,33.4399],[130.3404,33.4356],[130.3371,33.4248],[130.3327,33.4198],[130.3214,33.4118],[130.3106,33.4112],[130.3067,33.4047],[130.3035,33.4021],[130.284,33.4014],[130.2817,33.3978],[130.2808,33.386],[130.2828,33.379],[130.2851,33.3768],[130.2962,33.3764],[130.2993,33.3728],[130.2973,33.3673],[130.299,33.3606],[130.3054,33.3569],[130.3131,33.3509],[130.3157,33.3513],[130.319,33.3559],[130.3264,33.3563],[130.3372,33.3513],[130.3403,33.3404],[130.343,33.3237],[130.349,33.3016],[130.3489,33.2982],[130.3434,33.2926],[130.3471,33.279],[130.3487,33.2666],[130.3494,33.2527],[130.3503,33.2505],[130.3578,33.2482],[130.3658,33.2521],[130.3735,33.2525],[130.3763,33.2511],[130.3806,33.2399],[130.3885,33.2381],[130.3927,33.2436],[130.4034,33.25],[130.4197,33.2614],[130.4245,33.2633],[130.417,33.2671],[130.4163,33.274],[130.4135,33.2828],[130.404,33.2825],[130.4014,33.2843],[130.3968,33.3025],[130.3906,33.3105],[130.3907,33.3207],[130.3926,33.3281],[130.3839,33.3561],[130.3836,33.3693],[130.3755,33.3754],[130.3712,33.3867],[130.3762,33.3916],[130.3844,33.3941],[130.3878,33.3982],[130.388,33.4015],[130.3856,33.41],[130.3818,33.4153],[130.3837,33.4229],[130.3867,33.4244],[130.3705,33.4317],[130.36,33.4309],[130.3515,33.4372],[130.3449,33.4399]]]}},{"type":"Feature","properties":{"id":41006},"geometry":{"type":"MultiPolygon","coordinates":[[[[130.1466,33.3439],[130.1461,33.3602],[130.1427,33.3687],[130.1428,33.373],[130.1471,33.3807],[130.158,33.3905],[130.1591,33.3946],[130.1589,33.4064],[130.1616,33.4096],[130.167,33.4097],[130.1665,33.4142],[130.1629,33.4148],[130.1594,33.4193],[130.165,33.4238],[130.1697,33.4322],[130.1709,33.4478],[130.1663,33.4558],[130.1709,33.4643],[130.1628,33.4716],[130.1531,33.4744],[130.144,33.4695],[130.1239,33.4722],[130.1076,33.4728],[130.0992,33.4666],[130.0759,33.4658],[130.0629,33.469],[130.0528,33.4659],[130.0373,33.4677],[130.0356,33.4661],[130.0361,33.4606],[130.0408,33.4564],[130.0381,33.4522],[130.0253,33.4469],[130.0203,33.4472],[130.0087,33.4461],[129.9996,33.4464],[129.9894,33.4494],[129.9779,33.4551],[129.9676,33.4551],[129.9636,33.459],[129.968,33.4606],[129.9603,33.4683],[129.9653,33.4692],[129.9714,33.4761],[129.9669,33.4818],[129.9635,33.4838],[129.9574,33.482],[129.9567,33.4764],[129.9537,33.4745],[129.9507,33.478],[129.9461,33.4744],[129.9406,33.4737],[129.9366,33.478],[129.938,33.4819],[129.9442,33.4831],[129.9466,33.487],[129.945,33.4939],[129.9494,33.4973],[129.9534,33.5033],[129.9583,33.5054],[129.9604,33.5035],[129.9686,33.5089],[129.9682,33.513],[129.9609,33.5146],[129.9569,33.5186],[129.9562,33.5238],[129.9579,33.5293],[129.9522,33.5301],[129.9473,33.5279],[129.9331,33.535],[129.9294,33.5381],[129.9306,33.5446],[129.9329,33.5487],[129.9182,33.542],[129.9106,33.545],[129.9092,33.5497],[129.9047,33.548],[129.9033,33.545],[129.8951,33.5494],[129.8896,33.5456],[129.8886,33.542],[129.8829,33.5407],[129.8815,33.5344],[129.8766,33.5371],[129.8685,33.5377],[129.8643,33.5424],[129.8613,33.5423],[129.8569,33.5456],[129.8597,33.5503],[129.8495,33.5544],[129.8496,33.5499],[129.8472,33.5439],[129.8511,33.5399],[129.8489,33.5364],[129.8547,33.5339],[129.8555,33.531],[129.8523,33.5277],[129.8519,33.5223],[129.8464,33.5254],[129.8404,33.5221],[129.8489,33.5211],[129.8471,33.5177],[129.8487,33.515],[129.8555,33.5108],[129.8558,33.5077],[129.8661,33.5058],[129.8789,33.4997],[129.9035,33.4791],[129.91,33.4695],[129.9082,33.4641],[129.9043,33.4625],[129.899,33.4547],[129.8912,33.4496],[129.8876,33.4413],[129.8819,33.4336],[129.8739,33.4287],[129.8654,33.4349],[129.8583,33.4429],[129.851,33.447],[129.8441,33.4454],[129.8399,33.4507],[129.8357,33.4519],[129.8386,33.4569],[129.8382,33.4634],[129.8272,33.4683],[129.8236,33.4747],[129.827,33.4779],[129.8215,33.481],[129.8202,33.4837],[129.815,33.4834],[129.8109,33.4811],[129.8052,33.4843],[129.8035,33.4783],[129.8001,33.4751],[129.7961,33.4756],[129.7933,33.472],[129.7946,33.4683],[129.7988,33.4637],[129.8061,33.4609],[129.8073,33.459],[129.8028,33.4544],[129.7932,33.4599],[129.785,33.4569],[129.7822,33.4511],[129.7879,33.4482],[129.7898,33.444],[129.7974,33.4429],[129.8007,33.4403],[129.803,33.4357],[129.8103,33.4341],[129.813,33.4296],[129.819,33.4242],[129.8258,33.4214],[129.8223,33.417],[129.8236,33.412],[129.8267,33.4115],[129.8325,33.4139],[129.8478,33.4055],[129.8524,33.405],[129.8583,33.402],[129.8613,33.4063],[129.8639,33.4063],[129.8676,33.4007],[129.8696,33.3899],[129.8783,33.3898],[129.8825,33.3936],[129.8823,33.4026],[129.8844,33.405],[129.8927,33.4053],[129.9045,33.4107],[129.9085,33.4095],[129.9169,33.4014],[129.9211,33.3941],[129.9216,33.3765],[129.9244,33.3638],[129.9364,33.3497],[129.9443,33.343],[129.9501,33.3325],[129.9533,33.325],[129.9572,33.3238],[129.9585,33.3275],[129.9584,33.3375],[129.9594,33.3431],[129.9633,33.3454],[129.9696,33.3362],[129.9874,33.3217],[129.9942,33.3201],[130.0067,33.3123],[130.0217,33.2868],[130.0273,33.2798],[130.0365,33.2771],[130.0413,33.2773],[130.0596,33.2921],[130.0669,33.2955],[130.0802,33.2993],[130.0882,33.3084],[130.103,33.3123],[130.1162,33.3207],[130.1256,33.3319],[130.1393,33.3426],[130.1466,33.3439]]],[[[129.9934,33.4783],[129.9866,33.4801],[129.9853,33.4728],[129.995,33.4733],[129.9934,33.4783]]],[[[129.9781,33.5388],[129.974,33.5438],[129.9687,33.5424],[129.9698,33.5362],[129.9643,33.5304],[129.9671,33.527],[129.974,33.5287],[129.9783,33.5346],[129.9781,33.5388]]],[[[129.7761,33.4944],[129.7739,33.4919],[129.7761,33.4875],[129.78,33.4914],[129.7761,33.4944]]],[[[129.8909,33.5562],[129.8902,33.5589],[129.8831,33.5669],[129.8739,33.5594],[129.8751,33.5501],[129.8722,33.5465],[129.8757,33.5434],[129.8793,33.544],[129.8833,33.5477],[129.8867,33.5481],[129.8929,33.5543],[129.8909,33.5562]]],[[[129.9024,33.603],[129.8984,33.6038],[129.8938,33.6011],[129.8936,33.5927],[129.9032,33.5961],[129.9024,33.603]]],[[[129.7643,33.5825],[129.7605,33.5829],[129.7538,33.5792],[129.7495,33.5794],[129.7473,33.5826],[129.7422,33.5793],[129.7441,33.5758],[129.74,33.573],[129.7456,33.5694],[129.7506,33.5683],[129.7556,33.5637],[129.76,33.5628],[129.7689,33.5699],[129.7736,33.5725],[129.7736,33.577],[129.7683,33.5824],[129.7643,33.5825]]],[[[129.8481,33.5903],[129.8425,33.5909],[129.8375,33.5839],[129.8422,33.5839],[129.8464,33.5867],[129.8481,33.5903]]],[[[129.8645,33.6156],[129.8611,33.6176],[129.8587,33.6132],[129.8532,33.6087],[129.8531,33.6045],[129.848,33.5995],[129.8514,33.595],[129.8575,33.5919],[129.8575,33.5872],[129.8651,33.5876],[129.8656,33.5917],[129.8684,33.5955],[129.8617,33.5986],[129.8598,33.6039],[129.8631,33.6073],[129.8645,33.6156]]]]}},{"type":"Feature","properties":{"id":41007},"geometry":{"type":"Polygon","coordinates":[[[130.0765,32.9842],[130.081,32.9862],[130.0899,32.9922],[130.0985,33.0017],[130.1092,33.0185],[130.1141,33.0207],[130.1205,33.0215],[130.1328,33.0263],[130.1492,33.035],[130.1544,33.0368],[130.1696,33.0446],[130.1702,33.0512],[130.1653,33.0549],[130.1617,33.0556],[130.1489,33.0714],[130.1456,33.073],[130.1463,33.077],[130.1429,33.0808],[130.146,33.0864],[130.1408,33.0946],[130.1354,33.0969],[130.1327,33.1038],[130.1278,33.1069],[130.1292,33.1121],[130.1252,33.1199],[130.1221,33.1235],[130.1111,33.1265],[130.084,33.1274],[130.084,33.1083],[130.0794,33.1007],[130.0745,33.097],[130.066,33.0943],[130.0603,33.0882],[130.0541,33.0858],[130.0444,33.0779],[130.0496,33.0563],[130.0494,33.0531],[130.0435,33.0333],[130.0434,33.0303],[130.0489,33.0027],[130.0496,32.9953],[130.0615,32.9839],[130.0765,32.9842]]]}},{"type":"Feature","properties":{"id":41008},"geometry":{"type":"Polygon","coordinates":[[[130.4705,33.4283],[130.4837,33.4209],[130.4916,33.4178],[130.496,33.4142],[130.5023,33.4067],[130.5101,33.4045],[130.5219,33.407],[130.5335,33.4066],[130.5387,33.4001],[130.544,33.3975],[130.5437,33.4166],[130.5394,33.4354],[130.5373,33.4365],[130.5301,33.4401],[130.5186,33.4443],[130.5082,33.443],[130.4911,33.4369],[130.481,33.4339],[130.4705,33.4283]]]}},{"type":"Feature","properties":{"id":41009},"geometry":{"type":"Polygon","coordinates":[[[130.1677,33.2418],[130.1668,33.247],[130.1629,33.2502],[130.1577,33.2482],[130.1515,33.2438],[130.1438,33.243],[130.1362,33.2411],[130.1292,33.2312],[130.1315,33.2214],[130.1401,33.2128],[130.143,33.2017],[130.1423,33.1962],[130.1449,33.1934],[130.1525,33.1912],[130.1582,33.1866],[130.1624,33.1854],[130.1679,33.1871],[130.1694,33.1929],[130.1719,33.1952],[130.1799,33.1961],[130.1952,33.2028],[130.2051,33.2039],[130.2061,33.2089],[130.1957,33.2114],[130.1919,33.2177],[130.1884,33.2194],[130.1762,33.2219],[130.1665,33.2201],[130.1639,33.2241],[130.1648,33.2343],[130.1677,33.2418]]]}},{"type":"Feature","properties":{"id":41010},"geometry":{"type":"Polygon","coordinates":[[[130.5001,33.3229],[130.4917,33.3265],[130.4811,33.3375],[130.4766,33.3442],[130.4667,33.3449],[130.4647,33.3521],[130.4646,33.3592],[130.4615,33.3677],[130.4579,33.3723],[130.4518,33.3832],[130.4408,33.3991],[130.4375,33.4014],[130.4305,33.3935],[130.4173,33.4022],[130.4143,33.3936],[130.4157,33.3883],[130.4205,33.3772],[130.4292,33.3726],[130.4318,33.3651],[130.4356,33.3581],[130.4363,33.3439],[130.4391,33.3394],[130.436,33.3328],[130.4359,33.3268],[130.4376,33.3222],[130.4443,33.3124],[130.4423,33.3013],[130.4401,33.2972],[130.4328,33.295],[130.4263,33.297],[130.4165,33.2912],[130.4135,33.2828],[130.4163,33.274],[130.417,33.2671],[130.4245,33.2633],[130.4381,33.2687],[130.4515,33.2773],[130.4655,33.2896],[130.4736,33.3025],[130.4864,33.3043],[130.4912,33.3147],[130.5001,33.3229]]]}},{"type":"Feature","properties":{"id":41011},"geometry":{"type":"Polygon","coordinates":[[[130.1952,33.2028],[130.2029,33.194],[130.209,33.1969],[130.2184,33.1988],[130.2314,33.1956],[130.2353,33.1933],[130.2322,33.2008],[130.2311,33.2159],[130.23,33.2187],[130.2288,33.2301],[130.2228,33.2452],[130.2343,33.2546],[130.2418,33.2535],[130.2447,33.2502],[130.2478,33.2521],[130.2476,33.27],[130.2465,33.28],[130.2421,33.2904],[130.2356,33.3027],[130.2309,33.3165],[130.2283,33.3281],[130.2155,33.3358],[130.1851,33.3399],[130.1743,33.3367],[130.1692,33.3366],[130.1593,33.3381],[130.1442,33.3343],[130.1422,33.3178],[130.1427,33.3106],[130.1583,33.301],[130.162,33.2905],[130.1699,33.2858],[130.1703,33.2804],[130.1684,33.2739],[130.1742,33.2652],[130.1794,33.2558],[130.1857,33.2505],[130.1861,33.2485],[130.1786,33.2439],[130.1677,33.2418],[130.1648,33.2343],[130.1639,33.2241],[130.1665,33.2201],[130.1762,33.2219],[130.1884,33.2194],[130.1919,33.2177],[130.1957,33.2114],[130.2061,33.2089],[130.2051,33.2039],[130.1952,33.2028]]]}},{"type":"Feature","properties":{"id":41012},"geometry":{"type":"Polygon","coordinates":[[[130.1292,33.2312],[130.122,33.2344],[130.1163,33.2344],[130.1082,33.2315],[130.0994,33.217],[130.0941,33.2131],[130.0939,33.2102],[130.0989,33.2045],[130.1074,33.2003],[130.1116,33.2038],[130.1159,33.197],[130.1229,33.1919],[130.128,33.1918],[130.1324,33.194],[130.1323,33.1997],[130.1345,33.202],[130.143,33.2017],[130.1401,33.2128],[130.1315,33.2214],[130.1292,33.2312]]]}},{"type":"Feature","properties":{"id":41013},"geometry":{"type":"Polygon","coordinates":[[[130.2706,33.4758],[130.2598,33.4731],[130.25,33.4677],[130.2401,33.4714],[130.2293,33.4734],[130.2186,33.4762],[130.2062,33.4779],[130.1969,33.4731],[130.1887,33.4652],[130.1709,33.4643],[130.1663,33.4558],[130.1709,33.4478],[130.1697,33.4322],[130.165,33.4238],[130.1594,33.4193],[130.1629,33.4148],[130.1665,33.4142],[130.167,33.4097],[130.1616,33.4096],[130.1589,33.4064],[130.1591,33.3946],[130.158,33.3905],[130.1471,33.3807],[130.1428,33.373],[130.1427,33.3687],[130.1461,33.3602],[130.1466,33.3439],[130.1442,33.3343],[130.1593,33.3381],[130.1692,33.3366],[130.1743,33.3367],[130.1851,33.3399],[130.2155,33.3358],[130.2283,33.3281],[130.2309,33.3165],[130.2356,33.3027],[130.2421,33.2904],[130.2465,33.28],[130.2476,33.27],[130.2478,33.2521],[130.2447,33.2502],[130.2418,33.2535],[130.2343,33.2546],[130.2228,33.2452],[130.2288,33.2301],[130.23,33.2187],[130.2311,33.2159],[130.2322,33.2008],[130.2353,33.1933],[130.2456,33.1912],[130.2479,33.1936],[130.2462,33.1994],[130.2483,33.2032],[130.2542,33.2027],[130.2565,33.1991],[130.2511,33.19],[130.2601,33.1795],[130.2782,33.1683],[130.2782,33.1641],[130.2851,33.1616],[130.2843,33.1536],[130.2874,33.1476],[130.3049,33.1463],[130.3258,33.1429],[130.3323,33.1455],[130.3376,33.1451],[130.3414,33.1411],[130.3447,33.1414],[130.3506,33.1471],[130.3541,33.1469],[130.3582,33.1694],[130.3618,33.1892],[130.3628,33.1993],[130.375,33.2164],[130.3796,33.2256],[130.3885,33.2381],[130.3806,33.2399],[130.3763,33.2511],[130.3735,33.2525],[130.3658,33.2521],[130.3578,33.2482],[130.3503,33.2505],[130.3494,33.2527],[130.3487,33.2666],[130.3471,33.279],[130.3434,33.2926],[130.3489,33.2982],[130.349,33.3016],[130.343,33.3237],[130.3403,33.3404],[130.3372,33.3513],[130.3264,33.3563],[130.319,33.3559],[130.3157,33.3513],[130.3131,33.3509],[130.3054,33.3569],[130.299,33.3606],[130.2973,33.3673],[130.2993,33.3728],[130.2962,33.3764],[130.2851,33.3768],[130.2828,33.379],[130.2808,33.386],[130.2817,33.3978],[130.284,33.4014],[130.3035,33.4021],[130.3067,33.4047],[130.3106,33.4112],[130.3214,33.4118],[130.3327,33.4198],[130.3371,33.4248],[130.3404,33.4356],[130.3449,33.4399],[130.342,33.4411],[130.3326,33.4492],[130.3222,33.4553],[130.3123,33.4588],[130.3004,33.4592],[130.2932,33.4664],[130.2736,33.4766],[130.2706,33.4758]]]}},{"type":"Feature","properties":{"id":41014},"geometry":{"type":"Polygon","coordinates":[[[130.1221,33.1235],[130.1282,33.1249],[130.1303,33.1183],[130.1329,33.1162],[130.1481,33.1117],[130.1554,33.1167],[130.1668,33.1276],[130.1903,33.1403],[130.193,33.1425],[130.1916,33.1463],[130.2178,33.162],[130.2231,33.1655],[130.2327,33.185],[130.2319,33.1883],[130.2263,33.1927],[130.222,33.1931],[130.2164,33.1958],[130.2083,33.1936],[130.2029,33.194],[130.1952,33.2028],[130.1799,33.1961],[130.1719,33.1952],[130.1694,33.1929],[130.1679,33.1871],[130.1624,33.1854],[130.1582,33.1866],[130.1525,33.1912],[130.1449,33.1934],[130.1423,33.1962],[130.143,33.2017],[130.1345,33.202],[130.1323,33.1997],[130.1324,33.194],[130.128,33.1918],[130.1229,33.1919],[130.1159,33.197],[130.1116,33.2038],[130.1074,33.2003],[130.0989,33.2045],[130.0899,33.1965],[130.0881,33.1929],[130.0882,33.1848],[130.0849,33.1781],[130.0785,33.1763],[130.0763,33.1736],[130.0771,33.168],[130.0837,33.155],[130.0859,33.1473],[130.0836,33.1412],[130.0743,33.1346],[130.0731,33.1297],[130.0749,33.1274],[130.084,33.1274],[130.1111,33.1265],[130.1221,33.1235]]]}},{"type":"Feature","properties":{"id":41015},"geometry":{"type":"Polygon","coordinates":[[[129.9545,33.1092],[129.9606,33.1101],[129.9709,33.1086],[129.9822,33.111],[129.987,33.1134],[129.9926,33.1182],[129.9938,33.1224],[129.9931,33.1293],[129.9951,33.132],[130.0048,33.1345],[130.0089,33.1434],[130.0153,33.1441],[130.0228,33.1471],[130.0328,33.1463],[130.0385,33.154],[130.0471,33.1569],[130.0601,33.1622],[130.0771,33.168],[130.0763,33.1736],[130.0785,33.1763],[130.0849,33.1781],[130.0882,33.1848],[130.0881,33.1929],[130.0899,33.1965],[130.0989,33.2045],[130.0939,33.2102],[130.0941,33.2131],[130.0994,33.217],[130.1082,33.2315],[130.0774,33.2372],[130.0538,33.2379],[130.0473,33.2444],[130.043,33.2465],[130.0349,33.2466],[130.0306,33.2495],[130.0255,33.2656],[130.0273,33.2798],[130.0123,33.2773],[129.9941,33.2773],[129.9869,33.2748],[129.9772,33.27],[129.974,33.2675],[129.9648,33.2567],[129.9563,33.2556],[129.9511,33.2537],[129.9453,33.249],[129.9382,33.2385],[129.9333,33.228],[129.9294,33.2258],[129.9063,33.2239],[129.8998,33.2225],[129.9028,33.2099],[129.9096,33.197],[129.9129,33.1921],[129.9138,33.1854],[129.92,33.1735],[129.9333,33.1705],[129.9416,33.1642],[129.9406,33.1621],[129.9477,33.1432],[129.9513,33.1325],[129.9587,33.1248],[129.9545,33.1092]]]}},{"type":"Feature","properties":{"id":41016},"geometry":{"type":"Polygon","coordinates":[[[130.0273,33.2798],[130.0255,33.2656],[130.0306,33.2495],[130.0349,33.2466],[130.043,33.2465],[130.0473,33.2444],[130.0538,33.2379],[130.0774,33.2372],[130.1082,33.2315],[130.1163,33.2344],[130.122,33.2344],[130.1292,33.2312],[130.1362,33.2411],[130.1438,33.243],[130.1515,33.2438],[130.1577,33.2482],[130.1629,33.2502],[130.1668,33.247],[130.1677,33.2418],[130.1786,33.2439],[130.1861,33.2485],[130.1857,33.2505],[130.1794,33.2558],[130.1742,33.2652],[130.1684,33.2739],[130.1703,33.2804],[130.1699,33.2858],[130.162,33.2905],[130.1583,33.301],[130.1427,33.3106],[130.1422,33.3178],[130.1442,33.3343],[130.1466,33.3439],[130.1393,33.3426],[130.1256,33.3319],[130.1162,33.3207],[130.103,33.3123],[130.0882,33.3084],[130.0802,33.2993],[130.0669,33.2955],[130.0596,33.2921],[130.0413,33.2773],[130.0365,33.2771],[130.0273,33.2798]]]}},{"type":"Feature","properties":{"id":41017},"geometry":{"type":"Polygon","coordinates":[[[130.2195,32.9533],[130.225,32.9561],[130.2214,32.9619],[130.2253,32.9669],[130.2228,32.9736],[130.22,32.9772],[130.215,32.9806],[130.2092,32.9808],[130.2114,32.9844],[130.2039,32.9908],[130.1986,32.9914],[130.1961,32.9892],[130.1914,32.9906],[130.1939,32.995],[130.1919,32.9994],[130.1885,33.0013],[130.1867,33.0056],[130.1877,33.0111],[130.1822,33.0144],[130.1807,33.0212],[130.1814,33.0244],[130.1791,33.0294],[130.172,33.0353],[130.1714,33.0433],[130.1696,33.0446],[130.1544,33.0368],[130.1492,33.035],[130.1328,33.0263],[130.1205,33.0215],[130.1141,33.0207],[130.1092,33.0185],[130.0985,33.0017],[130.0899,32.9922],[130.081,32.9862],[130.0765,32.9842],[130.0784,32.9842],[130.0839,32.9791],[130.0875,32.9758],[130.1146,32.9688],[130.125,32.9674],[130.1351,32.9651],[130.147,32.968],[130.1533,32.9596],[130.1635,32.9579],[130.1738,32.9587],[130.1853,32.9569],[130.2037,32.9549],[130.2052,32.9566],[130.2114,32.9567],[130.2128,32.954],[130.2195,32.9533]]]}},{"type":"Feature","properties":{"id":41018},"geometry":{"type":"Polygon","coordinates":[[[130.4691,33.4267],[130.4608,33.417],[130.4496,33.4148],[130.4375,33.4014],[130.4408,33.3991],[130.4518,33.3832],[130.4579,33.3723],[130.4615,33.3677],[130.4646,33.3592],[130.4647,33.3521],[130.4667,33.3449],[130.4766,33.3442],[130.4811,33.3375],[130.4917,33.3265],[130.5001,33.3229],[130.5125,33.341],[130.5382,33.3395],[130.5387,33.343],[130.5397,33.3502],[130.5428,33.362],[130.544,33.3975],[130.5387,33.4001],[130.5335,33.4066],[130.5219,33.407],[130.5101,33.4045],[130.5023,33.4067],[130.496,33.4142],[130.4916,33.4178],[130.4837,33.4209],[130.4705,33.4283],[130.4691,33.4267]]]}},{"type":"Feature","properties":{"id":41019},"geometry":{"type":"Polygon","coordinates":[[[129.9267,33.0993],[129.9248,33.0871],[129.9353,33.0833],[129.9415,33.0725],[129.9495,33.0662],[129.9603,33.0621],[129.9713,33.0591],[129.9828,33.0545],[129.9986,33.0409],[130,33.0309],[130.0083,33.0218],[130.0188,33.0145],[130.0312,33.0159],[130.0357,33.0065],[130.0379,33.005],[130.0445,33.0006],[130.0496,32.9953],[130.0489,33.0027],[130.0434,33.0303],[130.0435,33.0333],[130.0494,33.0531],[130.0496,33.0563],[130.0444,33.0779],[130.0541,33.0858],[130.0603,33.0882],[130.066,33.0943],[130.0745,33.097],[130.0794,33.1007],[130.084,33.1083],[130.084,33.1274],[130.0749,33.1274],[130.0731,33.1297],[130.0743,33.1346],[130.0836,33.1412],[130.0859,33.1473],[130.0837,33.155],[130.0771,33.168],[130.0601,33.1622],[130.0471,33.1569],[130.0385,33.154],[130.0328,33.1463],[130.0228,33.1471],[130.0153,33.1441],[130.0089,33.1434],[130.0048,33.1345],[129.9951,33.132],[129.9931,33.1293],[129.9938,33.1224],[129.9926,33.1182],[129.987,33.1134],[129.9822,33.111],[129.9709,33.1086],[129.9606,33.1101],[129.9545,33.1092],[129.9538,33.1068],[129.9375,33.1077],[129.9273,33.1024],[129.9267,33.0993]]]}},{"type":"Feature","properties":{"id":41020},"geometry":{"type":"Polygon","coordinates":[[[130.3867,33.4244],[130.3837,33.4229],[130.3818,33.4153],[130.3856,33.41],[130.388,33.4015],[130.3878,33.3982],[130.3844,33.3941],[130.3762,33.3916],[130.3712,33.3867],[130.3755,33.3754],[130.3836,33.3693],[130.3839,33.3561],[130.3926,33.3281],[130.3907,33.3207],[130.3906,33.3105],[130.3968,33.3025],[130.4014,33.2843],[130.404,33.2825],[130.4135,33.2828],[130.4165,33.2912],[130.4167,33.2997],[130.4206,33.3127],[130.4229,33.3253],[130.4228,33.3399],[130.4207,33.349],[130.4205,33.3772],[130.4157,33.3883],[130.4143,33.3936],[130.4173,33.4022],[130.4149,33.4038],[130.4087,33.4128],[130.3989,33.4239],[130.392,33.4241],[130.3867,33.4244]]]}}]}