{"type":"FeatureCollection","features":[{"type":"Feature","properties":{"id":42001},"geometry":{"type":"Polygon","coordinates":[[[129.6388,33.3364],[129.6285,33.3325],[129.6217,33.3309],[129.6197,33.3274],[129.6258,33.3209],[129.6244,33.3164],[129.6158,33.3103],[129.6146,33.3093],[129.6122,33.3072],[129.629,33.3019],[129.6351,33.2971],[129.6356,33.2925],[129.6255,33.2794],[129.6224,33.2675],[129.6277,33.269],[129.6404,33.2708],[129.6478,33.2728],[129.6659,33.27],[129.6837,33.27],[129.6927,33.2725],[129.6921,33.2794],[129.6893,33.2856],[129.6801,33.2916],[129.6775,33.2959],[129.6759,33.3039],[129.6724,33.3072],[129.6657,33.317],[129.662,33.32],[129.6536,33.3231],[129.6418,33.3325],[129.6388,33.3364]]]}},{"type":"Feature","properties":{"id":42002},"geometry":{"type":"MultiPolygon","coordinates":[[[[128.3579,32.007],[128.3539,32.0084],[128.3438,32.0037],[128.3501,31.9974],[128.3471,31.9915],[128.3536,31.991],[128.352,31.9963],[128.3538,31.9994],[128.3586,32.0023],[128.3579,32.007]]],[[[128.3682,32.0269],[128.3685,32.0238],[128.3739,32.0246],[128.3759,32.0285],[128.3736,32.0313],[128.3682,32.0269]]],[[[128.3967,32.0525],[128.3928,32.0497],[128.3897,32.0433],[128.3844,32.0425],[128.3811,32.0392],[128.3858,32.0361],[128.3964,32.04],[128.3994,32.0425],[128.4053,32.0356],[128.4094,32.0439],[128.4133,32.0475],[128.4136,32.0508],[128.4061,32.0494],[128.3967,32.0525]]],[[[128.6375,32.6696],[128.6406,32.6735],[128.6358,32.6786],[128.6325,32.6789],[128.6272,32.6767],[128.6255,32.6697],[128.6234,32.6695],[128.6207,32.6636],[128.6153,32.6581],[128.6165,32.6475],[128.6218,32.6382],[128.6284,32.6374],[128.6282,32.6408],[128.6311,32.6443],[128.6357,32.6458],[128.6342,32.6544],[128.6278,32.6556],[128.6329,32.6625],[128.6401,32.6641],[128.6375,32.6696]]],[[[128.8381,32.6044],[128.8314,32.6057],[128.8265,32.6009],[128.8309,32.5963],[128.8383,32.595],[128.8418,32.5972],[128.8415,32.6016],[128.8381,32.6044]]],[[[128.8111,32.7958],[128.8092,32.7986],[128.8043,32.7924],[128.801,32.7926],[128.7908,32.7882],[128.7926,32.7829],[128.7899,32.7808],[128.7925,32.7777],[128.7858,32.775],[128.7794,32.7778],[128.7753,32.7775],[128.7763,32.7733],[128.7735,32.7717],[128.7724,32.7672],[128.7684,32.7653],[128.7654,32.7597],[128.7689,32.7565],[128.7786,32.7574],[128.7815,32.761],[128.7868,32.7597],[128.7781,32.754],[128.7731,32.7481],[128.7762,32.7448],[128.7774,32.7398],[128.7734,32.7343],[128.7702,32.7354],[128.7681,32.7434],[128.7687,32.7535],[128.7623,32.7573],[128.761,32.7639],[128.7588,32.7681],[128.7548,32.7699],[128.7486,32.7587],[128.7449,32.7558],[128.748,32.7518],[128.7452,32.7474],[128.7384,32.7431],[128.7368,32.7462],[128.742,32.7479],[128.7407,32.7508],[128.7353,32.7481],[128.7264,32.7479],[128.7344,32.754],[128.7252,32.7559],[128.7216,32.7516],[128.7193,32.753],[128.7121,32.7478],[128.7076,32.7473],[128.7043,32.7445],[128.7059,32.7389],[128.697,32.7387],[128.6936,32.7406],[128.6985,32.7482],[128.6977,32.7556],[128.6982,32.7658],[128.6928,32.7688],[128.6886,32.768],[128.6804,32.7736],[128.6825,32.7778],[128.674,32.7811],[128.6682,32.7803],[128.664,32.785],[128.6555,32.7802],[128.6509,32.7762],[128.6484,32.7706],[128.6459,32.7685],[128.6455,32.7644],[128.6406,32.7623],[128.6411,32.7587],[128.6472,32.7572],[128.6457,32.7519],[128.653,32.7423],[128.652,32.7391],[128.6471,32.7371],[128.6456,32.7205],[128.6521,32.7144],[128.6545,32.7148],[128.6577,32.7058],[128.6618,32.702],[128.6594,32.7004],[128.6555,32.7037],[128.6504,32.7025],[128.6476,32.6974],[128.6527,32.6901],[128.6522,32.6853],[128.649,32.6812],[128.654,32.6763],[128.6578,32.6764],[128.6621,32.6712],[128.6688,32.6694],[128.6628,32.6639],[128.668,32.656],[128.6678,32.6529],[128.6592,32.6597],[128.6555,32.6565],[128.657,32.6518],[128.6605,32.6538],[128.6642,32.6448],[128.6557,32.647],[128.6453,32.6544],[128.6432,32.6527],[128.6476,32.6472],[128.6538,32.6423],[128.6515,32.6397],[128.6467,32.6429],[128.6359,32.6336],[128.637,32.6253],[128.6471,32.6211],[128.6473,32.6241],[128.6539,32.6297],[128.6611,32.6304],[128.6647,32.6328],[128.6671,32.6298],[128.6609,32.6279],[128.6556,32.6249],[128.6502,32.6198],[128.6549,32.6133],[128.6449,32.6034],[128.6431,32.6053],[128.6471,32.6101],[128.644,32.6126],[128.639,32.6111],[128.6329,32.6158],[128.6286,32.622],[128.6239,32.6243],[128.6258,32.6267],[128.6166,32.6293],[128.6216,32.6334],[128.6183,32.6351],[128.6189,32.64],[128.6163,32.6439],[128.6111,32.6466],[128.6105,32.6411],[128.6053,32.6367],[128.6085,32.6271],[128.6039,32.6247],[128.5979,32.6149],[128.6119,32.6097],[128.614,32.6074],[128.6194,32.6096],[128.6246,32.6084],[128.6304,32.6054],[128.6342,32.5994],[128.6328,32.5968],[128.6397,32.5913],[128.6451,32.5944],[128.6537,32.59],[128.6599,32.5938],[128.6555,32.6],[128.6578,32.604],[128.663,32.6052],[128.6672,32.6083],[128.6732,32.6059],[128.6774,32.6069],[128.6909,32.6018],[128.6969,32.6047],[128.7049,32.6036],[128.7229,32.6052],[128.7291,32.6072],[128.7377,32.6056],[128.7387,32.6014],[128.7483,32.5928],[128.751,32.589],[128.7492,32.5865],[128.7534,32.5811],[128.7531,32.5779],[128.7611,32.5764],[128.7722,32.5725],[128.7804,32.5852],[128.7852,32.5879],[128.7885,32.5866],[128.7941,32.5908],[128.7932,32.5983],[128.7908,32.6001],[128.7894,32.6065],[128.7795,32.6137],[128.7755,32.6137],[128.7722,32.6178],[128.7711,32.6219],[128.7647,32.6174],[128.7623,32.6196],[128.7628,32.6243],[128.7672,32.6261],[128.7675,32.6306],[128.7651,32.6341],[128.7685,32.6368],[128.7664,32.6393],[128.7701,32.6444],[128.7817,32.6445],[128.786,32.6473],[128.7907,32.6478],[128.7961,32.6517],[128.8007,32.6512],[128.8076,32.6553],[128.8112,32.6529],[128.8091,32.6479],[128.8155,32.6436],[128.8178,32.6374],[128.8229,32.6372],[128.8266,32.6349],[128.8354,32.6377],[128.8405,32.6369],[128.8423,32.639],[128.8556,32.6421],[128.8639,32.6414],[128.8673,32.643],[128.8741,32.6378],[128.8844,32.6408],[128.8924,32.6406],[128.8971,32.6505],[128.8958,32.6552],[128.8905,32.657],[128.8858,32.6565],[128.8838,32.6617],[128.8843,32.668],[128.8709,32.6796],[128.8507,32.6906],[128.8503,32.6991],[128.8481,32.7057],[128.8436,32.7069],[128.8394,32.7133],[128.8422,32.7149],[128.8414,32.7219],[128.8394,32.7247],[128.8448,32.735],[128.8418,32.739],[128.8442,32.7439],[128.848,32.742],[128.8551,32.7416],[128.8564,32.7458],[128.8523,32.7501],[128.8491,32.7494],[128.8465,32.7528],[128.8384,32.747],[128.8318,32.7518],[128.8286,32.7494],[128.8286,32.7436],[128.8251,32.7447],[128.8299,32.7538],[128.8349,32.7563],[128.8353,32.7608],[128.8264,32.757],[128.8271,32.7537],[128.8198,32.7509],[128.8057,32.7519],[128.8108,32.7576],[128.814,32.7556],[128.8261,32.7578],[128.8239,32.7617],[128.8169,32.7689],[128.8108,32.7731],[128.8055,32.7739],[128.8055,32.7773],[128.8094,32.7783],[128.8083,32.7822],[128.8108,32.7853],[128.8071,32.7912],[128.8111,32.7958]]],[[[128.8636,32.7264],[128.8572,32.7292],[128.8624,32.72],[128.8689,32.7233],[128.8683,32.7261],[128.8636,32.7264]]],[[[128.9075,32.5668],[128.9037,32.5725],[128.8927,32.5707],[128.8911,32.566],[128.8923,32.5623],[128.8957,32.5603],[128.9015,32.56],[128.9066,32.5628],[128.9075,32.5668]]],[[[128.902,32.5852],[128.9046,32.5895],[128.9005,32.5905],[128.8966,32.5875],[128.902,32.5852]]],[[[128.9275,32.595],[128.9236,32.5988],[128.9144,32.5953],[128.9204,32.5912],[128.9275,32.5915],[128.9275,32.595]]],[[[128.9954,32.7892],[128.9925,32.7914],[128.989,32.7884],[128.9919,32.7836],[128.9869,32.7818],[128.9853,32.7784],[128.9858,32.7735],[128.9886,32.7705],[128.9872,32.7645],[128.9882,32.7572],[128.979,32.76],[128.9699,32.7562],[128.9626,32.7509],[128.9638,32.7463],[128.9669,32.7447],[128.9704,32.7476],[128.9735,32.7435],[128.9789,32.7457],[128.9867,32.7414],[128.9881,32.7447],[128.986,32.7487],[128.9928,32.7507],[129.0022,32.7494],[129.005,32.7505],[129.0077,32.7553],[129.003,32.7553],[129.0047,32.76],[129.0033,32.7678],[129.0074,32.7703],[129.0044,32.7789],[128.9983,32.7875],[128.9954,32.7892]]],[[[128.9597,32.7757],[128.9557,32.7763],[128.9534,32.7711],[128.9552,32.764],[128.9577,32.7623],[128.9651,32.7614],[128.9679,32.7636],[128.968,32.7677],[128.9626,32.7711],[128.9597,32.7757]]],[[[128.9368,32.8041],[128.9319,32.8038],[128.9283,32.8008],[128.9328,32.7969],[128.9363,32.8003],[128.9368,32.8041]]],[[[128.9006,32.7092],[128.8975,32.7118],[128.8934,32.7092],[128.8952,32.7005],[128.9067,32.7047],[128.905,32.7081],[128.9006,32.7092]]],[[[128.8799,32.746],[128.8825,32.7497],[128.8779,32.7508],[128.8696,32.746],[128.8687,32.7407],[128.8704,32.7389],[128.8766,32.7389],[128.8799,32.746]]],[[[128.9563,32.8719],[128.9484,32.8815],[128.9436,32.8841],[128.9416,32.8803],[128.9464,32.8783],[128.9485,32.8723],[128.9458,32.8654],[128.942,32.8601],[128.9424,32.8491],[128.9362,32.8553],[128.9354,32.8614],[128.9252,32.8734],[128.9229,32.8669],[128.9314,32.8598],[128.9317,32.8541],[128.9349,32.8491],[128.9326,32.8476],[128.9318,32.8391],[128.9282,32.8424],[128.9288,32.8449],[128.9239,32.8548],[128.9235,32.8583],[128.9167,32.8703],[128.9117,32.8702],[128.9075,32.8743],[128.9031,32.8707],[128.9001,32.8712],[128.8953,32.8783],[128.888,32.8771],[128.8861,32.8742],[128.889,32.8698],[128.8881,32.8656],[128.88,32.8676],[128.8761,32.8658],[128.8803,32.8589],[128.8789,32.8561],[128.8841,32.8541],[128.8919,32.8528],[128.8882,32.8592],[128.8912,32.8634],[128.8943,32.859],[128.9027,32.8547],[128.9006,32.8513],[128.9132,32.844],[128.9192,32.8422],[128.9229,32.8341],[128.9276,32.8315],[128.9293,32.8276],[128.9281,32.8231],[128.9206,32.8213],[128.916,32.8248],[128.9147,32.8203],[128.9212,32.8208],[128.9287,32.8171],[128.9393,32.8213],[128.9389,32.809],[128.9414,32.8071],[128.9408,32.8033],[128.945,32.8025],[128.9456,32.8086],[128.9522,32.8161],[128.9506,32.8189],[128.9445,32.8197],[128.9417,32.8271],[128.947,32.8335],[128.9578,32.8284],[128.9617,32.8311],[128.9543,32.8344],[128.9574,32.8439],[128.9539,32.8457],[128.9565,32.8508],[128.9637,32.8501],[128.9616,32.8617],[128.9597,32.8634],[128.9581,32.8702],[128.9563,32.8719]]],[[[128.6103,32.7382],[128.6093,32.7401],[128.6015,32.7403],[128.5923,32.7299],[128.5898,32.7249],[128.5911,32.7216],[128.5892,32.7184],[128.5917,32.7125],[128.5977,32.7108],[128.601,32.712],[128.6036,32.7209],[128.6006,32.7277],[128.6072,32.7314],[128.6107,32.7353],[128.6103,32.7382]]],[[[128.6767,32.8097],[128.6731,32.8078],[128.6763,32.8028],[128.683,32.8045],[128.6823,32.8085],[128.6767,32.8097]]],[[[128.867,32.8433],[128.864,32.8396],[128.8667,32.8299],[128.8658,32.8267],[128.8689,32.8238],[128.8673,32.8212],[128.8741,32.8187],[128.8784,32.8104],[128.873,32.809],[128.877,32.8023],[128.8759,32.7975],[128.8701,32.8022],[128.8699,32.8048],[128.8644,32.8107],[128.8625,32.8189],[128.8643,32.8224],[128.8616,32.8347],[128.8553,32.8361],[128.8547,32.8308],[128.849,32.8316],[128.844,32.8342],[128.8402,32.838],[128.8369,32.8381],[128.8325,32.8317],[128.837,32.8256],[128.8361,32.8163],[128.8394,32.8122],[128.8375,32.8089],[128.8394,32.8021],[128.8332,32.7968],[128.8382,32.7891],[128.8351,32.7823],[128.8382,32.7778],[128.8421,32.7804],[128.8463,32.7778],[128.8501,32.7782],[128.8604,32.7663],[128.8666,32.7631],[128.8696,32.7646],[128.8788,32.7633],[128.882,32.7642],[128.8852,32.7685],[128.8856,32.7757],[128.8901,32.7785],[128.894,32.7848],[128.9013,32.7873],[128.9046,32.7956],[128.9104,32.7975],[128.9097,32.7996],[128.9036,32.8039],[128.9032,32.8082],[128.906,32.8134],[128.9014,32.8147],[128.8998,32.8175],[128.9017,32.8208],[128.8963,32.8246],[128.8907,32.8238],[128.8869,32.825],[128.8838,32.8337],[128.8734,32.8389],[128.867,32.8433]]],[[[128.9184,32.8931],[128.9163,32.8962],[128.9114,32.8936],[128.9088,32.8878],[128.9101,32.8854],[128.9168,32.8868],[128.9184,32.8931]]]]}},{"type":"Feature","properties":{"id":42003},"geometry":{"type":"Polygon","coordinates":[[[129.9267,33.0993],[129.9273,33.1024],[129.9375,33.1077],[129.9538,33.1068],[129.9545,33.1092],[129.9587,33.1248],[129.9513,33.1325],[129.9477,33.1432],[129.9406,33.1621],[129.93,33.1604],[129.9195,33.1569],[129.9094,33.1556],[129.8986,33.1563],[129.8886,33.1579],[129.8803,33.1604],[129.866,33.1542],[129.8629,33.1515],[129.8519,33.1292],[129.8473,33.108],[129.8477,33.0882],[129.8554,33.0926],[129.8674,33.0952],[129.8793,33.0951],[129.889,33.0979],[129.9016,33.1056],[129.9103,33.1066],[129.9205,33.1031],[129.9267,33.0993]]]}},{"type":"Feature","properties":{"id":42004},"geometry":{"type":"Polygon","coordinates":[[[129.9248,33.0871],[129.9222,33.0866],[129.9193,33.0817],[129.9084,33.0726],[129.904,33.0711],[129.896,33.0711],[129.8821,33.073],[129.8727,33.0721],[129.8682,33.0692],[129.8637,33.0628],[129.8687,33.0608],[129.8732,33.0648],[129.8771,33.0642],[129.8927,33.056],[129.8971,33.0511],[129.9008,33.0493],[129.904,33.0407],[129.9109,33.0377],[129.9183,33.032],[129.9237,33.033],[129.9283,33.0281],[129.9454,33.0148],[129.9439,33.0109],[129.946,33.0071],[129.9439,33],[129.9478,32.9964],[129.9481,32.9914],[129.9508,32.9867],[129.9469,32.9844],[129.9454,32.9805],[129.9651,32.9804],[129.9776,32.9832],[129.9906,32.9935],[129.9966,32.9957],[130.0107,32.9929],[130.017,32.9937],[130.0255,32.9966],[130.0338,33.0012],[130.0379,33.005],[130.0357,33.0065],[130.0312,33.0159],[130.0188,33.0145],[130.0083,33.0218],[130,33.0309],[129.9986,33.0409],[129.9828,33.0545],[129.9713,33.0591],[129.9603,33.0621],[129.9495,33.0662],[129.9415,33.0725],[129.9353,33.0833],[129.9248,33.0871]]]}},{"type":"Feature","properties":{"id":42005},"geometry":{"type":"MultiPolygon","coordinates":[[[[129.3419,33.1875],[129.3403,33.19],[129.3355,33.1892],[129.3336,33.1836],[129.3419,33.1875]]],[[[129.4341,33.4372],[129.4293,33.4379],[129.4223,33.4335],[129.4205,33.4302],[129.4232,33.4211],[129.4214,33.4153],[129.4216,33.4088],[129.4159,33.4033],[129.4121,33.3981],[129.4129,33.3888],[129.4104,33.3843],[129.4086,33.3754],[129.4035,33.3643],[129.3977,33.3618],[129.3979,33.3588],[129.4084,33.3553],[129.4174,33.3503],[129.4349,33.3554],[129.4322,33.3609],[129.4368,33.3631],[129.4372,33.3668],[129.4317,33.374],[129.4311,33.3824],[129.4333,33.3889],[129.4378,33.3942],[129.4346,33.3988],[129.4364,33.4034],[129.4286,33.4098],[129.4336,33.4185],[129.4271,33.4222],[129.43,33.4263],[129.4355,33.4301],[129.4341,33.4372]]],[[[129.5556,33.4065],[129.5515,33.4083],[129.5431,33.4089],[129.5379,33.4063],[129.534,33.4015],[129.5246,33.4065],[129.5181,33.4],[129.5268,33.3957],[129.5253,33.3925],[129.5183,33.3903],[129.5252,33.386],[129.5298,33.3883],[129.5379,33.3878],[129.5422,33.3899],[129.5453,33.3866],[129.5498,33.3866],[129.5516,33.3817],[129.5467,33.3772],[129.5397,33.3753],[129.5306,33.3761],[129.5259,33.3802],[129.524,33.377],[129.5291,33.3727],[129.5307,33.3666],[129.5241,33.3622],[129.5228,33.3545],[129.5173,33.3547],[129.5168,33.3589],[129.5189,33.3654],[129.518,33.372],[129.5223,33.3759],[129.5183,33.3799],[129.5121,33.3815],[129.5076,33.38],[129.5049,33.3723],[129.5058,33.3675],[129.504,33.3625],[129.5002,33.3597],[129.4977,33.3551],[129.4946,33.3563],[129.4863,33.3546],[129.48,33.3554],[129.4761,33.3508],[129.4721,33.3537],[129.4677,33.354],[129.4539,33.3494],[129.4432,33.3511],[129.437,33.3472],[129.4374,33.3439],[129.442,33.3413],[129.4397,33.3372],[129.4427,33.3305],[129.4419,33.3243],[129.4365,33.3238],[129.4372,33.3178],[129.4326,33.3144],[129.4407,33.3034],[129.4387,33.2998],[129.4456,33.2977],[129.4429,33.2898],[129.4365,33.2926],[129.4279,33.2898],[129.424,33.2904],[129.42,33.278],[129.4125,33.2761],[129.4081,33.2786],[129.4071,33.2738],[129.4038,33.2712],[129.4073,33.2685],[129.4039,33.2645],[129.4071,33.2614],[129.4115,33.2601],[129.4096,33.2519],[129.4106,33.2482],[129.4183,33.2465],[129.4223,33.248],[129.4254,33.2456],[129.4229,33.2391],[129.4198,33.2383],[129.4226,33.2308],[129.4204,33.2301],[129.4131,33.2361],[129.4109,33.2393],[129.3985,33.2396],[129.3889,33.2311],[129.3844,33.2299],[129.3793,33.2209],[129.381,33.2137],[129.3796,33.2097],[129.3828,33.2053],[129.3918,33.2002],[129.3942,33.1967],[129.3996,33.1991],[129.4058,33.1973],[129.4063,33.1944],[129.402,33.1911],[129.4033,33.1861],[129.3958,33.1822],[129.3901,33.1865],[129.385,33.1875],[129.3818,33.1851],[129.3765,33.1845],[129.3711,33.186],[129.3732,33.1895],[129.3673,33.194],[129.3621,33.203],[129.3558,33.2072],[129.3513,33.2023],[129.3552,33.1991],[129.3554,33.1953],[129.3582,33.1921],[129.3574,33.1881],[129.3527,33.1858],[129.3493,33.1813],[129.3541,33.179],[129.3612,33.1772],[129.3685,33.1721],[129.3693,33.1699],[129.3775,33.1689],[129.3983,33.1753],[129.4054,33.1808],[129.4175,33.1825],[129.424,33.188],[129.4288,33.1884],[129.4379,33.1928],[129.4431,33.1976],[129.4445,33.2031],[129.4483,33.2072],[129.453,33.2067],[129.452,33.2131],[129.4639,33.2137],[129.467,33.2173],[129.4694,33.2236],[129.4732,33.2299],[129.4809,33.2358],[129.4863,33.2432],[129.4859,33.2472],[129.4892,33.2515],[129.4944,33.2524],[129.4976,33.2571],[129.5016,33.2591],[129.5023,33.2662],[129.5049,33.2697],[129.4974,33.2785],[129.4898,33.2785],[129.4861,33.2849],[129.4922,33.2887],[129.4926,33.2812],[129.5007,33.286],[129.5046,33.2852],[129.5106,33.2876],[129.5124,33.29],[129.5057,33.2937],[129.5042,33.3006],[129.51,33.3008],[129.5186,33.3041],[129.5233,33.3022],[129.5304,33.3073],[129.5317,33.314],[129.5247,33.3154],[129.5234,33.3202],[129.5192,33.3227],[129.5148,33.3295],[129.5255,33.3297],[129.5367,33.3327],[129.5438,33.3304],[129.5423,33.3351],[129.5463,33.3399],[129.5462,33.3484],[129.5526,33.3503],[129.5617,33.3554],[129.5661,33.3548],[129.5697,33.3567],[129.5564,33.3714],[129.5629,33.382],[129.5574,33.3889],[129.5611,33.3933],[129.5567,33.3961],[129.5589,33.4011],[129.5556,33.4065]]],[[[129.6158,33.3103],[129.6244,33.3164],[129.6258,33.3209],[129.6197,33.3274],[129.6217,33.3309],[129.6285,33.3325],[129.6388,33.3364],[129.6336,33.3392],[129.6301,33.3439],[129.6298,33.3588],[129.627,33.3626],[129.6193,33.369],[129.6191,33.3712],[129.6115,33.3737],[129.6049,33.3688],[129.6026,33.3732],[129.5977,33.374],[129.593,33.3714],[129.5907,33.3741],[129.5972,33.3792],[129.5927,33.3812],[129.5872,33.3781],[129.582,33.3775],[129.5765,33.3803],[129.5732,33.3759],[129.5693,33.3759],[129.57,33.3695],[129.5763,33.3626],[129.5739,33.3557],[129.5741,33.35],[129.5712,33.3455],[129.5712,33.3382],[129.5755,33.3335],[129.5743,33.33],[129.5629,33.3329],[129.5609,33.3307],[129.5618,33.3243],[129.5712,33.315],[129.5756,33.3129],[129.5746,33.3103],[129.5789,33.3065],[129.5843,33.3064],[129.5894,33.3039],[129.5928,33.3044],[129.5983,33.3115],[129.6001,33.3107],[129.6088,33.3147],[129.6158,33.3103]]],[[[129.5462,33.4406],[129.5402,33.4451],[129.5335,33.448],[129.53,33.4515],[129.5234,33.4425],[129.5088,33.4371],[129.5048,33.4288],[129.5068,33.4245],[129.5138,33.4263],[129.5141,33.4308],[129.5265,33.4361],[129.5305,33.4353],[129.5374,33.4414],[129.5462,33.4406]]],[[[129.5555,33.5074],[129.5471,33.5084],[129.5428,33.5053],[129.5271,33.4992],[129.5169,33.4886],[129.5095,33.4835],[129.5074,33.4798],[129.5021,33.4795],[129.4966,33.4719],[129.5036,33.4707],[129.5079,33.474],[129.5113,33.4721],[129.5209,33.4709],[129.5191,33.4746],[129.515,33.4773],[129.522,33.482],[129.529,33.4823],[129.5341,33.478],[129.5343,33.4747],[129.5538,33.4694],[129.5559,33.4744],[129.5627,33.4734],[129.5653,33.4772],[129.576,33.4816],[129.5762,33.4883],[129.5788,33.4888],[129.5799,33.4935],[129.5766,33.4962],[129.5704,33.4978],[129.5648,33.4947],[129.5657,33.4913],[129.5589,33.4881],[129.5529,33.4917],[129.5564,33.4961],[129.5545,33.4986],[129.5562,33.5046],[129.5555,33.5074]]]]}},{"type":"Feature","properties":{"id":42006},"geometry":{"type":"MultiPolygon","coordinates":[[[[129.5527,33.6035],[129.5587,33.6063],[129.5554,33.6113],[129.5527,33.6035]]],[[[129.6459,33.7185],[129.6497,33.7187],[129.6536,33.7255],[129.6485,33.7272],[129.6438,33.7239],[129.6459,33.7185]]],[[[129.6362,33.7299],[129.6252,33.7301],[129.6241,33.7272],[129.6301,33.7223],[129.6369,33.7273],[129.6362,33.7299]]],[[[129.6396,33.7417],[129.6301,33.7437],[129.6282,33.7401],[129.63,33.7321],[129.6375,33.7345],[129.6432,33.7379],[129.6396,33.7417]]],[[[129.7044,33.8682],[129.6986,33.8687],[129.6944,33.8665],[129.6981,33.8639],[129.7074,33.8664],[129.7044,33.8682]]],[[[129.6814,33.867],[129.6769,33.8707],[129.6729,33.8671],[129.6745,33.8639],[129.6814,33.867]]],[[[129.7559,33.7302],[129.7619,33.7323],[129.7615,33.7356],[129.7554,33.7344],[129.7559,33.7302]]],[[[129.7079,33.8608],[129.7048,33.8633],[129.6995,33.8614],[129.6955,33.8579],[129.6945,33.8546],[129.6898,33.8561],[129.6802,33.848],[129.6824,33.845],[129.6781,33.8425],[129.6746,33.8434],[129.6713,33.8374],[129.6729,33.8341],[129.6701,33.8259],[129.6749,33.8239],[129.6769,33.8178],[129.682,33.8101],[129.6837,33.8054],[129.6787,33.8055],[129.6731,33.8006],[129.6706,33.8052],[129.6653,33.8086],[129.6647,33.8119],[129.6593,33.8124],[129.6564,33.8144],[129.6524,33.8112],[129.6504,33.8063],[129.6612,33.8023],[129.6647,33.799],[129.651,33.7986],[129.6563,33.7945],[129.6563,33.7798],[129.659,33.7764],[129.6702,33.7753],[129.6747,33.7759],[129.6763,33.7686],[129.6813,33.7636],[129.6799,33.7622],[129.6731,33.7681],[129.6662,33.7675],[129.6606,33.7716],[129.654,33.772],[129.6507,33.7742],[129.6459,33.7736],[129.6429,33.7695],[129.6442,33.7656],[129.6496,33.7594],[129.6497,33.7554],[129.647,33.7514],[129.6527,33.747],[129.6531,33.7408],[129.6572,33.7378],[129.658,33.7448],[129.6642,33.7482],[129.6711,33.7547],[129.675,33.753],[129.6768,33.749],[129.6842,33.7418],[129.6849,33.7388],[129.6785,33.7358],[129.6791,33.7329],[129.6767,33.7286],[129.68,33.7259],[129.6895,33.721],[129.6885,33.7166],[129.6923,33.7155],[129.6927,33.7117],[129.6961,33.7101],[129.7039,33.7107],[129.7093,33.7099],[129.7181,33.7054],[129.7205,33.7123],[129.7193,33.7156],[129.7271,33.7215],[129.7287,33.7258],[129.7343,33.7287],[129.7329,33.7344],[129.7346,33.7387],[129.7384,33.7373],[129.7492,33.7402],[129.7542,33.7392],[129.7554,33.7424],[129.7605,33.7408],[129.7637,33.7379],[129.7686,33.7403],[129.7742,33.7391],[129.7788,33.7398],[129.7889,33.7476],[129.7887,33.7552],[129.7966,33.757],[129.7989,33.7618],[129.7966,33.7641],[129.7903,33.7631],[129.7869,33.7692],[129.7783,33.7736],[129.7723,33.7734],[129.7717,33.7692],[129.7653,33.7681],[129.7615,33.7732],[129.7587,33.7743],[129.7599,33.7796],[129.765,33.7842],[129.7827,33.7852],[129.7925,33.7831],[129.7963,33.7793],[129.7997,33.7856],[129.796,33.7879],[129.788,33.7871],[129.7822,33.79],[129.7775,33.7969],[129.7744,33.7956],[129.7667,33.7975],[129.7636,33.8031],[129.7603,33.8062],[129.7653,33.8108],[129.7606,33.8156],[129.7634,33.8179],[129.7654,33.832],[129.7732,33.8428],[129.7681,33.8467],[129.7631,33.8448],[129.754,33.8474],[129.7392,33.8481],[129.7302,33.8508],[129.7266,33.8502],[129.7191,33.857],[129.7091,33.8565],[129.7079,33.8608]]],[[[129.6889,33.8706],[129.6832,33.8707],[129.6822,33.8681],[129.6844,33.8621],[129.6879,33.8608],[129.6911,33.8685],[129.6889,33.8706]]]]}},{"type":"Feature","properties":{"id":42007},"geometry":{"type":"MultiPolygon","coordinates":[[[[129.9223,32.818],[129.9299,32.815],[129.9459,32.811],[129.9696,32.8106],[129.9783,32.8088],[129.9835,32.8045],[129.9861,32.7977],[129.9862,32.7633],[129.9865,32.759],[129.9895,32.754],[129.9942,32.7536],[129.995,32.7614],[130.0028,32.7608],[130.0053,32.7575],[130.0114,32.7594],[130.02,32.7594],[130.0242,32.7575],[130.0361,32.7661],[130.0433,32.7689],[130.0511,32.7769],[130.0567,32.7808],[130.0606,32.7819],[130.0681,32.7875],[130.0819,32.7911],[130.0842,32.7942],[130.0939,32.7933],[130.1028,32.7936],[130.1142,32.7897],[130.1245,32.7875],[130.1321,32.7885],[130.1404,32.7928],[130.1368,32.7985],[130.1368,32.8028],[130.1466,32.8098],[130.1493,32.8224],[130.15,32.8288],[130.1584,32.837],[130.1645,32.8407],[130.1657,32.8433],[130.1604,32.8444],[130.144,32.8553],[130.1361,32.8639],[130.1258,32.8714],[130.1264,32.8747],[130.1172,32.875],[130.1181,32.8772],[130.1269,32.8767],[130.1294,32.88],[130.1233,32.8808],[130.1372,32.8908],[130.1407,32.8927],[130.1476,32.8928],[130.1514,32.8964],[130.1806,32.8603],[130.1819,32.8608],[130.1572,32.8914],[130.1528,32.8981],[130.1573,32.9027],[130.1564,32.9061],[130.1652,32.9072],[130.1693,32.9151],[130.1726,32.9161],[130.1794,32.9137],[130.1836,32.9136],[130.189,32.9186],[130.1871,32.9233],[130.1885,32.9254],[130.2032,32.9323],[130.201,32.9391],[130.2038,32.9416],[130.2014,32.9509],[130.2037,32.9549],[130.1853,32.9569],[130.1738,32.9587],[130.1635,32.9579],[130.1533,32.9596],[130.147,32.968],[130.1351,32.9651],[130.125,32.9674],[130.1146,32.9688],[130.0875,32.9758],[130.0839,32.9791],[130.0782,32.9677],[130.0769,32.9624],[130.0712,32.9529],[130.0652,32.9503],[130.0569,32.9495],[130.046,32.9518],[130.0338,32.9497],[130.0288,32.9472],[130.0246,32.9418],[130.0176,32.9355],[130.0161,32.9318],[130.0093,32.9222],[130.0064,32.9138],[130.0048,32.898],[130.0061,32.8889],[130.0063,32.8802],[130.009,32.8708],[130.0097,32.8616],[130.0116,32.8546],[130.0106,32.8503],[129.9997,32.847],[130.0047,32.8442],[130.0044,32.8408],[130.0004,32.8373],[129.9948,32.8372],[129.9936,32.8419],[129.9861,32.8414],[129.9847,32.8365],[129.9798,32.836],[129.9753,32.8394],[129.9792,32.8439],[129.9756,32.8464],[129.9744,32.85],[129.958,32.8464],[129.9564,32.8483],[129.9596,32.8544],[129.947,32.8632],[129.9403,32.8619],[129.9339,32.8581],[129.9289,32.8618],[129.9323,32.8645],[129.9308,32.8672],[129.9253,32.8657],[129.9189,32.8689],[129.9122,32.8664],[129.9055,32.8725],[129.9031,32.8781],[129.8968,32.8796],[129.894,32.8691],[129.8899,32.8729],[129.8896,32.8696],[129.8917,32.8586],[129.8972,32.8494],[129.9038,32.8435],[129.9093,32.8366],[129.9223,32.818]]],[[[130.2128,32.954],[130.218,32.9503],[130.2195,32.9533],[130.2128,32.954]]]]}},{"type":"Feature","properties":{"id":42008},"geometry":{"type":"Polygon","coordinates":[[[129.9267,33.0993],[129.9205,33.1031],[129.9103,33.1066],[129.9016,33.1056],[129.889,33.0979],[129.8793,33.0951],[129.8674,33.0952],[129.8554,33.0926],[129.8477,33.0882],[129.8438,33.0857],[129.8349,33.0773],[129.8132,33.0723],[129.804,33.0671],[129.8123,33.0677],[129.8136,33.0641],[129.8196,33.0607],[129.8207,33.0654],[129.8232,33.067],[129.8278,33.0625],[129.8352,33.0616],[129.8371,33.059],[129.833,33.0562],[129.8268,33.0545],[129.8237,33.0573],[129.8195,33.0425],[129.8204,33.0374],[129.8241,33.0359],[129.8312,33.0382],[129.8369,33.0491],[129.8373,33.054],[129.8416,33.0558],[129.8425,33.0502],[129.8481,33.0539],[129.8551,33.062],[129.8637,33.0628],[129.8682,33.0692],[129.8727,33.0721],[129.8821,33.073],[129.896,33.0711],[129.904,33.0711],[129.9084,33.0726],[129.9193,33.0817],[129.9222,33.0866],[129.9248,33.0871],[129.9267,33.0993]]]}},{"type":"Feature","properties":{"id":42009},"geometry":{"type":"MultiPolygon","coordinates":[[[[129.6388,33.3364],[129.6418,33.3325],[129.6536,33.3231],[129.662,33.32],[129.6657,33.317],[129.6724,33.3072],[129.6759,33.3039],[129.7047,33.3041],[129.7115,33.3023],[129.7139,33.298],[129.7157,33.29],[129.719,33.286],[129.7308,33.2791],[129.7419,33.2745],[129.7556,33.2712],[129.7651,33.2671],[129.7733,33.2658],[129.7816,33.2661],[129.7682,33.283],[129.7638,33.2948],[129.7688,33.3054],[129.7712,33.3163],[129.7769,33.3255],[129.7939,33.3371],[129.7922,33.3412],[129.7935,33.3464],[129.7923,33.356],[129.7887,33.359],[129.7915,33.3669],[129.789,33.3715],[129.7832,33.373],[129.7758,33.3715],[129.7737,33.3658],[129.7756,33.3623],[129.7711,33.3591],[129.7728,33.3554],[129.7665,33.3538],[129.7635,33.3548],[129.757,33.3641],[129.7506,33.3671],[129.7438,33.3669],[129.739,33.3648],[129.7359,33.3595],[129.7292,33.357],[129.7244,33.3519],[129.7127,33.3492],[129.705,33.3462],[129.7004,33.3526],[129.6942,33.3539],[129.6944,33.3569],[129.6883,33.3588],[129.6853,33.3537],[129.6775,33.3538],[129.6742,33.3579],[129.6748,33.3605],[129.6681,33.3651],[129.6702,33.3681],[129.6741,33.3686],[129.6739,33.3738],[129.6766,33.3856],[129.6837,33.384],[129.6858,33.3878],[129.6839,33.3899],[129.6786,33.3904],[129.6739,33.3977],[129.669,33.3986],[129.6649,33.3943],[129.6634,33.3894],[129.6672,33.3858],[129.6648,33.3816],[129.6614,33.3803],[129.6549,33.3743],[129.6533,33.3709],[129.6464,33.3721],[129.6427,33.3671],[129.6336,33.3679],[129.6315,33.363],[129.627,33.3626],[129.6298,33.3588],[129.6301,33.3439],[129.6336,33.3392],[129.6388,33.3364]]],[[[129.6881,33.4209],[129.687,33.4236],[129.6819,33.4222],[129.6855,33.4142],[129.6804,33.4123],[129.6821,33.4074],[129.6854,33.4058],[129.6896,33.4077],[129.6905,33.4131],[129.6871,33.4173],[129.6881,33.4209]]],[[[129.8025,33.4119],[129.7975,33.4106],[129.808,33.4038],[129.8124,33.4034],[129.8129,33.3991],[129.8074,33.3932],[129.8084,33.3886],[129.8132,33.3835],[129.8079,33.382],[129.8107,33.3769],[129.8088,33.3725],[129.8108,33.3698],[129.8034,33.3621],[129.8093,33.3561],[129.8053,33.3514],[129.81,33.3481],[129.8141,33.3488],[129.821,33.357],[129.8238,33.3623],[129.8312,33.3653],[129.8373,33.3649],[129.8424,33.3659],[129.8363,33.3704],[129.8445,33.3707],[129.8472,33.3674],[129.8551,33.3721],[129.8601,33.3765],[129.8608,33.3822],[129.8513,33.3857],[129.8464,33.3851],[129.843,33.3877],[129.8394,33.3866],[129.8392,33.3821],[129.8344,33.3837],[129.8298,33.3924],[129.8338,33.3996],[129.8332,33.4045],[129.8241,33.4094],[129.8176,33.4107],[129.8094,33.4104],[129.8025,33.4119]]],[[[129.779,33.4003],[129.7739,33.3993],[129.778,33.3937],[129.7846,33.3963],[129.779,33.4003]]],[[[129.7596,33.4655],[129.7535,33.4707],[129.7507,33.4682],[129.7512,33.46],[129.758,33.4546],[129.7497,33.4502],[129.7486,33.4434],[129.744,33.4432],[129.7394,33.4377],[129.7441,33.4333],[129.7422,33.4287],[129.7333,33.4277],[129.7303,33.4237],[129.7234,33.4227],[129.7191,33.4197],[129.7184,33.4144],[129.7248,33.412],[129.7335,33.4051],[129.7368,33.4076],[129.7445,33.4067],[129.7501,33.4114],[129.7507,33.4147],[129.7475,33.4187],[129.7539,33.4202],[129.7539,33.417],[129.7574,33.4145],[129.759,33.421],[129.7568,33.4236],[129.762,33.4256],[129.7639,33.4287],[129.7759,33.427],[129.7862,33.4268],[129.7904,33.4259],[129.7892,33.4333],[129.78,33.4345],[129.7768,33.4399],[129.7728,33.4419],[129.769,33.4484],[129.7736,33.4549],[129.7682,33.4574],[129.7714,33.4604],[129.7612,33.4664],[129.7596,33.4655]]],[[[129.7245,33.4614],[129.7184,33.464],[129.7141,33.4601],[129.72,33.4542],[129.7266,33.4512],[129.7288,33.4561],[129.7245,33.4614]]]]}},{"type":"Feature","properties":{"id":42010},"geometry":{"type":"MultiPolygon","coordinates":[[[[130.34,32.6062],[130.3312,32.606],[130.3332,32.601],[130.3386,32.5982],[130.3443,32.6031],[130.34,32.6062]]],[[[130.1292,32.6552],[130.1267,32.6506],[130.1286,32.6478],[130.1289,32.6408],[130.1381,32.6347],[130.1422,32.6358],[130.1489,32.6333],[130.1536,32.6289],[130.1541,32.6241],[130.1572,32.6231],[130.1608,32.6267],[130.1658,32.6244],[130.1694,32.6204],[130.1713,32.6118],[130.1746,32.6101],[130.1733,32.6031],[130.1655,32.5963],[130.1674,32.5917],[130.1813,32.5928],[130.1878,32.5965],[130.1889,32.5988],[130.1962,32.5995],[130.1979,32.602],[130.1871,32.607],[130.1922,32.6092],[130.2005,32.6088],[130.2041,32.6044],[130.2121,32.6061],[130.2185,32.6053],[130.2262,32.6101],[130.2325,32.6114],[130.2314,32.6158],[130.2368,32.6245],[130.2424,32.6287],[130.2503,32.6267],[130.2555,32.6287],[130.2596,32.6335],[130.2582,32.6401],[130.2661,32.6478],[130.2583,32.6517],[130.2717,32.6538],[130.2771,32.6538],[130.288,32.6508],[130.2951,32.6524],[130.3047,32.6519],[130.3142,32.6565],[130.3158,32.6583],[130.3217,32.6592],[130.3213,32.6633],[130.3281,32.6634],[130.3341,32.6699],[130.3443,32.6718],[130.3492,32.6751],[130.3547,32.6822],[130.3534,32.6852],[130.3572,32.6888],[130.358,32.6952],[130.3503,32.7001],[130.3462,32.7075],[130.3509,32.7112],[130.3522,32.7149],[130.3579,32.7195],[130.3646,32.7268],[130.3707,32.7358],[130.3494,32.7443],[130.3414,32.7453],[130.3347,32.744],[130.3215,32.7426],[130.2968,32.7428],[130.288,32.7441],[130.284,32.739],[130.2774,32.7356],[130.2718,32.731],[130.2675,32.7233],[130.2624,32.7215],[130.254,32.7215],[130.2473,32.7197],[130.2401,32.7029],[130.226,32.6913],[130.2182,32.6872],[130.2039,32.6816],[130.19,32.675],[130.1852,32.6714],[130.1637,32.6583],[130.1597,32.6574],[130.1364,32.6561],[130.1292,32.6552]]]]}},{"type":"Feature","properties":{"id":42011},"geometry":{"type":"MultiPolygon","coordinates":[[[[129.784,32.5672],[129.7797,32.5694],[129.7758,32.5655],[129.7733,32.5549],[129.7746,32.5485],[129.7788,32.5504],[129.784,32.556],[129.7885,32.555],[129.7912,32.5586],[129.7906,32.5655],[129.784,32.5672]]],[[[129.7552,32.6651],[129.75,32.6667],[129.7454,32.6613],[129.7525,32.6529],[129.7571,32.6557],[129.7558,32.6589],[129.7588,32.6628],[129.7552,32.6651]]],[[[129.7668,32.7126],[129.7605,32.7155],[129.7595,32.7131],[129.7645,32.7063],[129.772,32.7026],[129.7715,32.699],[129.7759,32.6954],[129.7753,32.692],[129.7808,32.6894],[129.7851,32.6917],[129.7857,32.6956],[129.7798,32.6992],[129.7794,32.7061],[129.7756,32.7095],[129.7722,32.7085],[129.7668,32.7126]]],[[[129.9683,32.7606],[129.9653,32.7567],[129.9717,32.7497],[129.9794,32.7475],[129.9827,32.7507],[129.9784,32.7555],[129.98,32.7603],[129.9683,32.7606]]],[[[129.9865,32.759],[129.9862,32.7633],[129.9861,32.7977],[129.9835,32.8045],[129.9783,32.8088],[129.9696,32.8106],[129.9459,32.811],[129.9299,32.815],[129.9223,32.818],[129.9111,32.8124],[129.8974,32.8099],[129.8794,32.8054],[129.8739,32.7974],[129.8694,32.7973],[129.8637,32.8039],[129.8548,32.8038],[129.8449,32.8075],[129.8368,32.8084],[129.8311,32.8102],[129.8241,32.8108],[129.8187,32.8144],[129.8176,32.8253],[129.8128,32.8311],[129.8049,32.8336],[129.7869,32.8337],[129.7822,32.8342],[129.7707,32.8391],[129.759,32.8467],[129.7596,32.8516],[129.7738,32.8585],[129.7882,32.8617],[129.7971,32.8709],[129.7962,32.8734],[129.7882,32.8728],[129.7903,32.8797],[129.7935,32.8835],[129.8005,32.8763],[129.8034,32.879],[129.8028,32.8829],[129.8098,32.8893],[129.8108,32.8919],[129.8047,32.8947],[129.8056,32.8996],[129.8037,32.9026],[129.8069,32.9086],[129.7963,32.9076],[129.7858,32.9046],[129.7853,32.9131],[129.7898,32.9121],[129.7934,32.9162],[129.7869,32.9178],[129.7892,32.9212],[129.7883,32.9261],[129.7836,32.9419],[129.7853,32.9472],[129.7925,32.9522],[129.797,32.9536],[129.7994,32.9494],[129.7967,32.9472],[129.7956,32.9358],[129.7989,32.9385],[129.8013,32.9339],[129.7981,32.9229],[129.8022,32.9178],[129.8002,32.9148],[129.8037,32.9124],[129.8078,32.9133],[129.8101,32.9176],[129.8162,32.9252],[129.815,32.9324],[129.8176,32.9399],[129.8189,32.9478],[129.8142,32.9563],[129.8167,32.9603],[129.8156,32.9626],[129.809,32.9642],[129.7941,32.9636],[129.7763,32.9588],[129.7652,32.9529],[129.7497,32.9473],[129.7445,32.9442],[129.7422,32.9404],[129.7417,32.9292],[129.7403,32.9227],[129.7365,32.9112],[129.7296,32.9081],[129.7049,32.9084],[129.6974,32.9072],[129.6796,32.9001],[129.6694,32.8922],[129.6739,32.8842],[129.6772,32.8841],[129.6799,32.8809],[129.6792,32.8756],[129.6769,32.8734],[129.6767,32.8667],[129.6803,32.8648],[129.6836,32.8589],[129.684,32.8537],[129.6907,32.8471],[129.6924,32.843],[129.6998,32.8412],[129.6999,32.8333],[129.7092,32.8324],[129.712,32.8347],[129.718,32.833],[129.7176,32.827],[129.7187,32.8227],[129.7224,32.8222],[129.7304,32.8165],[129.7319,32.8095],[129.734,32.8077],[129.7402,32.8075],[129.7441,32.8161],[129.7454,32.8221],[129.7505,32.8222],[129.755,32.8192],[129.7628,32.8228],[129.7655,32.8208],[129.7636,32.8172],[129.7678,32.8158],[129.7714,32.8197],[129.7755,32.8185],[129.7658,32.8],[129.7686,32.7962],[129.7736,32.7978],[129.7792,32.7936],[129.7818,32.7884],[129.7886,32.7866],[129.7903,32.7794],[129.8003,32.7781],[129.7994,32.7742],[129.8008,32.77],[129.797,32.7675],[129.7961,32.7606],[129.8036,32.7606],[129.8077,32.753],[129.8039,32.7442],[129.813,32.7414],[129.8142,32.7392],[129.825,32.7467],[129.828,32.7447],[129.8263,32.7416],[129.8314,32.7353],[129.826,32.7324],[129.8189,32.7231],[129.8251,32.7176],[129.8289,32.7199],[129.8294,32.723],[129.8392,32.7251],[129.8453,32.72],[129.8473,32.725],[129.8559,32.73],[129.8595,32.7375],[129.8603,32.7428],[129.8642,32.7479],[129.8701,32.7435],[129.8694,32.7386],[129.8667,32.7367],[129.8575,32.7247],[129.85,32.7179],[129.8471,32.7055],[129.843,32.7057],[129.8436,32.7011],[129.8419,32.6967],[129.8364,32.6996],[129.8328,32.6961],[129.8344,32.6922],[129.8296,32.6884],[129.8225,32.6939],[129.8289,32.6989],[129.8294,32.7078],[129.8244,32.7079],[129.8208,32.705],[129.8161,32.7037],[129.8167,32.6991],[129.8136,32.6986],[129.8097,32.6931],[129.8042,32.6917],[129.8014,32.6942],[129.797,32.6933],[129.7933,32.6894],[129.7953,32.6844],[129.7997,32.6825],[129.8038,32.6779],[129.8071,32.682],[129.8116,32.6823],[129.8128,32.6875],[129.8186,32.6851],[129.8154,32.6753],[129.8178,32.6656],[129.8169,32.6547],[129.81,32.6561],[129.8069,32.6511],[129.8022,32.6483],[129.8022,32.6431],[129.7917,32.6303],[129.79,32.6258],[129.7917,32.6227],[129.7903,32.6158],[129.7828,32.6131],[129.7792,32.6097],[129.7828,32.6072],[129.7675,32.5949],[129.7611,32.5945],[129.7552,32.5926],[129.75,32.5928],[129.7414,32.5836],[129.7389,32.5839],[129.7347,32.5803],[129.737,32.5784],[129.7405,32.5695],[129.7453,32.5743],[129.7493,32.5739],[129.7547,32.5769],[129.7528,32.5792],[129.765,32.5833],[129.7736,32.5817],[129.783,32.5826],[129.7925,32.5853],[129.805,32.5906],[129.8092,32.5939],[129.8125,32.5992],[129.8236,32.6067],[129.8328,32.6156],[129.8324,32.6181],[129.8381,32.6206],[129.8348,32.6241],[129.8372,32.6292],[129.8353,32.6322],[129.8391,32.6364],[129.8369,32.6392],[129.8414,32.6411],[129.8458,32.6378],[129.8525,32.6386],[129.8611,32.6425],[129.8666,32.6436],[129.8722,32.6489],[129.8789,32.6536],[129.8831,32.6519],[129.8964,32.6628],[129.8967,32.6678],[129.9025,32.6742],[129.9019,32.6786],[129.9111,32.6878],[129.9164,32.6983],[129.9111,32.7053],[129.9152,32.7089],[129.9217,32.7067],[129.9267,32.7089],[129.9274,32.7203],[129.9311,32.7213],[129.9325,32.7171],[129.9433,32.7269],[129.94,32.7306],[129.9436,32.7344],[129.9514,32.7358],[129.9569,32.7436],[129.949,32.7545],[129.946,32.7558],[129.9489,32.76],[129.9539,32.7619],[129.9541,32.7651],[129.9744,32.7622],[129.9806,32.7628],[129.9865,32.759]]]]}},{"type":"Feature","properties":{"id":42012},"geometry":{"type":"Polygon","coordinates":[[[129.8899,32.8729],[129.8844,32.8744],[129.8844,32.8797],[129.8788,32.8796],[129.8781,32.8753],[129.8806,32.8706],[129.8794,32.8637],[129.8698,32.8609],[129.8723,32.8582],[129.8714,32.8523],[129.8678,32.8507],[129.8656,32.8439],[129.8603,32.8464],[129.8589,32.8443],[129.8589,32.8276],[129.855,32.8206],[129.8506,32.8165],[129.8449,32.8075],[129.8548,32.8038],[129.8637,32.8039],[129.8694,32.7973],[129.8739,32.7974],[129.8794,32.8054],[129.8974,32.8099],[129.9111,32.8124],[129.9223,32.818],[129.9093,32.8366],[129.9038,32.8435],[129.8972,32.8494],[129.8917,32.8586],[129.8896,32.8696],[129.8899,32.8729]]]}},{"type":"Feature","properties":{"id":42013},"geometry":{"type":"MultiPolygon","coordinates":[[[[128.903,33.1713],[128.8936,33.1678],[128.8987,33.1661],[128.903,33.1671],[128.903,33.1713]]],[[[129.0248,33.1833],[129.022,33.1851],[129.0165,33.1842],[129.0137,33.1805],[129.02,33.1783],[129.0244,33.1797],[129.0248,33.1833]]],[[[129.0271,33.1691],[129.0274,33.1717],[129.0227,33.175],[129.0182,33.171],[129.0166,33.1663],[129.0204,33.164],[129.0271,33.1691]]],[[[128.9895,33.1935],[128.9836,33.1933],[128.9786,33.1892],[128.9815,33.1846],[128.9868,33.1884],[128.9929,33.187],[128.9943,33.1908],[128.9895,33.1935]]],[[[129.0273,33.209],[129.0255,33.2124],[129.0147,33.2116],[129.0117,33.2028],[129.0147,33.2],[129.024,33.2002],[129.0279,33.2075],[129.0273,33.209]]],[[[129.0555,33.2162],[129.0523,33.2184],[129.0448,33.216],[129.0473,33.2132],[129.0416,33.2088],[129.0382,33.2108],[129.0285,33.201],[129.0298,33.1958],[129.0466,33.1938],[129.0456,33.1846],[129.0499,33.1824],[129.058,33.1865],[129.0609,33.1925],[129.0673,33.194],[129.072,33.1879],[129.0796,33.1905],[129.0891,33.1861],[129.0946,33.1932],[129.0922,33.1958],[129.083,33.1959],[129.0831,33.2003],[129.0801,33.2072],[129.0836,33.2094],[129.091,33.2107],[129.0956,33.2065],[129.0993,33.2114],[129.0981,33.2152],[129.0866,33.2136],[129.0796,33.2107],[129.0757,33.2121],[129.0646,33.2097],[129.0561,33.2102],[129.054,33.2133],[129.0555,33.2162]]],[[[129.0678,33.2272],[129.0617,33.2258],[129.0633,33.2204],[129.0683,33.217],[129.0747,33.2222],[129.0678,33.2272]]]]}},{"type":"Feature","properties":{"id":42014},"geometry":{"type":"MultiPolygon","coordinates":[[[[129.9047,32.9278],[129.9008,32.9258],[129.9064,32.9208],[129.9061,32.9147],[129.9128,32.9072],[129.9189,32.9033],[129.9264,32.9075],[129.9231,32.9108],[129.9253,32.9128],[129.9178,32.92],[129.9133,32.9197],[129.9047,32.9278]]],[[[130.0379,33.005],[130.0338,33.0012],[130.0255,32.9966],[130.017,32.9937],[130.0107,32.9929],[129.9966,32.9957],[129.9906,32.9935],[129.9776,32.9832],[129.9651,32.9804],[129.9454,32.9805],[129.9431,32.9756],[129.9361,32.9742],[129.9283,32.9686],[129.9325,32.9658],[129.9289,32.9611],[129.9314,32.9575],[129.9311,32.9508],[129.9283,32.9475],[129.9297,32.9444],[129.9281,32.9394],[129.9303,32.9344],[129.9293,32.9308],[129.9322,32.9272],[129.9311,32.9239],[129.9383,32.9189],[129.9489,32.9083],[129.955,32.9044],[129.9483,32.9003],[129.9569,32.8936],[129.9578,32.89],[129.9661,32.8914],[129.9761,32.8903],[129.9697,32.8856],[129.9636,32.8831],[129.9628,32.8761],[129.9647,32.8728],[129.9731,32.8717],[129.9763,32.8676],[129.9789,32.8681],[129.9842,32.8608],[129.9913,32.8573],[129.9942,32.8485],[129.9997,32.847],[130.0106,32.8503],[130.0116,32.8546],[130.0097,32.8616],[130.009,32.8708],[130.0063,32.8802],[130.0061,32.8889],[130.0048,32.898],[130.0064,32.9138],[130.0093,32.9222],[130.0161,32.9318],[130.0176,32.9355],[130.0246,32.9418],[130.0288,32.9472],[130.0338,32.9497],[130.046,32.9518],[130.0569,32.9495],[130.0652,32.9503],[130.0712,32.9529],[130.0769,32.9624],[130.0782,32.9677],[130.0839,32.9791],[130.0784,32.9842],[130.0765,32.9842],[130.0615,32.9839],[130.0496,32.9953],[130.0445,33.0006],[130.0379,33.005]]]]}},{"type":"Feature","properties":{"id":42015},"geometry":{"type":"MultiPolygon","coordinates":[[[[129.6061,32.8901],[129.5993,32.8904],[129.5926,32.8855],[129.5915,32.8801],[129.5999,32.88],[129.6062,32.8857],[129.6061,32.8901]]],[[[129.5377,33.0101],[129.5381,33.0072],[129.5427,33.0066],[129.5433,33.0028],[129.5489,33.005],[129.5528,33.0006],[129.5539,33.0071],[129.5486,33.0075],[129.5377,33.0101]]],[[[129.5707,33.0283],[129.5684,33.0308],[129.5634,33.03],[129.5599,33.0274],[129.5617,33.02],[129.567,33.0149],[129.5559,33.0084],[129.555,33.0028],[129.5614,33.0006],[129.5626,33.0032],[129.5725,33.0091],[129.5844,33.0132],[129.591,33.0232],[129.5827,33.0281],[129.5707,33.0283]]],[[[129.6377,33.0431],[129.6333,33.045],[129.6325,33.0403],[129.6283,33.0372],[129.6266,33.0322],[129.6274,33.0274],[129.6331,33.0292],[129.6385,33.0357],[129.6377,33.0431]]],[[[129.6155,33.0619],[129.6124,33.0617],[129.6079,33.0651],[129.6041,33.0622],[129.6014,33.0538],[129.597,33.0519],[129.5955,33.0482],[129.5914,33.0467],[129.5894,33.0422],[129.5923,33.0413],[129.5862,33.0347],[129.5863,33.0271],[129.5933,33.0272],[129.5992,33.0231],[129.6038,33.0224],[129.6086,33.0244],[129.6109,33.0297],[129.6164,33.0336],[129.6192,33.0303],[129.6249,33.0329],[129.6267,33.0387],[129.6314,33.0444],[129.6347,33.0506],[129.6314,33.0525],[129.6338,33.0576],[129.6384,33.0601],[129.6364,33.0624],[129.629,33.064],[129.6241,33.0599],[129.6155,33.0619]]],[[[129.6008,32.9447],[129.595,32.9456],[129.5914,32.9361],[129.5961,32.9306],[129.5972,32.9242],[129.6058,32.9175],[129.6117,32.9158],[129.6164,32.9169],[129.6257,32.9269],[129.6241,32.9288],[129.6232,32.9385],[129.6148,32.9396],[129.6095,32.9422],[129.6044,32.9394],[129.6008,32.9447]]],[[[129.6694,32.8922],[129.6796,32.9001],[129.6974,32.9072],[129.7049,32.9084],[129.7296,32.9081],[129.7365,32.9112],[129.7403,32.9227],[129.7417,32.9292],[129.7422,32.9404],[129.7445,32.9442],[129.7497,32.9473],[129.7652,32.9529],[129.7763,32.9588],[129.7941,32.9636],[129.809,32.9642],[129.8095,32.9677],[129.8128,32.9696],[129.8178,32.9685],[129.8187,32.9737],[129.8225,32.9756],[129.8228,32.9823],[129.8162,32.9854],[129.8145,32.9957],[129.8114,32.9996],[129.8084,32.9993],[129.8003,33.008],[129.7903,33.0097],[129.7875,33.0066],[129.7812,33.0078],[129.7797,33.0122],[129.7758,33.0144],[129.7711,33.0132],[129.7688,33.0175],[129.7643,33.0214],[129.7598,33.0197],[129.7611,33.0163],[129.758,33.0106],[129.7526,33.0078],[129.7529,33.002],[129.7612,33.0047],[129.765,32.9993],[129.7583,32.9996],[129.748,32.9983],[129.7483,33.0034],[129.7442,33.0029],[129.7453,32.9983],[129.737,33.0007],[129.7402,33.0039],[129.7322,33.0071],[129.7351,33.0129],[129.7333,33.0152],[129.741,33.0275],[129.7446,33.0313],[129.7459,33.0366],[129.7531,33.0389],[129.7586,33.0429],[129.7623,33.0486],[129.76,33.0517],[129.7515,33.0545],[129.7496,33.0601],[129.7428,33.0573],[129.7395,33.0537],[129.7356,33.0523],[129.7337,33.0464],[129.7287,33.0532],[129.7307,33.0576],[129.7344,33.0589],[129.7365,33.0646],[129.7303,33.0748],[129.7256,33.0759],[129.7231,33.0724],[129.7187,33.0731],[129.7206,33.0795],[129.7084,33.0881],[129.706,33.0868],[129.6973,33.0895],[129.6811,33.0996],[129.6763,33.0993],[129.6726,33.0943],[129.6734,33.0892],[129.6778,33.0868],[129.6732,33.0811],[129.6644,33.0799],[129.6648,33.0769],[129.6732,33.0773],[129.6724,33.0728],[129.6659,33.0736],[129.6607,33.069],[129.6653,33.0671],[129.6689,33.0686],[129.6752,33.063],[129.6664,33.0645],[129.6608,33.0611],[129.6624,33.053],[129.6587,33.0496],[129.6601,33.0468],[129.6583,33.0403],[129.6504,33.0423],[129.6464,33.0372],[129.6486,33.0289],[129.6467,33.0238],[129.6477,33.0165],[129.6498,33.0168],[129.6543,33.0084],[129.6518,33.0047],[129.6475,33.0048],[129.6469,32.9956],[129.6398,32.9896],[129.6331,32.9875],[129.6297,32.9819],[129.6294,32.9786],[129.6261,32.9703],[129.6303,32.9639],[129.6261,32.9578],[129.6267,32.95],[129.6306,32.9494],[129.6364,32.9456],[129.6381,32.94],[129.634,32.9362],[129.6369,32.9342],[129.6337,32.9267],[129.6404,32.9193],[129.643,32.9274],[129.6433,32.9322],[129.6486,32.9323],[129.6514,32.9292],[129.6559,32.9193],[129.6647,32.9175],[129.6597,32.9147],[129.6589,32.9103],[129.6661,32.9031],[129.6661,32.8981],[129.6694,32.8922]]]]}},{"type":"Feature","properties":{"id":42016},"geometry":{"type":"MultiPolygon","coordinates":[[[[129.7862,33.0682],[129.7832,33.0761],[129.7787,33.0751],[129.7776,33.0713],[129.7823,33.0672],[129.7862,33.0682]]],[[[129.6768,33.1415],[129.672,33.14],[129.6756,33.1364],[129.6807,33.1362],[129.6813,33.14],[129.6768,33.1415]]],[[[129.6741,33.1542],[129.668,33.1545],[129.67,33.1498],[129.6732,33.1498],[129.6741,33.1542]]],[[[129.6759,33.3039],[129.6775,33.2959],[129.6801,33.2916],[129.6893,33.2856],[129.6921,33.2794],[129.6927,33.2725],[129.6938,33.2632],[129.6928,33.2581],[129.6889,33.2514],[129.6877,33.246],[129.6888,33.2413],[129.6933,33.2347],[129.6931,33.2317],[129.6768,33.2181],[129.6705,33.2149],[129.6601,33.207],[129.6518,33.2032],[129.6437,33.1979],[129.6442,33.196],[129.6518,33.1926],[129.6513,33.185],[129.6494,33.1803],[129.6456,33.1816],[129.6392,33.1751],[129.6355,33.1683],[129.6397,33.1671],[129.6411,33.17],[129.6521,33.1722],[129.6603,33.1709],[129.6587,33.1676],[129.6645,33.1647],[129.6694,33.1599],[129.677,33.1608],[129.6771,33.1547],[129.6815,33.148],[129.6817,33.1451],[129.6893,33.1422],[129.6911,33.1376],[129.6853,33.1388],[129.6793,33.1327],[129.6801,33.1274],[129.6754,33.129],[129.6626,33.1266],[129.663,33.1299],[129.6564,33.1301],[129.6606,33.1258],[129.6574,33.1213],[129.6603,33.1127],[129.6631,33.1123],[129.6655,33.1061],[129.6662,33.1006],[129.6716,33.1048],[129.6742,33.1095],[129.673,33.1163],[129.6747,33.1195],[129.6798,33.1131],[129.6892,33.1146],[129.6929,33.1163],[129.6967,33.1126],[129.7047,33.1158],[129.7091,33.1148],[129.7107,33.1194],[129.7065,33.1206],[129.7101,33.1243],[129.7101,33.138],[129.7061,33.1446],[129.7071,33.1486],[129.7058,33.1561],[129.6999,33.161],[129.7117,33.1636],[129.7146,33.1663],[129.7189,33.1612],[129.7253,33.1618],[129.7206,33.1534],[129.7223,33.1467],[129.7199,33.1426],[129.7196,33.1369],[129.7229,33.1367],[129.7273,33.1329],[129.7261,33.1258],[129.7307,33.1241],[129.7353,33.1258],[129.7349,33.1292],[129.7313,33.1322],[129.7365,33.1352],[129.7418,33.1315],[129.7471,33.1368],[129.7492,33.1428],[129.7647,33.1397],[129.7578,33.1345],[129.7592,33.1317],[129.7667,33.1308],[129.7692,33.1263],[129.7588,33.1282],[129.7598,33.1234],[129.757,33.1197],[129.7581,33.1141],[129.7547,33.1137],[129.7517,33.1251],[129.7486,33.126],[129.7431,33.1211],[129.7426,33.1152],[129.7482,33.1111],[129.7519,33.1063],[129.7527,33.1015],[129.7478,33.1013],[129.7451,33.0988],[129.7385,33.1025],[129.7308,33.1037],[129.7288,33.1004],[129.734,33.092],[129.7396,33.0782],[129.7482,33.077],[129.7455,33.0735],[129.7392,33.0711],[129.7415,33.0679],[129.7418,33.0615],[129.7502,33.0625],[129.7549,33.0618],[129.7545,33.0553],[129.7619,33.0532],[129.764,33.0502],[129.7679,33.0505],[129.765,33.0567],[129.7686,33.0599],[129.7799,33.0609],[129.7784,33.0663],[129.7728,33.0661],[129.7713,33.0732],[129.7643,33.0745],[129.7632,33.0777],[129.7581,33.0812],[129.7587,33.0883],[129.7632,33.0911],[129.7648,33.0975],[129.7688,33.0916],[129.7646,33.0875],[129.7624,33.081],[129.7754,33.0765],[129.7783,33.0765],[129.7863,33.0797],[129.7866,33.0823],[129.7974,33.0815],[129.799,33.0732],[129.804,33.0671],[129.8132,33.0723],[129.8349,33.0773],[129.8438,33.0857],[129.8477,33.0882],[129.8473,33.108],[129.8519,33.1292],[129.8629,33.1515],[129.866,33.1542],[129.8803,33.1604],[129.875,33.162],[129.8648,33.1676],[129.8486,33.1733],[129.8364,33.1711],[129.8274,33.1763],[129.8184,33.1824],[129.8175,33.1927],[129.8109,33.2007],[129.811,33.2112],[129.8122,33.2233],[129.8162,33.234],[129.817,33.236],[129.7868,33.2593],[129.7816,33.2661],[129.7733,33.2658],[129.7651,33.2671],[129.7556,33.2712],[129.7419,33.2745],[129.7308,33.2791],[129.719,33.286],[129.7157,33.29],[129.7139,33.298],[129.7115,33.3023],[129.7047,33.3041],[129.6759,33.3039]]],[[[129.6146,33.1865],[129.6138,33.1903],[129.6096,33.1973],[129.6084,33.1901],[129.6114,33.1835],[129.6146,33.1865]]],[[[129.5494,33.147],[129.5458,33.1515],[129.5403,33.1489],[129.5321,33.149],[129.5272,33.1456],[129.5194,33.1442],[129.5145,33.1403],[129.505,33.1417],[129.5054,33.1387],[129.5129,33.1382],[129.5177,33.1356],[129.5245,33.1361],[129.5287,33.1318],[129.5355,33.1304],[129.5397,33.1371],[129.5477,33.1361],[129.5507,33.1375],[129.5511,33.1436],[129.5494,33.147]]],[[[129.5935,33.1894],[129.5929,33.1925],[129.5812,33.1924],[129.5772,33.1861],[129.5825,33.1759],[129.59,33.171],[129.5893,33.168],[129.5841,33.1685],[129.5814,33.1613],[129.5905,33.1627],[129.5933,33.1654],[129.5923,33.1701],[129.5934,33.1763],[129.5901,33.183],[129.5952,33.1851],[129.5935,33.1894]]],[[[129.6159,33.2644],[129.6131,33.2575],[129.6022,33.2485],[129.5983,33.2472],[129.5842,33.2396],[129.5665,33.2336],[129.5669,33.2301],[129.5625,33.2282],[129.5616,33.2326],[129.5556,33.2335],[129.5545,33.2235],[129.5529,33.2166],[129.5585,33.2143],[129.5641,33.2178],[129.5714,33.2172],[129.575,33.214],[129.5805,33.2169],[129.5824,33.2127],[129.5935,33.2117],[129.5945,33.2093],[129.6027,33.2133],[129.6017,33.2171],[129.6065,33.2174],[129.6036,33.2105],[129.5963,33.2065],[129.5954,33.2046],[129.6009,33.2018],[129.6092,33.2056],[129.6201,33.2016],[129.618,33.1959],[129.6247,33.1898],[129.6364,33.196],[129.6389,33.1994],[129.6373,33.2028],[129.6398,33.2058],[129.6389,33.2154],[129.6359,33.2204],[129.6364,33.227],[129.6394,33.2328],[129.6341,33.2403],[129.6308,33.2468],[129.6275,33.2583],[129.6246,33.2609],[129.6159,33.2644]]],[[[129.0672,33.2622],[129.0656,33.2636],[129.0592,33.2583],[129.0581,33.2558],[129.0604,33.2479],[129.0659,33.248],[129.0721,33.2448],[129.0747,33.2478],[129.0731,33.2553],[129.0643,33.2552],[129.0619,33.2588],[129.0672,33.2622]]],[[[129.135,33.3031],[129.1307,33.3018],[129.1248,33.3023],[129.1234,33.2965],[129.1245,33.2944],[129.1171,33.2886],[129.1136,33.2878],[129.1071,33.2894],[129.098,33.287],[129.093,33.2876],[129.0834,33.279],[129.0794,33.2783],[129.0699,33.2701],[129.0749,33.266],[129.0798,33.265],[129.0906,33.2586],[129.0903,33.2544],[129.0983,33.2492],[129.1024,33.2501],[129.1169,33.2456],[129.1273,33.2474],[129.1327,33.2526],[129.1285,33.2561],[129.1287,33.2596],[129.1344,33.2594],[129.1389,33.261],[129.1409,33.2644],[129.1502,33.2696],[129.1542,33.2684],[129.1571,33.2711],[129.1494,33.2747],[129.1469,33.2739],[129.1406,33.2781],[129.142,33.2828],[129.1381,33.2934],[129.1419,33.2956],[129.1356,33.2992],[129.135,33.3031]]]]}},{"type":"Feature","properties":{"id":42017},"geometry":{"type":"Polygon","coordinates":[[[129.6224,33.2675],[129.6159,33.2644],[129.6246,33.2609],[129.6275,33.2583],[129.6308,33.2468],[129.6341,33.2403],[129.6394,33.2328],[129.6371,33.2243],[129.645,33.2073],[129.6437,33.1979],[129.6518,33.2032],[129.6601,33.207],[129.6705,33.2149],[129.6768,33.2181],[129.6931,33.2317],[129.6933,33.2347],[129.6888,33.2413],[129.6877,33.246],[129.6889,33.2514],[129.6928,33.2581],[129.6938,33.2632],[129.6927,33.2725],[129.6837,33.27],[129.6659,33.27],[129.6478,33.2728],[129.6404,33.2708],[129.6277,33.269],[129.6224,33.2675]]]}},{"type":"Feature","properties":{"id":42018},"geometry":{"type":"Polygon","coordinates":[[[129.6224,33.2675],[129.6255,33.2794],[129.6356,33.2925],[129.6351,33.2971],[129.629,33.3019],[129.6122,33.3072],[129.6146,33.3093],[129.6083,33.3119],[129.6044,33.3111],[129.5954,33.2985],[129.5906,33.2955],[129.5857,33.2945],[129.5826,33.2896],[129.5866,33.2883],[129.5892,33.2841],[129.586,33.2804],[129.5895,33.2765],[129.5889,33.2726],[129.5773,33.2707],[129.5788,33.2803],[129.5719,33.2736],[129.574,33.2691],[129.5694,33.268],[129.5682,33.2602],[129.5654,33.2569],[129.5599,33.2552],[129.5597,33.2479],[129.5559,33.2456],[129.5552,33.2414],[129.5623,33.2394],[129.5664,33.2439],[129.5665,33.2336],[129.5842,33.2396],[129.5983,33.2472],[129.6022,33.2485],[129.6131,33.2575],[129.6159,33.2644],[129.6224,33.2675]]]}},{"type":"Feature","properties":{"id":42019},"geometry":{"type":"Polygon","coordinates":[[[130.3707,32.7358],[130.3752,32.738],[130.3777,32.7431],[130.3766,32.7515],[130.3746,32.7542],[130.3761,32.758],[130.3717,32.7608],[130.3745,32.7647],[130.377,32.7717],[130.3823,32.7771],[130.3787,32.7807],[130.3793,32.7843],[130.376,32.7912],[130.3714,32.7946],[130.3663,32.8045],[130.3671,32.807],[130.3635,32.8107],[130.3627,32.8161],[130.3575,32.8163],[130.3547,32.8253],[130.3509,32.8293],[130.3417,32.8542],[130.3394,32.858],[130.3348,32.8594],[130.333,32.8622],[130.3277,32.8625],[130.3196,32.8685],[130.3176,32.8682],[130.3142,32.8655],[130.306,32.8556],[130.3021,32.8519],[130.2999,32.8464],[130.2993,32.8268],[130.2922,32.8033],[130.2838,32.7892],[130.2739,32.7807],[130.2698,32.7729],[130.271,32.7631],[130.2746,32.7596],[130.2793,32.7588],[130.2983,32.7587],[130.3039,32.7555],[130.301,32.7501],[130.2921,32.748],[130.288,32.7441],[130.2968,32.7428],[130.3215,32.7426],[130.3347,32.744],[130.3414,32.7453],[130.3494,32.7443],[130.3707,32.7358]]]}},{"type":"Feature","properties":{"id":42020},"geometry":{"type":"MultiPolygon","coordinates":[[[[129.0411,32.846],[129.042,32.8486],[129.0394,32.8524],[129.0357,32.8476],[129.0411,32.846]]],[[[129.0375,32.865],[129.0352,32.8749],[129.0354,32.8816],[129.03,32.8815],[129.0307,32.8769],[129.0294,32.8722],[129.0317,32.8628],[129.0375,32.865]]],[[[128.9938,32.9308],[128.9872,32.9322],[128.9832,32.9294],[128.9872,32.925],[128.9871,32.921],[128.9783,32.92],[128.9827,32.9138],[128.9854,32.9126],[128.98,32.9036],[128.9829,32.9035],[128.987,32.8983],[128.9953,32.8986],[128.9977,32.8928],[128.9982,32.8864],[129.0031,32.8822],[129.0015,32.8797],[128.9963,32.8878],[128.9946,32.8926],[128.9896,32.8927],[128.9856,32.8892],[128.9827,32.8952],[128.9709,32.8986],[128.9711,32.9037],[128.9609,32.9028],[128.9603,32.8995],[128.9646,32.8963],[128.9665,32.8891],[128.9692,32.8858],[128.9696,32.8818],[128.9743,32.8767],[128.9683,32.8746],[128.9656,32.872],[128.9703,32.8698],[128.9733,32.8718],[128.9798,32.8718],[128.9816,32.8694],[128.9767,32.8633],[128.9766,32.8594],[128.9818,32.8588],[128.9867,32.8663],[128.9913,32.8656],[129.001,32.8675],[129.0026,32.8647],[129.0083,32.8663],[129.018,32.8658],[129.0126,32.8606],[129.0108,32.8574],[129.0131,32.8533],[129.0183,32.8505],[129.0269,32.8443],[129.0306,32.8537],[129.028,32.8548],[129.0266,32.8603],[129.0285,32.8626],[129.0289,32.8709],[129.0271,32.8748],[129.0291,32.8785],[129.0276,32.8846],[129.032,32.8865],[129.0323,32.8906],[129.0254,32.8897],[129.0256,32.8926],[129.0302,32.8935],[129.033,32.8972],[129.031,32.9009],[129.0246,32.9045],[129.024,32.9128],[129.0204,32.918],[129.0171,32.9204],[129.0165,32.9237],[129.0092,32.9254],[129.0014,32.92],[129.0005,32.925],[128.9938,32.9308]]],[[[128.9695,32.9108],[128.9652,32.9134],[128.9599,32.911],[128.9565,32.9072],[128.963,32.9042],[128.9695,32.9108]]],[[[128.9396,32.9244],[128.9354,32.9252],[128.9305,32.9202],[128.9338,32.9155],[128.9332,32.9131],[128.9384,32.9092],[128.9424,32.9095],[128.9476,32.9051],[128.9513,32.9089],[128.9556,32.9104],[128.9539,32.9171],[128.95,32.9189],[128.946,32.9245],[128.9396,32.9244]]],[[[128.9687,32.9255],[128.9692,32.9298],[128.9642,32.9324],[128.9572,32.9283],[128.9567,32.9148],[128.9617,32.9178],[128.9669,32.9183],[128.9659,32.9224],[128.9687,32.9255]]],[[[128.9923,32.9632],[128.9896,32.9648],[128.9847,32.9596],[128.9778,32.9592],[128.9805,32.9518],[128.9774,32.9479],[128.9838,32.9447],[128.9829,32.9507],[128.9885,32.9529],[128.9919,32.9513],[128.9971,32.958],[128.997,32.9617],[128.9923,32.9632]]],[[[129.0295,32.9858],[129.0267,32.9933],[129.022,32.9913],[129.0211,32.9858],[129.0253,32.9837],[129.0263,32.9782],[129.0328,32.9791],[129.0325,32.9858],[129.0295,32.9858]]],[[[129.0307,33.0117],[129.0287,33.015],[129.0218,33.0123],[129.0161,33.0141],[129.013,33.0107],[129.0081,33.0085],[129.0044,33.0033],[129.0089,33.0011],[129.0163,33.0085],[129.0258,33.0077],[129.0307,33.0117]]],[[[129.1936,32.9236],[129.1886,32.9241],[129.1848,32.9218],[129.1837,32.9174],[129.1914,32.9175],[129.1964,32.9211],[129.1936,32.9236]]],[[[129.2489,33.0217],[129.2426,33.02],[129.2313,33.0108],[129.2301,33.0066],[129.2226,33.0026],[129.2267,33.0003],[129.2332,33.001],[129.2392,32.9991],[129.2402,32.9907],[129.2503,32.9963],[129.2546,33.0007],[129.2532,33.007],[129.2566,33.01],[129.2569,33.0142],[129.261,33.0196],[129.2571,33.0209],[129.2508,33.0131],[129.2471,33.0174],[129.2489,33.0217]]],[[[129.3556,33.0189],[129.354,33.0205],[129.3459,33.0178],[129.3415,33.0136],[129.3438,33.0108],[129.3411,33.0079],[129.3447,33.0041],[129.3442,32.9983],[129.3489,32.9972],[129.3533,33],[129.3511,33.0022],[129.3622,33.0044],[129.3544,33.0131],[129.3556,33.0189]]],[[[129.1922,33.0183],[129.1885,33.0197],[129.1881,33.0144],[129.1825,33.0142],[129.1772,33.0164],[129.1742,33.0122],[129.1782,33.0071],[129.1862,33.0086],[129.1908,33.0062],[129.1966,33.0079],[129.1974,33.0102],[129.1922,33.0183]]],[[[129.1167,33.1625],[129.11,33.1633],[129.107,33.1584],[129.1061,33.1492],[129.1005,33.1396],[129.1,33.1334],[129.0953,33.1293],[129.0986,33.125],[129.0944,33.1222],[129.0953,33.1189],[129.1038,33.1116],[129.0978,33.1022],[129.1017,33.1028],[129.1096,33.0996],[129.1055,33.0928],[129.1074,33.088],[129.1028,33.0809],[129.095,33.0784],[129.0885,33.0779],[129.0851,33.0748],[129.084,33.0657],[129.0816,33.0614],[129.0768,33.0595],[129.0744,33.0567],[129.076,33.0525],[129.0804,33.0511],[129.0804,33.0474],[129.084,33.0425],[129.079,33.041],[129.0777,33.0364],[129.084,33.0297],[129.0868,33.0247],[129.0859,33.0228],[129.0708,33.0192],[129.0685,33.0253],[129.0673,33.0362],[129.0656,33.0392],[129.0692,33.045],[129.055,33.0403],[129.0517,33.0351],[129.0462,33.0351],[129.0462,33.031],[129.0419,33.0275],[129.0436,33.0253],[129.0412,33.021],[129.0447,33.0142],[129.0418,33.011],[129.043,33.0065],[129.0412,33.0036],[129.0445,32.9983],[129.0494,32.9955],[129.0462,32.992],[129.0417,32.9925],[129.0444,32.9858],[129.0472,32.9834],[129.0524,32.9833],[129.0533,32.9789],[129.0486,32.9754],[129.0396,32.9763],[129.0327,32.9674],[129.0313,32.9622],[129.0279,32.9617],[129.0229,32.968],[129.0246,32.9739],[129.0202,32.9766],[129.0147,32.9728],[129.0136,32.9767],[129.0062,32.9693],[129.0014,32.9694],[128.9966,32.9648],[129.0003,32.9582],[128.9992,32.9528],[129.0053,32.9524],[129.0048,32.9495],[128.9985,32.9477],[128.9914,32.9436],[128.9966,32.9409],[129.0031,32.9394],[129.0069,32.94],[129.0131,32.9461],[129.0173,32.9422],[129.017,32.9399],[129.0208,32.9329],[129.0261,32.9338],[129.0331,32.9369],[129.0353,32.9417],[129.0406,32.9322],[129.0383,32.9285],[129.0303,32.9303],[129.0316,32.9262],[129.0264,32.9221],[129.0264,32.9185],[129.0333,32.9186],[129.0364,32.9225],[129.0458,32.9225],[129.05,32.9211],[129.0478,32.9161],[129.0529,32.9102],[129.0553,32.9053],[129.0528,32.9008],[129.0493,32.9049],[129.0432,32.909],[129.0389,32.9088],[129.0388,32.899],[129.0422,32.8931],[129.055,32.8871],[129.0559,32.8842],[129.0421,32.8869],[129.0444,32.8833],[129.0491,32.8814],[129.0455,32.8763],[129.0401,32.8732],[129.0421,32.8704],[129.0399,32.8673],[129.0477,32.8531],[129.0446,32.8506],[129.0459,32.8463],[129.0452,32.8404],[129.0498,32.8363],[129.045,32.8298],[129.0462,32.8217],[129.0529,32.8185],[129.0635,32.8172],[129.0659,32.8219],[129.0646,32.8271],[129.0682,32.8294],[129.0681,32.8374],[129.0617,32.8459],[129.0629,32.8527],[129.0658,32.8562],[129.0662,32.8627],[129.0727,32.8596],[129.0771,32.8613],[129.0878,32.8553],[129.0934,32.8548],[129.0951,32.8578],[129.1012,32.8603],[129.0981,32.8658],[129.0969,32.8761],[129.0924,32.8799],[129.0866,32.8816],[129.0902,32.8849],[129.0927,32.8897],[129.0874,32.8949],[129.0817,32.8958],[129.086,32.9041],[129.0945,32.9033],[129.093,32.909],[129.096,32.9198],[129.0914,32.9225],[129.1043,32.9273],[129.1077,32.925],[129.1103,32.9301],[129.1069,32.9349],[129.1111,32.9377],[129.1109,32.943],[129.1069,32.9508],[129.112,32.9507],[129.1142,32.9447],[129.1189,32.9379],[129.1285,32.9394],[129.1308,32.9444],[129.1364,32.9372],[129.1428,32.9389],[129.1424,32.9449],[129.1509,32.9577],[129.161,32.9609],[129.1671,32.9654],[129.1718,32.9704],[129.179,32.9704],[129.1823,32.9718],[129.1835,32.9782],[129.1791,32.9868],[129.1755,32.9905],[129.1782,32.9945],[129.1754,32.9967],[129.1822,33.003],[129.1761,33.0069],[129.1714,33.0059],[129.1678,33.0072],[129.1608,33.0064],[129.1565,32.9997],[129.1495,33.0005],[129.1469,33.0033],[129.1433,33.0025],[129.1408,32.999],[129.135,33.0003],[129.1322,32.9916],[129.1214,32.9873],[129.1181,32.9893],[129.1119,32.9851],[129.1012,32.9848],[129.0989,32.9802],[129.0941,32.9859],[129.0911,32.9875],[129.091,32.9911],[129.0967,32.9994],[129.0946,33.0061],[129.0916,33.0099],[129.0895,33.0166],[129.0979,33.0257],[129.0972,33.0328],[129.093,33.0333],[129.0929,33.0396],[129.0979,33.0412],[129.0987,33.0441],[129.1043,33.0487],[129.0987,33.052],[129.0994,33.0559],[129.1028,33.0569],[129.1095,33.0633],[129.1086,33.0664],[129.1117,33.0714],[129.1106,33.0744],[129.1164,33.0847],[129.1203,33.0986],[129.1194,33.1039],[129.1217,33.1075],[129.1183,33.1117],[129.1117,33.1156],[129.1035,33.1244],[129.11,33.1314],[129.1139,33.1425],[129.1114,33.1444],[129.1114,33.1494],[129.1173,33.1558],[129.1189,33.1611],[129.1167,33.1625]]],[[[129.1253,33.2136],[129.1228,33.2147],[129.1153,33.2089],[129.1145,33.2048],[129.1197,33.1974],[129.1241,33.1891],[129.1206,33.1851],[129.1199,33.1768],[129.1236,33.172],[129.1231,33.1696],[129.1253,33.1619],[129.1329,33.1596],[129.1349,33.1674],[129.1335,33.1788],[129.1306,33.1811],[129.1345,33.1881],[129.1438,33.1908],[129.142,33.1948],[129.1369,33.1946],[129.1331,33.2031],[129.1253,33.2136]]],[[[129.1383,33.2208],[129.1405,33.2247],[129.1367,33.2277],[129.1297,33.2256],[129.1314,33.2206],[129.1383,33.2208]]]]}},{"type":"Feature","properties":{"id":42021},"geometry":{"type":"MultiPolygon","coordinates":[[[[129.7971,32.8709],[129.7882,32.8617],[129.7738,32.8585],[129.7596,32.8516],[129.759,32.8467],[129.7707,32.8391],[129.7822,32.8342],[129.7869,32.8337],[129.8049,32.8336],[129.8128,32.8311],[129.8176,32.8253],[129.8187,32.8144],[129.8241,32.8108],[129.8311,32.8102],[129.8368,32.8084],[129.8449,32.8075],[129.8506,32.8165],[129.855,32.8206],[129.8589,32.8276],[129.8589,32.8443],[129.8603,32.8464],[129.857,32.8479],[129.8559,32.8515],[129.8586,32.8542],[129.8498,32.8583],[129.8489,32.8529],[129.8498,32.8479],[129.8534,32.8451],[129.8486,32.8411],[129.8475,32.8364],[129.8423,32.8362],[129.8395,32.8412],[129.8398,32.8448],[129.8331,32.8493],[129.8292,32.8479],[129.8237,32.8526],[129.8239,32.857],[129.8182,32.8628],[129.8134,32.8646],[129.804,32.8628],[129.7996,32.8639],[129.7971,32.8709]]],[[[129.8075,32.8711],[129.8039,32.8694],[129.8086,32.8656],[129.8136,32.8689],[129.8075,32.8711]]]]}},{"type":"Feature","properties":{"id":42022},"geometry":{"type":"MultiPolygon","coordinates":[[[[129.329,34.3057],[129.3226,34.3046],[129.3237,34.2999],[129.3301,34.3043],[129.329,34.3057]]],[[[129.4504,34.7057],[129.4446,34.7046],[129.4388,34.6951],[129.4301,34.6926],[129.4251,34.6982],[129.4185,34.6965],[129.4171,34.6929],[129.4135,34.6907],[129.4182,34.6876],[129.4143,34.6821],[129.4204,34.6768],[129.4121,34.6776],[129.4085,34.6796],[129.4065,34.6743],[129.3996,34.669],[129.4024,34.6646],[129.3965,34.6646],[129.3924,34.6568],[129.389,34.6549],[129.3837,34.6457],[129.379,34.6426],[129.3743,34.6471],[129.3635,34.639],[129.3638,34.644],[129.3582,34.6501],[129.3496,34.6493],[129.3421,34.6463],[129.3382,34.6393],[129.3357,34.641],[129.334,34.6499],[129.3313,34.6512],[129.3254,34.649],[129.3212,34.6493],[129.3179,34.6354],[129.3185,34.6304],[129.3171,34.6251],[129.3129,34.6215],[129.3132,34.6149],[129.3049,34.6032],[129.3071,34.5971],[129.3054,34.589],[129.2979,34.5832],[129.2965,34.5757],[129.2926,34.5721],[129.2871,34.5707],[129.2851,34.5635],[129.289,34.5557],[129.2957,34.5554],[129.2993,34.5582],[129.3007,34.5624],[129.306,34.5646],[129.3099,34.5563],[129.3138,34.5593],[129.3165,34.5551],[129.3143,34.5496],[129.3215,34.5474],[129.3262,34.5488],[129.3279,34.5351],[129.3332,34.5307],[129.329,34.5285],[129.3251,34.5304],[129.3257,34.5349],[129.3224,34.5379],[129.3163,34.5268],[129.3118,34.521],[129.3085,34.5257],[129.3032,34.5199],[129.3018,34.5135],[129.2971,34.5076],[129.2968,34.5004],[129.2932,34.4971],[129.2915,34.4865],[129.2818,34.4804],[129.2774,34.471],[129.2743,34.469],[129.2737,34.4654],[129.276,34.4621],[129.2751,34.4554],[129.281,34.4529],[129.2851,34.449],[129.2943,34.4515],[129.2949,34.4451],[129.2915,34.4435],[129.2776,34.4443],[129.2743,34.441],[129.2737,34.4282],[129.2704,34.4276],[129.2701,34.4238],[129.2774,34.4162],[129.2718,34.4132],[129.274,34.4063],[129.2737,34.401],[129.2704,34.3943],[129.2713,34.389],[129.2688,34.3868],[129.2749,34.3821],[129.2751,34.3751],[129.2701,34.3757],[129.2688,34.3729],[129.2612,34.3671],[129.2543,34.3665],[129.251,34.3638],[129.2518,34.3579],[129.2471,34.359],[129.2435,34.366],[129.2365,34.3651],[129.2321,34.3665],[129.2271,34.3613],[129.2335,34.3551],[129.2335,34.3532],[129.2404,34.3513],[129.2462,34.3521],[129.2543,34.3513],[129.2593,34.354],[129.2671,34.3557],[129.2762,34.3543],[129.2813,34.3438],[129.2863,34.3454],[129.2915,34.3446],[129.2921,34.349],[129.2985,34.3551],[129.2935,34.3563],[129.2921,34.359],[129.2874,34.3604],[129.2849,34.3643],[129.2899,34.3674],[129.291,34.3737],[129.301,34.3804],[129.304,34.3804],[129.3076,34.3854],[129.3099,34.381],[129.3085,34.3788],[129.2982,34.3704],[129.3024,34.3676],[129.3021,34.3615],[129.3062,34.3529],[129.2993,34.3493],[129.3018,34.3407],[129.309,34.3413],[129.3143,34.3401],[129.3165,34.3488],[129.3196,34.3526],[129.3257,34.3501],[129.3257,34.3565],[129.3274,34.361],[129.3243,34.364],[129.3315,34.3737],[129.336,34.3671],[129.3429,34.3665],[129.3471,34.3688],[129.3471,34.3626],[129.3438,34.3621],[129.3412,34.3574],[129.3443,34.3549],[129.3443,34.3501],[129.341,34.3499],[129.3412,34.3449],[129.346,34.3471],[129.3468,34.3426],[129.3546,34.3387],[129.3471,34.3374],[129.3471,34.3307],[129.344,34.3282],[129.3446,34.324],[129.3399,34.3249],[129.3288,34.3165],[129.3293,34.3238],[129.3274,34.3246],[129.3285,34.3321],[129.3268,34.336],[129.3226,34.3354],[129.3188,34.3321],[129.3199,34.3262],[129.3121,34.3265],[129.3101,34.331],[129.3032,34.3312],[129.3015,34.336],[129.2974,34.3349],[129.2935,34.3312],[129.2899,34.3238],[129.2954,34.3224],[129.2985,34.3299],[129.3051,34.3218],[129.316,34.3171],[129.3168,34.3126],[129.3201,34.3129],[129.3226,34.3068],[129.3296,34.3071],[129.3354,34.3043],[129.3401,34.3051],[129.3465,34.3024],[129.3488,34.2962],[129.3376,34.2965],[129.3299,34.2979],[129.3232,34.2943],[129.3179,34.2985],[129.3118,34.2954],[129.3146,34.2865],[129.3074,34.289],[129.304,34.2818],[129.2988,34.2854],[129.3004,34.2896],[129.3046,34.2918],[129.3018,34.301],[129.304,34.3021],[129.3068,34.3082],[129.301,34.3085],[129.2962,34.311],[129.2929,34.3107],[129.2926,34.3176],[129.2846,34.3201],[129.2815,34.3229],[129.2704,34.3251],[129.2654,34.3207],[129.2737,34.3138],[129.2732,34.3107],[129.2818,34.3057],[129.2849,34.3057],[129.2835,34.2974],[129.2796,34.2985],[129.2821,34.3049],[129.2779,34.3063],[129.266,34.3049],[129.2626,34.3001],[129.2582,34.301],[129.261,34.3082],[129.2549,34.3085],[129.2471,34.3032],[129.2432,34.2979],[129.2388,34.3001],[129.2307,34.2974],[129.2229,34.2976],[129.2235,34.3021],[129.2268,34.3076],[129.2232,34.309],[129.2274,34.3135],[129.229,34.319],[129.2282,34.3235],[129.2207,34.3312],[129.2182,34.3282],[129.2135,34.3268],[129.2074,34.3307],[129.2024,34.3279],[129.2032,34.3232],[129.1982,34.3187],[129.199,34.3149],[129.1957,34.3135],[129.1985,34.301],[129.1957,34.2954],[129.1971,34.2882],[129.1951,34.2863],[129.1979,34.2824],[129.1938,34.2746],[129.1971,34.2715],[129.1946,34.2687],[129.1921,34.259],[129.1851,34.2485],[129.1851,34.2451],[129.1904,34.2363],[129.1879,34.2299],[129.1826,34.2287],[129.1799,34.221],[129.179,34.1985],[129.1779,34.1949],[129.1801,34.1874],[129.1782,34.1793],[129.1757,34.1763],[129.1779,34.174],[129.1776,34.1696],[129.1738,34.1682],[129.1724,34.156],[129.1724,34.1488],[129.1676,34.1432],[129.1685,34.1374],[129.1679,34.1276],[129.1718,34.1237],[129.1701,34.1188],[129.1707,34.1129],[129.1665,34.1049],[129.1685,34.1015],[129.174,34.1063],[129.1746,34.1101],[129.1821,34.1146],[129.1924,34.1149],[129.1954,34.1126],[129.1968,34.1057],[129.2049,34.1046],[129.2101,34.1071],[129.2126,34.1124],[129.2157,34.1115],[129.2115,34.1054],[129.2165,34.0999],[129.2165,34.0951],[129.2126,34.0871],[129.2149,34.084],[129.2213,34.0893],[129.2182,34.0913],[129.2188,34.0954],[129.2238,34.0971],[129.2296,34.0946],[129.2315,34.1049],[129.2301,34.1076],[129.2354,34.1124],[129.2379,34.1018],[129.2462,34.1057],[129.246,34.1115],[129.2499,34.1121],[129.2535,34.1096],[129.261,34.1132],[129.2629,34.1165],[129.2629,34.1226],[129.256,34.1243],[129.2587,34.1285],[129.2635,34.1263],[129.2743,34.1271],[129.2765,34.1326],[129.2801,34.1299],[129.2826,34.1338],[129.2765,34.1435],[129.2851,34.146],[129.2824,34.1501],[129.2815,34.1557],[129.2843,34.1568],[129.2838,34.1635],[129.2882,34.1646],[129.291,34.1618],[129.2971,34.1629],[129.2971,34.174],[129.2962,34.179],[129.2982,34.1843],[129.2946,34.1868],[129.2921,34.1915],[129.2882,34.1949],[129.2912,34.1974],[129.2965,34.1951],[129.3013,34.2024],[129.3021,34.2093],[129.3049,34.2113],[129.2971,34.214],[129.2976,34.2201],[129.3035,34.221],[129.3043,34.2154],[129.3099,34.2163],[129.3132,34.2185],[129.3196,34.2254],[129.3262,34.2265],[129.324,34.2321],[129.3199,34.2315],[129.3207,34.2382],[129.3171,34.2412],[129.3168,34.249],[129.319,34.2543],[129.324,34.2557],[129.3224,34.2615],[129.3262,34.2618],[129.3246,34.2676],[129.331,34.2743],[129.3371,34.2721],[129.3415,34.2776],[129.3535,34.2776],[129.3601,34.2704],[129.3687,34.2785],[129.3737,34.279],[129.3851,34.2871],[129.389,34.2938],[129.3938,34.2965],[129.394,34.3001],[129.3885,34.301],[129.3865,34.3037],[129.3685,34.3026],[129.3621,34.2999],[129.3649,34.3096],[129.3715,34.3115],[129.379,34.3118],[129.379,34.3179],[129.3765,34.3265],[129.371,34.336],[129.3788,34.3357],[129.384,34.3312],[129.3893,34.3293],[129.3918,34.3338],[129.4063,34.3351],[129.4082,34.3379],[129.4043,34.3474],[129.4104,34.3504],[129.4124,34.3574],[129.4082,34.3601],[129.4026,34.3601],[129.4004,34.3576],[129.3957,34.3601],[129.3918,34.3529],[129.3896,34.346],[129.3862,34.344],[129.3793,34.3462],[129.3887,34.3504],[129.3943,34.3621],[129.3865,34.366],[129.3899,34.3682],[129.3885,34.371],[129.3835,34.3729],[129.3796,34.3779],[129.3804,34.3801],[129.376,34.386],[129.3821,34.3863],[129.3851,34.3829],[129.3885,34.3863],[129.3885,34.3896],[129.3946,34.3924],[129.3932,34.3954],[129.3949,34.4035],[129.3971,34.406],[129.3943,34.4093],[129.3899,34.4046],[129.3837,34.404],[129.3846,34.4004],[129.3807,34.3974],[129.376,34.3985],[129.3676,34.3918],[129.3635,34.3921],[129.3529,34.389],[129.3657,34.3979],[129.3696,34.4054],[129.3749,34.406],[129.3799,34.4129],[129.3793,34.4185],[129.3751,34.426],[129.3685,34.4224],[129.366,34.4307],[129.3707,34.4349],[129.3776,34.431],[129.3796,34.4274],[129.3868,34.4274],[129.3821,34.4343],[129.3824,34.4399],[129.3768,34.4418],[129.3735,34.4524],[129.3832,34.4549],[129.3868,34.4579],[129.3865,34.4629],[129.3915,34.464],[129.3924,34.469],[129.3979,34.4732],[129.4115,34.4882],[129.4165,34.491],[129.4207,34.4963],[129.4246,34.4968],[129.4288,34.5018],[129.4335,34.5038],[129.4379,34.5079],[129.4374,34.5151],[129.4418,34.5137],[129.4446,34.5187],[129.4499,34.5224],[129.4521,34.526],[129.449,34.5296],[129.4565,34.5318],[129.4576,34.5354],[129.4612,34.5371],[129.4637,34.5443],[129.4607,34.5454],[129.4593,34.5521],[129.4665,34.5518],[129.4688,34.5499],[129.4738,34.5543],[129.4701,34.5557],[129.4707,34.5626],[129.4696,34.5685],[129.4763,34.5696],[129.4768,34.5732],[129.4721,34.5754],[129.4763,34.5849],[129.474,34.5893],[129.4804,34.5926],[129.481,34.5954],[129.4729,34.5957],[129.4751,34.599],[129.4718,34.6035],[129.4713,34.6079],[129.4615,34.606],[129.459,34.6076],[129.4518,34.6074],[129.4532,34.6104],[129.4582,34.6137],[129.4518,34.6179],[129.4504,34.6229],[129.4538,34.6235],[129.4571,34.6157],[129.4637,34.6124],[129.469,34.6179],[129.4726,34.616],[129.481,34.6188],[129.479,34.6224],[129.4729,34.6243],[129.4757,34.629],[129.4824,34.6265],[129.4837,34.6324],[129.4882,34.6371],[129.491,34.6421],[129.4876,34.6449],[129.4787,34.6476],[129.4774,34.6512],[129.4715,34.6565],[129.4826,34.6538],[129.4849,34.6557],[129.4874,34.6621],[129.4913,34.6626],[129.4896,34.6668],[129.486,34.6668],[129.4849,34.6729],[129.489,34.6743],[129.4946,34.6838],[129.4871,34.6843],[129.4854,34.6757],[129.4801,34.6763],[129.476,34.6804],[129.4726,34.6874],[129.4796,34.6882],[129.4801,34.6943],[129.4743,34.6926],[129.4671,34.699],[129.461,34.6971],[129.4521,34.699],[129.4504,34.7057]]],[[[129.396,34.3215],[129.3896,34.3218],[129.3951,34.311],[129.4004,34.3135],[129.4115,34.3143],[129.4113,34.3193],[129.4043,34.3157],[129.4021,34.3174],[129.3943,34.3174],[129.396,34.3215]]]]}},{"type":"Feature","properties":{"id":42023},"geometry":{"type":"Polygon","coordinates":[[[130.1404,32.7928],[130.1464,32.7961],[130.1573,32.7928],[130.1783,32.7944],[130.1816,32.7931],[130.1922,32.7842],[130.1936,32.7811],[130.1872,32.7778],[130.1857,32.7744],[130.1888,32.7699],[130.1895,32.7622],[130.1972,32.7533],[130.202,32.7572],[130.2058,32.7553],[130.2078,32.7461],[130.2094,32.7442],[130.2094,32.7378],[130.2044,32.7267],[130.2014,32.7242],[130.1989,32.718],[130.1908,32.7161],[130.1882,32.7137],[130.1856,32.708],[130.1719,32.703],[130.1653,32.6944],[130.1597,32.6906],[130.1555,32.6842],[130.1489,32.6822],[130.1442,32.6825],[130.14,32.6808],[130.1347,32.6811],[130.1306,32.6758],[130.1284,32.6636],[130.1292,32.6552],[130.1364,32.6561],[130.1597,32.6574],[130.1637,32.6583],[130.1852,32.6714],[130.19,32.675],[130.2039,32.6816],[130.2182,32.6872],[130.226,32.6913],[130.2401,32.7029],[130.2473,32.7197],[130.254,32.7215],[130.2624,32.7215],[130.2675,32.7233],[130.2718,32.731],[130.2774,32.7356],[130.284,32.739],[130.288,32.7441],[130.2921,32.748],[130.301,32.7501],[130.3039,32.7555],[130.2983,32.7587],[130.2793,32.7588],[130.2746,32.7596],[130.271,32.7631],[130.2698,32.7729],[130.2739,32.7807],[130.2838,32.7892],[130.2922,32.8033],[130.2993,32.8268],[130.2999,32.8464],[130.3021,32.8519],[130.306,32.8556],[130.3142,32.8655],[130.3176,32.8682],[130.3111,32.8722],[130.3105,32.8763],[130.297,32.8778],[130.2932,32.88],[130.2894,32.8772],[130.2818,32.8786],[130.2745,32.875],[130.2697,32.8747],[130.2634,32.8723],[130.2519,32.8728],[130.2481,32.8754],[130.2437,32.8758],[130.2354,32.8715],[130.2294,32.8667],[130.2243,32.8608],[130.2099,32.8566],[130.2072,32.8533],[130.1988,32.8524],[130.1925,32.8506],[130.1853,32.8453],[130.1809,32.8434],[130.1657,32.8433],[130.1645,32.8407],[130.1584,32.837],[130.15,32.8288],[130.1493,32.8224],[130.1466,32.8098],[130.1368,32.8028],[130.1368,32.7985],[130.1404,32.7928]]]}}]}