{"type":"FeatureCollection","features":[{"type":"Feature","properties":{"id":43001},"geometry":{"type":"MultiPolygon","coordinates":[[[[130.1403,32.1058],[130.1424,32.1074],[130.1486,32.1033],[130.1494,32.0974],[130.1504,32.0921],[130.1544,32.0922],[130.1577,32.0894],[130.1631,32.0892],[130.1693,32.0941],[130.1671,32.0974],[130.1732,32.1101],[130.176,32.1129],[130.1777,32.121],[130.1777,32.1237],[130.1781,32.1284],[130.1794,32.1328],[130.1804,32.1372],[130.1837,32.1384],[130.1868,32.1427],[130.1938,32.1477],[130.2044,32.1484],[130.2099,32.1536],[130.2099,32.1572],[130.2077,32.1619],[130.201,32.1683],[130.1951,32.1715],[130.1931,32.1642],[130.1872,32.1661],[130.1873,32.177],[130.1836,32.1785],[130.189,32.1872],[130.2002,32.1956],[130.2003,32.1977],[130.1905,32.1997],[130.1856,32.2103],[130.1868,32.2122],[130.1824,32.2182],[130.1763,32.2213],[130.1765,32.2281],[130.1717,32.2297],[130.1748,32.2329],[130.1776,32.2407],[130.1762,32.248],[130.1836,32.2528],[130.1897,32.2618],[130.188,32.2649],[130.1763,32.2544],[130.1727,32.2576],[130.1693,32.2507],[130.1669,32.2489],[130.1653,32.24],[130.1603,32.2444],[130.1588,32.2404],[130.1619,32.233],[130.1636,32.232],[130.1631,32.2314],[130.1622,32.23],[130.1661,32.2281],[130.1641,32.2213],[130.1656,32.2173],[130.1625,32.2132],[130.1583,32.2253],[130.1539,32.2281],[130.1534,32.2208],[130.1553,32.2167],[130.1531,32.2147],[130.1481,32.2169],[130.1463,32.2162],[130.1486,32.2083],[130.1456,32.2075],[130.1391,32.2132],[130.1312,32.2166],[130.1258,32.2153],[130.1295,32.2118],[130.1281,32.2116],[130.1125,32.2166],[130.1056,32.2139],[130.1053,32.21],[130.1117,32.2078],[130.1053,32.2042],[130.1127,32.2014],[130.1113,32.1994],[130.109,32.1961],[130.107,32.1931],[130.1047,32.1904],[130.1036,32.1891],[130.0942,32.1889],[130.0923,32.1798],[130.098,32.1807],[130.0968,32.1775],[130.0968,32.1764],[130.0978,32.1733],[130.0984,32.1725],[130.1052,32.1736],[130.1088,32.1701],[130.1086,32.1666],[130.1082,32.1624],[130.1119,32.1581],[130.1164,32.1503],[130.1117,32.1422],[130.1158,32.1388],[130.1109,32.1257],[130.1169,32.123],[130.1192,32.1172],[130.1245,32.1172],[130.1287,32.1147],[130.1306,32.1106],[130.1358,32.1064],[130.1403,32.1058]]],[[[129.9715,32.1823],[129.9709,32.1846],[129.9637,32.1875],[129.9635,32.1827],[129.9698,32.1788],[129.9715,32.1823]]],[[[130.0811,32.1972],[130.0794,32.2025],[130.0747,32.1989],[130.0739,32.1953],[130.0783,32.1947],[130.0811,32.1972]]],[[[130.1935,32.2172],[130.1995,32.2225],[130.2098,32.2234],[130.2052,32.2259],[130.2017,32.2301],[130.2032,32.2327],[130.2007,32.2366],[130.2011,32.2401],[130.1962,32.2441],[130.1929,32.241],[130.1946,32.2344],[130.197,32.2307],[130.1967,32.227],[130.188,32.2211],[130.1935,32.2172]]],[[[130.231,32.2482],[130.2238,32.2555],[130.2229,32.2511],[130.2273,32.2462],[130.231,32.2482]]],[[[130.2238,32.2595],[130.2247,32.2717],[130.2272,32.2789],[130.2316,32.2849],[130.2368,32.2896],[130.2448,32.2942],[130.2526,32.2932],[130.2606,32.2889],[130.2655,32.2837],[130.2668,32.2795],[130.2693,32.2808],[130.2656,32.2927],[130.2661,32.2961],[130.254,32.3016],[130.2578,32.3061],[130.2535,32.3067],[130.2448,32.301],[130.2386,32.3009],[130.2297,32.2967],[130.2325,32.2953],[130.229,32.2889],[130.2248,32.2929],[130.2202,32.2918],[130.2175,32.2862],[130.2136,32.2819],[130.2153,32.2778],[130.2142,32.2733],[130.214,32.2633],[130.2094,32.2561],[130.2142,32.2531],[130.2238,32.2595]]],[[[130.3012,32.3311],[130.3003,32.3356],[130.2944,32.3319],[130.2991,32.3283],[130.3012,32.3311]]],[[[130.3596,32.3503],[130.3612,32.3536],[130.3589,32.3563],[130.3526,32.3506],[130.3476,32.3508],[130.3445,32.3491],[130.3416,32.3442],[130.3339,32.3392],[130.33,32.3339],[130.33,32.3276],[130.3344,32.3244],[130.3316,32.3147],[130.3279,32.3169],[130.3221,32.3178],[130.3153,32.3111],[130.3091,32.3111],[130.3047,32.3058],[130.3117,32.3059],[130.3203,32.3074],[130.3294,32.3046],[130.3367,32.3108],[130.3437,32.3119],[130.3506,32.3159],[130.3516,32.3185],[130.3574,32.3214],[130.3611,32.3264],[130.3636,32.3338],[130.3667,32.3351],[130.3753,32.3444],[130.3752,32.3478],[130.3718,32.3508],[130.3647,32.3461],[130.3596,32.3503]]],[[[130.3231,32.3647],[130.32,32.3683],[130.3106,32.3583],[130.304,32.3631],[130.2992,32.3583],[130.3009,32.3525],[130.303,32.3507],[130.3164,32.3492],[130.3095,32.3406],[130.3244,32.3412],[130.327,32.346],[130.33,32.3477],[130.3351,32.3455],[130.3395,32.3469],[130.3425,32.3556],[130.3374,32.354],[130.3286,32.3611],[130.3249,32.3598],[130.3231,32.3647]]],[[[130.3533,32.3624],[130.3558,32.3663],[130.3477,32.3741],[130.342,32.3709],[130.3409,32.3674],[130.3458,32.3616],[130.3503,32.3604],[130.3533,32.3624]]],[[[130.3249,32.3777],[130.3197,32.3788],[130.3182,32.3744],[130.3196,32.3704],[130.3226,32.37],[130.3258,32.3736],[130.3249,32.3777]]],[[[130.145,32.2753],[130.1422,32.2778],[130.1378,32.2761],[130.1336,32.2722],[130.1322,32.2656],[130.1353,32.2625],[130.1414,32.2628],[130.1461,32.2644],[130.1508,32.2694],[130.1481,32.275],[130.145,32.2753]]],[[[130.3516,32.4041],[130.3581,32.4053],[130.3732,32.4102],[130.3758,32.4137],[130.3772,32.4217],[130.3771,32.4272],[130.3795,32.4389],[130.3782,32.441],[130.3716,32.4409],[130.3643,32.4422],[130.3496,32.4463],[130.3439,32.4488],[130.3361,32.4583],[130.3356,32.4621],[130.3383,32.4669],[130.3496,32.4795],[130.3553,32.4812],[130.3746,32.4814],[130.3841,32.487],[130.394,32.4957],[130.3902,32.5046],[130.3907,32.5128],[130.3864,32.5167],[130.3811,32.515],[130.3774,32.5177],[130.3703,32.5171],[130.3694,32.5208],[130.3722,32.5231],[130.3669,32.5278],[130.3607,32.5291],[130.3535,32.5249],[130.3466,32.524],[130.3405,32.5187],[130.3357,32.5173],[130.3342,32.5221],[130.3268,32.5191],[130.3169,32.5173],[130.3077,32.5073],[130.3019,32.5047],[130.2937,32.4969],[130.2942,32.4925],[130.2869,32.4867],[130.2815,32.4841],[130.2766,32.485],[130.2718,32.4831],[130.2697,32.48],[130.2569,32.4774],[130.2471,32.4681],[130.2404,32.466],[130.2343,32.4608],[130.2303,32.4617],[130.2167,32.4572],[130.2109,32.4534],[130.2047,32.452],[130.2006,32.4569],[130.2003,32.4617],[130.2065,32.4646],[130.2067,32.4744],[130.2049,32.4812],[130.1981,32.4868],[130.195,32.493],[130.1942,32.4975],[130.1972,32.5022],[130.1987,32.5097],[130.1957,32.5123],[130.1933,32.5181],[130.1954,32.5199],[130.1933,32.5263],[130.1944,32.5302],[130.1992,32.5352],[130.1928,32.5373],[130.1871,32.5477],[130.1756,32.5507],[130.1653,32.5495],[130.1618,32.5509],[130.1555,32.5493],[130.1479,32.5497],[130.146,32.5486],[130.1315,32.5457],[130.1232,32.5487],[130.1233,32.5528],[130.115,32.5536],[130.1064,32.5519],[130.1053,32.5486],[130.1181,32.5492],[130.1181,32.5449],[130.1245,32.5315],[130.1255,32.5232],[130.1243,32.5184],[130.1129,32.4888],[130.1087,32.4828],[130.0945,32.4778],[130.0916,32.4758],[130.086,32.4629],[130.0852,32.4574],[130.098,32.4328],[130.0949,32.4282],[130.0813,32.4338],[130.0652,32.4371],[130.0515,32.4367],[130.0435,32.4375],[130.0334,32.4366],[130.0253,32.4374],[130.0139,32.4366],[130.0063,32.4288],[130.0069,32.4252],[130.0032,32.4221],[130.0013,32.4154],[130.0047,32.4116],[130.0005,32.4078],[129.9956,32.4064],[129.9988,32.4004],[129.9973,32.3924],[129.9893,32.3857],[129.9955,32.3814],[129.9921,32.3755],[129.9874,32.3762],[129.9846,32.371],[129.9794,32.3661],[129.9761,32.3606],[129.9747,32.355],[129.9781,32.3436],[129.9812,32.3414],[129.978,32.3348],[129.978,32.329],[129.9877,32.322],[129.9878,32.3167],[129.9936,32.3158],[129.9922,32.3122],[129.994,32.3074],[129.9981,32.3072],[130.0011,32.3047],[130.0065,32.3106],[130.0099,32.3101],[130.0133,32.3132],[130.0182,32.3128],[130.0182,32.3096],[130.0216,32.3082],[130.0271,32.3086],[130.0297,32.3033],[130.0334,32.3031],[130.0374,32.3055],[130.0411,32.3144],[130.0463,32.31],[130.0527,32.3097],[130.0577,32.3031],[130.0672,32.3044],[130.0711,32.3],[130.0664,32.2956],[130.063,32.2811],[130.0542,32.2787],[130.05,32.2832],[130.0516,32.2873],[130.0477,32.2915],[130.0471,32.2959],[130.0525,32.3026],[130.0489,32.3045],[130.0456,32.3003],[130.0417,32.3036],[130.0333,32.3019],[130.0294,32.2936],[130.0316,32.289],[130.0367,32.2858],[130.0331,32.2792],[130.0262,32.2901],[130.0278,32.295],[130.0251,32.2976],[130.0239,32.3022],[130.0152,32.3001],[130.0092,32.2969],[130.0067,32.2908],[130.0036,32.2883],[129.9933,32.2846],[129.9883,32.277],[129.9867,32.2725],[129.9813,32.2685],[129.9703,32.2488],[129.9664,32.2436],[129.9735,32.2396],[129.9836,32.2458],[129.9883,32.2404],[129.9977,32.2392],[130,32.235],[130.0032,32.2346],[130.0075,32.239],[130.0121,32.2355],[130.0146,32.2223],[130.0083,32.2181],[130.0044,32.2206],[129.9971,32.2155],[129.9983,32.2081],[129.9941,32.2009],[129.9906,32.1999],[129.9928,32.1955],[129.9985,32.1956],[130.0017,32.1923],[130.0075,32.1956],[130.0108,32.2017],[130.0133,32.1964],[130.0136,32.1892],[130.0208,32.1886],[130.0192,32.1858],[130.0222,32.1822],[130.0181,32.1797],[130.0175,32.1753],[130.015,32.1711],[130.0167,32.1672],[130.015,32.1633],[130.0217,32.1597],[130.0236,32.1639],[130.0225,32.1669],[130.0278,32.175],[130.0311,32.1756],[130.0375,32.1683],[130.0372,32.1661],[130.0417,32.1625],[130.0458,32.1628],[130.0486,32.1664],[130.0481,32.1703],[130.0383,32.1761],[130.0406,32.1814],[130.0328,32.1867],[130.0325,32.1906],[130.0269,32.1889],[130.0217,32.1917],[130.0327,32.1966],[130.0297,32.2108],[130.0322,32.2147],[130.0375,32.2069],[130.0414,32.2072],[130.0436,32.2006],[130.0467,32.2003],[130.0492,32.2052],[130.0557,32.2076],[130.0575,32.2107],[130.0731,32.2111],[130.0784,32.2127],[130.0796,32.2165],[130.0836,32.22],[130.077,32.2219],[130.0775,32.2275],[130.0833,32.2311],[130.0789,32.2347],[130.08,32.2406],[130.0853,32.2397],[130.0917,32.2281],[130.0959,32.2308],[130.1007,32.2315],[130.1026,32.2365],[130.1015,32.2439],[130.1033,32.2478],[130.0939,32.2508],[130.0911,32.2536],[130.1077,32.2542],[130.1175,32.2717],[130.1236,32.2786],[130.1316,32.285],[130.1344,32.2886],[130.1397,32.2872],[130.1437,32.2819],[130.1587,32.2878],[130.1667,32.2964],[130.1653,32.3002],[130.1617,32.302],[130.1486,32.3028],[130.1442,32.2969],[130.1405,32.2992],[130.1425,32.3058],[130.1403,32.3086],[130.1444,32.315],[130.1492,32.3117],[130.1564,32.3119],[130.1533,32.3161],[130.1531,32.3206],[130.1578,32.3225],[130.1586,32.3261],[130.1567,32.3306],[130.1608,32.3317],[130.1658,32.3294],[130.1756,32.3392],[130.1772,32.3364],[130.172,32.3319],[130.1675,32.3258],[130.1684,32.3166],[130.1733,32.3101],[130.1795,32.3104],[130.1859,32.314],[130.1952,32.3238],[130.1997,32.3222],[130.2039,32.3322],[130.208,32.3343],[130.2089,32.3382],[130.2075,32.3463],[130.2121,32.3542],[130.213,32.3577],[130.2188,32.3629],[130.2197,32.3657],[130.2257,32.3675],[130.2218,32.3746],[130.221,32.3786],[130.2179,32.3801],[130.2237,32.3839],[130.2221,32.3884],[130.2172,32.3889],[130.2192,32.3931],[130.208,32.3959],[130.2016,32.3921],[130.2011,32.3969],[130.2032,32.3998],[130.1977,32.403],[130.2017,32.4096],[130.2086,32.4131],[130.2111,32.4181],[130.2161,32.4197],[130.2189,32.4233],[130.2211,32.4157],[130.2252,32.4121],[130.2282,32.4119],[130.2322,32.415],[130.2389,32.4128],[130.2432,32.4136],[130.2446,32.4087],[130.2436,32.3992],[130.2404,32.3934],[130.2339,32.3869],[130.2344,32.3849],[130.2445,32.3845],[130.2526,32.3879],[130.2532,32.3938],[130.2572,32.3977],[130.2609,32.404],[130.2627,32.4107],[130.2704,32.4116],[130.2776,32.4064],[130.2787,32.4026],[130.2878,32.3975],[130.2915,32.4011],[130.2988,32.3994],[130.3093,32.3951],[130.3238,32.3987],[130.3286,32.3986],[130.3347,32.4034],[130.3396,32.4046],[130.3462,32.4121],[130.346,32.4172],[130.3503,32.4166],[130.3545,32.4066],[130.3516,32.4041]]],[[[130.2294,32.3664],[130.2321,32.3652],[130.2364,32.368],[130.2354,32.3812],[130.2301,32.3772],[130.2284,32.3704],[130.2294,32.3664]]]]}},{"type":"Feature","properties":{"id":43002},"geometry":{"type":"Polygon","coordinates":[[[130.4008,33.0064],[130.3958,33.0044],[130.3979,33.0003],[130.4127,33.0037],[130.4145,33.0023],[130.4143,32.9963],[130.4181,32.9927],[130.4253,32.9943],[130.4272,32.988],[130.4302,32.9839],[130.4299,32.9803],[130.4322,32.9581],[130.4385,32.9404],[130.4465,32.9418],[130.4683,32.9419],[130.4734,32.9436],[130.4807,32.9503],[130.4927,32.9505],[130.4984,32.9487],[130.5037,32.944],[130.506,32.9378],[130.5148,32.9456],[130.521,32.949],[130.5264,32.9549],[130.5293,32.9604],[130.5346,32.9674],[130.5337,32.9746],[130.5318,32.9795],[130.5292,32.9863],[130.5148,33.0116],[130.5093,33.0031],[130.4826,33],[130.4694,32.9994],[130.4008,33.0064]]]}},{"type":"Feature","properties":{"id":43003},"geometry":{"type":"Polygon","coordinates":[[[130.9061,32.1265],[130.9114,32.1272],[130.9246,32.1202],[130.9352,32.1125],[130.9449,32.1153],[130.9544,32.112],[130.9637,32.1166],[130.9695,32.1171],[130.9745,32.1176],[130.9758,32.1281],[130.9812,32.1368],[130.9912,32.142],[130.9921,32.1435],[130.9853,32.1575],[130.9841,32.1634],[130.984,32.1711],[130.9856,32.1767],[130.9854,32.1822],[130.9869,32.1961],[130.9862,32.203],[130.9843,32.2063],[130.9762,32.2131],[130.9649,32.2202],[130.9429,32.2382],[130.9283,32.2457],[130.92,32.2469],[130.9178,32.2496],[130.9171,32.2552],[130.918,32.2674],[130.9169,32.2818],[130.899,32.313],[130.8907,32.3219],[130.8787,32.3108],[130.8779,32.3046],[130.8774,32.287],[130.8753,32.2841],[130.8631,32.2789],[130.8586,32.2761],[130.8556,32.2686],[130.8561,32.2638],[130.8541,32.2522],[130.8536,32.2446],[130.8611,32.2339],[130.8639,32.2318],[130.8688,32.2238],[130.8795,32.2208],[130.8811,32.2182],[130.8739,32.21],[130.8747,32.2035],[130.8838,32.1977],[130.8859,32.1946],[130.8864,32.1748],[130.8914,32.1692],[130.9009,32.1538],[130.9025,32.15],[130.899,32.1406],[130.9005,32.1341],[130.9061,32.1265]]]}},{"type":"Feature","properties":{"id":43004},"geometry":{"type":"Polygon","coordinates":[[[130.5812,32.1885],[130.5826,32.1963],[130.5828,32.2091],[130.5841,32.2158],[130.5847,32.2299],[130.5865,32.2393],[130.5999,32.2682],[130.5995,32.2717],[130.5941,32.285],[130.593,32.2901],[130.5934,32.3002],[130.5951,32.3072],[130.5948,32.3338],[130.5966,32.3376],[130.6099,32.3458],[130.6129,32.3486],[130.6295,32.3562],[130.6323,32.3592],[130.6363,32.3667],[130.6086,32.3737],[130.5932,32.3735],[130.5629,32.3756],[130.5528,32.3696],[130.5485,32.3691],[130.5399,32.3656],[130.5328,32.3657],[130.5256,32.372],[130.5268,32.3777],[130.5355,32.3907],[130.537,32.3972],[130.5371,32.4085],[130.5265,32.4007],[130.5188,32.3936],[130.5137,32.392],[130.5078,32.384],[130.4909,32.3683],[130.4861,32.36],[130.4962,32.3615],[130.4992,32.3572],[130.5021,32.3596],[130.5074,32.3565],[130.5059,32.3539],[130.4993,32.3513],[130.4961,32.3525],[130.4895,32.3468],[130.483,32.345],[130.4803,32.3408],[130.4804,32.334],[130.4839,32.3319],[130.4817,32.3278],[130.4772,32.3286],[130.4733,32.3314],[130.4692,32.3242],[130.4658,32.3214],[130.4707,32.3156],[130.4693,32.3128],[130.4728,32.3083],[130.4712,32.3058],[130.4717,32.3008],[130.481,32.3001],[130.4861,32.2969],[130.4821,32.2952],[130.4819,32.2924],[130.4781,32.2881],[130.4747,32.2892],[130.4671,32.2965],[130.4635,32.2917],[130.4672,32.2864],[130.4648,32.2776],[130.4636,32.2734],[130.4644,32.2656],[130.4636,32.2598],[130.4655,32.2484],[130.4689,32.2463],[130.4852,32.2421],[130.4906,32.2382],[130.491,32.2245],[130.4902,32.2136],[130.4859,32.2086],[130.473,32.2056],[130.4631,32.2026],[130.4741,32.1978],[130.493,32.1873],[130.5006,32.1821],[130.5171,32.181],[130.5285,32.1833],[130.5353,32.1859],[130.5453,32.1881],[130.5596,32.1892],[130.5668,32.1882],[130.5812,32.1885]]]}},{"type":"Feature","properties":{"id":43005},"geometry":{"type":"Polygon","coordinates":[[[130.9636,32.9449],[130.9674,32.9257],[130.966,32.9064],[130.964,32.8959],[130.9771,32.8986],[130.9871,32.9025],[130.9971,32.9049],[131.0038,32.9048],[131.0175,32.9006],[131.026,32.8956],[131.034,32.8923],[131.0449,32.8838],[131.0502,32.8787],[131.0573,32.8762],[131.0709,32.8754],[131.0849,32.872],[131.0921,32.869],[131.0948,32.8797],[131.0976,32.8823],[131.1032,32.8832],[131.1209,32.8836],[131.1317,32.8815],[131.1526,32.88],[131.1595,32.8786],[131.1801,32.8727],[131.1848,32.8722],[131.2011,32.8793],[131.213,32.8824],[131.2461,32.8971],[131.2547,32.9036],[131.2565,32.8991],[131.2553,32.9216],[131.25,32.9301],[131.25,32.9509],[131.2328,32.9557],[131.2161,32.9627],[131.2071,32.9637],[131.1971,32.9633],[131.1904,32.9665],[131.1753,32.9918],[131.1719,33.0012],[131.1693,33.0039],[131.158,33.0076],[131.1528,33.0103],[131.1549,33.0175],[131.1637,33.0269],[131.1401,33.0337],[131.1239,33.0398],[131.1203,33.0382],[131.1158,33.0295],[131.1051,33.0245],[131.0962,33.0268],[131.09,33.0325],[131.086,33.0336],[131.0762,33.0312],[131.0651,33.0274],[131.0506,33.0201],[131.0434,33.0157],[131.03,33.0145],[131.0147,33.0166],[130.9967,33.022],[131.0021,33.027],[130.9917,33.0202],[130.9724,33.0204],[130.9714,33.0216],[130.9702,33.0134],[130.9642,32.9973],[130.9587,32.9761],[130.9528,32.9596],[130.9537,32.9545],[130.9636,32.9449]]]}},{"type":"Feature","properties":{"id":43006},"geometry":{"type":"Polygon","coordinates":[[[130.6442,32.8676],[130.6492,32.8811],[130.65,32.886],[130.6465,32.903],[130.6465,32.9186],[130.6484,32.9287],[130.643,32.9392],[130.6378,32.9435],[130.6281,32.9445],[130.6224,32.9297],[130.6173,32.9238],[130.6145,32.915],[130.621,32.9031],[130.6199,32.8989],[130.6134,32.8824],[130.613,32.878],[130.6235,32.8598],[130.628,32.8547],[130.6322,32.8585],[130.638,32.8616],[130.6442,32.8676]]]}},{"type":"Feature","properties":{"id":43007},"geometry":{"type":"Polygon","coordinates":[[[130.6534,32.6138],[130.641,32.6234],[130.6389,32.6238],[130.6229,32.622],[130.6173,32.6173],[130.6292,32.6067],[130.6455,32.594],[130.6488,32.5891],[130.6556,32.5852],[130.6553,32.5822],[130.6745,32.5715],[130.6756,32.5684],[130.6691,32.5603],[130.6604,32.5516],[130.6622,32.5477],[130.6734,32.5455],[130.675,32.5425],[130.6737,32.5343],[130.6746,32.5281],[130.6821,32.5256],[130.7046,32.5351],[130.7086,32.5373],[130.7109,32.5417],[130.7193,32.5644],[130.6999,32.5804],[130.696,32.5872],[130.6939,32.5939],[130.6843,32.6045],[130.6786,32.607],[130.6534,32.6138]]]}},{"type":"Feature","properties":{"id":43008},"geometry":{"type":"Polygon","coordinates":[[[130.7302,32.0986],[130.74,32.103],[130.75,32.0999],[130.7674,32.0972],[130.7789,32.0972],[130.7899,32.0956],[130.8112,32.0955],[130.8218,32.0915],[130.8292,32.0992],[130.8392,32.1032],[130.8508,32.1006],[130.8605,32.0964],[130.8796,32.1168],[130.8684,32.1266],[130.8627,32.1289],[130.8513,32.1273],[130.8461,32.1288],[130.8416,32.1337],[130.8353,32.1358],[130.8274,32.1362],[130.8243,32.1398],[130.8174,32.1524],[130.8141,32.173],[130.8098,32.1768],[130.7999,32.1808],[130.7913,32.188],[130.784,32.1966],[130.7854,32.2072],[130.7884,32.2172],[130.7903,32.2298],[130.7699,32.2255],[130.7634,32.2256],[130.7599,32.2276],[130.7574,32.2316],[130.7548,32.2393],[130.7464,32.2487],[130.7388,32.2615],[130.7322,32.2751],[130.7299,32.2825],[130.7221,32.2902],[130.7193,32.2949],[130.7166,32.2894],[130.7168,32.2742],[130.7288,32.2535],[130.7296,32.2482],[130.7208,32.2382],[130.7178,32.2336],[130.7124,32.2286],[130.7064,32.2256],[130.6949,32.2175],[130.6852,32.2092],[130.6805,32.2025],[130.6734,32.1856],[130.6698,32.181],[130.6592,32.1616],[130.6487,32.1508],[130.649,32.1485],[130.6539,32.1479],[130.6571,32.1331],[130.6669,32.1266],[130.6872,32.1148],[130.6952,32.1086],[130.7045,32.1026],[130.7144,32.1005],[130.7302,32.0986]]]}},{"type":"Feature","properties":{"id":43009},"geometry":{"type":"Polygon","coordinates":[[[130.9386,32.4404],[130.9273,32.4414],[130.9181,32.4433],[130.9046,32.4443],[130.9014,32.4462],[130.8976,32.4654],[130.8956,32.4707],[130.888,32.4799],[130.8802,32.4872],[130.8733,32.4901],[130.8544,32.4952],[130.8273,32.4972],[130.8153,32.4964],[130.8031,32.4963],[130.7983,32.4942],[130.7834,32.482],[130.7792,32.4795],[130.7674,32.4762],[130.7458,32.4735],[130.7417,32.469],[130.7423,32.4607],[130.7402,32.4572],[130.7296,32.4544],[130.7242,32.4507],[130.7259,32.4346],[130.7259,32.4148],[130.7295,32.4085],[130.7398,32.3981],[130.7377,32.3935],[130.7328,32.3891],[130.7493,32.3871],[130.7649,32.386],[130.7744,32.3832],[130.7795,32.3769],[130.7799,32.3691],[130.795,32.3734],[130.8074,32.3739],[130.8153,32.3718],[130.8277,32.3643],[130.833,32.3563],[130.8393,32.3493],[130.8463,32.3436],[130.8537,32.343],[130.8588,32.3448],[130.8689,32.3469],[130.8785,32.3508],[130.8864,32.3519],[130.8958,32.3495],[130.9011,32.3469],[130.9092,32.3495],[130.9264,32.3524],[130.9333,32.3518],[130.9467,32.3544],[130.9494,32.3595],[130.9567,32.3777],[130.9661,32.3925],[130.9644,32.4039],[130.9624,32.4071],[130.9457,32.4213],[130.9443,32.4296],[130.9386,32.4404]]]}},{"type":"Feature","properties":{"id":43010},"geometry":{"type":"Polygon","coordinates":[[[130.7147,32.7426],[130.7046,32.7418],[130.704,32.7257],[130.7085,32.7188],[130.7179,32.7148],[130.721,32.7118],[130.7235,32.7015],[130.7197,32.6937],[130.7119,32.6888],[130.7203,32.6799],[130.7262,32.6725],[130.7361,32.6641],[130.7385,32.6635],[130.7518,32.6689],[130.7692,32.6654],[130.7739,32.6659],[130.7861,32.6635],[130.7816,32.6777],[130.7777,32.6824],[130.7735,32.6854],[130.7702,32.6898],[130.761,32.6986],[130.7569,32.7055],[130.7566,32.7098],[130.7601,32.7227],[130.7582,32.7318],[130.7505,32.7327],[130.7334,32.7372],[130.7203,32.7398],[130.7147,32.7426]]]}},{"type":"Feature","properties":{"id":43011},"geometry":{"type":"MultiPolygon","coordinates":[[[[130.3364,32.3844],[130.3392,32.385],[130.3464,32.3917],[130.3442,32.3925],[130.3364,32.3844]]],[[[130.394,32.4957],[130.3841,32.487],[130.3746,32.4814],[130.3553,32.4812],[130.3496,32.4795],[130.3383,32.4669],[130.3356,32.4621],[130.3361,32.4583],[130.3439,32.4488],[130.3496,32.4463],[130.3643,32.4422],[130.3716,32.4409],[130.3782,32.441],[130.3795,32.4389],[130.3771,32.4272],[130.3772,32.4217],[130.3758,32.4137],[130.3732,32.4102],[130.3581,32.4053],[130.3516,32.4041],[130.3469,32.3975],[130.3482,32.3915],[130.3536,32.3858],[130.3515,32.3826],[130.3559,32.3766],[130.362,32.3812],[130.3617,32.3835],[130.3655,32.3887],[130.375,32.3887],[130.3822,32.3836],[130.383,32.3868],[130.3898,32.3906],[130.395,32.3953],[130.4014,32.3953],[130.4007,32.398],[130.4065,32.4089],[130.4114,32.4144],[130.4037,32.4233],[130.4119,32.4212],[130.4163,32.4229],[130.4188,32.4282],[130.4236,32.4317],[130.4094,32.4349],[130.412,32.439],[130.4156,32.4402],[130.4162,32.4471],[130.4196,32.4503],[130.4287,32.4549],[130.432,32.4637],[130.4375,32.4691],[130.4353,32.4742],[130.4375,32.4851],[130.4401,32.4896],[130.4492,32.5017],[130.4524,32.5072],[130.4528,32.5122],[130.4571,32.5157],[130.4596,32.5221],[130.4577,32.5263],[130.4526,32.5237],[130.4469,32.5235],[130.4433,32.5287],[130.4342,32.5256],[130.4292,32.5185],[130.4241,32.5201],[130.4183,32.5242],[130.3985,32.5076],[130.3944,32.4994],[130.394,32.4957]]],[[[130.4275,32.3798],[130.4247,32.3814],[130.426,32.3875],[130.4222,32.3941],[130.4145,32.3993],[130.4091,32.395],[130.4076,32.3914],[130.4104,32.3831],[130.4183,32.38],[130.4189,32.3769],[130.416,32.3693],[130.4213,32.3678],[130.4228,32.3711],[130.4319,32.3789],[130.4275,32.3798]]],[[[130.4319,32.5272],[130.4286,32.5306],[130.4222,32.5244],[130.4286,32.5203],[130.4319,32.5272]]],[[[130.4367,32.5296],[130.4322,32.5342],[130.43,32.5303],[130.433,32.5276],[130.4367,32.5296]]],[[[130.3923,32.5855],[130.3864,32.5873],[130.3801,32.5816],[130.3853,32.5793],[130.3925,32.5835],[130.3923,32.5855]]],[[[130.4376,32.5312],[130.4412,32.5353],[130.4386,32.5386],[130.4353,32.5328],[130.4376,32.5312]]],[[[130.4756,32.5875],[130.4685,32.5865],[130.4627,32.5804],[130.4597,32.5733],[130.4616,32.5692],[130.4619,32.5618],[130.4595,32.5583],[130.4638,32.5554],[130.4653,32.5522],[130.4648,32.546],[130.4625,32.5414],[130.4646,32.5396],[130.4693,32.544],[130.4715,32.5513],[130.4861,32.5678],[130.4871,32.572],[130.4802,32.5812],[130.4748,32.586],[130.4756,32.5875]]],[[[130.4206,32.5433],[130.4116,32.5477],[130.4022,32.5447],[130.3956,32.54],[130.3989,32.5369],[130.4044,32.5358],[130.4083,32.5392],[130.4067,32.5425],[130.4097,32.5441],[130.4135,32.5371],[130.4242,32.5386],[130.4292,32.5411],[130.4283,32.5442],[130.4206,32.5433]]],[[[130.4458,32.6244],[130.4397,32.6256],[130.435,32.6214],[130.4353,32.6194],[130.4275,32.6144],[130.4256,32.6183],[130.4192,32.6167],[130.4183,32.6142],[130.4197,32.6075],[130.4164,32.6058],[130.4139,32.6131],[130.4083,32.6117],[130.4122,32.6067],[130.4064,32.6003],[130.395,32.5917],[130.3936,32.5864],[130.3989,32.5819],[130.4078,32.5825],[130.4144,32.5817],[130.4189,32.5769],[130.4172,32.5728],[130.4139,32.5728],[130.4139,32.5681],[130.4083,32.5689],[130.4064,32.5592],[130.4025,32.5536],[130.4047,32.5508],[130.4131,32.5497],[130.4156,32.5506],[130.4233,32.5442],[130.4275,32.5481],[130.4314,32.5469],[130.4392,32.5478],[130.4406,32.5531],[130.4428,32.5536],[130.4475,32.5497],[130.4525,32.5525],[130.4508,32.5567],[130.4514,32.5633],[130.4503,32.5672],[130.4464,32.5694],[130.452,32.5758],[130.4592,32.5872],[130.4517,32.5936],[130.4469,32.5919],[130.445,32.5989],[130.4481,32.6031],[130.4585,32.6115],[130.4574,32.6151],[130.4503,32.6175],[130.4458,32.6244]]]]}},{"type":"Feature","properties":{"id":43012},"geometry":{"type":"Polygon","coordinates":[[[130.7582,32.7318],[130.7615,32.7341],[130.7735,32.7372],[130.7846,32.742],[130.7994,32.753],[130.7934,32.7591],[130.7836,32.765],[130.768,32.7637],[130.7601,32.7604],[130.7523,32.7533],[130.7327,32.7487],[130.7283,32.7484],[130.7175,32.7453],[130.7147,32.7426],[130.7203,32.7398],[130.7334,32.7372],[130.7505,32.7327],[130.7582,32.7318]]]}},{"type":"Feature","properties":{"id":43013},"geometry":{"type":"Polygon","coordinates":[[[130.9714,33.0216],[130.9648,33.0293],[130.961,33.0388],[130.952,33.0475],[130.9418,33.0489],[130.9311,33.0489],[130.9202,33.0498],[130.9135,33.0585],[130.9026,33.0608],[130.8959,33.0708],[130.8895,33.0833],[130.875,33.0889],[130.8646,33.0919],[130.8507,33.0911],[130.845,33.0753],[130.8423,33.07],[130.8327,33.0618],[130.825,33.0596],[130.8229,33.056],[130.8216,33.0461],[130.8101,33.0159],[130.8078,33.0121],[130.801,33.0107],[130.7826,33.0097],[130.7786,33.0074],[130.7732,32.9955],[130.7697,32.9908],[130.7597,32.9821],[130.7535,32.9777],[130.7424,32.9678],[130.737,32.9651],[130.7348,32.958],[130.7332,32.9492],[130.7307,32.9256],[130.7595,32.9176],[130.776,32.9162],[130.7811,32.9148],[130.7934,32.9083],[130.7973,32.9078],[130.8036,32.9099],[130.8117,32.9094],[130.833,32.9031],[130.8306,32.9119],[130.8292,32.9259],[130.832,32.9281],[130.8432,32.9237],[130.8531,32.919],[130.8585,32.9188],[130.8755,32.9259],[130.8925,32.9279],[130.8987,32.9302],[130.9081,32.9323],[130.9157,32.9317],[130.9307,32.9328],[130.9372,32.9372],[130.9444,32.9405],[130.9488,32.9408],[130.9636,32.9449],[130.9537,32.9545],[130.9528,32.9596],[130.9587,32.9761],[130.9642,32.9973],[130.9702,33.0134],[130.9714,33.0216]]]}},{"type":"Feature","properties":{"id":43014},"geometry":{"type":"Polygon","coordinates":[[[130.9636,32.9449],[130.9488,32.9408],[130.9444,32.9405],[130.9372,32.9372],[130.9307,32.9328],[130.9157,32.9317],[130.9081,32.9323],[130.8987,32.9302],[130.8925,32.9279],[130.8755,32.9259],[130.8585,32.9188],[130.8531,32.919],[130.8432,32.9237],[130.832,32.9281],[130.8292,32.9259],[130.8306,32.9119],[130.833,32.9031],[130.8388,32.8935],[130.845,32.8885],[130.8527,32.8806],[130.855,32.877],[130.8575,32.8685],[130.8587,32.8593],[130.8646,32.8508],[130.8741,32.8501],[130.8893,32.8462],[130.8957,32.8464],[130.9004,32.8499],[130.8996,32.857],[130.9019,32.8643],[130.9064,32.8659],[130.9161,32.8641],[130.9282,32.8667],[130.9233,32.877],[130.9273,32.8816],[130.9419,32.8877],[130.964,32.8959],[130.966,32.9064],[130.9674,32.9257],[130.9636,32.9449]]]}},{"type":"Feature","properties":{"id":43015},"geometry":{"type":"Polygon","coordinates":[[[130.7861,32.6635],[130.7951,32.6601],[130.805,32.6538],[130.8188,32.6305],[130.8246,32.6277],[130.8293,32.6274],[130.8415,32.6309],[130.8526,32.6408],[130.8638,32.644],[130.8729,32.6537],[130.8797,32.6666],[130.8715,32.6803],[130.8583,32.6912],[130.853,32.6936],[130.8412,32.6969],[130.8354,32.6976],[130.8271,32.6963],[130.8205,32.6974],[130.8112,32.7036],[130.8065,32.7041],[130.8012,32.6964],[130.7975,32.6959],[130.7934,32.6981],[130.7883,32.7133],[130.7832,32.7169],[130.7672,32.7213],[130.7601,32.7227],[130.7566,32.7098],[130.7569,32.7055],[130.761,32.6986],[130.7702,32.6898],[130.7735,32.6854],[130.7777,32.6824],[130.7816,32.6777],[130.7861,32.6635]]]}},{"type":"Feature","properties":{"id":43016},"geometry":{"type":"Polygon","coordinates":[[[130.7307,32.9256],[130.7287,32.9156],[130.7241,32.9023],[130.7233,32.893],[130.7313,32.8777],[130.7279,32.8665],[130.7287,32.863],[130.7319,32.8615],[130.7451,32.8594],[130.7577,32.8604],[130.7639,32.8656],[130.7672,32.8667],[130.7821,32.8645],[130.7879,32.8656],[130.795,32.8696],[130.7984,32.8761],[130.803,32.8806],[130.8068,32.8823],[130.8366,32.886],[130.845,32.8885],[130.8388,32.8935],[130.833,32.9031],[130.8117,32.9094],[130.8036,32.9099],[130.7973,32.9078],[130.7934,32.9083],[130.7811,32.9148],[130.776,32.9162],[130.7595,32.9176],[130.7307,32.9256]]]}},{"type":"Feature","properties":{"id":43017},"geometry":{"type":"Polygon","coordinates":[[[130.649,32.1485],[130.6487,32.1508],[130.6592,32.1616],[130.6698,32.181],[130.6734,32.1856],[130.6805,32.2025],[130.6852,32.2092],[130.6949,32.2175],[130.7064,32.2256],[130.7124,32.2286],[130.7178,32.2336],[130.7208,32.2382],[130.7296,32.2482],[130.7288,32.2535],[130.7168,32.2742],[130.7166,32.2894],[130.7193,32.2949],[130.7166,32.2982],[130.7147,32.3045],[130.7105,32.3125],[130.7081,32.3198],[130.7031,32.3248],[130.6968,32.3346],[130.6788,32.3383],[130.6732,32.341],[130.6671,32.3481],[130.6622,32.3635],[130.659,32.37],[130.6552,32.3721],[130.6419,32.3693],[130.6363,32.3667],[130.6323,32.3592],[130.6295,32.3562],[130.6129,32.3486],[130.6099,32.3458],[130.5966,32.3376],[130.5948,32.3338],[130.5951,32.3072],[130.5934,32.3002],[130.593,32.2901],[130.5941,32.285],[130.5995,32.2717],[130.5999,32.2682],[130.5865,32.2393],[130.5847,32.2299],[130.5841,32.2158],[130.5828,32.2091],[130.5826,32.1963],[130.5812,32.1885],[130.5937,32.1793],[130.5939,32.1826],[130.6049,32.1839],[130.6147,32.1791],[130.6185,32.168],[130.625,32.1533],[130.6424,32.1493],[130.649,32.1485]]]}},{"type":"Feature","properties":{"id":43018},"geometry":{"type":"Polygon","coordinates":[[[130.628,32.8547],[130.6204,32.8473],[130.6122,32.8445],[130.598,32.8444],[130.5852,32.8477],[130.5755,32.8512],[130.5742,32.8528],[130.5729,32.8469],[130.5806,32.8411],[130.5785,32.8382],[130.5807,32.8329],[130.5787,32.8287],[130.5828,32.8262],[130.5886,32.8266],[130.5929,32.8225],[130.5936,32.8169],[130.5923,32.8133],[130.5966,32.81],[130.6001,32.8107],[130.6048,32.8054],[130.604,32.801],[130.6124,32.7957],[130.606,32.7891],[130.6036,32.7822],[130.6111,32.7794],[130.5989,32.7783],[130.5978,32.774],[130.6002,32.769],[130.5986,32.7658],[130.603,32.7582],[130.6023,32.7531],[130.6048,32.7505],[130.6069,32.743],[130.6037,32.7324],[130.6052,32.724],[130.6008,32.7155],[130.6088,32.7181],[130.6304,32.7113],[130.6371,32.7111],[130.6405,32.7147],[130.6503,32.7275],[130.6559,32.7304],[130.6727,32.7326],[130.6815,32.7312],[130.6875,32.7327],[130.6975,32.7388],[130.7046,32.7418],[130.7147,32.7426],[130.7175,32.7453],[130.7283,32.7484],[130.7327,32.7487],[130.7523,32.7533],[130.7601,32.7604],[130.768,32.7637],[130.7836,32.765],[130.7932,32.7722],[130.7952,32.777],[130.7881,32.7855],[130.7864,32.7904],[130.785,32.8016],[130.7874,32.8053],[130.8019,32.8052],[130.8101,32.8078],[130.8163,32.8123],[130.8283,32.8178],[130.8332,32.8235],[130.8364,32.8302],[130.8211,32.8383],[130.8161,32.8426],[130.8126,32.8475],[130.8081,32.8513],[130.8025,32.8535],[130.7878,32.857],[130.7785,32.8573],[130.7704,32.8549],[130.7663,32.8548],[130.7577,32.8604],[130.7451,32.8594],[130.7319,32.8615],[130.7287,32.863],[130.7279,32.8665],[130.7313,32.8777],[130.7233,32.893],[130.7091,32.892],[130.7034,32.888],[130.6951,32.8756],[130.6903,32.8722],[130.6759,32.8684],[130.6633,32.8668],[130.6545,32.8665],[130.6442,32.8676],[130.638,32.8616],[130.6322,32.8585],[130.628,32.8547]]]}},{"type":"Feature","properties":{"id":43019},"geometry":{"type":"Polygon","coordinates":[[[130.7994,32.753],[130.8081,32.7471],[130.8138,32.7414],[130.8259,32.734],[130.8295,32.734],[130.8355,32.7401],[130.8378,32.7463],[130.8373,32.7548],[130.8398,32.7619],[130.843,32.7655],[130.8515,32.769],[130.8636,32.7692],[130.8768,32.7703],[130.8843,32.774],[130.8927,32.7834],[130.8837,32.7961],[130.8785,32.8022],[130.8784,32.8067],[130.8815,32.8168],[130.8815,32.8285],[130.8776,32.8363],[130.8703,32.8347],[130.864,32.8355],[130.8518,32.8337],[130.8462,32.8316],[130.8364,32.8302],[130.8332,32.8235],[130.8283,32.8178],[130.8163,32.8123],[130.8101,32.8078],[130.8019,32.8052],[130.7874,32.8053],[130.785,32.8016],[130.7864,32.7904],[130.7881,32.7855],[130.7952,32.777],[130.7932,32.7722],[130.7836,32.765],[130.7934,32.7591],[130.7994,32.753]]]}},{"type":"Feature","properties":{"id":43020},"geometry":{"type":"Polygon","coordinates":[[[130.7601,32.7227],[130.7672,32.7213],[130.7832,32.7169],[130.7883,32.7133],[130.7934,32.6981],[130.7975,32.6959],[130.8012,32.6964],[130.8065,32.7041],[130.8112,32.7036],[130.8205,32.6974],[130.8271,32.6963],[130.8354,32.6976],[130.8412,32.6969],[130.853,32.6936],[130.8583,32.6912],[130.8715,32.6803],[130.8797,32.6666],[130.8948,32.6679],[130.8976,32.6827],[130.8974,32.698],[130.8936,32.7126],[130.8897,32.72],[130.8898,32.7237],[130.8975,32.7387],[130.9015,32.7449],[130.9066,32.7503],[130.9415,32.7656],[130.9497,32.7707],[130.9695,32.7886],[130.9565,32.7933],[130.9507,32.7931],[130.9407,32.7867],[130.9297,32.7821],[130.9229,32.7821],[130.9096,32.7841],[130.8927,32.7834],[130.8843,32.774],[130.8768,32.7703],[130.8636,32.7692],[130.8515,32.769],[130.843,32.7655],[130.8398,32.7619],[130.8373,32.7548],[130.8378,32.7463],[130.8355,32.7401],[130.8295,32.734],[130.8259,32.734],[130.8138,32.7414],[130.8081,32.7471],[130.7994,32.753],[130.7846,32.742],[130.7735,32.7372],[130.7615,32.7341],[130.7582,32.7318],[130.7601,32.7227]]]}},{"type":"Feature","properties":{"id":43021},"geometry":{"type":"MultiPolygon","coordinates":[[[[130.3618,32.1546],[130.3662,32.1567],[130.375,32.1549],[130.3891,32.1435],[130.3931,32.1335],[130.4002,32.1258],[130.4052,32.1168],[130.4264,32.1139],[130.4369,32.1112],[130.4477,32.1127],[130.4582,32.11],[130.4676,32.1162],[130.4784,32.1183],[130.4785,32.1223],[130.4786,32.1292],[130.4887,32.134],[130.4994,32.1323],[130.5105,32.1373],[130.5201,32.1323],[130.5311,32.1334],[130.5419,32.136],[130.546,32.1464],[130.5565,32.1493],[130.567,32.1512],[130.5773,32.1512],[130.5868,32.1565],[130.5928,32.1666],[130.5937,32.1793],[130.5812,32.1885],[130.5668,32.1882],[130.5596,32.1892],[130.5453,32.1881],[130.5353,32.1859],[130.5285,32.1833],[130.5171,32.181],[130.5006,32.1821],[130.493,32.1873],[130.4741,32.1978],[130.4631,32.2026],[130.4435,32.2059],[130.4387,32.2085],[130.4326,32.2254],[130.4332,32.2294],[130.4311,32.2328],[130.4222,32.2383],[130.4194,32.235],[130.4148,32.2332],[130.4024,32.235],[130.4002,32.2311],[130.3941,32.2259],[130.3844,32.2152],[130.3775,32.2114],[130.3819,32.2094],[130.3778,32.2057],[130.3736,32.2052],[130.3708,32.2011],[130.3793,32.1936],[130.3781,32.1894],[130.3742,32.1844],[130.3684,32.1817],[130.3642,32.1836],[130.3599,32.1809],[130.3652,32.1781],[130.359,32.1677],[130.3577,32.1619],[130.3618,32.1546]]],[[[130.3675,32.1999],[130.3656,32.2007],[130.3603,32.1967],[130.3642,32.1945],[130.3675,32.1999]]]]}},{"type":"Feature","properties":{"id":43022},"geometry":{"type":"Polygon","coordinates":[[[130.964,32.8959],[130.9419,32.8877],[130.9273,32.8816],[130.9233,32.877],[130.9282,32.8667],[130.9388,32.8681],[130.9507,32.8711],[130.9622,32.8712],[130.9845,32.8649],[130.986,32.8619],[130.982,32.854],[130.9811,32.85],[130.9828,32.8402],[130.9809,32.8259],[130.9819,32.8195],[130.9862,32.8129],[130.9993,32.7983],[131.0119,32.7898],[131.0185,32.7873],[131.0262,32.7865],[131.0355,32.7876],[131.0538,32.7872],[131.0585,32.7877],[131.0683,32.7917],[131.08,32.7935],[131.0854,32.7935],[131.1008,32.7911],[131.1207,32.7911],[131.1263,32.7923],[131.121,32.8042],[131.1206,32.8079],[131.1153,32.8251],[131.1101,32.8384],[131.109,32.8472],[131.1034,32.857],[131.1002,32.8595],[131.0921,32.869],[131.0849,32.872],[131.0709,32.8754],[131.0573,32.8762],[131.0502,32.8787],[131.0449,32.8838],[131.034,32.8923],[131.026,32.8956],[131.0175,32.9006],[131.0038,32.9048],[130.9971,32.9049],[130.9871,32.9025],[130.9771,32.8986],[130.964,32.8959]]]}},{"type":"Feature","properties":{"id":43023},"geometry":{"type":"Polygon","coordinates":[[[131.1637,33.0269],[131.1736,33.0423],[131.1877,33.0547],[131.1965,33.0613],[131.2029,33.0648],[131.1964,33.0735],[131.1849,33.0737],[131.1756,33.0833],[131.1754,33.0936],[131.1521,33.0935],[131.1171,33.0887],[131.0964,33.0904],[131.092,33.0916],[131.088,33.0947],[131.0838,33.1021],[131.0808,33.1044],[131.0743,33.1048],[131.0608,33.0992],[131.056,33.1004],[131.0497,33.1048],[131.0459,33.1047],[131.0392,33.1011],[131.0289,33.091],[131.0226,33.0871],[131.0256,33.0833],[131.0168,33.0763],[131.0133,33.0666],[131.0182,33.0572],[131.0165,33.047],[131.0041,33.0283],[131.0021,33.027],[130.9967,33.022],[131.0147,33.0166],[131.03,33.0145],[131.0434,33.0157],[131.0506,33.0201],[131.0651,33.0274],[131.0762,33.0312],[131.086,33.0336],[131.09,33.0325],[131.0962,33.0268],[131.1051,33.0245],[131.1158,33.0295],[131.1203,33.0382],[131.1239,33.0398],[131.1401,33.0337],[131.1637,33.0269]]]}},{"type":"Feature","properties":{"id":43024},"geometry":{"type":"Polygon","coordinates":[[[130.7861,32.6635],[130.7822,32.6517],[130.7813,32.6452],[130.7851,32.6264],[130.785,32.5995],[130.7902,32.5932],[130.7986,32.5793],[130.8081,32.5712],[130.8254,32.5658],[130.8319,32.5649],[130.8431,32.5684],[130.8531,32.5706],[130.8716,32.573],[130.878,32.5725],[130.9035,32.5758],[130.9146,32.584],[130.9208,32.5833],[130.9295,32.5764],[130.9335,32.5752],[130.9503,32.5785],[130.9609,32.5832],[130.9635,32.5871],[130.97,32.601],[130.9716,32.6076],[130.9695,32.6137],[130.9574,32.6233],[130.9546,32.6277],[130.9582,32.6356],[130.9622,32.6387],[130.9804,32.6404],[130.9829,32.6428],[130.9821,32.6467],[130.9656,32.6516],[130.9199,32.6643],[130.8948,32.6679],[130.8797,32.6666],[130.8729,32.6537],[130.8638,32.644],[130.8526,32.6408],[130.8415,32.6309],[130.8293,32.6274],[130.8246,32.6277],[130.8188,32.6305],[130.805,32.6538],[130.7951,32.6601],[130.7861,32.6635]]]}},{"type":"Feature","properties":{"id":43025},"geometry":{"type":"Polygon","coordinates":[[[130.9467,32.3544],[130.9508,32.3415],[130.9653,32.3166],[130.9692,32.3127],[130.9774,32.3069],[130.9799,32.3034],[130.9809,32.2983],[130.98,32.2918],[130.9835,32.2831],[130.9866,32.2858],[130.9939,32.2889],[131.0024,32.2911],[131.0069,32.2951],[131.0113,32.3017],[131.0145,32.3094],[131.0195,32.3111],[131.0261,32.3062],[131.0313,32.298],[131.0424,32.2943],[131.0494,32.289],[131.054,32.2806],[131.0731,32.2768],[131.0825,32.2817],[131.0901,32.2897],[131.1037,32.3083],[131.1061,32.3138],[131.1078,32.3177],[131.1143,32.3262],[131.105,32.3387],[131.0963,32.3471],[131.0862,32.3496],[131.0756,32.3554],[131.0782,32.3654],[131.0777,32.3755],[131.0716,32.385],[131.0724,32.396],[131.0661,32.4047],[131.0536,32.4048],[131.0437,32.4087],[131.0345,32.4201],[131.0223,32.4379],[131.0187,32.4479],[131.0182,32.4552],[131.0094,32.4538],[131.0038,32.4517],[130.9905,32.45],[130.984,32.4511],[130.9661,32.4508],[130.9609,32.4494],[130.9463,32.443],[130.9386,32.4404],[130.9443,32.4296],[130.9457,32.4213],[130.9624,32.4071],[130.9644,32.4039],[130.9661,32.3925],[130.9567,32.3777],[130.9494,32.3595],[130.9467,32.3544]]]}},{"type":"Feature","properties":{"id":43026},"geometry":{"type":"Polygon","coordinates":[[[130.4385,32.9404],[130.44,32.9326],[130.4422,32.9273],[130.4405,32.9201],[130.4432,32.9147],[130.4516,32.9087],[130.4559,32.9099],[130.4586,32.9143],[130.4621,32.9114],[130.4569,32.9052],[130.4629,32.9013],[130.4653,32.9039],[130.4713,32.9009],[130.474,32.9026],[130.4759,32.9067],[130.4807,32.9113],[130.4928,32.9169],[130.5,32.925],[130.506,32.9378],[130.5037,32.944],[130.4984,32.9487],[130.4927,32.9505],[130.4807,32.9503],[130.4734,32.9436],[130.4683,32.9419],[130.4465,32.9418],[130.4385,32.9404]]]}},{"type":"Feature","properties":{"id":43027},"geometry":{"type":"Polygon","coordinates":[[[130.566,33.0898],[130.5675,33.0818],[130.5697,33.0776],[130.5746,33.0726],[130.5809,33.0617],[130.5863,33.0562],[130.5912,33.0486],[130.5945,33.0461],[130.6055,33.0275],[130.6076,33.0215],[130.5879,33.0032],[130.5881,32.9979],[130.5844,32.988],[130.5917,32.985],[130.5996,32.9799],[130.6025,32.9715],[130.6005,32.9608],[130.6015,32.9551],[130.6012,32.949],[130.6062,32.9451],[130.615,32.9466],[130.6281,32.9445],[130.6378,32.9435],[130.6405,32.9594],[130.6429,32.9643],[130.65,32.9676],[130.6506,32.9696],[130.6468,32.9749],[130.6523,32.9832],[130.6526,32.9857],[130.6499,33.0015],[130.6462,33.0082],[130.6429,33.0107],[130.6359,33.0223],[130.6458,33.0228],[130.6522,33.0268],[130.6546,33.0353],[130.6522,33.0412],[130.6449,33.045],[130.6378,33.0508],[130.6358,33.0616],[130.6366,33.0652],[130.644,33.0724],[130.6474,33.0776],[130.6529,33.083],[130.6591,33.0874],[130.6607,33.0932],[130.6535,33.1062],[130.6378,33.1084],[130.6251,33.1076],[130.6152,33.1053],[130.6053,33.1104],[130.593,33.1104],[130.5823,33.1127],[130.5735,33.1057],[130.5653,33.1013],[130.5641,33.1008],[130.566,33.0898]]]}},{"type":"Feature","properties":{"id":43028},"geometry":{"type":"Polygon","coordinates":[[[130.5391,33.0727],[130.5284,33.063],[130.5185,33.0609],[130.5083,33.0554],[130.5,33.0489],[130.5067,33.0325],[130.5097,33.0219],[130.5157,33.013],[130.5148,33.0116],[130.5292,32.9863],[130.5318,32.9795],[130.5388,32.9837],[130.5492,32.9882],[130.5567,32.9894],[130.5632,32.9875],[130.5675,32.9781],[130.5739,32.9717],[130.5787,32.9738],[130.5809,32.9773],[130.5844,32.988],[130.5881,32.9979],[130.5879,33.0032],[130.6076,33.0215],[130.6055,33.0275],[130.5945,33.0461],[130.5912,33.0486],[130.5863,33.0562],[130.5809,33.0617],[130.5746,33.0726],[130.5697,33.0776],[130.5675,33.0818],[130.566,33.0898],[130.5556,33.08],[130.5444,33.0783],[130.5391,33.0727]]]}},{"type":"Feature","properties":{"id":43029},"geometry":{"type":"Polygon","coordinates":[[[130.8646,32.8508],[130.8677,32.8466],[130.876,32.84],[130.8776,32.8363],[130.8815,32.8285],[130.8815,32.8168],[130.8784,32.8067],[130.8785,32.8022],[130.8837,32.7961],[130.8927,32.7834],[130.9096,32.7841],[130.9229,32.7821],[130.9297,32.7821],[130.9407,32.7867],[130.9507,32.7931],[130.9565,32.7933],[130.9695,32.7886],[130.975,32.7902],[130.9879,32.7957],[130.9993,32.7983],[130.9862,32.8129],[130.9819,32.8195],[130.9809,32.8259],[130.9828,32.8402],[130.9811,32.85],[130.982,32.854],[130.986,32.8619],[130.9845,32.8649],[130.9622,32.8712],[130.9507,32.8711],[130.9388,32.8681],[130.9282,32.8667],[130.9161,32.8641],[130.9064,32.8659],[130.9019,32.8643],[130.8996,32.857],[130.9004,32.8499],[130.8957,32.8464],[130.8893,32.8462],[130.8741,32.8501],[130.8646,32.8508]]]}},{"type":"Feature","properties":{"id":43030},"geometry":{"type":"Polygon","coordinates":[[[130.8536,32.2446],[130.8367,32.238],[130.8289,32.2361],[130.8196,32.2289],[130.8156,32.2197],[130.8176,32.2061],[130.8144,32.2023],[130.8104,32.2011],[130.7933,32.1993],[130.784,32.1966],[130.7913,32.188],[130.7999,32.1808],[130.8098,32.1768],[130.8141,32.173],[130.8174,32.1524],[130.8243,32.1398],[130.8274,32.1362],[130.8353,32.1358],[130.8416,32.1337],[130.8461,32.1288],[130.8513,32.1273],[130.8627,32.1289],[130.8684,32.1266],[130.8796,32.1168],[130.8911,32.1197],[130.9012,32.1258],[130.9061,32.1265],[130.9005,32.1341],[130.899,32.1406],[130.9025,32.15],[130.9009,32.1538],[130.8914,32.1692],[130.8864,32.1748],[130.8859,32.1946],[130.8838,32.1977],[130.8747,32.2035],[130.8739,32.21],[130.8811,32.2182],[130.8795,32.2208],[130.8688,32.2238],[130.8639,32.2318],[130.8611,32.2339],[130.8536,32.2446]]]}},{"type":"Feature","properties":{"id":43031},"geometry":{"type":"Polygon","coordinates":[[[131.1754,33.0936],[131.1752,33.101],[131.1682,33.1163],[131.1659,33.1332],[131.1579,33.1403],[131.1513,33.1489],[131.1419,33.155],[131.1343,33.1621],[131.1211,33.1666],[131.1136,33.1788],[131.1036,33.1843],[131.0831,33.1853],[131.074,33.1872],[131.0625,33.1917],[131.0416,33.1907],[131.0348,33.1832],[131.0227,33.1774],[130.9998,33.1774],[130.9898,33.1666],[130.9887,33.1488],[130.9833,33.135],[130.9965,33.1241],[131,33.1134],[131.0091,33.1051],[131.0226,33.0871],[131.0289,33.091],[131.0392,33.1011],[131.0459,33.1047],[131.0497,33.1048],[131.056,33.1004],[131.0608,33.0992],[131.0743,33.1048],[131.0808,33.1044],[131.0838,33.1021],[131.088,33.0947],[131.092,33.0916],[131.0964,33.0904],[131.1171,33.0887],[131.1521,33.0935],[131.1754,33.0936]]]}},{"type":"Feature","properties":{"id":43032},"geometry":{"type":"Polygon","coordinates":[[[130.845,32.8885],[130.8366,32.886],[130.8068,32.8823],[130.803,32.8806],[130.7984,32.8761],[130.795,32.8696],[130.7879,32.8656],[130.7821,32.8645],[130.7672,32.8667],[130.7639,32.8656],[130.7577,32.8604],[130.7663,32.8548],[130.7704,32.8549],[130.7785,32.8573],[130.7878,32.857],[130.8025,32.8535],[130.8081,32.8513],[130.8126,32.8475],[130.8161,32.8426],[130.8211,32.8383],[130.8364,32.8302],[130.8462,32.8316],[130.8518,32.8337],[130.864,32.8355],[130.8703,32.8347],[130.8776,32.8363],[130.876,32.84],[130.8677,32.8466],[130.8646,32.8508],[130.8587,32.8593],[130.8575,32.8685],[130.855,32.877],[130.8527,32.8806],[130.845,32.8885]]]}},{"type":"Feature","properties":{"id":43033},"geometry":{"type":"Polygon","coordinates":[[[130.1181,32.5449],[130.1148,32.541],[130.106,32.5387],[130.0938,32.5323],[130.0869,32.5264],[130.0733,32.5215],[130.0697,32.5215],[130.0656,32.5165],[130.0539,32.5154],[130.0494,32.516],[130.0464,32.5139],[130.0372,32.5187],[130.0346,32.5217],[130.0342,32.5266],[130.0365,32.5309],[130.0406,32.5314],[130.0374,32.5363],[130.0298,32.5385],[130.0203,32.5361],[130.0114,32.5293],[130.0141,32.5265],[130.0218,32.5236],[130.027,32.5198],[130.0302,32.5214],[130.0347,32.5174],[130.0316,32.5151],[130.036,32.5104],[130.04,32.5085],[130.0449,32.4993],[130.047,32.4931],[130.045,32.4892],[130.0398,32.4889],[130.0377,32.4839],[130.0414,32.4803],[130.0363,32.4711],[130.0361,32.4648],[130.0299,32.4579],[130.027,32.4563],[130.0224,32.4461],[130.0181,32.4401],[130.0139,32.4366],[130.0253,32.4374],[130.0334,32.4366],[130.0435,32.4375],[130.0515,32.4367],[130.0652,32.4371],[130.0813,32.4338],[130.0949,32.4282],[130.098,32.4328],[130.0852,32.4574],[130.086,32.4629],[130.0916,32.4758],[130.0945,32.4778],[130.1087,32.4828],[130.1129,32.4888],[130.1243,32.5184],[130.1255,32.5232],[130.1245,32.5315],[130.1181,32.5449]]]}},{"type":"Feature","properties":{"id":43034},"geometry":{"type":"Polygon","coordinates":[[[130.8907,32.3219],[130.9011,32.3469],[130.8958,32.3495],[130.8864,32.3519],[130.8785,32.3508],[130.8689,32.3469],[130.8588,32.3448],[130.8537,32.343],[130.8463,32.3436],[130.8393,32.3493],[130.833,32.3563],[130.8277,32.3643],[130.8153,32.3718],[130.8074,32.3739],[130.795,32.3734],[130.7799,32.3691],[130.7882,32.362],[130.7971,32.3465],[130.7965,32.34],[130.7961,32.3243],[130.7974,32.3193],[130.8012,32.3131],[130.8135,32.3029],[130.8148,32.2985],[130.8125,32.2886],[130.8094,32.2674],[130.8058,32.2573],[130.7986,32.2433],[130.7903,32.2298],[130.7884,32.2172],[130.7854,32.2072],[130.784,32.1966],[130.7933,32.1993],[130.8104,32.2011],[130.8144,32.2023],[130.8176,32.2061],[130.8156,32.2197],[130.8196,32.2289],[130.8289,32.2361],[130.8367,32.238],[130.8536,32.2446],[130.8541,32.2522],[130.8561,32.2638],[130.8556,32.2686],[130.8586,32.2761],[130.8631,32.2789],[130.8753,32.2841],[130.8774,32.287],[130.8779,32.3046],[130.8787,32.3108],[130.8907,32.3219]]]}},{"type":"Feature","properties":{"id":43035},"geometry":{"type":"Polygon","coordinates":[[[131.0921,32.869],[131.1002,32.8595],[131.1034,32.857],[131.109,32.8472],[131.1101,32.8384],[131.1153,32.8251],[131.1206,32.8079],[131.121,32.8042],[131.1263,32.7923],[131.1374,32.797],[131.1419,32.8053],[131.1466,32.8087],[131.1612,32.8148],[131.1668,32.8142],[131.1759,32.8106],[131.179,32.8061],[131.185,32.8024],[131.198,32.7982],[131.2006,32.7954],[131.2032,32.787],[131.2042,32.771],[131.2063,32.7673],[131.2127,32.764],[131.2227,32.7572],[131.2342,32.7522],[131.2387,32.7484],[131.2394,32.7519],[131.2465,32.7602],[131.2387,32.7799],[131.2481,32.7865],[131.25,32.7974],[131.2577,32.8041],[131.2601,32.8148],[131.2672,32.8225],[131.2773,32.8225],[131.2874,32.8278],[131.2977,32.8252],[131.3114,32.8247],[131.3309,32.8293],[131.3245,32.8405],[131.3159,32.8479],[131.2952,32.8554],[131.287,32.8628],[131.2763,32.8675],[131.2753,32.878],[131.2597,32.8837],[131.2565,32.895],[131.2565,32.8991],[131.2547,32.9036],[131.2461,32.8971],[131.213,32.8824],[131.2011,32.8793],[131.1848,32.8722],[131.1801,32.8727],[131.1595,32.8786],[131.1526,32.88],[131.1317,32.8815],[131.1209,32.8836],[131.1032,32.8832],[131.0976,32.8823],[131.0948,32.8797],[131.0921,32.869]]]}},{"type":"Feature","properties":{"id":43036},"geometry":{"type":"Polygon","coordinates":[[[130.506,32.9378],[130.5,32.925],[130.4928,32.9169],[130.4807,32.9113],[130.4759,32.9067],[130.474,32.9026],[130.4806,32.9033],[130.4862,32.8987],[130.4955,32.8928],[130.5008,32.8922],[130.5105,32.8876],[130.5121,32.8856],[130.5204,32.8819],[130.5247,32.8741],[130.5223,32.8648],[130.5224,32.8557],[130.5243,32.8516],[130.5374,32.8478],[130.5496,32.8458],[130.5636,32.8423],[130.5677,32.843],[130.5722,32.853],[130.5742,32.8528],[130.5755,32.8512],[130.5852,32.8477],[130.598,32.8444],[130.6122,32.8445],[130.6204,32.8473],[130.628,32.8547],[130.6235,32.8598],[130.613,32.878],[130.6134,32.8824],[130.6199,32.8989],[130.621,32.9031],[130.6145,32.915],[130.6173,32.9238],[130.6224,32.9297],[130.6281,32.9445],[130.615,32.9466],[130.6062,32.9451],[130.6012,32.949],[130.6015,32.9551],[130.6005,32.9608],[130.6025,32.9715],[130.5996,32.9799],[130.5917,32.985],[130.5844,32.988],[130.5809,32.9773],[130.5787,32.9738],[130.5739,32.9717],[130.5675,32.9781],[130.5632,32.9875],[130.5567,32.9894],[130.5492,32.9882],[130.5388,32.9837],[130.5318,32.9795],[130.5337,32.9746],[130.5346,32.9674],[130.5293,32.9604],[130.5264,32.9549],[130.521,32.949],[130.5148,32.9456],[130.506,32.9378]]]}},{"type":"Feature","properties":{"id":43037},"geometry":{"type":"Polygon","coordinates":[[[130.9921,32.1435],[131.0009,32.1582],[131.0101,32.1688],[131.0216,32.1666],[131.0396,32.1666],[131.0464,32.1592],[131.0564,32.1543],[131.0667,32.1532],[131.0789,32.1547],[131.0905,32.1509],[131.1015,32.1516],[131.1062,32.1547],[131.1112,32.1579],[131.1058,32.1666],[131.1045,32.1773],[131.1066,32.1879],[131.1027,32.1973],[131.0913,32.2023],[131.0822,32.2101],[131.0762,32.2203],[131.0731,32.2308],[131.0659,32.2382],[131.0585,32.2393],[131.0521,32.2361],[131.0391,32.231],[131.0287,32.2317],[131.0257,32.2307],[131.0205,32.2227],[131.0163,32.221],[131.0105,32.2232],[131.0061,32.2305],[130.9866,32.2418],[130.98,32.2446],[130.9719,32.2509],[130.9648,32.2542],[130.9568,32.261],[130.9545,32.2645],[130.9562,32.2688],[130.9614,32.2714],[130.9685,32.2778],[130.9757,32.2811],[130.9835,32.2831],[130.98,32.2918],[130.9809,32.2983],[130.9799,32.3034],[130.9774,32.3069],[130.9692,32.3127],[130.9653,32.3166],[130.9508,32.3415],[130.9467,32.3544],[130.9333,32.3518],[130.9264,32.3524],[130.9092,32.3495],[130.9011,32.3469],[130.8907,32.3219],[130.899,32.313],[130.9169,32.2818],[130.918,32.2674],[130.9171,32.2552],[130.9178,32.2496],[130.92,32.2469],[130.9283,32.2457],[130.9429,32.2382],[130.9649,32.2202],[130.9762,32.2131],[130.9843,32.2063],[130.9862,32.203],[130.9869,32.1961],[130.9854,32.1822],[130.9856,32.1767],[130.984,32.1711],[130.9841,32.1634],[130.9853,32.1575],[130.9921,32.1435]]]}},{"type":"Feature","properties":{"id":43038},"geometry":{"type":"Polygon","coordinates":[[[130.7046,32.7418],[130.6975,32.7388],[130.6875,32.7327],[130.6815,32.7312],[130.6727,32.7326],[130.6559,32.7304],[130.6503,32.7275],[130.6405,32.7147],[130.6615,32.7093],[130.6699,32.7051],[130.6814,32.6951],[130.6899,32.6913],[130.704,32.6885],[130.7119,32.6888],[130.7197,32.6937],[130.7235,32.7015],[130.721,32.7118],[130.7179,32.7148],[130.7085,32.7188],[130.704,32.7257],[130.7046,32.7418]]]}},{"type":"Feature","properties":{"id":43039},"geometry":{"type":"Polygon","coordinates":[[[130.4648,32.2776],[130.4601,32.2855],[130.4586,32.2904],[130.4486,32.2878],[130.4508,32.28],[130.4461,32.2772],[130.4492,32.2739],[130.4444,32.2692],[130.44,32.2711],[130.4283,32.2628],[130.4326,32.2598],[130.4325,32.2564],[130.4281,32.2505],[130.4238,32.2498],[130.4297,32.2425],[130.4344,32.2405],[130.4349,32.2356],[130.4332,32.2294],[130.4326,32.2254],[130.4387,32.2085],[130.4435,32.2059],[130.4631,32.2026],[130.473,32.2056],[130.4859,32.2086],[130.4902,32.2136],[130.491,32.2245],[130.4906,32.2382],[130.4852,32.2421],[130.4689,32.2463],[130.4655,32.2484],[130.4636,32.2598],[130.4644,32.2656],[130.4636,32.2734],[130.4648,32.2776]]]}},{"type":"Feature","properties":{"id":43040},"geometry":{"type":"Polygon","coordinates":[[[131.25,32.9509],[131.25,32.9603],[131.2597,32.9629],[131.2661,32.972],[131.2489,32.9809],[131.2487,32.9935],[131.2306,33.007],[131.228,33.0177],[131.2234,33.0275],[131.2204,33.0388],[131.2191,33.0499],[131.2062,33.0604],[131.2029,33.0648],[131.1965,33.0613],[131.1877,33.0547],[131.1736,33.0423],[131.1637,33.0269],[131.1549,33.0175],[131.1528,33.0103],[131.158,33.0076],[131.1693,33.0039],[131.1719,33.0012],[131.1753,32.9918],[131.1904,32.9665],[131.1971,32.9633],[131.2071,32.9637],[131.2161,32.9627],[131.2328,32.9557],[131.25,32.9509]]]}},{"type":"Feature","properties":{"id":43041},"geometry":{"type":"Polygon","coordinates":[[[130.6442,32.8676],[130.6545,32.8665],[130.6633,32.8668],[130.6759,32.8684],[130.6903,32.8722],[130.6951,32.8756],[130.7034,32.888],[130.7091,32.892],[130.7233,32.893],[130.7241,32.9023],[130.7287,32.9156],[130.7307,32.9256],[130.7332,32.9492],[130.7348,32.958],[130.737,32.9651],[130.7161,32.9711],[130.7093,32.9713],[130.6937,32.9694],[130.6838,32.9668],[130.6772,32.9604],[130.6742,32.9526],[130.6739,32.9464],[130.6717,32.9407],[130.6674,32.937],[130.6587,32.9346],[130.6484,32.9287],[130.6465,32.9186],[130.6465,32.903],[130.65,32.886],[130.6492,32.8811],[130.6442,32.8676]]]}},{"type":"Feature","properties":{"id":43042},"geometry":{"type":"MultiPolygon","coordinates":[[[[130.4953,32.6094],[130.4925,32.61],[130.4833,32.608],[130.4737,32.6039],[130.4791,32.6001],[130.4797,32.5914],[130.4838,32.5902],[130.49,32.5919],[130.4919,32.5869],[130.4864,32.582],[130.4877,32.5763],[130.493,32.5764],[130.5005,32.5838],[130.5018,32.5864],[130.5088,32.5909],[130.5116,32.5946],[130.5092,32.6072],[130.5045,32.6072],[130.4953,32.6094]]],[[[130.6534,32.6138],[130.6786,32.607],[130.6843,32.6045],[130.6939,32.5939],[130.696,32.5872],[130.6999,32.5804],[130.7193,32.5644],[130.7279,32.5595],[130.7329,32.5582],[130.7408,32.559],[130.7482,32.5621],[130.7555,32.5686],[130.761,32.5752],[130.7669,32.5784],[130.7749,32.584],[130.785,32.5995],[130.7851,32.6264],[130.7813,32.6452],[130.7822,32.6517],[130.7861,32.6635],[130.7739,32.6659],[130.7692,32.6654],[130.7518,32.6689],[130.7385,32.6635],[130.7361,32.6641],[130.7262,32.6725],[130.7203,32.6799],[130.7137,32.6759],[130.7027,32.6712],[130.6984,32.6709],[130.6891,32.6673],[130.6801,32.6648],[130.6705,32.6581],[130.666,32.6566],[130.6469,32.6628],[130.6392,32.6674],[130.6276,32.6708],[130.6218,32.6713],[130.6157,32.668],[130.6075,32.6588],[130.5893,32.6509],[130.5769,32.6515],[130.5625,32.6546],[130.5517,32.6551],[130.5257,32.6517],[130.5099,32.6493],[130.5055,32.6497],[130.4981,32.6529],[130.4873,32.6465],[130.4781,32.642],[130.4763,32.6392],[130.4698,32.6362],[130.4612,32.6339],[130.4504,32.6246],[130.4546,32.6226],[130.4608,32.6175],[130.4617,32.6136],[130.4586,32.6075],[130.4639,32.6048],[130.4695,32.6053],[130.4755,32.6083],[130.4798,32.6079],[130.4858,32.6096],[130.4882,32.6125],[130.4994,32.6112],[130.5036,32.6136],[130.5103,32.6112],[130.5207,32.6141],[130.5322,32.6206],[130.536,32.6187],[130.5429,32.624],[130.5454,32.6225],[130.5532,32.6221],[130.5567,32.6235],[130.5592,32.621],[130.5669,32.6236],[130.5774,32.6208],[130.5806,32.623],[130.5856,32.6221],[130.5917,32.6251],[130.5971,32.6244],[130.6054,32.6267],[130.6091,32.6293],[130.6176,32.6303],[130.6226,32.6323],[130.6354,32.6328],[130.641,32.6377],[130.6497,32.6416],[130.6545,32.6358],[130.6613,32.633],[130.6543,32.629],[130.6536,32.6271],[130.6561,32.6192],[130.6534,32.6138]]]]}},{"type":"Feature","properties":{"id":43043},"geometry":{"type":"Polygon","coordinates":[[[130.7119,32.6888],[130.704,32.6885],[130.6899,32.6913],[130.6814,32.6951],[130.6699,32.7051],[130.6615,32.7093],[130.6405,32.7147],[130.6371,32.7111],[130.6304,32.7113],[130.6088,32.7181],[130.6008,32.7155],[130.588,32.7044],[130.5838,32.7052],[130.5777,32.7023],[130.5727,32.7019],[130.5666,32.6985],[130.5596,32.6911],[130.554,32.6881],[130.5413,32.6687],[130.5366,32.6651],[130.5256,32.6629],[130.5236,32.6639],[130.516,32.6601],[130.5088,32.6551],[130.4997,32.6542],[130.4981,32.6529],[130.5055,32.6497],[130.5099,32.6493],[130.5257,32.6517],[130.5517,32.6551],[130.5625,32.6546],[130.5769,32.6515],[130.5893,32.6509],[130.6075,32.6588],[130.6157,32.668],[130.6218,32.6713],[130.6276,32.6708],[130.6392,32.6674],[130.6469,32.6628],[130.666,32.6566],[130.6705,32.6581],[130.6801,32.6648],[130.6891,32.6673],[130.6984,32.6709],[130.7027,32.6712],[130.7137,32.6759],[130.7203,32.6799],[130.7119,32.6888]]]}},{"type":"Feature","properties":{"id":43044},"geometry":{"type":"Polygon","coordinates":[[[130.7903,32.2298],[130.7986,32.2433],[130.8058,32.2573],[130.8094,32.2674],[130.8125,32.2886],[130.8148,32.2985],[130.8135,32.3029],[130.8012,32.3131],[130.7974,32.3193],[130.7961,32.3243],[130.7965,32.34],[130.7971,32.3465],[130.7882,32.362],[130.7799,32.3691],[130.7795,32.3769],[130.7744,32.3832],[130.7649,32.386],[130.7493,32.3871],[130.7328,32.3891],[130.729,32.3843],[130.7253,32.3772],[130.7199,32.3722],[130.7107,32.3668],[130.7066,32.3624],[130.6988,32.3431],[130.6968,32.3346],[130.7031,32.3248],[130.7081,32.3198],[130.7105,32.3125],[130.7147,32.3045],[130.7166,32.2982],[130.7193,32.2949],[130.7221,32.2902],[130.7299,32.2825],[130.7322,32.2751],[130.7388,32.2615],[130.7464,32.2487],[130.7548,32.2393],[130.7574,32.2316],[130.7599,32.2276],[130.7634,32.2256],[130.7699,32.2255],[130.7903,32.2298]]]}},{"type":"Feature","properties":{"id":43045},"geometry":{"type":"Polygon","coordinates":[[[130.664,33.1264],[130.6621,33.1159],[130.6583,33.1053],[130.6535,33.1062],[130.6607,33.0932],[130.6591,33.0874],[130.6529,33.083],[130.6474,33.0776],[130.644,33.0724],[130.6366,33.0652],[130.6358,33.0616],[130.6378,33.0508],[130.6449,33.045],[130.6522,33.0412],[130.6546,33.0353],[130.6522,33.0268],[130.6458,33.0228],[130.6359,33.0223],[130.6429,33.0107],[130.6462,33.0082],[130.6499,33.0015],[130.6526,32.9857],[130.6523,32.9832],[130.6468,32.9749],[130.6506,32.9696],[130.65,32.9676],[130.6429,32.9643],[130.6405,32.9594],[130.6378,32.9435],[130.643,32.9392],[130.6484,32.9287],[130.6587,32.9346],[130.6674,32.937],[130.6717,32.9407],[130.6739,32.9464],[130.6742,32.9526],[130.6772,32.9604],[130.6838,32.9668],[130.6937,32.9694],[130.7093,32.9713],[130.7161,32.9711],[130.737,32.9651],[130.7424,32.9678],[130.7535,32.9777],[130.7597,32.9821],[130.7697,32.9908],[130.7732,32.9955],[130.7786,33.0074],[130.7826,33.0097],[130.801,33.0107],[130.8078,33.0121],[130.8101,33.0159],[130.8216,33.0461],[130.8229,33.056],[130.825,33.0596],[130.8327,33.0618],[130.8423,33.07],[130.845,33.0753],[130.8507,33.0911],[130.8453,33.0907],[130.8456,33.1032],[130.8316,33.1032],[130.8218,33.1089],[130.7915,33.1207],[130.7802,33.1202],[130.769,33.1248],[130.7587,33.1297],[130.75,33.1374],[130.7407,33.1425],[130.7343,33.1511],[130.7238,33.1486],[130.7141,33.1518],[130.7036,33.1491],[130.6933,33.1495],[130.6932,33.1606],[130.6852,33.1666],[130.6746,33.1553],[130.6694,33.1449],[130.6711,33.135],[130.664,33.1264]]]}},{"type":"Feature","properties":{"id":43046},"geometry":{"type":"Polygon","coordinates":[[[130.8948,32.6679],[130.9199,32.6643],[130.9656,32.6516],[130.9821,32.6467],[130.9829,32.6428],[130.9804,32.6404],[130.9622,32.6387],[130.9582,32.6356],[130.9546,32.6277],[130.9574,32.6233],[130.9695,32.6137],[130.9716,32.6076],[130.97,32.601],[130.9635,32.5871],[130.9609,32.5832],[130.9734,32.5794],[130.9814,32.5781],[130.9981,32.5733],[131.0043,32.5697],[131.0182,32.5544],[131.0261,32.5479],[131.0318,32.5506],[131.0423,32.5532],[131.0409,32.5639],[131.0446,32.5742],[131.0569,32.5843],[131.0932,32.5754],[131.0964,32.5771],[131.1084,32.5833],[131.1166,32.59],[131.1231,32.6019],[131.1184,32.6121],[131.1217,32.6241],[131.125,32.6407],[131.1294,32.6505],[131.1375,32.6581],[131.1476,32.6736],[131.1583,32.6754],[131.1654,32.6684],[131.1776,32.6737],[131.177,32.6837],[131.1795,32.6937],[131.1842,32.703],[131.1879,32.7136],[131.1986,32.7232],[131.2082,32.7267],[131.2186,32.7279],[131.2264,32.7349],[131.2373,32.7412],[131.2381,32.7455],[131.2387,32.7484],[131.2342,32.7522],[131.2227,32.7572],[131.2127,32.764],[131.2063,32.7673],[131.2042,32.771],[131.2032,32.787],[131.2006,32.7954],[131.198,32.7982],[131.185,32.8024],[131.179,32.8061],[131.1759,32.8106],[131.1668,32.8142],[131.1612,32.8148],[131.1466,32.8087],[131.1419,32.8053],[131.1374,32.797],[131.1263,32.7923],[131.1207,32.7911],[131.1008,32.7911],[131.0854,32.7935],[131.08,32.7935],[131.0683,32.7917],[131.0585,32.7877],[131.0538,32.7872],[131.0355,32.7876],[131.0262,32.7865],[131.0185,32.7873],[131.0119,32.7898],[130.9993,32.7983],[130.9879,32.7957],[130.975,32.7902],[130.9695,32.7886],[130.9497,32.7707],[130.9415,32.7656],[130.9066,32.7503],[130.9015,32.7449],[130.8975,32.7387],[130.8898,32.7237],[130.8897,32.72],[130.8936,32.7126],[130.8974,32.698],[130.8976,32.6827],[130.8948,32.6679]]]}},{"type":"Feature","properties":{"id":43047},"geometry":{"type":"MultiPolygon","coordinates":[[[[130.5371,32.4085],[130.537,32.3972],[130.5355,32.3907],[130.5268,32.3777],[130.5256,32.372],[130.5328,32.3657],[130.5399,32.3656],[130.5485,32.3691],[130.5528,32.3696],[130.5629,32.3756],[130.5932,32.3735],[130.6086,32.3737],[130.6363,32.3667],[130.6419,32.3693],[130.6552,32.3721],[130.659,32.37],[130.6622,32.3635],[130.6671,32.3481],[130.6732,32.341],[130.6788,32.3383],[130.6968,32.3346],[130.6988,32.3431],[130.7066,32.3624],[130.7107,32.3668],[130.7199,32.3722],[130.7253,32.3772],[130.729,32.3843],[130.7328,32.3891],[130.7377,32.3935],[130.7398,32.3981],[130.7295,32.4085],[130.7259,32.4148],[130.7259,32.4346],[130.7242,32.4507],[130.7296,32.4544],[130.7402,32.4572],[130.7423,32.4607],[130.7417,32.469],[130.7458,32.4735],[130.7674,32.4762],[130.7792,32.4795],[130.7834,32.482],[130.7983,32.4942],[130.8031,32.4963],[130.8153,32.4964],[130.8273,32.4972],[130.8544,32.4952],[130.8733,32.4901],[130.8802,32.4872],[130.888,32.4799],[130.8956,32.4707],[130.8976,32.4654],[130.9014,32.4462],[130.9046,32.4443],[130.9181,32.4433],[130.9273,32.4414],[130.9386,32.4404],[130.9463,32.443],[130.9609,32.4494],[130.9661,32.4508],[130.984,32.4511],[130.9905,32.45],[131.0038,32.4517],[131.0094,32.4538],[131.0182,32.4552],[131.0176,32.4665],[131.0162,32.4767],[131.0094,32.4866],[131.011,32.5],[131.0114,32.5113],[131.0217,32.5164],[131.0264,32.5257],[131.0231,32.5354],[131.0218,32.5459],[131.0261,32.5479],[131.0182,32.5544],[131.0043,32.5697],[130.9981,32.5733],[130.9814,32.5781],[130.9734,32.5794],[130.9609,32.5832],[130.9503,32.5785],[130.9335,32.5752],[130.9295,32.5764],[130.9208,32.5833],[130.9146,32.584],[130.9035,32.5758],[130.878,32.5725],[130.8716,32.573],[130.8531,32.5706],[130.8431,32.5684],[130.8319,32.5649],[130.8254,32.5658],[130.8081,32.5712],[130.7986,32.5793],[130.7902,32.5932],[130.785,32.5995],[130.7749,32.584],[130.7669,32.5784],[130.761,32.5752],[130.7555,32.5686],[130.7482,32.5621],[130.7408,32.559],[130.7329,32.5582],[130.7279,32.5595],[130.7193,32.5644],[130.7109,32.5417],[130.7086,32.5373],[130.7046,32.5351],[130.6821,32.5256],[130.6746,32.5281],[130.6737,32.5343],[130.675,32.5425],[130.6734,32.5455],[130.6622,32.5477],[130.6604,32.5516],[130.6691,32.5603],[130.6756,32.5684],[130.6745,32.5715],[130.6553,32.5822],[130.6509,32.5841],[130.6407,32.5945],[130.6304,32.6009],[130.6198,32.5927],[130.6165,32.5883],[130.611,32.5935],[130.6068,32.5918],[130.6092,32.5881],[130.6056,32.5851],[130.6016,32.5858],[130.5971,32.5837],[130.5892,32.5757],[130.5901,32.5717],[130.5997,32.5697],[130.6106,32.5661],[130.6087,32.5608],[130.5961,32.5694],[130.5897,32.5711],[130.5841,32.5698],[130.5777,32.5596],[130.5739,32.5566],[130.5645,32.5415],[130.5624,32.5402],[130.5568,32.5428],[130.5515,32.5418],[130.5483,32.5356],[130.5419,32.5319],[130.54,32.5331],[130.5363,32.5249],[130.5478,32.52],[130.5536,32.5164],[130.563,32.5121],[130.5709,32.5099],[130.5725,32.5068],[130.583,32.5053],[130.5816,32.5023],[130.5756,32.4983],[130.5686,32.4967],[130.5586,32.5],[130.5519,32.5011],[130.5456,32.5003],[130.5425,32.4969],[130.5422,32.4844],[130.5458,32.4775],[130.5483,32.4767],[130.5652,32.4764],[130.5664,32.4708],[130.5644,32.4683],[130.568,32.4626],[130.5649,32.4554],[130.5669,32.4519],[130.5722,32.4514],[130.5703,32.4475],[130.5728,32.4411],[130.5698,32.4395],[130.5669,32.4328],[130.5546,32.4231],[130.5486,32.4231],[130.5448,32.4204],[130.5433,32.4161],[130.5371,32.4085]]],[[[130.5442,32.5175],[130.5406,32.5158],[130.5574,32.5065],[130.5629,32.5061],[130.5624,32.5095],[130.5522,32.5133],[130.5442,32.5175]]],[[[130.5013,32.4843],[130.5001,32.4891],[130.4944,32.4831],[130.5013,32.4843]]]]}},{"type":"Feature","properties":{"id":43048},"geometry":{"type":"Polygon","coordinates":[[[130.9835,32.2831],[130.9757,32.2811],[130.9685,32.2778],[130.9614,32.2714],[130.9562,32.2688],[130.9545,32.2645],[130.9568,32.261],[130.9648,32.2542],[130.9719,32.2509],[130.98,32.2446],[130.9866,32.2418],[131.0061,32.2305],[131.0105,32.2232],[131.0163,32.221],[131.0205,32.2227],[131.0257,32.2307],[131.0287,32.2317],[131.0391,32.231],[131.0521,32.2361],[131.0585,32.2393],[131.0491,32.2406],[131.0441,32.2551],[131.0538,32.2612],[131.054,32.2806],[131.0494,32.289],[131.0424,32.2943],[131.0313,32.298],[131.0261,32.3062],[131.0195,32.3111],[131.0145,32.3094],[131.0113,32.3017],[131.0069,32.2951],[131.0024,32.2911],[130.9939,32.2889],[130.9866,32.2858],[130.9835,32.2831]]]}}]}