{"type":"FeatureCollection","features":[{"type":"Feature","properties":{"id":44001},"geometry":{"type":"Polygon","coordinates":[[[131.4986,33.3512],[131.4983,33.3502],[131.4718,33.3527],[131.4668,33.3528],[131.4586,33.35],[131.4408,33.3492],[131.4237,33.3436],[131.4194,33.3433],[131.4137,33.3472],[131.4051,33.3488],[131.3996,33.3466],[131.3967,33.3422],[131.3932,33.3308],[131.3969,33.3249],[131.4018,33.3233],[131.4111,33.3231],[131.4203,33.3256],[131.4241,33.3249],[131.4261,33.321],[131.4254,33.3146],[131.4205,33.3083],[131.4186,33.2942],[131.4175,33.2914],[131.4021,33.2811],[131.3912,33.2814],[131.3883,33.2791],[131.3878,33.2686],[131.3907,33.2638],[131.3899,33.2585],[131.3807,33.2506],[131.3787,33.2476],[131.3774,33.2393],[131.381,33.2339],[131.3946,33.2285],[131.3995,33.2272],[131.4052,33.2276],[131.4209,33.2331],[131.4279,33.2339],[131.4413,33.2328],[131.4478,33.2337],[131.458,33.238],[131.464,33.2353],[131.4681,33.2317],[131.4839,33.2264],[131.498,33.225],[131.5015,33.227],[131.5043,33.2321],[131.5048,33.2369],[131.5015,33.2435],[131.5022,33.2469],[131.514,33.255],[131.5181,33.2654],[131.5135,33.2673],[131.5093,33.2748],[131.507,33.2767],[131.5083,33.2804],[131.5039,33.2933],[131.5041,33.3074],[131.5016,33.3108],[131.5026,33.316],[131.5007,33.3184],[131.5029,33.3215],[131.4981,33.326],[131.4959,33.3307],[131.4974,33.3364],[131.4948,33.3408],[131.4957,33.3448],[131.499,33.3498],[131.4986,33.3512]]]}},{"type":"Feature","properties":{"id":44002},"geometry":{"type":"Polygon","coordinates":[[[131.4774,32.834],[131.4767,32.8357],[131.4916,32.8445],[131.4986,32.8476],[131.5167,32.853],[131.5316,32.8594],[131.5368,32.8629],[131.5437,32.8726],[131.5488,32.8766],[131.5567,32.8796],[131.57,32.8811],[131.5781,32.8782],[131.5871,32.8773],[131.5912,32.879],[131.5984,32.895],[131.604,32.9024],[131.6079,32.9055],[131.6101,32.9115],[131.6099,32.9186],[131.6153,32.9214],[131.6213,32.9162],[131.6246,32.9148],[131.6298,32.9165],[131.6306,32.9203],[131.6272,32.9263],[131.6219,32.9298],[131.6211,32.9326],[131.6278,32.9399],[131.6356,32.942],[131.6412,32.9457],[131.6487,32.9554],[131.6553,32.9571],[131.6605,32.957],[131.6597,32.9673],[131.6571,32.976],[131.6459,32.9903],[131.6393,33.0012],[131.6359,33.0054],[131.6358,33.0085],[131.6378,33.0256],[131.6394,33.0288],[131.6524,33.0309],[131.6573,33.0344],[131.6628,33.0417],[131.6651,33.0466],[131.6677,33.0658],[131.6698,33.0712],[131.678,33.0774],[131.6829,33.0798],[131.6736,33.085],[131.6687,33.0864],[131.661,33.0861],[131.6492,33.0816],[131.6432,33.0826],[131.627,33.089],[131.6137,33.0928],[131.6067,33.0992],[131.5988,33.0994],[131.5928,33.0966],[131.5861,33.0971],[131.5782,33.0991],[131.573,33.102],[131.5712,33.1061],[131.5695,33.1167],[131.5676,33.1196],[131.5607,33.1217],[131.5525,33.1197],[131.5402,33.1116],[131.5273,33.1062],[131.5126,33.0985],[131.5093,33.0976],[131.5015,33.0925],[131.4989,33.0864],[131.4972,33.0757],[131.4931,33.0726],[131.4827,33.0706],[131.4704,33.0712],[131.4617,33.0738],[131.4535,33.0923],[131.4514,33.0937],[131.4431,33.0937],[131.4377,33.0884],[131.4331,33.0821],[131.4276,33.0785],[131.4252,33.0788],[131.4206,33.0857],[131.4195,33.0908],[131.4113,33.0849],[131.4071,33.079],[131.4003,33.0723],[131.398,33.0606],[131.3985,33.056],[131.4036,33.0524],[131.4045,33.0484],[131.4028,33.0441],[131.3969,33.0364],[131.3802,33.0251],[131.3797,33.0226],[131.3864,33.0155],[131.4006,33.0085],[131.4095,33.0072],[131.4159,33.0044],[131.42,32.9955],[131.4208,32.9908],[131.4197,32.9786],[131.4197,32.9696],[131.4207,32.9644],[131.411,32.9525],[131.4088,32.9412],[131.4052,32.9356],[131.3988,32.9311],[131.3946,32.9252],[131.396,32.9162],[131.3963,32.8967],[131.3993,32.8878],[131.3982,32.8782],[131.3927,32.8703],[131.3919,32.8618],[131.3937,32.8566],[131.392,32.8501],[131.3888,32.8449],[131.3709,32.8327],[131.3556,32.8282],[131.344,32.8268],[131.3524,32.8151],[131.3555,32.8046],[131.375,32.8042],[131.4064,32.8093],[131.4145,32.8096],[131.4184,32.8098],[131.433,32.8149],[131.4386,32.8241],[131.4483,32.8263],[131.461,32.8265],[131.4774,32.834]]]}},{"type":"Feature","properties":{"id":44003},"geometry":{"type":"Polygon","coordinates":[[[131.4138,33.5542],[131.4188,33.546],[131.4325,33.538],[131.4443,33.5224],[131.449,33.519],[131.4605,33.5073],[131.4663,33.5056],[131.477,33.5006],[131.4817,33.4936],[131.4877,33.4897],[131.4987,33.4872],[131.5077,33.483],[131.5215,33.4787],[131.527,33.4779],[131.5321,33.4798],[131.5332,33.5004],[131.535,33.5064],[131.54,33.5153],[131.5447,33.5255],[131.5507,33.5331],[131.5546,33.5363],[131.5638,33.5474],[131.569,33.5509],[131.5755,33.5517],[131.5874,33.5545],[131.5893,33.5628],[131.5949,33.5749],[131.5946,33.5786],[131.5809,33.5865],[131.5766,33.5906],[131.5736,33.5956],[131.5755,33.6134],[131.5748,33.6172],[131.5671,33.6221],[131.5582,33.6255],[131.5557,33.628],[131.5547,33.6382],[131.5525,33.6486],[131.5495,33.6545],[131.5493,33.6606],[131.5467,33.6702],[131.5479,33.6787],[131.5451,33.6771],[131.5374,33.6802],[131.5334,33.6777],[131.5304,33.6815],[131.5221,33.6825],[131.5285,33.6765],[131.5293,33.6733],[131.5222,33.6744],[131.5163,33.6693],[131.5122,33.6729],[131.5075,33.6711],[131.5,33.6716],[131.4965,33.665],[131.4971,33.663],[131.5047,33.656],[131.4985,33.6562],[131.4948,33.6543],[131.4973,33.6504],[131.4933,33.6443],[131.4873,33.6485],[131.4851,33.644],[131.4803,33.6419],[131.483,33.6347],[131.4751,33.6307],[131.4736,33.6204],[131.468,33.6138],[131.4627,33.6187],[131.4606,33.6184],[131.453,33.6125],[131.4246,33.593],[131.4239,33.5834],[131.427,33.5774],[131.4326,33.5731],[131.4354,33.5681],[131.426,33.5654],[131.4194,33.5648],[131.4167,33.5631],[131.4138,33.5542]]]}},{"type":"Feature","properties":{"id":44004},"geometry":{"type":"Polygon","coordinates":[[[131.4986,33.3512],[131.4996,33.3599],[131.5192,33.365],[131.5232,33.3673],[131.5295,33.3673],[131.5353,33.3647],[131.5369,33.367],[131.5428,33.3579],[131.5428,33.3552],[131.552,33.3495],[131.5558,33.3495],[131.5622,33.3519],[131.5703,33.3489],[131.5791,33.3482],[131.587,33.3463],[131.5929,33.3469],[131.5973,33.3504],[131.5987,33.3598],[131.5962,33.3636],[131.5982,33.3693],[131.6016,33.371],[131.6068,33.3701],[131.6154,33.3708],[131.6225,33.374],[131.6154,33.3737],[131.6161,33.381],[131.6148,33.3852],[131.6113,33.3887],[131.6019,33.3927],[131.5933,33.3936],[131.584,33.3929],[131.5773,33.3906],[131.5684,33.3893],[131.5633,33.3915],[131.559,33.3963],[131.5581,33.4038],[131.5602,33.4193],[131.5591,33.4247],[131.5549,33.429],[131.5487,33.4293],[131.5361,33.4204],[131.5276,33.4106],[131.5252,33.3993],[131.5211,33.3954],[131.5074,33.394],[131.4999,33.3941],[131.4948,33.3926],[131.4904,33.3885],[131.485,33.3869],[131.4739,33.3872],[131.4579,33.3932],[131.4535,33.3915],[131.4513,33.3752],[131.4497,33.371],[131.4436,33.3674],[131.4299,33.3614],[131.417,33.3512],[131.4137,33.3472],[131.4194,33.3433],[131.4237,33.3436],[131.4408,33.3492],[131.4586,33.35],[131.4668,33.3528],[131.4718,33.3527],[131.4983,33.3502],[131.4986,33.3512]]]}},{"type":"Feature","properties":{"id":44005},"geometry":{"type":"MultiPolygon","coordinates":[[[[131.6706,33.7391],[131.6665,33.7399],[131.661,33.7366],[131.6586,33.733],[131.6577,33.7276],[131.655,33.7265],[131.6437,33.7326],[131.6427,33.7283],[131.6387,33.7235],[131.6325,33.7224],[131.6334,33.7165],[131.6476,33.7216],[131.6566,33.7222],[131.6651,33.7168],[131.6712,33.7183],[131.6746,33.7211],[131.6763,33.7251],[131.685,33.7279],[131.689,33.7316],[131.6808,33.7377],[131.6763,33.7373],[131.6706,33.7391]]],[[[131.7013,33.7313],[131.6953,33.7349],[131.692,33.7322],[131.7,33.7298],[131.7013,33.7313]]]]}},{"type":"Feature","properties":{"id":44006},"geometry":{"type":"Polygon","coordinates":[[[130.8411,33.3429],[130.8382,33.3403],[130.8532,33.3333],[130.859,33.3238],[130.8598,33.3123],[130.8647,33.3026],[130.8678,33.293],[130.8627,33.2834],[130.8551,33.2759],[130.8605,33.2658],[130.8445,33.2539],[130.8344,33.2545],[130.8338,33.2528],[130.8284,33.2381],[130.8362,33.2304],[130.8467,33.2301],[130.8426,33.2143],[130.8452,33.2039],[130.8466,33.203],[130.8653,33.1912],[130.885,33.1837],[130.8879,33.1728],[130.8777,33.1666],[130.8794,33.1562],[130.8772,33.1453],[130.8714,33.1343],[130.8685,33.1236],[130.8633,33.1137],[130.8557,33.1061],[130.8456,33.1032],[130.8453,33.0907],[130.8507,33.0911],[130.8646,33.0919],[130.875,33.0889],[130.8895,33.0833],[130.8959,33.0708],[130.9026,33.0608],[130.9135,33.0585],[130.9202,33.0498],[130.9311,33.0489],[130.9418,33.0489],[130.952,33.0475],[130.961,33.0388],[130.9648,33.0293],[130.9714,33.0216],[130.9724,33.0204],[130.9917,33.0202],[131.0021,33.027],[131.0041,33.0283],[131.0165,33.047],[131.0182,33.0572],[131.0133,33.0666],[131.0168,33.0763],[131.0256,33.0833],[131.0226,33.0871],[131.0091,33.1051],[131,33.1134],[130.9965,33.1241],[130.9833,33.135],[130.9887,33.1488],[130.9898,33.1666],[130.9998,33.1774],[131.0227,33.1774],[131.0348,33.1832],[131.0416,33.1907],[131.0625,33.1917],[131.074,33.1872],[131.0831,33.1853],[131.0881,33.1991],[131.0928,33.2346],[131.0913,33.2402],[131.0799,33.2434],[131.0759,33.2455],[131.0731,33.2517],[131.0717,33.2605],[131.0694,33.2617],[131.0621,33.2595],[131.0458,33.2585],[131.0421,33.263],[131.0426,33.2693],[131.047,33.2748],[131.0491,33.2862],[131.0554,33.2954],[131.0572,33.3041],[131.0627,33.3165],[131.0686,33.3192],[131.0764,33.3242],[131.0767,33.3271],[131.0721,33.3321],[131.0722,33.3354],[131.0774,33.3416],[131.0759,33.3441],[131.0675,33.3457],[131.0659,33.3483],[131.0643,33.3603],[131.0514,33.3608],[131.0385,33.3586],[131.0288,33.3598],[131.0278,33.3664],[131.0185,33.3765],[131.0155,33.3816],[131.0106,33.3871],[131.006,33.396],[130.989,33.405],[130.9652,33.4293],[130.9546,33.4321],[130.9484,33.4463],[130.9425,33.4493],[130.9241,33.4557],[130.9211,33.4523],[130.9129,33.4465],[130.9052,33.4459],[130.9023,33.4457],[130.8996,33.4343],[130.8933,33.4246],[130.8928,33.4064],[130.8871,33.3859],[130.8869,33.3752],[130.875,33.3737],[130.8694,33.372],[130.8619,33.3698],[130.8592,33.3551],[130.8463,33.3477],[130.8411,33.3429]]]}},{"type":"Feature","properties":{"id":44007},"geometry":{"type":"Polygon","coordinates":[[[131.4443,33.5224],[131.4251,33.5212],[131.4237,33.5161],[131.4293,33.5122],[131.433,33.5048],[131.4301,33.5006],[131.421,33.5011],[131.4149,33.5004],[131.4066,33.4943],[131.4061,33.4843],[131.42,33.4741],[131.4244,33.4626],[131.4269,33.4581],[131.4277,33.441],[131.4256,33.4239],[131.4177,33.4123],[131.4157,33.4028],[131.4133,33.3992],[131.4111,33.3842],[131.413,33.3761],[131.4201,33.3707],[131.4299,33.3614],[131.4436,33.3674],[131.4497,33.371],[131.4513,33.3752],[131.4535,33.3915],[131.4579,33.3932],[131.4739,33.3872],[131.485,33.3869],[131.4904,33.3885],[131.4948,33.3926],[131.4999,33.3941],[131.5074,33.394],[131.5211,33.3954],[131.5252,33.3993],[131.5276,33.4106],[131.5361,33.4204],[131.5487,33.4293],[131.5549,33.429],[131.5591,33.4247],[131.5602,33.4193],[131.5581,33.4038],[131.559,33.3963],[131.5633,33.3915],[131.5684,33.3893],[131.5773,33.3906],[131.584,33.3929],[131.5933,33.3936],[131.6019,33.3927],[131.6113,33.3887],[131.6148,33.3852],[131.6161,33.381],[131.6154,33.3737],[131.6225,33.374],[131.6349,33.3737],[131.6389,33.3763],[131.6441,33.3753],[131.6469,33.383],[131.6501,33.3845],[131.6465,33.3885],[131.6462,33.3933],[131.6356,33.4011],[131.6376,33.4058],[131.6264,33.4118],[131.6346,33.4158],[131.6352,33.4187],[131.6278,33.4197],[131.6347,33.4233],[131.6461,33.419],[131.6526,33.4198],[131.656,33.4224],[131.66,33.4221],[131.6715,33.4179],[131.672,33.4159],[131.6687,33.4084],[131.6772,33.4107],[131.6867,33.406],[131.6894,33.407],[131.6952,33.405],[131.702,33.4059],[131.7041,33.4092],[131.7034,33.4153],[131.7048,33.423],[131.7106,33.4374],[131.7126,33.4409],[131.7225,33.4515],[131.7008,33.4538],[131.6945,33.452],[131.6765,33.4404],[131.6681,33.4381],[131.6567,33.4379],[131.6523,33.4402],[131.6516,33.4436],[131.6581,33.4559],[131.6534,33.4593],[131.6462,33.4553],[131.6407,33.4554],[131.6328,33.4579],[131.6272,33.4609],[131.6206,33.4662],[131.5997,33.4778],[131.6024,33.4849],[131.5997,33.4943],[131.5991,33.4997],[131.5889,33.5215],[131.5852,33.5325],[131.5848,33.5393],[131.5874,33.5545],[131.5755,33.5517],[131.569,33.5509],[131.5638,33.5474],[131.5546,33.5363],[131.5507,33.5331],[131.5447,33.5255],[131.54,33.5153],[131.535,33.5064],[131.5332,33.5004],[131.5321,33.4798],[131.527,33.4779],[131.5215,33.4787],[131.5077,33.483],[131.4987,33.4872],[131.4877,33.4897],[131.4817,33.4936],[131.477,33.5006],[131.4663,33.5056],[131.4605,33.5073],[131.449,33.519],[131.4443,33.5224]]]}},{"type":"Feature","properties":{"id":44008},"geometry":{"type":"Polygon","coordinates":[[[131.1964,33.0735],[131.207,33.0858],[131.2121,33.0879],[131.2202,33.0877],[131.2278,33.0861],[131.2318,33.0866],[131.2452,33.0975],[131.2482,33.1015],[131.2513,33.1086],[131.2529,33.1154],[131.2572,33.1231],[131.259,33.129],[131.2658,33.1402],[131.2788,33.1534],[131.2915,33.1585],[131.3013,33.1616],[131.3115,33.1635],[131.3215,33.1683],[131.3217,33.1722],[131.3127,33.1774],[131.3082,33.182],[131.3056,33.1867],[131.3009,33.1912],[131.292,33.1966],[131.2854,33.2033],[131.2826,33.2103],[131.2769,33.2207],[131.2717,33.2265],[131.2723,33.229],[131.2785,33.2334],[131.2912,33.2504],[131.2944,33.2536],[131.2803,33.2586],[131.2741,33.2629],[131.2716,33.2703],[131.2617,33.2733],[131.2596,33.2755],[131.2593,33.2816],[131.2518,33.2995],[131.2482,33.304],[131.2454,33.3045],[131.2361,33.3019],[131.2187,33.3002],[131.2151,33.2984],[131.2082,33.2873],[131.2026,33.283],[131.1916,33.2795],[131.1788,33.2709],[131.1723,33.2645],[131.1632,33.2586],[131.159,33.2541],[131.1527,33.2496],[131.1415,33.2364],[131.13,33.2214],[131.1189,33.1986],[131.1168,33.1926],[131.1152,33.1823],[131.1136,33.1788],[131.1211,33.1666],[131.1343,33.1621],[131.1419,33.155],[131.1513,33.1489],[131.1579,33.1403],[131.1659,33.1332],[131.1682,33.1163],[131.1752,33.101],[131.1754,33.0936],[131.1756,33.0833],[131.1849,33.0737],[131.1964,33.0735]]]}},{"type":"Feature","properties":{"id":44009},"geometry":{"type":"Polygon","coordinates":[[[131.5874,33.5545],[131.5848,33.5393],[131.5852,33.5325],[131.5889,33.5215],[131.5991,33.4997],[131.5997,33.4943],[131.6024,33.4849],[131.5997,33.4778],[131.6206,33.4662],[131.6272,33.4609],[131.6328,33.4579],[131.6407,33.4554],[131.6462,33.4553],[131.6534,33.4593],[131.6581,33.4559],[131.6516,33.4436],[131.6523,33.4402],[131.6567,33.4379],[131.6681,33.4381],[131.6765,33.4404],[131.6945,33.452],[131.7008,33.4538],[131.7225,33.4515],[131.7235,33.459],[131.7312,33.4682],[131.7348,33.4645],[131.7396,33.4655],[131.7391,33.4748],[131.7392,33.494],[131.7368,33.4952],[131.7319,33.4891],[131.7293,33.4944],[131.7321,33.5172],[131.7349,33.5209],[131.737,33.5313],[131.7441,33.5417],[131.7402,33.546],[131.7395,33.5533],[131.7415,33.5554],[131.7392,33.5636],[131.7361,33.5663],[131.7331,33.5728],[131.7336,33.5799],[131.7297,33.5881],[131.7249,33.589],[131.715,33.6048],[131.7099,33.604],[131.7056,33.6068],[131.7007,33.6136],[131.6997,33.6221],[131.6975,33.6255],[131.6975,33.6304],[131.6943,33.6335],[131.6932,33.6398],[131.6882,33.6411],[131.684,33.6392],[131.674,33.6492],[131.672,33.6578],[131.6666,33.6585],[131.6674,33.6628],[131.6605,33.6699],[131.6538,33.6655],[131.6523,33.6627],[131.6473,33.6636],[131.6466,33.6669],[131.6498,33.6726],[131.6452,33.672],[131.639,33.677],[131.6359,33.6821],[131.6302,33.6816],[131.6304,33.6723],[131.6252,33.6741],[131.6206,33.6807],[131.6169,33.6797],[131.6169,33.6756],[131.6068,33.6797],[131.6071,33.6868],[131.603,33.6855],[131.5934,33.6892],[131.5876,33.6898],[131.5854,33.6928],[131.5779,33.6901],[131.5732,33.6868],[131.5743,33.6824],[131.5732,33.6784],[131.5757,33.6756],[131.5679,33.6749],[131.5656,33.6768],[131.5622,33.6863],[131.5559,33.6823],[131.5491,33.6819],[131.5479,33.6787],[131.5467,33.6702],[131.5493,33.6606],[131.5495,33.6545],[131.5525,33.6486],[131.5547,33.6382],[131.5557,33.628],[131.5582,33.6255],[131.5671,33.6221],[131.5748,33.6172],[131.5755,33.6134],[131.5736,33.5956],[131.5766,33.5906],[131.5809,33.5865],[131.5946,33.5786],[131.5949,33.5749],[131.5893,33.5628],[131.5874,33.5545]]]}},{"type":"Feature","properties":{"id":44010},"geometry":{"type":"Polygon","coordinates":[[[131.1136,33.1788],[131.1152,33.1823],[131.1168,33.1926],[131.1189,33.1986],[131.13,33.2214],[131.1415,33.2364],[131.1527,33.2496],[131.159,33.2541],[131.1632,33.2586],[131.1723,33.2645],[131.1788,33.2709],[131.1916,33.2795],[131.2026,33.283],[131.2082,33.2873],[131.2151,33.2984],[131.2187,33.3002],[131.2361,33.3019],[131.2454,33.3045],[131.2482,33.304],[131.2518,33.2995],[131.2593,33.2816],[131.2596,33.2755],[131.2617,33.2733],[131.2716,33.2703],[131.2741,33.2629],[131.2803,33.2586],[131.2944,33.2536],[131.3004,33.2656],[131.3027,33.2671],[131.3132,33.2693],[131.3193,33.2768],[131.3271,33.2921],[131.3264,33.2947],[131.3213,33.3001],[131.3212,33.3036],[131.3273,33.3118],[131.3306,33.3146],[131.3269,33.318],[131.3176,33.3219],[131.2998,33.3305],[131.2868,33.3344],[131.2726,33.3396],[131.268,33.3446],[131.2616,33.3552],[131.2565,33.3564],[131.2392,33.3558],[131.2183,33.3628],[131.2118,33.3602],[131.2037,33.3549],[131.1998,33.3508],[131.1951,33.3493],[131.1873,33.3513],[131.1675,33.3621],[131.156,33.3654],[131.1533,33.3669],[131.1491,33.375],[131.1458,33.377],[131.1383,33.3765],[131.1287,33.3679],[131.1232,33.3689],[131.1174,33.3732],[131.112,33.381],[131.1066,33.3829],[131.0862,33.3847],[131.0773,33.3862],[131.0728,33.3834],[131.0685,33.3703],[131.0643,33.3603],[131.0659,33.3483],[131.0675,33.3457],[131.0759,33.3441],[131.0774,33.3416],[131.0722,33.3354],[131.0721,33.3321],[131.0767,33.3271],[131.0764,33.3242],[131.0686,33.3192],[131.0627,33.3165],[131.0572,33.3041],[131.0554,33.2954],[131.0491,33.2862],[131.047,33.2748],[131.0426,33.2693],[131.0421,33.263],[131.0458,33.2585],[131.0621,33.2595],[131.0694,33.2617],[131.0717,33.2605],[131.0731,33.2517],[131.0759,33.2455],[131.0799,33.2434],[131.0913,33.2402],[131.0928,33.2346],[131.0881,33.1991],[131.0831,33.1853],[131.1036,33.1843],[131.1136,33.1788]]]}},{"type":"Feature","properties":{"id":44011},"geometry":{"type":"MultiPolygon","coordinates":[[[[131.0692,33.5052],[131.0643,33.5063],[131.0538,33.5067],[131.0434,33.5115],[131.0309,33.5142],[131.0217,33.5093],[131.0119,33.5066],[131.0002,33.5071],[130.992,33.5057],[130.9833,33.5041],[130.9735,33.5],[130.9553,33.4865],[130.9438,33.4801],[130.934,33.4761],[130.931,33.4634],[130.9241,33.4557],[130.9425,33.4493],[130.9484,33.4463],[130.9546,33.4321],[130.9652,33.4293],[130.989,33.405],[131.006,33.396],[131.0106,33.3871],[131.0155,33.3816],[131.0185,33.3765],[131.0278,33.3664],[131.0288,33.3598],[131.0385,33.3586],[131.0514,33.3608],[131.0643,33.3603],[131.0685,33.3703],[131.0728,33.3834],[131.0773,33.3862],[131.0862,33.3847],[131.1066,33.3829],[131.112,33.381],[131.1174,33.3732],[131.1232,33.3689],[131.1287,33.3679],[131.1383,33.3765],[131.1458,33.377],[131.1491,33.375],[131.1533,33.3669],[131.156,33.3654],[131.1675,33.3621],[131.1873,33.3513],[131.1951,33.3493],[131.1998,33.3508],[131.2037,33.3549],[131.2118,33.3602],[131.2183,33.3628],[131.2248,33.3737],[131.2251,33.3865],[131.2283,33.4005],[131.2292,33.4076],[131.2315,33.4092],[131.2489,33.4112],[131.253,33.4138],[131.2558,33.42],[131.2543,33.4282],[131.2494,33.4361],[131.2454,33.4452],[131.2449,33.4526],[131.2458,33.4603],[131.2451,33.469],[131.2433,33.4744],[131.2458,33.4788],[131.2536,33.4809],[131.2613,33.486],[131.2657,33.4976],[131.266,33.5041],[131.2611,33.512],[131.254,33.5303],[131.2548,33.5383],[131.2615,33.5495],[131.2717,33.5533],[131.2752,33.5605],[131.2774,33.5819],[131.274,33.5836],[131.2726,33.5875],[131.2659,33.5856],[131.267,33.5934],[131.2572,33.5978],[131.2522,33.6022],[131.2506,33.6074],[131.2474,33.6113],[131.2446,33.6109],[131.2393,33.6064],[131.2388,33.6026],[131.2357,33.601],[131.2262,33.6029],[131.2227,33.6049],[131.2182,33.6042],[131.2164,33.6085],[131.2098,33.6116],[131.2106,33.614],[131.2046,33.6168],[131.1965,33.6162],[131.1895,33.6088],[131.1844,33.6061],[131.183,33.5989],[131.1877,33.6009],[131.1755,33.583],[131.1805,33.5689],[131.1891,33.5622],[131.1906,33.5493],[131.1875,33.5395],[131.1707,33.527],[131.171,33.5165],[131.1773,33.5074],[131.1608,33.5045],[131.1503,33.5017],[131.1335,33.502],[131.1141,33.503],[131.1032,33.5019],[131.0925,33.5034],[131.0802,33.5028],[131.0692,33.5052]]],[[[131.1875,33.6161],[131.1887,33.6147],[131.1853,33.608],[131.1934,33.6146],[131.1911,33.6194],[131.1875,33.6161]]]]}},{"type":"Feature","properties":{"id":44012},"geometry":{"type":"MultiPolygon","coordinates":[[[[131.5181,33.2654],[131.514,33.255],[131.5233,33.2446],[131.5343,33.2432],[131.5392,33.2412],[131.5392,33.2369],[131.5371,33.2316],[131.537,33.2214],[131.5347,33.2149],[131.5346,33.2068],[131.5294,33.2013],[131.5272,33.1917],[131.5241,33.1876],[131.5121,33.1775],[131.5023,33.1656],[131.4951,33.1647],[131.487,33.1624],[131.477,33.1575],[131.4611,33.1448],[131.4574,33.141],[131.4523,33.14],[131.4473,33.1378],[131.4356,33.1347],[131.4309,33.1283],[131.4299,33.1221],[131.4332,33.1156],[131.4319,33.1034],[131.4307,33.1],[131.4214,33.0937],[131.4195,33.0908],[131.4206,33.0857],[131.4252,33.0788],[131.4276,33.0785],[131.4331,33.0821],[131.4377,33.0884],[131.4431,33.0937],[131.4514,33.0937],[131.4535,33.0923],[131.4617,33.0738],[131.4704,33.0712],[131.4827,33.0706],[131.4931,33.0726],[131.4972,33.0757],[131.4989,33.0864],[131.5015,33.0925],[131.5093,33.0976],[131.5126,33.0985],[131.5273,33.1062],[131.5402,33.1116],[131.5525,33.1197],[131.5607,33.1217],[131.5676,33.1196],[131.5695,33.1167],[131.5712,33.1061],[131.573,33.102],[131.5782,33.0991],[131.5861,33.0971],[131.5928,33.0966],[131.5988,33.0994],[131.6067,33.0992],[131.6137,33.0928],[131.627,33.089],[131.6432,33.0826],[131.6492,33.0816],[131.661,33.0861],[131.6687,33.0864],[131.6736,33.085],[131.6829,33.0798],[131.6918,33.0743],[131.6956,33.0739],[131.7004,33.0775],[131.7051,33.0855],[131.7077,33.1001],[131.7117,33.1121],[131.7152,33.1189],[131.7164,33.1244],[131.7215,33.1633],[131.7276,33.1753],[131.7312,33.1779],[131.7463,33.1776],[131.7579,33.1832],[131.7675,33.1851],[131.7846,33.1894],[131.7997,33.1941],[131.8117,33.1986],[131.8231,33.2043],[131.8339,33.2036],[131.8401,33.2004],[131.8445,33.1961],[131.8493,33.1889],[131.8502,33.1907],[131.858,33.1958],[131.8625,33.1948],[131.8693,33.2012],[131.8611,33.2036],[131.8656,33.2122],[131.8724,33.2166],[131.8726,33.2207],[131.8768,33.2238],[131.8768,33.2294],[131.8719,33.2311],[131.8712,33.2348],[131.8759,33.2388],[131.8789,33.2451],[131.8858,33.2433],[131.8922,33.2453],[131.8942,33.2523],[131.8982,33.2553],[131.8995,33.2593],[131.9041,33.2628],[131.9017,33.268],[131.8894,33.2671],[131.8791,33.2632],[131.8746,33.2625],[131.8681,33.2596],[131.8696,33.2536],[131.8743,33.2516],[131.8738,33.2487],[131.8668,33.2486],[131.8638,33.2527],[131.8612,33.252],[131.8575,33.2555],[131.8521,33.2547],[131.8504,33.2521],[131.8429,33.2517],[131.8338,33.2469],[131.8282,33.2479],[131.8218,33.2469],[131.8097,33.2428],[131.7945,33.2418],[131.7836,33.2452],[131.7777,33.2457],[131.773,33.2408],[131.7672,33.2399],[131.753,33.2409],[131.7477,33.2444],[131.7466,33.2485],[131.7421,33.2491],[131.7356,33.2476],[131.7238,33.255],[131.7281,33.2602],[131.7189,33.2666],[131.7148,33.2625],[131.7113,33.2632],[131.7157,33.2683],[131.7057,33.274],[131.699,33.2661],[131.6917,33.2668],[131.6912,33.2737],[131.693,33.278],[131.691,33.2801],[131.6853,33.28],[131.6804,33.2767],[131.6834,33.2704],[131.6801,33.2691],[131.6757,33.2782],[131.6671,33.2745],[131.6713,33.263],[131.6708,33.2583],[131.6666,33.2584],[131.6663,33.2623],[131.6613,33.2735],[131.6468,33.2705],[131.6257,33.2648],[131.6239,33.2609],[131.6207,33.2594],[131.6198,33.255],[131.6162,33.255],[131.6145,33.262],[131.6099,33.261],[131.6006,33.2568],[131.6022,33.2507],[131.597,33.2523],[131.5927,33.2505],[131.5926,33.2459],[131.5889,33.2461],[131.5655,33.2528],[131.5602,33.2559],[131.5518,33.2573],[131.5479,33.255],[131.5427,33.2571],[131.5358,33.2577],[131.5252,33.2654],[131.5181,33.2654]]],[[[131.7795,33.2515],[131.7762,33.253],[131.7747,33.2464],[131.77,33.2452],[131.7696,33.2491],[131.7665,33.2516],[131.7567,33.2527],[131.7546,33.249],[131.7542,33.2417],[131.7616,33.2408],[131.7691,33.2412],[131.7783,33.2469],[131.7795,33.2515]]],[[[131.9628,33.2794],[131.9617,33.2819],[131.9542,33.2785],[131.9403,33.2782],[131.9411,33.2744],[131.9457,33.2706],[131.949,33.2735],[131.9535,33.2734],[131.9628,33.2794]]]]}},{"type":"Feature","properties":{"id":44013},"geometry":{"type":"MultiPolygon","coordinates":[[[[131.9274,32.7269],[131.9217,32.7264],[131.9242,32.7228],[131.9211,32.72],[131.9247,32.7142],[131.9284,32.7147],[131.9298,32.726],[131.9274,32.7269]]],[[[131.9144,32.7782],[131.9109,32.778],[131.9085,32.7707],[131.9114,32.769],[131.923,32.7695],[131.9258,32.7758],[131.9211,32.7751],[131.9144,32.7782]]],[[[131.4774,32.834],[131.4836,32.8248],[131.4914,32.8163],[131.5094,32.8029],[131.5197,32.7974],[131.5147,32.7877],[131.511,32.7779],[131.5107,32.7771],[131.5201,32.7644],[131.5325,32.76],[131.5415,32.7553],[131.566,32.7517],[131.577,32.7549],[131.5848,32.7619],[131.5923,32.7705],[131.6024,32.77],[131.625,32.771],[131.636,32.7686],[131.6479,32.7681],[131.6614,32.766],[131.6711,32.7633],[131.6808,32.7661],[131.6939,32.7687],[131.7056,32.7696],[131.7177,32.7772],[131.7207,32.7874],[131.7304,32.7943],[131.7326,32.8059],[131.7372,32.816],[131.738,32.8262],[131.762,32.8333],[131.7788,32.8325],[131.7896,32.8304],[131.7995,32.8203],[131.8098,32.819],[131.8188,32.8242],[131.8299,32.8218],[131.8398,32.8168],[131.8503,32.8145],[131.8609,32.8182],[131.8618,32.8058],[131.8562,32.7954],[131.8466,32.773],[131.8502,32.7621],[131.8514,32.7513],[131.8485,32.739],[131.8576,32.7335],[131.8743,32.7387],[131.8772,32.7385],[131.8861,32.7464],[131.8842,32.7508],[131.8799,32.749],[131.8735,32.7496],[131.8721,32.7529],[131.8783,32.7561],[131.8767,32.7592],[131.8797,32.7619],[131.8797,32.7653],[131.875,32.7697],[131.8714,32.7699],[131.8682,32.7732],[131.8766,32.7785],[131.8736,32.7894],[131.8798,32.7901],[131.8845,32.78],[131.8881,32.7771],[131.8907,32.7685],[131.8956,32.7697],[131.8936,32.7761],[131.8975,32.7794],[131.8925,32.7825],[131.885,32.7908],[131.8873,32.7927],[131.8873,32.7972],[131.8899,32.8039],[131.8943,32.8043],[131.8944,32.8007],[131.8985,32.7919],[131.8951,32.7889],[131.9022,32.785],[131.9065,32.7889],[131.9083,32.7935],[131.917,32.7854],[131.9208,32.7861],[131.9217,32.7957],[131.9267,32.7924],[131.9283,32.7871],[131.937,32.784],[131.9385,32.7871],[131.9433,32.7892],[131.9473,32.7938],[131.9483,32.8015],[131.9476,32.8061],[131.9529,32.808],[131.9626,32.8062],[131.966,32.8015],[131.9635,32.7941],[131.9708,32.7916],[131.9769,32.7953],[131.9769,32.7981],[131.9717,32.8031],[131.976,32.8083],[131.9837,32.8116],[131.9847,32.8147],[131.9931,32.8201],[132.0033,32.8222],[132.0081,32.8261],[132.0114,32.8328],[132.0094,32.8361],[132.0014,32.8383],[131.9975,32.8383],[131.9939,32.8421],[131.9864,32.8468],[131.9792,32.8444],[131.976,32.8402],[131.9803,32.8382],[131.9869,32.8309],[131.981,32.8247],[131.973,32.8297],[131.9647,32.8397],[131.9624,32.8361],[131.9667,32.8327],[131.9668,32.8265],[131.965,32.8206],[131.9629,32.8191],[131.9595,32.8285],[131.96,32.8335],[131.9499,32.8524],[131.9541,32.8521],[131.9603,32.8462],[131.9748,32.8563],[131.9768,32.8613],[131.9731,32.8654],[131.9784,32.8659],[131.9841,32.8621],[131.9869,32.865],[131.9873,32.87],[131.9944,32.875],[131.9991,32.8812],[132,32.8856],[132.0119,32.8905],[132.0086,32.8931],[132.0048,32.8914],[132,32.8933],[131.9973,32.8988],[131.9922,32.89],[131.986,32.8892],[131.985,32.894],[131.9886,32.8981],[131.9856,32.9022],[131.985,32.9125],[131.9783,32.9182],[131.9782,32.9222],[131.9867,32.9189],[131.9896,32.9224],[131.9943,32.9212],[131.9932,32.9147],[131.9979,32.91],[132.0036,32.9097],[132.0057,32.9062],[132.0106,32.9058],[132.009,32.9135],[132.0111,32.915],[132.0089,32.9211],[132.0113,32.9252],[132.0159,32.9258],[132.0175,32.9305],[132.0236,32.9325],[132.0273,32.9355],[132.0369,32.9363],[132.0402,32.9338],[132.0394,32.9271],[132.045,32.9261],[132.0492,32.9313],[132.0481,32.935],[132.0574,32.9369],[132.0622,32.9349],[132.0703,32.936],[132.0716,32.9338],[132.0778,32.9316],[132.0835,32.9314],[132.0839,32.9369],[132.0803,32.945],[132.0756,32.9439],[132.0712,32.9482],[132.0677,32.946],[132.0589,32.9456],[132.0531,32.9492],[132.0431,32.9475],[132.0361,32.9503],[132.0336,32.9477],[132.0341,32.942],[132.0322,32.939],[132.0266,32.9383],[132.0239,32.9403],[132.0102,32.933],[132.0075,32.9361],[132.0039,32.9326],[132.0017,32.9369],[131.9975,32.9374],[131.9994,32.9444],[131.9978,32.9492],[132.0044,32.9547],[132.0022,32.9588],[131.9924,32.9542],[131.9929,32.9473],[131.9883,32.9422],[131.982,32.9395],[131.9768,32.9418],[131.9776,32.9443],[131.9725,32.9466],[131.9755,32.9613],[131.9714,32.9584],[131.9683,32.9531],[131.9632,32.9528],[131.9641,32.9487],[131.9605,32.9464],[131.9556,32.9498],[131.9494,32.959],[131.9374,32.9531],[131.9353,32.9575],[131.9364,32.9603],[131.9312,32.9631],[131.9275,32.9603],[131.9278,32.9536],[131.9231,32.9516],[131.9205,32.9476],[131.9149,32.9458],[131.9141,32.9491],[131.9212,32.9543],[131.9242,32.9617],[131.9234,32.9643],[131.926,32.9714],[131.9215,32.9747],[131.9139,32.9736],[131.9122,32.9778],[131.9087,32.9763],[131.9031,32.9809],[131.8955,32.9809],[131.8981,32.9883],[131.8932,32.9892],[131.8903,32.9917],[131.8962,32.9951],[131.9022,32.9917],[131.9072,32.9961],[131.9083,33.0003],[131.9018,33.0096],[131.91,33.0158],[131.912,33.0199],[131.9195,33.0252],[131.9221,33.033],[131.9206,33.0379],[131.922,33.0449],[131.9277,33.0456],[131.9276,33.0504],[131.9312,33.053],[131.9368,33.0484],[131.9423,33.0533],[131.9471,33.0506],[131.953,33.0493],[131.9576,33.0513],[131.9644,33.0479],[131.974,33.0461],[131.9808,33.0464],[131.9858,33.0486],[131.9886,33.0535],[131.9915,33.0532],[131.9966,33.0563],[132.0009,33.0542],[132.0145,33.057],[132.0133,33.0614],[132.0074,33.0607],[132.0023,33.0677],[131.9889,33.0609],[131.9734,33.0545],[131.9692,33.0548],[131.9541,33.0589],[131.9358,33.0606],[131.9285,33.0596],[131.9232,33.0574],[131.9127,33.0552],[131.8959,33.044],[131.8893,33.0414],[131.8798,33.0404],[131.8593,33.0408],[131.8462,33.0387],[131.8395,33.0384],[131.835,33.0369],[131.8234,33.0292],[131.82,33.0289],[131.8037,33.0315],[131.7921,33.0347],[131.7902,33.0214],[131.7891,33.0185],[131.7826,33.0137],[131.7798,33.0101],[131.7774,32.9937],[131.7803,32.9833],[131.7794,32.9765],[131.7637,32.9696],[131.7537,32.9684],[131.7322,32.969],[131.7125,32.9674],[131.6988,32.9629],[131.6801,32.9517],[131.6718,32.9523],[131.6605,32.957],[131.6553,32.9571],[131.6487,32.9554],[131.6412,32.9457],[131.6356,32.942],[131.6278,32.9399],[131.6211,32.9326],[131.6219,32.9298],[131.6272,32.9263],[131.6306,32.9203],[131.6298,32.9165],[131.6246,32.9148],[131.6213,32.9162],[131.6153,32.9214],[131.6099,32.9186],[131.6101,32.9115],[131.6079,32.9055],[131.604,32.9024],[131.5984,32.895],[131.5912,32.879],[131.5871,32.8773],[131.5781,32.8782],[131.57,32.8811],[131.5567,32.8796],[131.5488,32.8766],[131.5437,32.8726],[131.5368,32.8629],[131.5316,32.8594],[131.5167,32.853],[131.4986,32.8476],[131.4916,32.8445],[131.4767,32.8357],[131.4774,32.834]]],[[[131.9576,32.9691],[131.9531,32.9706],[131.9537,32.9651],[131.9573,32.9643],[131.9576,32.9691]]],[[[132.0772,32.9753],[132.0737,32.9691],[132.0667,32.9644],[132.0672,32.9581],[132.0717,32.9525],[132.0733,32.9558],[132.0783,32.9606],[132.0803,32.9675],[132.08,32.9725],[132.0772,32.9753]]],[[[131.9378,33.0164],[131.929,33.0162],[131.9209,33.0122],[131.9171,33.005],[131.924,33.0063],[131.9242,33],[131.9143,32.995],[131.9102,32.9881],[131.9114,32.9836],[131.9165,32.9807],[131.9215,32.9824],[131.9249,32.9803],[131.9265,32.9849],[131.9327,32.9907],[131.9344,32.9901],[131.9428,32.9943],[131.9435,32.9966],[131.9383,32.9988],[131.9327,32.9982],[131.9292,33.0003],[131.9368,33.0073],[131.9373,33.0108],[131.942,33.0122],[131.9431,33.0155],[131.9378,33.0164]]]]}},{"type":"Feature","properties":{"id":44014},"geometry":{"type":"Polygon","coordinates":[[[131.2565,32.8991],[131.2565,32.895],[131.2597,32.8837],[131.2753,32.878],[131.2763,32.8675],[131.287,32.8628],[131.2952,32.8554],[131.3159,32.8479],[131.3245,32.8405],[131.3309,32.8293],[131.3415,32.8302],[131.344,32.8268],[131.3556,32.8282],[131.3709,32.8327],[131.3888,32.8449],[131.392,32.8501],[131.3937,32.8566],[131.3919,32.8618],[131.3927,32.8703],[131.3982,32.8782],[131.3993,32.8878],[131.3963,32.8967],[131.396,32.9162],[131.3946,32.9252],[131.3988,32.9311],[131.4052,32.9356],[131.4088,32.9412],[131.411,32.9525],[131.4207,32.9644],[131.4197,32.9696],[131.4197,32.9786],[131.4208,32.9908],[131.42,32.9955],[131.4159,33.0044],[131.4095,33.0072],[131.4006,33.0085],[131.3864,33.0155],[131.3797,33.0226],[131.3802,33.0251],[131.3969,33.0364],[131.4028,33.0441],[131.4045,33.0484],[131.4036,33.0524],[131.3985,33.056],[131.398,33.0606],[131.4003,33.0723],[131.4071,33.079],[131.4113,33.0849],[131.4195,33.0908],[131.4214,33.0937],[131.4307,33.1],[131.4319,33.1034],[131.4332,33.1156],[131.4299,33.1221],[131.4309,33.1283],[131.4356,33.1347],[131.4473,33.1378],[131.4523,33.14],[131.4471,33.1448],[131.4335,33.1484],[131.427,33.1508],[131.4193,33.1513],[131.4128,33.1501],[131.3988,33.1512],[131.3895,33.1498],[131.3758,33.1372],[131.3711,33.1274],[131.3681,33.1239],[131.3567,33.1177],[131.3501,33.1054],[131.341,33.1036],[131.3192,33.1068],[131.2968,33.1119],[131.2857,33.116],[131.2788,33.1175],[131.2665,33.1219],[131.2572,33.1231],[131.2529,33.1154],[131.2513,33.1086],[131.2482,33.1015],[131.2452,33.0975],[131.2318,33.0866],[131.2278,33.0861],[131.2202,33.0877],[131.2121,33.0879],[131.207,33.0858],[131.1964,33.0735],[131.2029,33.0648],[131.2062,33.0604],[131.2191,33.0499],[131.2204,33.0388],[131.2234,33.0275],[131.228,33.0177],[131.2306,33.007],[131.2487,32.9935],[131.2489,32.9809],[131.2661,32.972],[131.2597,32.9629],[131.25,32.9603],[131.25,32.9509],[131.25,32.9301],[131.2553,32.9216],[131.2565,32.8991]]]}},{"type":"Feature","properties":{"id":44015},"geometry":{"type":"MultiPolygon","coordinates":[[[[131.7921,33.0347],[131.8037,33.0315],[131.82,33.0289],[131.8234,33.0292],[131.835,33.0369],[131.8395,33.0384],[131.8462,33.0387],[131.8593,33.0408],[131.8798,33.0404],[131.8893,33.0414],[131.8959,33.044],[131.9127,33.0552],[131.9232,33.0574],[131.9285,33.0596],[131.9358,33.0606],[131.9541,33.0589],[131.9692,33.0548],[131.9734,33.0545],[131.9889,33.0609],[132.0023,33.0677],[132.0031,33.0728],[131.9997,33.0769],[131.9958,33.0788],[131.9949,33.0833],[132,33.0925],[131.9943,33.0938],[131.9932,33.0907],[131.9881,33.0911],[131.9865,33.0882],[131.9889,33.0854],[131.9852,33.0784],[131.9886,33.0731],[131.9869,33.0686],[131.9801,33.0655],[131.9768,33.0672],[131.9742,33.0628],[131.9699,33.061],[131.9677,33.0706],[131.9654,33.0728],[131.9553,33.0722],[131.9536,33.0667],[131.9489,33.0664],[131.9425,33.0694],[131.9438,33.072],[131.9399,33.0761],[131.942,33.0815],[131.9375,33.0817],[131.9367,33.0898],[131.9397,33.0969],[131.9291,33.0908],[131.9343,33.0862],[131.9347,33.0821],[131.9319,33.0785],[131.9244,33.0725],[131.9289,33.0682],[131.9242,33.0662],[131.9201,33.0687],[131.9173,33.0664],[131.9102,33.0679],[131.9133,33.0729],[131.9134,33.0761],[131.9077,33.0817],[131.9014,33.075],[131.8969,33.0758],[131.8851,33.0838],[131.8812,33.0777],[131.8871,33.0746],[131.8859,33.0726],[131.8797,33.0765],[131.874,33.0784],[131.8676,33.0761],[131.8626,33.0762],[131.86,33.0802],[131.8628,33.0829],[131.8543,33.0871],[131.8598,33.0908],[131.864,33.0896],[131.8696,33.0921],[131.869,33.0954],[131.8743,33.0996],[131.8762,33.1051],[131.8858,33.1108],[131.887,33.1078],[131.8945,33.107],[131.9006,33.1108],[131.8972,33.1148],[131.9047,33.1199],[131.9128,33.122],[131.9145,33.1256],[131.9062,33.1211],[131.8979,33.1195],[131.8919,33.1172],[131.8814,33.1147],[131.873,33.1147],[131.868,33.1122],[131.859,33.1029],[131.8553,33.1015],[131.8339,33.1016],[131.8287,33.0982],[131.8194,33.0902],[131.797,33.0806],[131.7887,33.0783],[131.785,33.0737],[131.7841,33.0625],[131.791,33.0554],[131.8021,33.054],[131.8041,33.0509],[131.7982,33.0437],[131.7921,33.0347]]],[[[132.0119,33.1091],[132.0047,33.1092],[132.004,33.1075],[132.0073,33.0994],[132.0128,33.1018],[132.0162,33.1064],[132.0119,33.1091]]]]}},{"type":"Feature","properties":{"id":44016},"geometry":{"type":"Polygon","coordinates":[[[131.4137,33.3472],[131.417,33.3512],[131.4299,33.3614],[131.4201,33.3707],[131.413,33.3761],[131.4111,33.3842],[131.4133,33.3992],[131.4157,33.4028],[131.4177,33.4123],[131.4256,33.4239],[131.4277,33.441],[131.4269,33.4581],[131.4244,33.4626],[131.42,33.4741],[131.4061,33.4843],[131.4066,33.4943],[131.4149,33.5004],[131.421,33.5011],[131.4301,33.5006],[131.433,33.5048],[131.4293,33.5122],[131.4237,33.5161],[131.4251,33.5212],[131.4443,33.5224],[131.4325,33.538],[131.4188,33.546],[131.4138,33.5542],[131.4148,33.5628],[131.4218,33.5693],[131.4194,33.5736],[131.412,33.5735],[131.4043,33.572],[131.3945,33.5757],[131.3889,33.5755],[131.3849,33.5769],[131.3807,33.5758],[131.3761,33.577],[131.374,33.5797],[131.3701,33.5737],[131.3656,33.5763],[131.3582,33.5775],[131.3533,33.5736],[131.3434,33.5727],[131.3416,33.5709],[131.3298,33.5818],[131.3261,33.5812],[131.3215,33.5832],[131.319,33.5808],[131.3118,33.5821],[131.3042,33.5804],[131.2929,33.5806],[131.2894,33.5787],[131.2774,33.5819],[131.2752,33.5605],[131.2717,33.5533],[131.2615,33.5495],[131.2548,33.5383],[131.254,33.5303],[131.2611,33.512],[131.266,33.5041],[131.2657,33.4976],[131.2613,33.486],[131.2536,33.4809],[131.2458,33.4788],[131.2433,33.4744],[131.2451,33.469],[131.2458,33.4603],[131.2449,33.4526],[131.2454,33.4452],[131.2494,33.4361],[131.2543,33.4282],[131.2558,33.42],[131.253,33.4138],[131.2489,33.4112],[131.2315,33.4092],[131.2292,33.4076],[131.2283,33.4005],[131.2251,33.3865],[131.2248,33.3737],[131.2183,33.3628],[131.2392,33.3558],[131.2565,33.3564],[131.2616,33.3552],[131.268,33.3446],[131.2726,33.3396],[131.2868,33.3344],[131.2998,33.3305],[131.3176,33.3219],[131.3269,33.318],[131.3306,33.3146],[131.3409,33.313],[131.3525,33.3087],[131.3619,33.3145],[131.3712,33.3239],[131.375,33.3259],[131.385,33.3276],[131.3932,33.3308],[131.3967,33.3422],[131.3996,33.3466],[131.4051,33.3488],[131.4137,33.3472]]]}},{"type":"Feature","properties":{"id":44017},"geometry":{"type":"MultiPolygon","coordinates":[[[[131.6829,33.0798],[131.678,33.0774],[131.6698,33.0712],[131.6677,33.0658],[131.6651,33.0466],[131.6628,33.0417],[131.6573,33.0344],[131.6524,33.0309],[131.6394,33.0288],[131.6378,33.0256],[131.6358,33.0085],[131.6359,33.0054],[131.6393,33.0012],[131.6459,32.9903],[131.6571,32.976],[131.6597,32.9673],[131.6605,32.957],[131.6718,32.9523],[131.6801,32.9517],[131.6988,32.9629],[131.7125,32.9674],[131.7322,32.969],[131.7537,32.9684],[131.7637,32.9696],[131.7794,32.9765],[131.7803,32.9833],[131.7774,32.9937],[131.7798,33.0101],[131.7826,33.0137],[131.7891,33.0185],[131.7902,33.0214],[131.7921,33.0347],[131.7982,33.0437],[131.8041,33.0509],[131.8021,33.054],[131.791,33.0554],[131.7841,33.0625],[131.785,33.0737],[131.7887,33.0783],[131.797,33.0806],[131.8194,33.0902],[131.8287,33.0982],[131.8339,33.1016],[131.8553,33.1015],[131.859,33.1029],[131.868,33.1122],[131.873,33.1147],[131.8814,33.1147],[131.8919,33.1172],[131.8979,33.1195],[131.9062,33.1211],[131.9145,33.1256],[131.9117,33.1272],[131.9048,33.128],[131.8963,33.1305],[131.8926,33.1248],[131.8885,33.1245],[131.8819,33.1217],[131.875,33.1246],[131.8769,33.1309],[131.8697,33.1312],[131.8641,33.1272],[131.8599,33.1272],[131.8594,33.1239],[131.8559,33.12],[131.8459,33.1151],[131.8359,33.1191],[131.8387,33.1228],[131.8321,33.1258],[131.8258,33.1215],[131.821,33.1227],[131.8103,33.1219],[131.8118,33.1257],[131.8082,33.1275],[131.8014,33.1261],[131.8017,33.1291],[131.8063,33.1297],[131.8097,33.1369],[131.815,33.1409],[131.8216,33.148],[131.8269,33.1495],[131.8283,33.1591],[131.822,33.1606],[131.8292,33.1741],[131.8319,33.1752],[131.8333,33.1808],[131.8376,33.1823],[131.8425,33.1863],[131.8493,33.1889],[131.8445,33.1961],[131.8401,33.2004],[131.8339,33.2036],[131.8231,33.2043],[131.8117,33.1986],[131.7997,33.1941],[131.7846,33.1894],[131.7675,33.1851],[131.7579,33.1832],[131.7463,33.1776],[131.7312,33.1779],[131.7276,33.1753],[131.7215,33.1633],[131.7164,33.1244],[131.7152,33.1189],[131.7117,33.1121],[131.7077,33.1001],[131.7051,33.0855],[131.7004,33.0775],[131.6956,33.0739],[131.6918,33.0743],[131.6829,33.0798]]],[[[131.8586,33.139],[131.8631,33.141],[131.8607,33.144],[131.8565,33.141],[131.8586,33.139]]],[[[131.977,33.155],[131.9801,33.1561],[131.9802,33.1606],[131.9722,33.1582],[131.9715,33.1548],[131.977,33.155]]],[[[131.9901,33.1708],[131.9823,33.1693],[131.981,33.165],[131.9842,33.1635],[131.9892,33.1666],[131.9901,33.1708]]]]}},{"type":"Feature","properties":{"id":44018},"geometry":{"type":"Polygon","coordinates":[[[131.3932,33.3308],[131.385,33.3276],[131.375,33.3259],[131.3712,33.3239],[131.3619,33.3145],[131.3525,33.3087],[131.3409,33.313],[131.3306,33.3146],[131.3273,33.3118],[131.3212,33.3036],[131.3213,33.3001],[131.3264,33.2947],[131.3271,33.2921],[131.3193,33.2768],[131.3132,33.2693],[131.3027,33.2671],[131.3004,33.2656],[131.2944,33.2536],[131.2912,33.2504],[131.2785,33.2334],[131.2723,33.229],[131.2717,33.2265],[131.2769,33.2207],[131.2826,33.2103],[131.2854,33.2033],[131.292,33.1966],[131.3009,33.1912],[131.3056,33.1867],[131.3082,33.182],[131.3127,33.1774],[131.3217,33.1722],[131.3215,33.1683],[131.3115,33.1635],[131.3013,33.1616],[131.2915,33.1585],[131.2788,33.1534],[131.2658,33.1402],[131.259,33.129],[131.2572,33.1231],[131.2665,33.1219],[131.2788,33.1175],[131.2857,33.116],[131.2968,33.1119],[131.3192,33.1068],[131.341,33.1036],[131.3501,33.1054],[131.3567,33.1177],[131.3681,33.1239],[131.3711,33.1274],[131.3758,33.1372],[131.3895,33.1498],[131.3988,33.1512],[131.4128,33.1501],[131.4193,33.1513],[131.427,33.1508],[131.4335,33.1484],[131.4471,33.1448],[131.4523,33.14],[131.4574,33.141],[131.4611,33.1448],[131.477,33.1575],[131.487,33.1624],[131.4951,33.1647],[131.5023,33.1656],[131.5121,33.1775],[131.5241,33.1876],[131.5272,33.1917],[131.5294,33.2013],[131.5346,33.2068],[131.5347,33.2149],[131.537,33.2214],[131.5371,33.2316],[131.5392,33.2369],[131.5392,33.2412],[131.5343,33.2432],[131.5233,33.2446],[131.514,33.255],[131.5022,33.2469],[131.5015,33.2435],[131.5048,33.2369],[131.5043,33.2321],[131.5015,33.227],[131.498,33.225],[131.4839,33.2264],[131.4681,33.2317],[131.464,33.2353],[131.458,33.238],[131.4478,33.2337],[131.4413,33.2328],[131.4279,33.2339],[131.4209,33.2331],[131.4052,33.2276],[131.3995,33.2272],[131.3946,33.2285],[131.381,33.2339],[131.3774,33.2393],[131.3787,33.2476],[131.3807,33.2506],[131.3899,33.2585],[131.3907,33.2638],[131.3878,33.2686],[131.3883,33.2791],[131.3912,33.2814],[131.4021,33.2811],[131.4175,33.2914],[131.4186,33.2942],[131.4205,33.3083],[131.4254,33.3146],[131.4261,33.321],[131.4241,33.3249],[131.4203,33.3256],[131.4111,33.3231],[131.4018,33.3233],[131.3969,33.3249],[131.3932,33.3308]]]}}]}