{"type":"FeatureCollection","features":[{"type":"Feature","properties":{"id":45001},"geometry":{"type":"Polygon","coordinates":[[[131.165,31.9833],[131.1855,31.979],[131.1952,31.9792],[131.2101,31.9847],[131.2153,31.9828],[131.2218,31.9705],[131.2363,31.9669],[131.2415,31.9663],[131.2576,31.9662],[131.2804,31.9733],[131.2802,31.9808],[131.2784,31.996],[131.2738,32.0144],[131.27,32.0216],[131.2657,32.0251],[131.2413,32.0352],[131.2349,32.0385],[131.2266,32.0507],[131.218,32.0621],[131.2121,32.0727],[131.2073,32.0775],[131.2008,32.0891],[131.1961,32.1045],[131.1957,32.1148],[131.1973,32.1237],[131.1871,32.1206],[131.1837,32.1183],[131.1795,32.113],[131.1807,32.1001],[131.1824,32.0927],[131.1859,32.0849],[131.1851,32.0794],[131.174,32.0695],[131.1717,32.0655],[131.1664,32.0601],[131.1641,32.052],[131.1637,32.0326],[131.1592,32.019],[131.1589,32.0134],[131.1648,31.9973],[131.165,31.9833]]]}},{"type":"Feature","properties":{"id":45002},"geometry":{"type":"Polygon","coordinates":[[[130.7069,32.0543],[130.7147,32.0484],[130.7254,32.0488],[130.7386,32.0453],[130.75,32.0314],[130.7632,32.0247],[130.7713,32.0166],[130.7805,32.0112],[130.7809,32],[130.7851,31.9785],[130.7931,31.9713],[130.7988,31.9614],[130.8016,31.9499],[130.8138,31.9413],[130.8212,31.9402],[130.8339,31.9381],[130.8453,31.9376],[130.8566,31.9349],[130.8602,31.9325],[130.8681,31.9403],[130.8808,31.962],[130.8936,31.9655],[130.8945,31.9737],[130.8911,31.9825],[130.8878,31.9875],[130.8842,31.9957],[130.8838,32.0025],[130.8858,32.0137],[130.8907,32.0262],[130.8945,32.0298],[130.9029,32.0311],[130.9261,32.0306],[130.9344,32.0314],[130.9397,32.0382],[130.9423,32.0462],[130.9496,32.0564],[130.958,32.064],[130.9602,32.068],[130.9659,32.0736],[130.9695,32.0815],[130.9694,32.0936],[130.9651,32.1102],[130.9695,32.1171],[130.9637,32.1166],[130.9544,32.112],[130.9449,32.1153],[130.9352,32.1125],[130.9246,32.1202],[130.9114,32.1272],[130.9061,32.1265],[130.9012,32.1258],[130.8911,32.1197],[130.8796,32.1168],[130.8605,32.0964],[130.8508,32.1006],[130.8392,32.1032],[130.8292,32.0992],[130.8218,32.0915],[130.8112,32.0955],[130.7899,32.0956],[130.7789,32.0972],[130.7674,32.0972],[130.75,32.0999],[130.74,32.103],[130.7302,32.0986],[130.7187,32.0833],[130.7086,32.0765],[130.7059,32.0628],[130.7069,32.0543]]]}},{"type":"Feature","properties":{"id":45003},"geometry":{"type":"Polygon","coordinates":[[[131.0964,32.5771],[131.1008,32.577],[131.1069,32.5737],[131.114,32.5671],[131.1188,32.5604],[131.1241,32.5595],[131.1331,32.5616],[131.1419,32.5614],[131.1533,32.5585],[131.1597,32.5597],[131.1711,32.5667],[131.1791,32.5767],[131.1826,32.5834],[131.1873,32.5955],[131.1934,32.5965],[131.2031,32.5922],[131.2164,32.5908],[131.2303,32.5894],[131.2395,32.5912],[131.2469,32.5976],[131.2536,32.6081],[131.2556,32.6158],[131.259,32.6219],[131.2699,32.6361],[131.275,32.6494],[131.2747,32.6592],[131.2682,32.6697],[131.2624,32.6734],[131.256,32.6744],[131.2436,32.6796],[131.2428,32.6855],[131.2475,32.6932],[131.2485,32.6993],[131.2464,32.7051],[131.2471,32.7097],[131.2524,32.7173],[131.2544,32.7234],[131.2543,32.7311],[131.252,32.7364],[131.2456,32.7423],[131.2381,32.7455],[131.2373,32.7412],[131.2264,32.7349],[131.2186,32.7279],[131.2082,32.7267],[131.1986,32.7232],[131.1879,32.7136],[131.1842,32.703],[131.1795,32.6937],[131.177,32.6837],[131.1776,32.6737],[131.1654,32.6684],[131.1583,32.6754],[131.1476,32.6736],[131.1375,32.6581],[131.1294,32.6505],[131.125,32.6407],[131.1217,32.6241],[131.1184,32.6121],[131.1231,32.6019],[131.1166,32.59],[131.1084,32.5833],[131.0964,32.5771]]]}},{"type":"Feature","properties":{"id":45004},"geometry":{"type":"Polygon","coordinates":[[[131.4354,32.5617],[131.4393,32.567],[131.4536,32.5813],[131.456,32.588],[131.4562,32.5957],[131.4476,32.6174],[131.4456,32.6204],[131.4436,32.6283],[131.4437,32.6462],[131.4451,32.6535],[131.4457,32.6635],[131.4478,32.6706],[131.4517,32.6768],[131.4533,32.6825],[131.457,32.6891],[131.4639,32.6951],[131.4717,32.6991],[131.4791,32.7054],[131.4829,32.7119],[131.4835,32.7195],[131.4806,32.7353],[131.4825,32.7425],[131.489,32.7456],[131.4974,32.7473],[131.4912,32.7608],[131.4909,32.7667],[131.493,32.7692],[131.5073,32.775],[131.511,32.7779],[131.5147,32.7877],[131.5197,32.7974],[131.5094,32.8029],[131.4914,32.8163],[131.4836,32.8248],[131.4774,32.834],[131.461,32.8265],[131.4483,32.8263],[131.4386,32.8241],[131.433,32.8149],[131.4184,32.8098],[131.4145,32.8096],[131.4094,32.7919],[131.4059,32.7852],[131.3867,32.7606],[131.3812,32.7505],[131.3661,32.737],[131.364,32.7329],[131.3588,32.7277],[131.3508,32.7136],[131.3456,32.7098],[131.3352,32.7076],[131.3314,32.7049],[131.3267,32.6959],[131.33,32.6839],[131.3295,32.6727],[131.324,32.6581],[131.323,32.6493],[131.3189,32.6414],[131.3073,32.6313],[131.318,32.6254],[131.3239,32.6207],[131.3334,32.6151],[131.3426,32.6127],[131.3506,32.6122],[131.356,32.6104],[131.3594,32.6063],[131.3639,32.5944],[131.3687,32.5873],[131.3709,32.582],[131.3758,32.5766],[131.3822,32.5638],[131.3897,32.5658],[131.3985,32.5666],[131.4052,32.5654],[131.4139,32.5607],[131.4279,32.56],[131.4354,32.5617]]]}},{"type":"Feature","properties":{"id":45005},"geometry":{"type":"Polygon","coordinates":[[[131.5879,32.2964],[131.5941,32.3107],[131.6035,32.325],[131.6086,32.3293],[131.6106,32.3338],[131.6186,32.3372],[131.6214,32.3409],[131.6267,32.3392],[131.6297,32.3472],[131.6255,32.3539],[131.622,32.3562],[131.6249,32.3644],[131.6286,32.3658],[131.6331,32.3706],[131.6381,32.3709],[131.6353,32.3775],[131.6309,32.3805],[131.6342,32.3908],[131.64,32.3993],[131.6421,32.4074],[131.6529,32.4113],[131.6597,32.4122],[131.6672,32.4106],[131.6782,32.4162],[131.6858,32.4181],[131.6858,32.4208],[131.69,32.4228],[131.6878,32.4256],[131.6833,32.4259],[131.6761,32.4215],[131.6707,32.4309],[131.6792,32.4297],[131.6806,32.4408],[131.6772,32.445],[131.67,32.4402],[131.6651,32.4416],[131.6628,32.445],[131.6575,32.4452],[131.6513,32.437],[131.6461,32.4367],[131.6466,32.4415],[131.6499,32.4411],[131.6564,32.4463],[131.6533,32.4505],[131.6377,32.4558],[131.6174,32.4584],[131.6143,32.4601],[131.6082,32.4661],[131.6022,32.4693],[131.5915,32.4703],[131.5864,32.4676],[131.5823,32.4626],[131.5778,32.4539],[131.5664,32.4469],[131.5516,32.4423],[131.5442,32.441],[131.536,32.4413],[131.5279,32.4456],[131.5226,32.4473],[131.5111,32.453],[131.4992,32.4556],[131.4921,32.4553],[131.4814,32.4491],[131.4803,32.445],[131.4829,32.43],[131.484,32.4161],[131.4817,32.4118],[131.4677,32.4002],[131.4573,32.3945],[131.4401,32.3876],[131.4299,32.3829],[131.4252,32.3816],[131.4106,32.3757],[131.4055,32.3726],[131.4001,32.3654],[131.3867,32.3541],[131.3838,32.3531],[131.3774,32.3543],[131.3691,32.359],[131.3588,32.3593],[131.3528,32.3568],[131.3504,32.353],[131.3474,32.3449],[131.3462,32.3389],[131.3457,32.3244],[131.3627,32.3206],[131.3688,32.3167],[131.3728,32.311],[131.3784,32.3077],[131.3839,32.307],[131.4015,32.3068],[131.4094,32.3058],[131.4297,32.3043],[131.4541,32.3058],[131.4632,32.308],[131.4728,32.3089],[131.4771,32.307],[131.4837,32.2981],[131.4857,32.294],[131.4921,32.2899],[131.499,32.289],[131.5057,32.2908],[131.5165,32.2979],[131.5211,32.2997],[131.5369,32.3126],[131.5446,32.3146],[131.5539,32.314],[131.5576,32.3087],[131.5601,32.3],[131.5647,32.2953],[131.5726,32.2935],[131.5789,32.3007],[131.5831,32.3002],[131.5879,32.2964]]]}},{"type":"Feature","properties":{"id":45006},"geometry":{"type":"MultiPolygon","coordinates":[[[[131.6708,32.4697],[131.6678,32.4708],[131.6658,32.4664],[131.6714,32.465],[131.6708,32.4697]]],[[[131.5111,32.453],[131.5226,32.4473],[131.5279,32.4456],[131.536,32.4413],[131.5442,32.441],[131.5516,32.4423],[131.5664,32.4469],[131.5778,32.4539],[131.5823,32.4626],[131.5864,32.4676],[131.5915,32.4703],[131.6022,32.4693],[131.6082,32.4661],[131.6143,32.4601],[131.6174,32.4584],[131.6377,32.4558],[131.6533,32.4505],[131.655,32.4544],[131.6506,32.4576],[131.6503,32.4617],[131.6522,32.4656],[131.6593,32.4688],[131.6572,32.4803],[131.6603,32.4831],[131.67,32.48],[131.6707,32.4768],[131.6781,32.4833],[131.6803,32.4803],[131.6772,32.4756],[131.6831,32.4703],[131.687,32.4692],[131.6958,32.4692],[131.6994,32.4725],[131.7061,32.4747],[131.7119,32.4814],[131.7172,32.4836],[131.7292,32.4925],[131.7267,32.4942],[131.7097,32.4941],[131.6881,32.4919],[131.6801,32.4932],[131.6724,32.4986],[131.6622,32.5044],[131.6435,32.5104],[131.6286,32.5146],[131.6139,32.5221],[131.6071,32.525],[131.5921,32.5293],[131.5887,32.5308],[131.5813,32.5408],[131.5709,32.5408],[131.5522,32.5359],[131.5426,32.5346],[131.531,32.5306],[131.5349,32.5039],[131.5335,32.4944],[131.5255,32.4875],[131.5213,32.4824],[131.5171,32.4668],[131.5111,32.453]]]]}},{"type":"Feature","properties":{"id":45007},"geometry":{"type":"Polygon","coordinates":[[[131.5712,32.2315],[131.5537,32.2324],[131.5425,32.236],[131.5282,32.2393],[131.4983,32.2396],[131.4934,32.2401],[131.4886,32.2431],[131.4798,32.2509],[131.4733,32.254],[131.4681,32.2537],[131.4587,32.2405],[131.454,32.238],[131.4417,32.2339],[131.4445,32.219],[131.4472,32.1995],[131.4536,32.1905],[131.4605,32.1845],[131.4721,32.177],[131.4822,32.168],[131.4906,32.1577],[131.4951,32.1534],[131.5061,32.1508],[131.5134,32.1504],[131.5192,32.1547],[131.5204,32.1603],[131.5238,32.1629],[131.5278,32.1618],[131.5421,32.1538],[131.5478,32.1694],[131.5533,32.1781],[131.5522,32.1819],[131.5549,32.1977],[131.557,32.2002],[131.5611,32.2133],[131.5693,32.2304],[131.5712,32.2315]]]}},{"type":"Feature","properties":{"id":45008},"geometry":{"type":"Polygon","coordinates":[[[131.3457,32.3244],[131.3239,32.3174],[131.3048,32.3099],[131.3,32.3086],[131.2897,32.3034],[131.2999,32.2997],[131.3208,32.2905],[131.3309,32.2846],[131.3394,32.2771],[131.3477,32.2726],[131.352,32.2676],[131.354,32.2581],[131.359,32.2447],[131.3665,32.2322],[131.37,32.2292],[131.3776,32.2251],[131.388,32.2154],[131.3897,32.2118],[131.4014,32.1958],[131.4047,32.1869],[131.4091,32.1708],[131.4155,32.1617],[131.4192,32.1581],[131.4469,32.1341],[131.4537,32.132],[131.4608,32.1339],[131.474,32.1418],[131.4951,32.1534],[131.4906,32.1577],[131.4822,32.168],[131.4721,32.177],[131.4605,32.1845],[131.4536,32.1905],[131.4472,32.1995],[131.4445,32.219],[131.4417,32.2339],[131.4381,32.2465],[131.434,32.2563],[131.4327,32.2655],[131.4289,32.2785],[131.4287,32.2926],[131.4297,32.3043],[131.4094,32.3058],[131.4015,32.3068],[131.3839,32.307],[131.3784,32.3077],[131.3728,32.311],[131.3688,32.3167],[131.3627,32.3206],[131.3457,32.3244]]]}},{"type":"Feature","properties":{"id":45009},"geometry":{"type":"Polygon","coordinates":[[[131.3245,31.7858],[131.313,31.779],[131.3058,31.7725],[131.3016,31.764],[131.2946,31.7613],[131.2745,31.7656],[131.2694,31.7555],[131.2643,31.7486],[131.2592,31.7391],[131.2481,31.7301],[131.2435,31.7288],[131.2375,31.7232],[131.235,31.7157],[131.2291,31.7094],[131.2241,31.7066],[131.2112,31.704],[131.2151,31.6987],[131.2232,31.6919],[131.2394,31.6829],[131.2607,31.6766],[131.2692,31.6754],[131.2816,31.6721],[131.2911,31.6703],[131.299,31.6699],[131.3292,31.6698],[131.3355,31.6691],[131.3565,31.6598],[131.3623,31.6561],[131.3668,31.6514],[131.3706,31.6421],[131.3743,31.6394],[131.3842,31.6397],[131.3944,31.6431],[131.4018,31.6486],[131.4064,31.657],[131.4073,31.6665],[131.4117,31.684],[131.4115,31.6883],[131.4081,31.6923],[131.3963,31.7026],[131.3943,31.7065],[131.3937,31.7121],[131.3943,31.7495],[131.394,31.7622],[131.3886,31.7692],[131.3843,31.7704],[131.3675,31.7696],[131.3543,31.7714],[131.3483,31.7741],[131.3416,31.779],[131.3323,31.7794],[131.3289,31.7809],[131.3245,31.7858]]]}},{"type":"Feature","properties":{"id":45010},"geometry":{"type":"Polygon","coordinates":[[[131.3416,31.779],[131.3449,31.7837],[131.3537,31.8018],[131.3604,31.8107],[131.3693,31.8193],[131.3803,31.8257],[131.3909,31.8276],[131.4044,31.8273],[131.4106,31.8279],[131.4131,31.8296],[131.4145,31.8355],[131.4138,31.8514],[131.4075,31.8692],[131.4043,31.8731],[131.3969,31.8751],[131.3781,31.8748],[131.3589,31.8719],[131.3533,31.8679],[131.3535,31.8617],[131.3489,31.8567],[131.3416,31.8529],[131.3393,31.8494],[131.34,31.8424],[131.3456,31.8293],[131.3456,31.8245],[131.3384,31.8102],[131.3265,31.7915],[131.3245,31.7858],[131.3289,31.7809],[131.3323,31.7794],[131.3416,31.779]]]}},{"type":"Feature","properties":{"id":45011},"geometry":{"type":"Polygon","coordinates":[[[130.8936,31.8648],[130.9011,31.8689],[130.914,31.8787],[130.9166,31.8966],[130.9206,31.9056],[130.9254,31.9103],[130.9275,31.9144],[130.934,31.9225],[130.9408,31.9235],[130.9481,31.9214],[130.9563,31.9218],[130.9646,31.9265],[130.9675,31.9315],[130.9676,31.943],[130.9692,31.9487],[130.9755,31.9585],[130.9789,31.9617],[130.9877,31.9635],[130.9915,31.9612],[130.9963,31.9508],[131.0087,31.9425],[131.0132,31.9416],[131.021,31.9448],[131.0323,31.9533],[131.0265,31.9614],[131.0244,31.9685],[131.0263,31.9736],[131.0309,31.9785],[131.0397,31.9849],[131.0458,31.9866],[131.0549,31.9871],[131.0618,31.9888],[131.0717,31.9935],[131.0774,31.9935],[131.0926,31.9906],[131.1016,31.9877],[131.1097,31.9842],[131.1224,31.9766],[131.1309,31.9732],[131.1394,31.9724],[131.1463,31.9734],[131.1599,31.9793],[131.165,31.9833],[131.1648,31.9973],[131.1589,32.0134],[131.1592,32.019],[131.1637,32.0326],[131.1641,32.052],[131.1664,32.0601],[131.1717,32.0655],[131.174,32.0695],[131.1851,32.0794],[131.1859,32.0849],[131.1824,32.0927],[131.1807,32.1001],[131.1795,32.113],[131.1727,32.1199],[131.1637,32.1236],[131.1517,32.1239],[131.1407,32.1277],[131.1349,32.1324],[131.1152,32.1439],[131.1064,32.1482],[131.1062,32.1547],[131.1015,32.1516],[131.0905,32.1509],[131.0789,32.1547],[131.0667,32.1532],[131.0564,32.1543],[131.0464,32.1592],[131.0396,32.1666],[131.0216,32.1666],[131.0101,32.1688],[131.0009,32.1582],[130.9921,32.1435],[130.9912,32.142],[130.9812,32.1368],[130.9758,32.1281],[130.9745,32.1176],[130.9695,32.1171],[130.9651,32.1102],[130.9694,32.0936],[130.9695,32.0815],[130.9659,32.0736],[130.9602,32.068],[130.958,32.064],[130.9496,32.0564],[130.9423,32.0462],[130.9397,32.0382],[130.9344,32.0314],[130.9261,32.0306],[130.9029,32.0311],[130.8945,32.0298],[130.8907,32.0262],[130.8858,32.0137],[130.8838,32.0025],[130.8842,31.9957],[130.8878,31.9875],[130.8911,31.9825],[130.8945,31.9737],[130.8936,31.9655],[130.8808,31.962],[130.8681,31.9403],[130.8602,31.9325],[130.872,31.9245],[130.8831,31.9182],[130.8887,31.9065],[130.8942,31.898],[130.8991,31.8873],[130.8936,31.8648]]]}},{"type":"Feature","properties":{"id":45012},"geometry":{"type":"Polygon","coordinates":[[[131.2804,31.9733],[131.2954,31.9712],[131.3029,31.9679],[131.3091,31.9634],[131.3181,31.9614],[131.3324,31.9618],[131.3465,31.968],[131.3543,31.9695],[131.3614,31.9684],[131.3701,31.963],[131.3748,31.9631],[131.3812,31.969],[131.3835,31.9738],[131.3867,31.9847],[131.3887,31.9996],[131.3877,32.0054],[131.3775,32.0121],[131.364,32.0163],[131.3497,32.0225],[131.3362,32.0346],[131.3312,32.0418],[131.3228,32.0493],[131.3178,32.0566],[131.3143,32.0597],[131.2975,32.0639],[131.2839,32.0682],[131.2791,32.0734],[131.271,32.0889],[131.2656,32.0919],[131.2603,32.0932],[131.2499,32.0936],[131.2354,32.0975],[131.2202,32.1108],[131.212,32.1154],[131.2059,32.1199],[131.1973,32.1237],[131.1957,32.1148],[131.1961,32.1045],[131.2008,32.0891],[131.2073,32.0775],[131.2121,32.0727],[131.218,32.0621],[131.2266,32.0507],[131.2349,32.0385],[131.2413,32.0352],[131.2657,32.0251],[131.27,32.0216],[131.2738,32.0144],[131.2784,31.996],[131.2802,31.9808],[131.2804,31.9733]]]}},{"type":"Feature","properties":{"id":45013},"geometry":{"type":"MultiPolygon","coordinates":[[[[131.3909,31.4728],[131.3929,31.4784],[131.3887,31.48],[131.3873,31.4762],[131.3909,31.4728]]],[[[131.3795,31.4542],[131.3747,31.4561],[131.3722,31.4522],[131.3779,31.4485],[131.3795,31.4542]]],[[[131.1889,31.6216],[131.1902,31.6211],[131.1885,31.6088],[131.1905,31.599],[131.1998,31.5915],[131.2054,31.581],[131.2062,31.5705],[131.202,31.5607],[131.1928,31.5542],[131.1999,31.5408],[131.2021,31.5303],[131.2025,31.5179],[131.1993,31.5082],[131.1783,31.5],[131.1653,31.4801],[131.1641,31.4631],[131.165,31.4578],[131.1707,31.4548],[131.1701,31.4524],[131.1745,31.4495],[131.1786,31.45],[131.1785,31.4553],[131.1821,31.457],[131.1887,31.4551],[131.1989,31.4555],[131.206,31.4532],[131.2103,31.4484],[131.2109,31.4426],[131.2138,31.4427],[131.2205,31.4384],[131.2258,31.4316],[131.2271,31.4246],[131.2309,31.426],[131.2343,31.431],[131.2417,31.4277],[131.2452,31.4223],[131.2446,31.4195],[131.2364,31.4152],[131.2358,31.4055],[131.2388,31.4023],[131.2398,31.3951],[131.2429,31.3889],[131.2459,31.3856],[131.2547,31.3801],[131.2626,31.3789],[131.2769,31.3816],[131.2832,31.381],[131.2874,31.3829],[131.2925,31.389],[131.2966,31.3849],[131.3041,31.3871],[131.3092,31.3902],[131.3124,31.3887],[131.3155,31.3802],[131.3159,31.3718],[131.3237,31.3645],[131.3279,31.3639],[131.3355,31.3601],[131.3418,31.361],[131.3475,31.3637],[131.3507,31.3711],[131.3453,31.3768],[131.3351,31.3814],[131.3324,31.3882],[131.3336,31.3932],[131.3322,31.3968],[131.3381,31.3994],[131.3461,31.3981],[131.3472,31.4003],[131.3409,31.4042],[131.3417,31.4096],[131.3456,31.4136],[131.3525,31.4148],[131.3546,31.4177],[131.3644,31.4198],[131.3681,31.4258],[131.3718,31.4285],[131.373,31.4367],[131.3711,31.4452],[131.3716,31.4481],[131.3644,31.4553],[131.3623,31.4633],[131.3619,31.4702],[131.3743,31.4765],[131.3813,31.4785],[131.386,31.4812],[131.3897,31.486],[131.3878,31.4894],[131.3836,31.4913],[131.3833,31.4953],[131.3665,31.4921],[131.3428,31.492],[131.3363,31.4926],[131.3218,31.4963],[131.2997,31.4972],[131.2948,31.4999],[131.2881,31.5125],[131.2879,31.5288],[131.2869,31.533],[131.2805,31.542],[131.2684,31.5529],[131.2673,31.5568],[131.2704,31.5693],[131.2624,31.5764],[131.2584,31.5829],[131.2565,31.59],[131.2564,31.6055],[131.2551,31.6136],[131.2486,31.6183],[131.2334,31.6192],[131.2223,31.624],[131.2061,31.6369],[131.2002,31.63],[131.1889,31.6216]]]]}},{"type":"Feature","properties":{"id":45014},"geometry":{"type":"Polygon","coordinates":[[[131.2745,31.7656],[131.2627,31.7705],[131.2492,31.7724],[131.2416,31.7764],[131.2386,31.7862],[131.2375,31.7942],[131.2311,31.7883],[131.2194,31.7724],[131.2085,31.7602],[131.2044,31.7588],[131.1903,31.7485],[131.181,31.7399],[131.1716,31.7365],[131.1607,31.7355],[131.1535,31.7372],[131.1486,31.7403],[131.1459,31.7446],[131.1412,31.7576],[131.1287,31.7651],[131.122,31.768],[131.1167,31.7687],[131.1121,31.7665],[131.1087,31.7622],[131.1036,31.7446],[131.1014,31.7409],[131.1005,31.7342],[131.1001,31.7132],[131.1016,31.7072],[131.1148,31.6989],[131.1195,31.6971],[131.1231,31.6934],[131.1223,31.6833],[131.1244,31.6778],[131.1326,31.6731],[131.1385,31.6685],[131.1432,31.6669],[131.1519,31.6666],[131.1602,31.6683],[131.1687,31.6818],[131.1765,31.69],[131.1878,31.6964],[131.205,31.7008],[131.2112,31.704],[131.2241,31.7066],[131.2291,31.7094],[131.235,31.7157],[131.2375,31.7232],[131.2435,31.7288],[131.2481,31.7301],[131.2592,31.7391],[131.2643,31.7486],[131.2694,31.7555],[131.2745,31.7656]]]}},{"type":"Feature","properties":{"id":45015},"geometry":{"type":"Polygon","coordinates":[[[131.3822,32.5638],[131.3825,32.5582],[131.3788,32.5383],[131.3821,32.5344],[131.3962,32.5271],[131.4011,32.5229],[131.4026,32.5195],[131.4032,32.5079],[131.407,32.4987],[131.415,32.4911],[131.4151,32.4867],[131.4116,32.481],[131.4067,32.4762],[131.3979,32.4654],[131.3949,32.4647],[131.3895,32.4692],[131.3875,32.4769],[131.3873,32.4865],[131.3854,32.4915],[131.3823,32.4933],[131.3717,32.4942],[131.3646,32.4955],[131.349,32.5035],[131.3421,32.5055],[131.338,32.5053],[131.334,32.5023],[131.3325,32.4984],[131.3273,32.4952],[131.3146,32.4961],[131.3023,32.5009],[131.2881,32.5042],[131.2893,32.4953],[131.2945,32.4826],[131.2993,32.4754],[131.3002,32.472],[131.2986,32.4628],[131.2938,32.4553],[131.2881,32.4533],[131.2759,32.4505],[131.2713,32.4483],[131.2567,32.436],[131.2548,32.4322],[131.256,32.424],[131.2617,32.4116],[131.2623,32.4059],[131.258,32.3939],[131.2446,32.376],[131.2382,32.3719],[131.219,32.3682],[131.2101,32.3677],[131.2045,32.3647],[131.2037,32.3594],[131.2032,32.3393],[131.2022,32.3353],[131.2094,32.3299],[131.2158,32.3236],[131.2181,32.3198],[131.2243,32.3176],[131.2439,32.32],[131.2601,32.3196],[131.2637,32.3179],[131.2698,32.3113],[131.2756,32.3074],[131.2843,32.3056],[131.2897,32.3034],[131.3,32.3086],[131.3048,32.3099],[131.3239,32.3174],[131.3457,32.3244],[131.3462,32.3389],[131.3474,32.3449],[131.3504,32.353],[131.3528,32.3568],[131.3588,32.3593],[131.3691,32.359],[131.3774,32.3543],[131.3838,32.3531],[131.3867,32.3541],[131.4001,32.3654],[131.4055,32.3726],[131.4106,32.3757],[131.4252,32.3816],[131.4299,32.3829],[131.4401,32.3876],[131.4573,32.3945],[131.4677,32.4002],[131.4817,32.4118],[131.484,32.4161],[131.4829,32.43],[131.4803,32.445],[131.4814,32.4491],[131.4921,32.4553],[131.4992,32.4556],[131.5111,32.453],[131.5171,32.4668],[131.5213,32.4824],[131.5255,32.4875],[131.5335,32.4944],[131.5349,32.5039],[131.531,32.5306],[131.5277,32.5376],[131.5143,32.5495],[131.5096,32.5514],[131.5042,32.5555],[131.4968,32.5588],[131.4901,32.5595],[131.4714,32.5594],[131.4576,32.5541],[131.4516,32.5528],[131.4439,32.5539],[131.4407,32.5556],[131.4354,32.5617],[131.4279,32.56],[131.4139,32.5607],[131.4052,32.5654],[131.3985,32.5666],[131.3897,32.5658],[131.3822,32.5638]]]}},{"type":"Feature","properties":{"id":45016},"geometry":{"type":"Polygon","coordinates":[[[130.8927,31.8008],[130.9073,31.798],[130.9195,31.7976],[130.9279,31.791],[130.9346,31.7821],[130.9449,31.7815],[130.9684,31.7779],[130.9789,31.7789],[130.9894,31.7766],[130.9929,31.7669],[130.9835,31.7597],[130.9801,31.75],[131,31.7426],[131.0101,31.7449],[131.0202,31.7418],[131.019,31.7316],[131.0188,31.717],[131.0202,31.7026],[131.0288,31.6951],[131.0279,31.6849],[131.0284,31.6736],[131.0367,31.6588],[131.0457,31.6523],[131.0562,31.6314],[131.0652,31.6406],[131.0731,31.6505],[131.0816,31.6566],[131.0919,31.6499],[131.0988,31.6421],[131.1087,31.6357],[131.1177,31.6289],[131.1343,31.6236],[131.1663,31.6336],[131.1782,31.6261],[131.1889,31.6216],[131.2002,31.63],[131.2061,31.6369],[131.19,31.6414],[131.1817,31.6479],[131.1774,31.6541],[131.169,31.6594],[131.1602,31.6683],[131.1519,31.6666],[131.1432,31.6669],[131.1385,31.6685],[131.1326,31.6731],[131.1244,31.6778],[131.1223,31.6833],[131.1231,31.6934],[131.1195,31.6971],[131.1148,31.6989],[131.1016,31.7072],[131.1001,31.7132],[131.1005,31.7342],[131.1014,31.7409],[131.1036,31.7446],[131.1087,31.7622],[131.1121,31.7665],[131.1167,31.7687],[131.122,31.768],[131.1287,31.7651],[131.1412,31.7576],[131.1459,31.7446],[131.1486,31.7403],[131.1535,31.7372],[131.1607,31.7355],[131.1716,31.7365],[131.181,31.7399],[131.1903,31.7485],[131.2044,31.7588],[131.2085,31.7602],[131.2194,31.7724],[131.2311,31.7883],[131.2375,31.7942],[131.2364,31.8033],[131.2332,31.8122],[131.2264,31.8259],[131.2271,31.8289],[131.2318,31.8324],[131.2406,31.8367],[131.2424,31.8398],[131.2432,31.8462],[131.2456,31.8507],[131.2495,31.8534],[131.2517,31.8588],[131.2521,31.8695],[131.2483,31.8746],[131.2422,31.8722],[131.2298,31.8711],[131.2222,31.8679],[131.2141,31.8634],[131.208,31.8619],[131.2001,31.8638],[131.1914,31.8698],[131.1895,31.8754],[131.1917,31.8895],[131.1953,31.8977],[131.2024,31.9063],[131.2145,31.9073],[131.2187,31.9089],[131.2202,31.912],[131.2201,31.9194],[131.2175,31.9243],[131.1973,31.9354],[131.161,31.9359],[131.1456,31.9382],[131.1308,31.9374],[131.122,31.9343],[131.1158,31.9297],[131.1066,31.9288],[131.0909,31.9312],[131.0988,31.9191],[131.1003,31.9133],[131.0991,31.9095],[131.0926,31.9056],[131.0862,31.9048],[131.0801,31.9056],[131.0651,31.9094],[131.0598,31.9121],[131.054,31.917],[131.0455,31.9203],[131.0369,31.9199],[131.0293,31.9167],[131.0187,31.9102],[131.0087,31.896],[131.0032,31.8861],[130.9928,31.8755],[130.9864,31.8741],[130.9689,31.879],[130.9574,31.8805],[130.9336,31.8783],[130.914,31.8787],[130.9011,31.8689],[130.8936,31.8648],[130.8882,31.8434],[130.8779,31.8402],[130.8796,31.8213],[130.8814,31.8114],[130.8866,31.802],[130.8927,31.8008]]]}},{"type":"Feature","properties":{"id":45017},"geometry":{"type":"Polygon","coordinates":[[[131.2804,31.9733],[131.2576,31.9662],[131.2415,31.9663],[131.2363,31.9669],[131.2218,31.9705],[131.2133,31.9658],[131.2062,31.9598],[131.2007,31.9502],[131.1973,31.9354],[131.2175,31.9243],[131.2201,31.9194],[131.2202,31.912],[131.2187,31.9089],[131.2145,31.9073],[131.2024,31.9063],[131.1953,31.8977],[131.1917,31.8895],[131.1895,31.8754],[131.1914,31.8698],[131.2001,31.8638],[131.208,31.8619],[131.2141,31.8634],[131.2222,31.8679],[131.2298,31.8711],[131.2422,31.8722],[131.2483,31.8746],[131.2521,31.8695],[131.2517,31.8588],[131.2495,31.8534],[131.2456,31.8507],[131.2432,31.8462],[131.2424,31.8398],[131.2406,31.8367],[131.2318,31.8324],[131.2271,31.8289],[131.2264,31.8259],[131.2332,31.8122],[131.2364,31.8033],[131.2375,31.7942],[131.2386,31.7862],[131.2416,31.7764],[131.2492,31.7724],[131.2627,31.7705],[131.2745,31.7656],[131.2946,31.7613],[131.3016,31.764],[131.3058,31.7725],[131.313,31.779],[131.3245,31.7858],[131.3265,31.7915],[131.3384,31.8102],[131.3456,31.8245],[131.3456,31.8293],[131.34,31.8424],[131.3393,31.8494],[131.3416,31.8529],[131.3489,31.8567],[131.3535,31.8617],[131.3533,31.8679],[131.3589,31.8719],[131.3781,31.8748],[131.3969,31.8751],[131.4043,31.8731],[131.4075,31.8692],[131.4138,31.8514],[131.4145,31.8355],[131.4131,31.8296],[131.4106,31.8279],[131.4044,31.8273],[131.3909,31.8276],[131.3803,31.8257],[131.3693,31.8193],[131.3604,31.8107],[131.3537,31.8018],[131.3449,31.7837],[131.3416,31.779],[131.3483,31.7741],[131.3543,31.7714],[131.3675,31.7696],[131.3843,31.7704],[131.3886,31.7692],[131.394,31.7622],[131.3943,31.7495],[131.4082,31.7415],[131.4246,31.7338],[131.4367,31.7259],[131.4429,31.724],[131.4537,31.7232],[131.4584,31.7216],[131.4628,31.7178],[131.4674,31.721],[131.4675,31.7271],[131.4628,31.7336],[131.4721,31.7402],[131.468,31.749],[131.468,31.7521],[131.472,31.758],[131.4761,31.7601],[131.4783,31.7679],[131.4818,31.7711],[131.4883,31.7855],[131.4817,31.786],[131.4775,31.7927],[131.4729,31.7946],[131.4698,31.7977],[131.4706,31.8026],[131.4612,31.8069],[131.4539,31.8158],[131.4461,31.8141],[131.4447,31.8158],[131.4541,31.8192],[131.4523,31.8302],[131.4489,31.8372],[131.4515,31.8416],[131.453,31.8648],[131.4545,31.8721],[131.457,31.8751],[131.462,31.8756],[131.4631,31.8782],[131.4565,31.8807],[131.4569,31.886],[131.4551,31.8904],[131.4557,31.8941],[131.4644,31.8964],[131.4664,31.9046],[131.4578,31.9041],[131.4578,31.9095],[131.4598,31.9156],[131.464,31.9238],[131.4671,31.9232],[131.4683,31.9312],[131.4726,31.9493],[131.4758,31.9554],[131.4763,31.9602],[131.49,32.0019],[131.4908,32.0084],[131.4937,32.0135],[131.5024,32.0381],[131.5009,32.0417],[131.4973,32.0431],[131.486,32.0381],[131.4744,32.0413],[131.4613,32.0423],[131.4499,32.0451],[131.4443,32.0476],[131.4312,32.0499],[131.422,32.0508],[131.4028,32.0509],[131.3988,32.048],[131.3977,32.0359],[131.3957,32.0256],[131.3898,32.0124],[131.3877,32.0054],[131.3887,31.9996],[131.3867,31.9847],[131.3835,31.9738],[131.3812,31.969],[131.3748,31.9631],[131.3701,31.963],[131.3614,31.9684],[131.3543,31.9695],[131.3465,31.968],[131.3324,31.9618],[131.3181,31.9614],[131.3091,31.9634],[131.3029,31.9679],[131.2954,31.9712],[131.2804,31.9733]]]}},{"type":"Feature","properties":{"id":45018},"geometry":{"type":"Polygon","coordinates":[[[131.2164,32.5908],[131.2231,32.5671],[131.2241,32.5605],[131.2231,32.5536],[131.22,32.5426],[131.2198,32.5293],[131.2227,32.5261],[131.2378,32.5257],[131.2447,32.5243],[131.2529,32.52],[131.26,32.5185],[131.2698,32.5179],[131.2764,32.5158],[131.2865,32.5067],[131.2881,32.5042],[131.3023,32.5009],[131.3146,32.4961],[131.3273,32.4952],[131.3325,32.4984],[131.334,32.5023],[131.338,32.5053],[131.3421,32.5055],[131.349,32.5035],[131.3646,32.4955],[131.3717,32.4942],[131.3823,32.4933],[131.3854,32.4915],[131.3873,32.4865],[131.3875,32.4769],[131.3895,32.4692],[131.3949,32.4647],[131.3979,32.4654],[131.4067,32.4762],[131.4116,32.481],[131.4151,32.4867],[131.415,32.4911],[131.407,32.4987],[131.4032,32.5079],[131.4026,32.5195],[131.4011,32.5229],[131.3962,32.5271],[131.3821,32.5344],[131.3788,32.5383],[131.3825,32.5582],[131.3822,32.5638],[131.3758,32.5766],[131.3709,32.582],[131.3687,32.5873],[131.3639,32.5944],[131.3594,32.6063],[131.356,32.6104],[131.3506,32.6122],[131.3426,32.6127],[131.3334,32.6151],[131.3239,32.6207],[131.318,32.6254],[131.3073,32.6313],[131.2971,32.6322],[131.2699,32.6361],[131.259,32.6219],[131.2556,32.6158],[131.2536,32.6081],[131.2469,32.5976],[131.2395,32.5912],[131.2303,32.5894],[131.2164,32.5908]]]}},{"type":"Feature","properties":{"id":45019},"geometry":{"type":"MultiPolygon","coordinates":[[[[131.2704,31.5693],[131.2673,31.5568],[131.2684,31.5529],[131.2805,31.542],[131.2869,31.533],[131.2879,31.5288],[131.2881,31.5125],[131.2948,31.4999],[131.2997,31.4972],[131.3218,31.4963],[131.3363,31.4926],[131.3428,31.492],[131.3665,31.4921],[131.3833,31.4953],[131.3871,31.4992],[131.3852,31.503],[131.3768,31.5045],[131.3737,31.5067],[131.3764,31.5119],[131.3728,31.5172],[131.3775,31.5197],[131.3786,31.5146],[131.3847,31.5184],[131.3849,31.5249],[131.3804,31.5264],[131.3859,31.5339],[131.3846,31.5364],[131.3885,31.5407],[131.3833,31.5418],[131.383,31.5447],[131.377,31.5471],[131.377,31.5527],[131.366,31.5562],[131.351,31.5576],[131.3442,31.5566],[131.3348,31.5522],[131.3294,31.5513],[131.3086,31.5516],[131.2994,31.5553],[131.2942,31.5597],[131.2872,31.563],[131.2811,31.5645],[131.2704,31.5693]]],[[[131.4137,31.5414],[131.409,31.5414],[131.4077,31.5374],[131.4032,31.5304],[131.4096,31.5202],[131.4172,31.5116],[131.4165,31.5221],[131.4141,31.5277],[131.4172,31.5312],[131.4126,31.5381],[131.4137,31.5414]]]]}},{"type":"Feature","properties":{"id":45020},"geometry":{"type":"Polygon","coordinates":[[[131.2112,31.704],[131.205,31.7008],[131.1878,31.6964],[131.1765,31.69],[131.1687,31.6818],[131.1602,31.6683],[131.169,31.6594],[131.1774,31.6541],[131.1817,31.6479],[131.19,31.6414],[131.2061,31.6369],[131.2223,31.624],[131.2334,31.6192],[131.2486,31.6183],[131.2551,31.6136],[131.2564,31.6055],[131.2565,31.59],[131.2584,31.5829],[131.2624,31.5764],[131.2704,31.5693],[131.2811,31.5645],[131.2872,31.563],[131.2942,31.5597],[131.2994,31.5553],[131.3086,31.5516],[131.3294,31.5513],[131.3348,31.5522],[131.3442,31.5566],[131.351,31.5576],[131.366,31.5562],[131.377,31.5527],[131.3806,31.5505],[131.382,31.5563],[131.3885,31.56],[131.3936,31.557],[131.3978,31.5587],[131.3963,31.5618],[131.3995,31.5704],[131.3991,31.5762],[131.4031,31.5817],[131.4066,31.5809],[131.4072,31.5731],[131.4125,31.5731],[131.4135,31.5787],[131.4097,31.585],[131.4081,31.5922],[131.4115,31.5912],[131.4176,31.6034],[131.4247,31.6107],[131.4272,31.6095],[131.4412,31.6161],[131.4444,31.616],[131.4504,31.6207],[131.4512,31.624],[131.4558,31.6232],[131.4587,31.6294],[131.4633,31.6328],[131.4562,31.6405],[131.4576,31.6459],[131.4607,31.6464],[131.4642,31.6436],[131.4697,31.6453],[131.4665,31.6529],[131.4626,31.6529],[131.4635,31.6612],[131.4623,31.6678],[131.4512,31.6708],[131.455,31.6742],[131.4544,31.6778],[131.451,31.681],[131.4585,31.6824],[131.4672,31.6861],[131.468,31.6897],[131.4655,31.6929],[131.4622,31.6922],[131.4571,31.6949],[131.4553,31.6979],[131.4633,31.705],[131.4583,31.7074],[131.4628,31.7178],[131.4584,31.7216],[131.4537,31.7232],[131.4429,31.724],[131.4367,31.7259],[131.4246,31.7338],[131.4082,31.7415],[131.3943,31.7495],[131.3937,31.7121],[131.3943,31.7065],[131.3963,31.7026],[131.4081,31.6923],[131.4115,31.6883],[131.4117,31.684],[131.4073,31.6665],[131.4064,31.657],[131.4018,31.6486],[131.3944,31.6431],[131.3842,31.6397],[131.3743,31.6394],[131.3706,31.6421],[131.3668,31.6514],[131.3623,31.6561],[131.3565,31.6598],[131.3355,31.6691],[131.3292,31.6698],[131.299,31.6699],[131.2911,31.6703],[131.2816,31.6721],[131.2692,31.6754],[131.2607,31.6766],[131.2394,31.6829],[131.2232,31.6919],[131.2151,31.6987],[131.2112,31.704]]]}},{"type":"Feature","properties":{"id":45021},"geometry":{"type":"Polygon","coordinates":[[[131.054,32.2806],[131.0538,32.2612],[131.0441,32.2551],[131.0491,32.2406],[131.0585,32.2393],[131.0659,32.2382],[131.0731,32.2308],[131.0762,32.2203],[131.0822,32.2101],[131.0913,32.2023],[131.1027,32.1973],[131.1066,32.1879],[131.1045,32.1773],[131.1058,32.1666],[131.1112,32.1579],[131.1062,32.1547],[131.1064,32.1482],[131.1152,32.1439],[131.1349,32.1324],[131.1407,32.1277],[131.1517,32.1239],[131.1637,32.1236],[131.1727,32.1199],[131.1795,32.113],[131.1837,32.1183],[131.1871,32.1206],[131.1973,32.1237],[131.1979,32.1286],[131.2013,32.1374],[131.2049,32.1405],[131.2171,32.145],[131.2362,32.1609],[131.2415,32.1618],[131.247,32.161],[131.2532,32.1586],[131.2612,32.1596],[131.2698,32.1719],[131.2759,32.1783],[131.2774,32.185],[131.2757,32.2025],[131.2688,32.208],[131.2625,32.2099],[131.2575,32.2128],[131.2552,32.2169],[131.2473,32.2247],[131.2453,32.2288],[131.2373,32.2366],[131.2352,32.2407],[131.2269,32.252],[131.2234,32.2614],[131.2225,32.2681],[131.2197,32.274],[131.2102,32.281],[131.2075,32.2903],[131.2047,32.2945],[131.1879,32.3018],[131.1823,32.3056],[131.1364,32.3059],[131.1284,32.3063],[131.1188,32.3083],[131.1061,32.3138],[131.1037,32.3083],[131.0901,32.2897],[131.0825,32.2817],[131.0731,32.2768],[131.054,32.2806]]]}},{"type":"Feature","properties":{"id":45022},"geometry":{"type":"MultiPolygon","coordinates":[[[[131.7086,32.5875],[131.7068,32.5902],[131.7012,32.5891],[131.6957,32.5907],[131.6915,32.5899],[131.6894,32.5861],[131.7029,32.5815],[131.7086,32.5875]]],[[[131.511,32.7779],[131.5073,32.775],[131.493,32.7692],[131.4909,32.7667],[131.4912,32.7608],[131.4974,32.7473],[131.489,32.7456],[131.4825,32.7425],[131.4806,32.7353],[131.4835,32.7195],[131.4829,32.7119],[131.4791,32.7054],[131.4717,32.6991],[131.4639,32.6951],[131.457,32.6891],[131.4533,32.6825],[131.4517,32.6768],[131.4478,32.6706],[131.4457,32.6635],[131.4451,32.6535],[131.4437,32.6462],[131.4436,32.6283],[131.4456,32.6204],[131.4476,32.6174],[131.4562,32.5957],[131.456,32.588],[131.4536,32.5813],[131.4393,32.567],[131.4354,32.5617],[131.4407,32.5556],[131.4439,32.5539],[131.4516,32.5528],[131.4576,32.5541],[131.4714,32.5594],[131.4901,32.5595],[131.4968,32.5588],[131.5042,32.5555],[131.5096,32.5514],[131.5143,32.5495],[131.5277,32.5376],[131.531,32.5306],[131.5426,32.5346],[131.5522,32.5359],[131.5709,32.5408],[131.5813,32.5408],[131.5887,32.5308],[131.5921,32.5293],[131.6071,32.525],[131.6139,32.5221],[131.6286,32.5146],[131.6435,32.5104],[131.6622,32.5044],[131.6724,32.4986],[131.6801,32.4932],[131.6881,32.4919],[131.7097,32.4941],[131.7267,32.4942],[131.7286,32.4967],[131.7231,32.5015],[131.7161,32.5025],[131.7122,32.505],[131.7131,32.5167],[131.7013,32.518],[131.6984,32.5144],[131.6997,32.5092],[131.6939,32.5115],[131.6928,32.5148],[131.6888,32.5143],[131.6894,32.5101],[131.6867,32.5084],[131.6827,32.5129],[131.684,32.5158],[131.689,32.5187],[131.6878,32.5241],[131.6841,32.5284],[131.6819,32.5349],[131.6808,32.5422],[131.6844,32.5483],[131.69,32.5624],[131.7013,32.5796],[131.6947,32.5817],[131.6906,32.5846],[131.6867,32.5842],[131.6638,32.5761],[131.6539,32.568],[131.6529,32.5701],[131.6622,32.5773],[131.6723,32.5808],[131.6748,32.5837],[131.688,32.5896],[131.6894,32.5914],[131.6963,32.5924],[131.7002,32.5915],[131.7092,32.5948],[131.7142,32.5937],[131.7184,32.5892],[131.7343,32.5902],[131.7425,32.5922],[131.7447,32.5969],[131.7481,32.5997],[131.7539,32.6011],[131.7581,32.609],[131.7642,32.6128],[131.765,32.6156],[131.7606,32.6211],[131.7647,32.6236],[131.7647,32.6267],[131.7703,32.6303],[131.7735,32.6342],[131.7742,32.6419],[131.7674,32.6449],[131.7666,32.6507],[131.763,32.6544],[131.7634,32.6585],[131.7687,32.6562],[131.7742,32.6581],[131.7717,32.6622],[131.7728,32.6661],[131.7761,32.6678],[131.7781,32.6744],[131.7825,32.6753],[131.7864,32.6738],[131.7839,32.6701],[131.7848,32.6639],[131.7892,32.6614],[131.7922,32.6644],[131.7936,32.6703],[131.7931,32.6772],[131.802,32.6841],[131.8114,32.6848],[131.8189,32.6908],[131.8175,32.6942],[131.8181,32.7033],[131.8271,32.7059],[131.8315,32.7],[131.8368,32.6977],[131.8358,32.6935],[131.8456,32.69],[131.8472,32.6944],[131.8572,32.6972],[131.8522,32.7038],[131.8494,32.7033],[131.8461,32.7083],[131.8467,32.7122],[131.8511,32.7178],[131.8517,32.7225],[131.8639,32.7156],[131.8656,32.7231],[131.8603,32.7247],[131.8578,32.7283],[131.8583,32.732],[131.8622,32.7346],[131.8693,32.7337],[131.8721,32.7348],[131.8783,32.7339],[131.8772,32.7385],[131.8743,32.7387],[131.8576,32.7335],[131.8485,32.739],[131.8514,32.7513],[131.8502,32.7621],[131.8466,32.773],[131.8562,32.7954],[131.8618,32.8058],[131.8609,32.8182],[131.8503,32.8145],[131.8398,32.8168],[131.8299,32.8218],[131.8188,32.8242],[131.8098,32.819],[131.7995,32.8203],[131.7896,32.8304],[131.7788,32.8325],[131.762,32.8333],[131.738,32.8262],[131.7372,32.816],[131.7326,32.8059],[131.7304,32.7943],[131.7207,32.7874],[131.7177,32.7772],[131.7056,32.7696],[131.6939,32.7687],[131.6808,32.7661],[131.6711,32.7633],[131.6614,32.766],[131.6479,32.7681],[131.636,32.7686],[131.625,32.771],[131.6024,32.77],[131.5923,32.7705],[131.5848,32.7619],[131.577,32.7549],[131.566,32.7517],[131.5415,32.7553],[131.5325,32.76],[131.5201,32.7644],[131.5107,32.7771],[131.511,32.7779]]],[[[131.8203,32.6715],[131.8094,32.6702],[131.8062,32.6658],[131.8114,32.6619],[131.8128,32.6572],[131.8277,32.6562],[131.8327,32.6638],[131.8383,32.6669],[131.8354,32.6712],[131.8292,32.6688],[131.8203,32.6715]]]]}},{"type":"Feature","properties":{"id":45023},"geometry":{"type":"Polygon","coordinates":[[[131.165,31.9833],[131.1599,31.9793],[131.1463,31.9734],[131.1394,31.9724],[131.1309,31.9732],[131.1224,31.9766],[131.1097,31.9842],[131.1016,31.9877],[131.0926,31.9906],[131.0774,31.9935],[131.0717,31.9935],[131.0618,31.9888],[131.0549,31.9871],[131.0458,31.9866],[131.0397,31.9849],[131.0309,31.9785],[131.0263,31.9736],[131.0244,31.9685],[131.0265,31.9614],[131.0323,31.9533],[131.038,31.952],[131.0572,31.9514],[131.0683,31.9495],[131.0738,31.9461],[131.0909,31.9312],[131.1066,31.9288],[131.1158,31.9297],[131.122,31.9343],[131.1308,31.9374],[131.1456,31.9382],[131.161,31.9359],[131.1973,31.9354],[131.2007,31.9502],[131.2062,31.9598],[131.2133,31.9658],[131.2218,31.9705],[131.2153,31.9828],[131.2101,31.9847],[131.1952,31.9792],[131.1855,31.979],[131.165,31.9833]]]}},{"type":"Feature","properties":{"id":45024},"geometry":{"type":"Polygon","coordinates":[[[131.2897,32.3034],[131.2843,32.3056],[131.2756,32.3074],[131.2698,32.3113],[131.2637,32.3179],[131.2601,32.3196],[131.2439,32.32],[131.2243,32.3176],[131.2181,32.3198],[131.2158,32.3236],[131.2094,32.3299],[131.2022,32.3353],[131.1888,32.3259],[131.1843,32.3239],[131.1819,32.3202],[131.1813,32.3112],[131.1823,32.3056],[131.1879,32.3018],[131.2047,32.2945],[131.2075,32.2903],[131.2102,32.281],[131.2197,32.274],[131.2225,32.2681],[131.2234,32.2614],[131.2269,32.252],[131.2352,32.2407],[131.2373,32.2366],[131.2453,32.2288],[131.2473,32.2247],[131.2552,32.2169],[131.2575,32.2128],[131.2625,32.2099],[131.2688,32.208],[131.2757,32.2025],[131.2774,32.185],[131.2759,32.1783],[131.2698,32.1719],[131.2612,32.1596],[131.2532,32.1586],[131.247,32.161],[131.2415,32.1618],[131.2362,32.1609],[131.2171,32.145],[131.2049,32.1405],[131.2013,32.1374],[131.1979,32.1286],[131.1973,32.1237],[131.2059,32.1199],[131.212,32.1154],[131.2202,32.1108],[131.2354,32.0975],[131.2499,32.0936],[131.2603,32.0932],[131.2656,32.0919],[131.271,32.0889],[131.2791,32.0734],[131.2839,32.0682],[131.2975,32.0639],[131.3143,32.0597],[131.3178,32.0566],[131.3228,32.0493],[131.3312,32.0418],[131.3362,32.0346],[131.3497,32.0225],[131.364,32.0163],[131.3775,32.0121],[131.3877,32.0054],[131.3898,32.0124],[131.3957,32.0256],[131.3977,32.0359],[131.3988,32.048],[131.4028,32.0509],[131.422,32.0508],[131.4312,32.0499],[131.4266,32.0595],[131.4184,32.0741],[131.4174,32.0782],[131.4173,32.0889],[131.4184,32.0936],[131.4267,32.0962],[131.4309,32.0994],[131.4341,32.1043],[131.4371,32.1131],[131.4426,32.118],[131.4536,32.1231],[131.4537,32.132],[131.4469,32.1341],[131.4192,32.1581],[131.4155,32.1617],[131.4091,32.1708],[131.4047,32.1869],[131.4014,32.1958],[131.3897,32.2118],[131.388,32.2154],[131.3776,32.2251],[131.37,32.2292],[131.3665,32.2322],[131.359,32.2447],[131.354,32.2581],[131.352,32.2676],[131.3477,32.2726],[131.3394,32.2771],[131.3309,32.2846],[131.3208,32.2905],[131.2999,32.2997],[131.2897,32.3034]]]}},{"type":"Feature","properties":{"id":45025},"geometry":{"type":"Polygon","coordinates":[[[131.1061,32.3138],[131.1188,32.3083],[131.1284,32.3063],[131.1364,32.3059],[131.1823,32.3056],[131.1813,32.3112],[131.1819,32.3202],[131.1843,32.3239],[131.1888,32.3259],[131.2022,32.3353],[131.2032,32.3393],[131.2037,32.3594],[131.2045,32.3647],[131.2101,32.3677],[131.219,32.3682],[131.2382,32.3719],[131.2446,32.376],[131.258,32.3939],[131.2623,32.4059],[131.2617,32.4116],[131.256,32.424],[131.2548,32.4322],[131.2567,32.436],[131.2713,32.4483],[131.2759,32.4505],[131.2881,32.4533],[131.2938,32.4553],[131.2986,32.4628],[131.3002,32.472],[131.2993,32.4754],[131.2945,32.4826],[131.2893,32.4953],[131.2881,32.5042],[131.2865,32.5067],[131.2764,32.5158],[131.2698,32.5179],[131.26,32.5185],[131.2529,32.52],[131.2447,32.5243],[131.2378,32.5257],[131.2227,32.5261],[131.2198,32.5293],[131.22,32.5426],[131.2231,32.5536],[131.2241,32.5605],[131.2231,32.5671],[131.2164,32.5908],[131.2031,32.5922],[131.1934,32.5965],[131.1873,32.5955],[131.1826,32.5834],[131.1791,32.5767],[131.1711,32.5667],[131.1597,32.5597],[131.1533,32.5585],[131.1419,32.5614],[131.1331,32.5616],[131.1241,32.5595],[131.1188,32.5604],[131.114,32.5671],[131.1069,32.5737],[131.1008,32.577],[131.0964,32.5771],[131.0932,32.5754],[131.0569,32.5843],[131.0446,32.5742],[131.0409,32.5639],[131.0423,32.5532],[131.0318,32.5506],[131.0261,32.5479],[131.0218,32.5459],[131.0231,32.5354],[131.0264,32.5257],[131.0217,32.5164],[131.0114,32.5113],[131.011,32.5],[131.0094,32.4866],[131.0162,32.4767],[131.0176,32.4665],[131.0182,32.4552],[131.0187,32.4479],[131.0223,32.4379],[131.0345,32.4201],[131.0437,32.4087],[131.0536,32.4048],[131.0661,32.4047],[131.0724,32.396],[131.0716,32.385],[131.0777,32.3755],[131.0782,32.3654],[131.0756,32.3554],[131.0862,32.3496],[131.0963,32.3471],[131.105,32.3387],[131.1143,32.3262],[131.1078,32.3177],[131.1061,32.3138]]]}},{"type":"Feature","properties":{"id":45026},"geometry":{"type":"Polygon","coordinates":[[[131.4973,32.0431],[131.4912,32.0469],[131.501,32.0477],[131.5059,32.0566],[131.5104,32.069],[131.5119,32.0686],[131.5095,32.0597],[131.5108,32.0591],[131.5148,32.0746],[131.5173,32.082],[131.5116,32.0908],[131.5078,32.0943],[131.5001,32.0984],[131.4944,32.1033],[131.4896,32.1057],[131.4831,32.1067],[131.4713,32.1066],[131.4653,32.1087],[131.4611,32.1148],[131.4536,32.1231],[131.4426,32.118],[131.4371,32.1131],[131.4341,32.1043],[131.4309,32.0994],[131.4267,32.0962],[131.4184,32.0936],[131.4173,32.0889],[131.4174,32.0782],[131.4184,32.0741],[131.4266,32.0595],[131.4312,32.0499],[131.4443,32.0476],[131.4499,32.0451],[131.4613,32.0423],[131.4744,32.0413],[131.486,32.0381],[131.4973,32.0431]]]}},{"type":"Feature","properties":{"id":45027},"geometry":{"type":"Polygon","coordinates":[[[131.2387,32.7484],[131.2381,32.7455],[131.2456,32.7423],[131.252,32.7364],[131.2543,32.7311],[131.2544,32.7234],[131.2524,32.7173],[131.2471,32.7097],[131.2464,32.7051],[131.2485,32.6993],[131.2475,32.6932],[131.2428,32.6855],[131.2436,32.6796],[131.256,32.6744],[131.2624,32.6734],[131.2682,32.6697],[131.2747,32.6592],[131.275,32.6494],[131.2699,32.6361],[131.2971,32.6322],[131.3073,32.6313],[131.3189,32.6414],[131.323,32.6493],[131.324,32.6581],[131.3295,32.6727],[131.33,32.6839],[131.3267,32.6959],[131.3314,32.7049],[131.3352,32.7076],[131.3456,32.7098],[131.3508,32.7136],[131.3588,32.7277],[131.364,32.7329],[131.3661,32.737],[131.3812,32.7505],[131.3867,32.7606],[131.4059,32.7852],[131.4094,32.7919],[131.4145,32.8096],[131.4064,32.8093],[131.375,32.8042],[131.3555,32.8046],[131.3524,32.8151],[131.344,32.8268],[131.3415,32.8302],[131.3309,32.8293],[131.3114,32.8247],[131.2977,32.8252],[131.2874,32.8278],[131.2773,32.8225],[131.2672,32.8225],[131.2601,32.8148],[131.2577,32.8041],[131.25,32.7974],[131.2481,32.7865],[131.2387,32.7799],[131.2465,32.7602],[131.2394,32.7519],[131.2387,32.7484]]]}},{"type":"Feature","properties":{"id":45028},"geometry":{"type":"Polygon","coordinates":[[[130.914,31.8787],[130.9336,31.8783],[130.9574,31.8805],[130.9689,31.879],[130.9864,31.8741],[130.9928,31.8755],[131.0032,31.8861],[131.0087,31.896],[131.0187,31.9102],[131.0293,31.9167],[131.0369,31.9199],[131.0455,31.9203],[131.054,31.917],[131.0598,31.9121],[131.0651,31.9094],[131.0801,31.9056],[131.0862,31.9048],[131.0926,31.9056],[131.0991,31.9095],[131.1003,31.9133],[131.0988,31.9191],[131.0909,31.9312],[131.0738,31.9461],[131.0683,31.9495],[131.0572,31.9514],[131.038,31.952],[131.0323,31.9533],[131.021,31.9448],[131.0132,31.9416],[131.0087,31.9425],[130.9963,31.9508],[130.9915,31.9612],[130.9877,31.9635],[130.9789,31.9617],[130.9755,31.9585],[130.9692,31.9487],[130.9676,31.943],[130.9675,31.9315],[130.9646,31.9265],[130.9563,31.9218],[130.9481,31.9214],[130.9408,31.9235],[130.934,31.9225],[130.9275,31.9144],[130.9254,31.9103],[130.9206,31.9056],[130.9166,31.8966],[130.914,31.8787]]]}},{"type":"Feature","properties":{"id":45029},"geometry":{"type":"Polygon","coordinates":[[[131.4951,32.1534],[131.474,32.1418],[131.4608,32.1339],[131.4537,32.132],[131.4536,32.1231],[131.4611,32.1148],[131.4653,32.1087],[131.4713,32.1066],[131.4831,32.1067],[131.4896,32.1057],[131.4944,32.1033],[131.5001,32.0984],[131.5078,32.0943],[131.5116,32.0908],[131.5173,32.082],[131.5261,32.1035],[131.5335,32.1155],[131.5364,32.1219],[131.5356,32.128],[131.5385,32.1332],[131.5396,32.1443],[131.5421,32.1538],[131.5278,32.1618],[131.5238,32.1629],[131.5204,32.1603],[131.5192,32.1547],[131.5134,32.1504],[131.5061,32.1508],[131.4951,32.1534]]]}},{"type":"Feature","properties":{"id":45030},"geometry":{"type":"Polygon","coordinates":[[[131.4297,32.3043],[131.4287,32.2926],[131.4289,32.2785],[131.4327,32.2655],[131.434,32.2563],[131.4381,32.2465],[131.4417,32.2339],[131.454,32.238],[131.4587,32.2405],[131.4681,32.2537],[131.4733,32.254],[131.4798,32.2509],[131.4886,32.2431],[131.4934,32.2401],[131.4983,32.2396],[131.5282,32.2393],[131.5425,32.236],[131.5537,32.2324],[131.5712,32.2315],[131.5762,32.2414],[131.5772,32.2486],[131.5729,32.2505],[131.5731,32.2569],[131.5771,32.2581],[131.5766,32.2677],[131.5819,32.2833],[131.5879,32.2964],[131.5831,32.3002],[131.5789,32.3007],[131.5726,32.2935],[131.5647,32.2953],[131.5601,32.3],[131.5576,32.3087],[131.5539,32.314],[131.5446,32.3146],[131.5369,32.3126],[131.5211,32.2997],[131.5165,32.2979],[131.5057,32.2908],[131.499,32.289],[131.4921,32.2899],[131.4857,32.294],[131.4837,32.2981],[131.4771,32.307],[131.4728,32.3089],[131.4632,32.308],[131.4541,32.3058],[131.4297,32.3043]]]}}]}