{"type":"FeatureCollection","features":[{"type":"Feature","properties":{"id":46001},"geometry":{"type":"Polygon","coordinates":[[[130.6556,31.8021],[130.652,31.8146],[130.649,31.8212],[130.6472,31.8283],[130.6426,31.8404],[130.6373,31.8506],[130.6321,31.8565],[130.6166,31.8701],[130.6022,31.8755],[130.5869,31.8801],[130.5828,31.8709],[130.5782,31.865],[130.5847,31.8494],[130.5845,31.8401],[130.5778,31.8234],[130.5774,31.8133],[130.5813,31.8063],[130.588,31.803],[130.593,31.7983],[130.5945,31.7948],[130.5961,31.7837],[130.5961,31.778],[130.5938,31.765],[130.5924,31.7418],[130.588,31.735],[130.5849,31.7281],[130.582,31.717],[130.5824,31.7119],[130.5867,31.7066],[130.5953,31.6992],[130.5998,31.694],[130.6009,31.6904],[130.6016,31.6808],[130.6039,31.676],[130.6124,31.671],[130.6094,31.6789],[130.6108,31.6861],[130.6153,31.6914],[130.6142,31.6975],[130.6211,31.7075],[130.6275,31.7133],[130.6328,31.7111],[130.6375,31.7122],[130.6414,31.7158],[130.6405,31.7292],[130.6428,31.7286],[130.6452,31.7221],[130.6448,31.7363],[130.6461,31.7662],[130.6482,31.7764],[130.6499,31.7895],[130.6556,31.8021]]]}},{"type":"Feature","properties":{"id":46002},"geometry":{"type":"MultiPolygon","coordinates":[[[[130.2206,31.9198],[130.2354,31.9269],[130.2451,31.9295],[130.2566,31.9351],[130.2661,31.9385],[130.2695,31.9415],[130.2769,31.9519],[130.2854,31.9559],[130.2994,31.9567],[130.3064,31.9589],[130.3129,31.9645],[130.318,31.9737],[130.3057,31.9811],[130.272,32.012],[130.2641,32.0189],[130.2598,32.0239],[130.2585,32.028],[130.2592,32.0358],[130.2639,32.0512],[130.2646,32.059],[130.2594,32.0649],[130.2542,32.0667],[130.2493,32.0701],[130.2471,32.0738],[130.2429,32.089],[130.2419,32.1095],[130.2378,32.1281],[130.227,32.1294],[130.2139,32.1248],[130.211,32.1257],[130.2005,32.1203],[130.1968,32.1173],[130.1922,32.1168],[130.1894,32.1139],[130.1812,32.1106],[130.1791,32.1073],[130.1758,32.1058],[130.1748,32.0969],[130.1758,32.0939],[130.1705,32.0874],[130.1705,32.0811],[130.1732,32.076],[130.1844,32.072],[130.1831,32.0788],[130.1869,32.081],[130.1942,32.075],[130.1986,32.0775],[130.2028,32.0733],[130.2072,32.0608],[130.2029,32.053],[130.205,32.0497],[130.205,32.0439],[130.203,32.0381],[130.1972,32.0364],[130.1933,32.0316],[130.1888,32.0308],[130.1914,32.0264],[130.1906,32.0198],[130.187,32.0158],[130.179,32.0162],[130.1775,32.0022],[130.1864,31.9928],[130.1904,31.9874],[130.1926,31.9896],[130.2006,31.9853],[130.1981,31.9811],[130.205,31.9733],[130.2086,31.9722],[130.2119,31.9647],[130.2128,31.9592],[130.2156,31.9539],[130.2164,31.9456],[130.2156,31.9403],[130.2197,31.93],[130.2206,31.9198]]],[[[130.1675,32.0314],[130.1609,32.0283],[130.1647,32.0258],[130.1671,32.0211],[130.1711,32.0211],[130.1726,32.0245],[130.1687,32.0259],[130.1675,32.0314]]]]}},{"type":"Feature","properties":{"id":46003},"geometry":{"type":"Polygon","coordinates":[[[128.9035,27.7557],[128.9126,27.7546],[128.9258,27.7432],[128.942,27.743],[128.9493,27.7421],[128.9598,27.7573],[128.9666,27.7644],[128.9727,27.7667],[128.9784,27.7709],[128.981,27.7783],[128.9792,27.783],[128.9643,27.7982],[128.9429,27.8213],[128.942,27.827],[128.9439,27.8434],[128.9442,27.8501],[128.941,27.8677],[128.9368,27.8776],[128.9267,27.8876],[128.9145,27.8923],[128.9049,27.8942],[128.9,27.8939],[128.8918,27.8856],[128.889,27.8781],[128.8899,27.8728],[128.8883,27.8698],[128.8887,27.8651],[128.8923,27.8613],[128.8907,27.8563],[128.8916,27.8531],[128.8838,27.8388],[128.8795,27.8393],[128.8789,27.827],[128.8799,27.8246],[128.8889,27.8187],[128.8901,27.8107],[128.887,27.8067],[128.8886,27.7999],[128.8876,27.7952],[128.8893,27.7867],[128.893,27.7836],[128.8942,27.7775],[128.8967,27.7714],[128.8997,27.7678],[128.9057,27.765],[128.9035,27.7557]]]}},{"type":"Feature","properties":{"id":46004},"geometry":{"type":"MultiPolygon","coordinates":[[[[129.4318,28.1962],[129.4364,28.1989],[129.4414,28.1969],[129.4458,28.2],[129.45,28.1967],[129.4539,28.2003],[129.4558,28.2072],[129.4606,28.2106],[129.4669,28.2122],[129.4699,28.2116],[129.4717,28.2075],[129.4781,28.2114],[129.475,28.2178],[129.4715,28.2183],[129.47,28.2222],[129.4594,28.2289],[129.4556,28.2333],[129.4525,28.2331],[129.4494,28.2292],[129.4425,28.23],[129.4383,28.2353],[129.4325,28.2394],[129.4281,28.2386],[129.4233,28.2439],[129.4203,28.2417],[129.4078,28.2489],[129.4122,28.2494],[129.4339,28.2483],[129.4367,28.245],[129.4422,28.245],[129.4458,28.2483],[129.4442,28.2531],[129.4492,28.2608],[129.4595,28.269],[129.4576,28.2738],[129.4538,28.2765],[129.4569,28.2853],[129.4565,28.2934],[129.4586,28.2967],[129.4669,28.2967],[129.4689,28.2919],[129.4758,28.2939],[129.4806,28.2886],[129.4861,28.2886],[129.4908,28.2908],[129.4925,28.295],[129.4969,28.2956],[129.5031,28.2989],[129.5072,28.2978],[129.5145,28.3011],[129.52,28.3006],[129.5264,28.3056],[129.5322,28.3044],[129.5386,28.3064],[129.545,28.3114],[129.5427,28.3154],[129.5347,28.3197],[129.5325,28.3228],[129.533,28.3273],[129.5378,28.3315],[129.55,28.3297],[129.5547,28.3342],[129.5578,28.3322],[129.5625,28.3325],[129.5658,28.3353],[129.5672,28.3397],[129.5495,28.3434],[129.5393,28.3493],[129.5349,28.358],[129.5348,28.3655],[129.5364,28.369],[129.55,28.3852],[129.5544,28.3933],[129.5617,28.4029],[129.5629,28.4104],[129.5603,28.4182],[129.5591,28.4253],[129.5596,28.4345],[129.5615,28.449],[129.5589,28.4483],[129.5539,28.4558],[129.5456,28.4622],[129.5403,28.4597],[129.5392,28.455],[129.5353,28.455],[129.5347,28.4494],[129.5269,28.4453],[129.5242,28.4478],[129.5211,28.4428],[129.5183,28.4411],[129.5161,28.4314],[129.5178,28.4269],[129.5136,28.4222],[129.5136,28.4169],[129.5108,28.41],[129.5114,28.4072],[129.5155,28.4061],[129.5169,28.4011],[129.515,28.3989],[129.5089,28.4014],[129.5042,28.3978],[129.5047,28.3919],[129.5019,28.3894],[129.4983,28.3828],[129.4958,28.3869],[129.4967,28.3917],[129.4953,28.3981],[129.4972,28.4014],[129.4944,28.4075],[129.4902,28.4124],[129.485,28.4072],[129.4797,28.4003],[129.4669,28.4025],[129.4714,28.4075],[129.4689,28.4114],[129.4642,28.4136],[129.4569,28.4117],[129.4547,28.4072],[129.4544,28.3975],[129.4528,28.3939],[129.4478,28.3894],[129.4478,28.3808],[129.4433,28.3831],[129.4317,28.3828],[129.4281,28.3891],[129.4231,28.3894],[129.4206,28.3858],[129.4269,28.3749],[129.4312,28.3703],[129.4338,28.3644],[129.4388,28.3441],[129.4373,28.3358],[129.4328,28.3315],[129.4263,28.3276],[129.4192,28.325],[129.4052,28.3145],[129.399,28.3122],[129.3923,28.3077],[129.3743,28.2923],[129.3731,28.2762],[129.3707,28.2695],[129.3465,28.2494],[129.3391,28.241],[129.3373,28.2213],[129.3373,28.2146],[129.3405,28.2025],[129.3464,28.1968],[129.3529,28.1973],[129.3585,28.2014],[129.3715,28.213],[129.3788,28.218],[129.3835,28.2191],[129.3976,28.2182],[129.4037,28.2168],[129.4129,28.2122],[129.4205,28.2063],[129.4318,28.1962]]],[[[129.6337,28.4064],[129.6439,28.4028],[129.6536,28.4019],[129.6555,28.3972],[129.6614,28.3986],[129.6647,28.3969],[129.6683,28.4056],[129.672,28.4089],[129.6769,28.4106],[129.6819,28.41],[129.6872,28.4136],[129.6969,28.4147],[129.7039,28.4233],[129.7097,28.4206],[129.7203,28.4403],[129.7186,28.4425],[129.7136,28.4425],[129.7125,28.4453],[129.7172,28.4514],[129.7217,28.4531],[129.7228,28.4583],[129.7183,28.4617],[129.7167,28.4658],[129.7186,28.4681],[129.7195,28.4744],[129.7125,28.4747],[129.7047,28.4775],[129.6997,28.4822],[129.6983,28.4872],[129.6953,28.4894],[129.6953,28.4944],[129.69,28.5017],[129.6908,28.5081],[129.6936,28.5108],[129.6903,28.5242],[129.6897,28.5301],[129.6875,28.5303],[129.6753,28.5247],[129.6725,28.5206],[129.6656,28.5133],[129.6633,28.5069],[129.6606,28.5064],[129.6592,28.5022],[129.6544,28.4992],[129.6494,28.5044],[129.6444,28.5022],[129.6447,28.4981],[129.6511,28.4939],[129.6567,28.4869],[129.6564,28.4822],[129.6664,28.4752],[129.67,28.4644],[129.6736,28.4606],[129.6717,28.4558],[129.6686,28.4553],[129.6658,28.4503],[129.6658,28.4469],[129.672,28.4425],[129.6683,28.4392],[129.6658,28.4397],[129.6611,28.4458],[129.6619,28.4481],[129.6586,28.4558],[129.6592,28.4578],[129.6547,28.4614],[129.6533,28.4683],[129.6503,28.4656],[129.6492,28.4614],[129.6519,28.4567],[129.6483,28.4506],[129.6514,28.4475],[129.6517,28.4417],[129.6586,28.4353],[129.6561,28.4261],[129.6511,28.425],[129.6461,28.4292],[129.6422,28.4275],[129.6433,28.4242],[129.6419,28.4194],[129.6355,28.416],[129.6337,28.4064]]]]}},{"type":"Feature","properties":{"id":46005},"geometry":{"type":"Polygon","coordinates":[[[128.6183,27.3566],[128.6114,27.3655],[128.6043,27.3719],[128.5977,27.3735],[128.5925,27.373],[128.5868,27.3699],[128.581,27.3695],[128.5776,27.3763],[128.5769,27.3894],[128.5779,27.3977],[128.5845,27.4008],[128.5783,27.4019],[128.5739,27.4014],[128.5692,27.3981],[128.563,27.3983],[128.5594,27.3956],[128.5464,27.3978],[128.5411,27.4005],[128.5356,27.4056],[128.5317,27.4047],[128.5242,27.3933],[128.5222,27.3886],[128.5228,27.3856],[128.5206,27.3794],[128.52,27.3722],[128.5228,27.3675],[128.5236,27.3619],[128.5283,27.3572],[128.5314,27.3483],[128.5422,27.3378],[128.5511,27.3319],[128.5581,27.3286],[128.5642,27.3289],[128.5722,27.3314],[128.5786,27.3303],[128.5869,27.3347],[128.5986,27.3389],[128.6011,27.3422],[128.6061,27.3444],[128.6131,27.3503],[128.6183,27.3566]]]}},{"type":"Feature","properties":{"id":46006},"geometry":{"type":"Polygon","coordinates":[[[131.0249,31.4024],[131.0048,31.4023],[130.9951,31.4045],[130.9872,31.4153],[130.9793,31.4235],[130.9719,31.4354],[130.9645,31.4439],[130.9616,31.4334],[130.9601,31.4212],[130.9604,31.4144],[130.9622,31.4068],[130.966,31.3971],[130.9681,31.386],[130.9725,31.3753],[130.9786,31.3676],[130.9833,31.3639],[130.9905,31.3623],[130.9954,31.3624],[131.016,31.3654],[131.0162,31.3781],[131.017,31.3848],[131.0212,31.397],[131.0249,31.4024]]]}},{"type":"Feature","properties":{"id":46007},"geometry":{"type":"Polygon","coordinates":[[[130.4558,31.4905],[130.4569,31.5044],[130.4574,31.5194],[130.4566,31.525],[130.4521,31.5316],[130.4464,31.5342],[130.4409,31.5384],[130.4004,31.5758],[130.3976,31.5809],[130.3967,31.5888],[130.3986,31.5941],[130.4026,31.5966],[130.4202,31.5978],[130.4288,31.6014],[130.4355,31.6091],[130.4411,31.6192],[130.4435,31.6252],[130.4496,31.6309],[130.4565,31.6334],[130.4685,31.6359],[130.4724,31.6376],[130.4752,31.6434],[130.4755,31.6516],[130.4743,31.6562],[130.4705,31.6588],[130.4634,31.6588],[130.458,31.661],[130.4508,31.6695],[130.4461,31.6825],[130.4445,31.6905],[130.4408,31.6955],[130.4316,31.7],[130.4255,31.7069],[130.4209,31.7204],[130.41,31.7247],[130.397,31.7309],[130.3848,31.7234],[130.366,31.7081],[130.3593,31.7036],[130.3515,31.7],[130.342,31.6883],[130.3383,31.6801],[130.3304,31.6696],[130.3235,31.6528],[130.3214,31.6506],[130.3258,31.6383],[130.3283,31.6333],[130.3331,31.6133],[130.3353,31.5953],[130.335,31.5767],[130.3342,31.5636],[130.3325,31.5553],[130.3331,31.5483],[130.3317,31.5472],[130.3292,31.5311],[130.325,31.5181],[130.3214,31.5097],[130.3247,31.5078],[130.3225,31.5047],[130.3186,31.5036],[130.3175,31.4986],[130.3139,31.4922],[130.3472,31.49],[130.3515,31.489],[130.3616,31.4843],[130.3725,31.4826],[130.3949,31.4823],[130.4039,31.4846],[130.4095,31.4875],[130.4228,31.4914],[130.4328,31.4923],[130.4483,31.4915],[130.4558,31.4905]]]}},{"type":"Feature","properties":{"id":46008},"geometry":{"type":"Polygon","coordinates":[[[130.6032,31.951],[130.6192,31.9428],[130.6245,31.938],[130.6296,31.9317],[130.6386,31.9378],[130.6556,31.9441],[130.6668,31.9523],[130.6726,31.9594],[130.674,31.9724],[130.6759,31.977],[130.6882,31.9838],[130.697,31.9897],[130.7041,31.9926],[130.7083,31.9994],[130.7087,32.0084],[130.707,32.0195],[130.7075,32.0455],[130.7069,32.0543],[130.7059,32.0628],[130.6922,32.0602],[130.6807,32.0591],[130.674,32.0564],[130.653,32.0506],[130.6461,32.0462],[130.6302,32.0329],[130.6244,32.0248],[130.6191,32.0136],[130.614,32.0061],[130.6119,31.9973],[130.6114,31.9769],[130.6107,31.9698],[130.6078,31.9613],[130.6032,31.951]]]}},{"type":"Feature","properties":{"id":46009},"geometry":{"type":"MultiPolygon","coordinates":[[[[130.5849,31.304],[130.5761,31.2993],[130.5687,31.298],[130.555,31.2978],[130.5531,31.2886],[130.5489,31.2764],[130.5441,31.2445],[130.5424,31.2393],[130.5347,31.2285],[130.5318,31.2225],[130.5281,31.2184],[130.5126,31.2075],[130.5159,31.1979],[130.5083,31.1936],[130.5098,31.1896],[130.5094,31.1819],[130.5061,31.1783],[130.5119,31.1717],[130.5183,31.1658],[130.5311,31.1636],[130.5422,31.1686],[130.5528,31.1756],[130.5544,31.1786],[130.5591,31.1779],[130.5682,31.1738],[130.5806,31.1653],[130.5881,31.1578],[130.5897,31.1606],[130.5967,31.1622],[130.5942,31.1653],[130.5903,31.1658],[130.5892,31.1728],[130.5945,31.1789],[130.6047,31.1828],[130.6144,31.1831],[130.6272,31.1811],[130.6289,31.1839],[130.635,31.1853],[130.6405,31.1897],[130.64,31.1942],[130.6447,31.1972],[130.6439,31.2064],[130.6389,31.2094],[130.6353,31.2056],[130.6346,31.201],[130.6303,31.2014],[130.6286,31.2064],[130.63,31.2111],[130.6408,31.2167],[130.6486,31.2158],[130.6561,31.2178],[130.6583,31.2214],[130.6522,31.2294],[130.6494,31.2364],[130.65,31.2444],[130.6531,31.2469],[130.6567,31.2528],[130.6575,31.2569],[130.6633,31.2617],[130.6583,31.2678],[130.6586,31.2714],[130.6469,31.2708],[130.6369,31.2714],[130.6253,31.2744],[130.62,31.2772],[130.615,31.2853],[130.6086,31.2911],[130.5953,31.2942],[130.5903,31.3014],[130.5849,31.304]]],[[[130.6761,31.2803],[130.6717,31.2756],[130.6761,31.2719],[130.6819,31.2758],[130.6819,31.2781],[130.6761,31.2803]]]]}},{"type":"Feature","properties":{"id":46010},"geometry":{"type":"Polygon","coordinates":[[[130.3235,31.6528],[130.3304,31.6696],[130.3383,31.6801],[130.342,31.6883],[130.3515,31.7],[130.3593,31.7036],[130.366,31.7081],[130.3848,31.7234],[130.397,31.7309],[130.3867,31.7338],[130.377,31.7388],[130.3738,31.7414],[130.3675,31.751],[130.3629,31.7561],[130.3585,31.7576],[130.3505,31.7565],[130.3412,31.7499],[130.3367,31.7492],[130.3149,31.7588],[130.3102,31.7617],[130.3025,31.763],[130.2932,31.76],[130.2877,31.7592],[130.2724,31.7588],[130.2619,31.7608],[130.2405,31.771],[130.2263,31.7829],[130.2169,31.7853],[130.21,31.7853],[130.2041,31.7833],[130.1962,31.7782],[130.1899,31.7729],[130.1851,31.7667],[130.1889,31.7578],[130.187,31.7492],[130.19,31.7464],[130.1964,31.7497],[130.1994,31.7553],[130.2131,31.7558],[130.2242,31.7481],[130.2289,31.7419],[130.2358,31.7375],[130.24,31.7333],[130.2444,31.7336],[130.2483,31.7317],[130.2522,31.7219],[130.2614,31.7214],[130.2631,31.7158],[130.2628,31.7092],[130.2753,31.7058],[130.2794,31.7017],[130.28,31.6981],[130.2864,31.6958],[130.2908,31.6906],[130.2908,31.6853],[130.2936,31.6822],[130.2997,31.6697],[130.2981,31.6639],[130.2994,31.6625],[130.3094,31.6619],[130.3178,31.6567],[130.3175,31.6533],[130.3235,31.6528]]]}},{"type":"Feature","properties":{"id":46011},"geometry":{"type":"Polygon","coordinates":[[[128.9035,27.7557],[128.9009,27.7526],[128.9014,27.7479],[128.8989,27.744],[128.8994,27.7375],[128.8963,27.7339],[128.8853,27.725],[128.8801,27.7233],[128.8906,27.7093],[128.8931,27.7074],[128.9001,27.7063],[128.9126,27.6972],[128.9164,27.6934],[128.9203,27.6817],[128.9204,27.6737],[128.9236,27.6673],[128.9264,27.665],[128.9351,27.6615],[128.9522,27.6631],[128.9574,27.6656],[128.962,27.6651],[128.9692,27.6689],[128.9732,27.6662],[128.9833,27.6666],[128.9877,27.6684],[128.9924,27.6738],[128.9903,27.6838],[128.9867,27.6974],[128.9857,27.7033],[128.9811,27.7101],[128.9743,27.7167],[128.9548,27.7374],[128.9493,27.7421],[128.942,27.743],[128.9258,27.7432],[128.9126,27.7546],[128.9035,27.7557]]]}},{"type":"Feature","properties":{"id":46012},"geometry":{"type":"Polygon","coordinates":[[[130.318,31.9737],[130.333,31.9731],[130.3459,31.9737],[130.3573,31.9821],[130.3691,31.9868],[130.3951,31.9922],[130.4068,31.997],[130.4154,32.0029],[130.4289,32.0057],[130.4511,32.0054],[130.4599,32.0085],[130.4649,32.0157],[130.4689,32.0235],[130.4756,32.0267],[130.4889,32.0363],[130.4948,32.0468],[130.5084,32.0687],[130.5098,32.0768],[130.508,32.0838],[130.5042,32.093],[130.5002,32.0992],[130.4869,32.1121],[130.4785,32.1223],[130.4784,32.1183],[130.4676,32.1162],[130.4582,32.11],[130.4477,32.1127],[130.4369,32.1112],[130.4264,32.1139],[130.4052,32.1168],[130.4002,32.1258],[130.3931,32.1335],[130.3891,32.1435],[130.375,32.1549],[130.3662,32.1567],[130.3618,32.1546],[130.3631,32.1522],[130.3539,32.1453],[130.3522,32.1375],[130.3504,32.1344],[130.3467,32.1347],[130.3445,32.1317],[130.3375,32.1311],[130.3397,32.1281],[130.3337,32.1211],[130.3306,32.1256],[130.3264,32.1267],[130.321,32.1198],[130.3136,32.1158],[130.3086,32.1087],[130.2884,32.1096],[130.2847,32.1089],[130.2723,32.1172],[130.2744,32.1247],[130.2703,32.1286],[130.2662,32.1291],[130.2611,32.1256],[130.2501,32.1286],[130.2417,32.1297],[130.2378,32.1281],[130.2419,32.1095],[130.2429,32.089],[130.2471,32.0738],[130.2493,32.0701],[130.2542,32.0667],[130.2594,32.0649],[130.2646,32.059],[130.2639,32.0512],[130.2592,32.0358],[130.2585,32.028],[130.2598,32.0239],[130.2641,32.0189],[130.272,32.012],[130.3057,31.9811],[130.318,31.9737]]]}},{"type":"Feature","properties":{"id":46013},"geometry":{"type":"MultiPolygon","coordinates":[[[[130.5331,31.5006],[130.5203,31.5042],[130.5153,31.4943],[130.5169,31.4906],[130.5206,31.4919],[130.5244,31.4906],[130.5244,31.4872],[130.5275,31.4842],[130.532,31.4842],[130.5333,31.4972],[130.5331,31.5006]]],[[[130.6124,31.671],[130.6039,31.676],[130.6016,31.6808],[130.6009,31.6904],[130.5998,31.694],[130.5953,31.6992],[130.5867,31.7066],[130.5824,31.7119],[130.582,31.717],[130.5849,31.7281],[130.588,31.735],[130.5924,31.7418],[130.5699,31.7492],[130.5573,31.7551],[130.5519,31.7539],[130.5236,31.7304],[130.5186,31.7269],[130.5096,31.7252],[130.489,31.7258],[130.4753,31.7256],[130.4657,31.7298],[130.4573,31.7315],[130.4397,31.7328],[130.4337,31.7318],[130.4248,31.7256],[130.4209,31.7204],[130.4255,31.7069],[130.4316,31.7],[130.4408,31.6955],[130.4445,31.6905],[130.4461,31.6825],[130.4508,31.6695],[130.458,31.661],[130.4634,31.6588],[130.4705,31.6588],[130.4743,31.6562],[130.4755,31.6516],[130.4752,31.6434],[130.4724,31.6376],[130.4685,31.6359],[130.4565,31.6334],[130.4496,31.6309],[130.4435,31.6252],[130.4411,31.6192],[130.4355,31.6091],[130.4288,31.6014],[130.4202,31.5978],[130.4026,31.5966],[130.3986,31.5941],[130.3967,31.5888],[130.3976,31.5809],[130.4004,31.5758],[130.4409,31.5384],[130.4464,31.5342],[130.4521,31.5316],[130.4566,31.525],[130.4574,31.5194],[130.4569,31.5044],[130.4558,31.4905],[130.4555,31.4741],[130.4702,31.4654],[130.4796,31.4621],[130.4877,31.4579],[130.4929,31.453],[130.496,31.4455],[130.4962,31.4308],[130.499,31.4201],[130.5065,31.4092],[130.508,31.4024],[130.5079,31.3919],[130.507,31.3769],[130.5004,31.3453],[130.5027,31.3407],[130.5085,31.3366],[130.5219,31.3323],[130.5312,31.3306],[130.5363,31.3286],[130.5416,31.3237],[130.5452,31.3175],[130.5486,31.3071],[130.555,31.2978],[130.5687,31.298],[130.5761,31.2993],[130.5849,31.304],[130.5756,31.3094],[130.5653,31.3222],[130.5589,31.3394],[130.5578,31.3469],[130.5542,31.3522],[130.5517,31.3597],[130.5475,31.3686],[130.5456,31.3792],[130.5503,31.3806],[130.5583,31.3861],[130.5494,31.3961],[130.5433,31.3925],[130.5347,31.3961],[130.5314,31.4014],[130.5311,31.4053],[130.5264,31.4089],[130.5261,31.415],[130.5242,31.4175],[130.5236,31.4264],[130.5214,31.4342],[130.5183,31.4378],[130.5181,31.445],[130.515,31.4561],[130.5133,31.4583],[130.5131,31.4664],[130.5167,31.4636],[130.5317,31.4625],[130.5311,31.47],[130.5194,31.4717],[130.5178,31.4761],[130.5139,31.4775],[130.5136,31.4806],[130.5178,31.4825],[130.52,31.4875],[130.5147,31.4903],[130.515,31.4953],[130.5189,31.5022],[130.5214,31.5089],[130.5331,31.5069],[130.5375,31.5197],[130.5428,31.5303],[130.54,31.5339],[130.5422,31.5389],[130.5472,31.5389],[130.5483,31.5442],[130.5556,31.5469],[130.5589,31.5461],[130.5611,31.5561],[130.5647,31.5622],[130.5694,31.5731],[130.5708,31.5814],[130.565,31.5794],[130.5658,31.5842],[130.5694,31.5853],[130.562,31.5917],[130.5614,31.595],[130.575,31.6069],[130.5758,31.6156],[130.5833,31.6189],[130.5869,31.6228],[130.595,31.6258],[130.6025,31.6319],[130.6026,31.6422],[130.6044,31.6475],[130.6114,31.6556],[130.6172,31.6556],[130.6192,31.6594],[130.6153,31.6614],[130.6124,31.671]]],[[[130.7044,31.5473],[130.7159,31.5576],[130.7219,31.5647],[130.7175,31.5647],[130.715,31.5675],[130.7144,31.5728],[130.7161,31.575],[130.7111,31.5806],[130.7153,31.5833],[130.7189,31.5903],[130.715,31.5939],[130.7128,31.5986],[130.7164,31.6031],[130.7075,31.6092],[130.7083,31.6122],[130.7,31.6172],[130.6999,31.621],[130.6969,31.6247],[130.6902,31.6232],[130.6839,31.6233],[130.6794,31.6294],[130.6739,31.6253],[130.6711,31.6272],[130.6661,31.6261],[130.6608,31.6267],[130.6524,31.6252],[130.6497,31.6222],[130.6367,31.6206],[130.6286,31.6217],[130.6211,31.6172],[130.6183,31.6131],[130.6119,31.6092],[130.6081,31.5997],[130.6044,31.5961],[130.5997,31.5967],[130.5978,31.5917],[130.5922,31.5908],[130.5919,31.5814],[130.5989,31.5783],[130.6019,31.5733],[130.6078,31.5744],[130.6133,31.5664],[130.6119,31.5636],[130.6206,31.5611],[130.6206,31.555],[130.6247,31.5525],[130.6292,31.5564],[130.6328,31.5533],[130.6361,31.5458],[130.64,31.545],[130.6453,31.5467],[130.6475,31.5494],[130.6636,31.5519],[130.6658,31.5539],[130.6736,31.5492],[130.6778,31.5486],[130.6764,31.5447],[130.685,31.5453],[130.6967,31.5525],[130.7017,31.5503],[130.7044,31.5473]]]]}},{"type":"Feature","properties":{"id":46014},"geometry":{"type":"Polygon","coordinates":[[[130.6452,31.7221],[130.6475,31.7208],[130.6523,31.7244],[130.6625,31.7292],[130.6703,31.7297],[130.6744,31.7278],[130.6794,31.7317],[130.6864,31.735],[130.693,31.7328],[130.7024,31.7483],[130.7046,31.7537],[130.7048,31.7622],[130.6976,31.7807],[130.6929,31.79],[130.6871,31.7975],[130.6841,31.7998],[130.6732,31.8021],[130.6556,31.8021],[130.6499,31.7895],[130.6482,31.7764],[130.6461,31.7662],[130.6448,31.7363],[130.6452,31.7221]]]}},{"type":"Feature","properties":{"id":46015},"geometry":{"type":"Polygon","coordinates":[[[130.5782,31.865],[130.5693,31.8561],[130.5587,31.8471],[130.5397,31.8321],[130.5347,31.8273],[130.5309,31.8192],[130.5231,31.8087],[130.5205,31.8024],[130.5122,31.7882],[130.5093,31.7801],[130.5041,31.7711],[130.4896,31.7482],[130.4812,31.7338],[130.4753,31.7256],[130.489,31.7258],[130.5096,31.7252],[130.5186,31.7269],[130.5236,31.7304],[130.5519,31.7539],[130.5573,31.7551],[130.5699,31.7492],[130.5924,31.7418],[130.5938,31.765],[130.5961,31.778],[130.5961,31.7837],[130.5945,31.7948],[130.593,31.7983],[130.588,31.803],[130.5813,31.8063],[130.5774,31.8133],[130.5778,31.8234],[130.5845,31.8401],[130.5847,31.8494],[130.5782,31.865]]]}},{"type":"Feature","properties":{"id":46016},"geometry":{"type":"Polygon","coordinates":[[[130.9645,31.4439],[130.9549,31.4505],[130.9467,31.4573],[130.9397,31.4603],[130.9264,31.4716],[130.9151,31.4784],[130.9131,31.481],[130.9088,31.4917],[130.9096,31.4993],[130.9146,31.504],[130.9236,31.5106],[130.9285,31.5159],[130.9295,31.5194],[130.9308,31.533],[130.9329,31.5383],[130.9296,31.5475],[130.9266,31.552],[130.9144,31.576],[130.9052,31.5892],[130.8975,31.5974],[130.8923,31.6046],[130.8833,31.6091],[130.8748,31.6119],[130.8587,31.6213],[130.8512,31.6141],[130.8476,31.6079],[130.8357,31.595],[130.8339,31.5916],[130.8278,31.5738],[130.8259,31.559],[130.8154,31.5198],[130.8125,31.5045],[130.8148,31.4962],[130.8271,31.4843],[130.829,31.4779],[130.8278,31.4717],[130.8246,31.4651],[130.8208,31.4541],[130.8088,31.4432],[130.8042,31.4366],[130.797,31.4329],[130.7883,31.4308],[130.7767,31.4263],[130.771,31.4219],[130.7622,31.4114],[130.7664,31.4075],[130.7717,31.3911],[130.7711,31.3883],[130.7769,31.385],[130.776,31.3811],[130.781,31.3776],[130.7805,31.3713],[130.7842,31.3672],[130.785,31.3622],[130.7886,31.3617],[130.7925,31.3519],[130.7919,31.3469],[130.7983,31.3436],[130.8028,31.3381],[130.8039,31.3347],[130.8006,31.3235],[130.7944,31.3161],[130.7952,31.3113],[130.7906,31.3069],[130.7916,31.3012],[130.8048,31.3082],[130.8156,31.3124],[130.8197,31.313],[130.8298,31.3122],[130.8353,31.3096],[130.8436,31.3079],[130.8631,31.3069],[130.8732,31.3049],[130.8784,31.3021],[130.88,31.2989],[130.8802,31.284],[130.881,31.28],[130.8854,31.2706],[130.8902,31.2631],[130.9058,31.2481],[130.9122,31.2433],[130.9184,31.2407],[130.9233,31.2369],[130.9325,31.2316],[130.9335,31.2494],[130.934,31.2674],[130.9301,31.3005],[130.9304,31.3135],[130.9317,31.343],[130.9312,31.3508],[130.9274,31.358],[130.9104,31.3659],[130.9051,31.3708],[130.9033,31.3777],[130.904,31.3881],[130.9066,31.3919],[130.9125,31.3932],[130.9166,31.392],[130.9322,31.3813],[130.937,31.3748],[130.9432,31.3721],[130.9596,31.3725],[130.9725,31.3753],[130.9681,31.386],[130.966,31.3971],[130.9622,31.4068],[130.9604,31.4144],[130.9601,31.4212],[130.9616,31.4334],[130.9645,31.4439]]]}},{"type":"Feature","properties":{"id":46017},"geometry":{"type":"Polygon","coordinates":[[[130.0211,28.3789],[130.0133,28.3783],[130.0061,28.3742],[130.0031,28.3689],[129.9943,28.3648],[129.9886,28.3567],[129.9796,28.3497],[129.9729,28.3431],[129.9641,28.3397],[129.9536,28.3328],[129.9517,28.3294],[129.9419,28.3284],[129.9348,28.3293],[129.925,28.3255],[129.9191,28.3212],[129.9129,28.3121],[129.9132,28.3055],[129.9151,28.2962],[129.9217,28.2892],[129.9299,28.2918],[129.931,28.2884],[129.9367,28.279],[129.9415,28.2748],[129.955,28.2753],[129.9603,28.2792],[129.965,28.2797],[129.9736,28.2841],[129.9789,28.2884],[129.9833,28.295],[129.9868,28.3039],[129.9898,28.3091],[129.9981,28.317],[130.0019,28.3222],[130.0028,28.3278],[130.0078,28.3342],[130.0161,28.3358],[130.0219,28.3417],[130.0226,28.3463],[130.0275,28.3489],[130.032,28.3539],[130.0356,28.36],[130.0336,28.3703],[130.0286,28.3747],[130.0211,28.3789]]]}},{"type":"Feature","properties":{"id":46018},"geometry":{"type":"MultiPolygon","coordinates":[[[[131.016,31.3654],[130.9954,31.3624],[130.9905,31.3623],[130.9833,31.3639],[130.9786,31.3676],[130.9725,31.3753],[130.9596,31.3725],[130.9432,31.3721],[130.937,31.3748],[130.9322,31.3813],[130.9166,31.392],[130.9125,31.3932],[130.9066,31.3919],[130.904,31.3881],[130.9033,31.3777],[130.9051,31.3708],[130.9104,31.3659],[130.9274,31.358],[130.9312,31.3508],[130.9317,31.343],[130.9304,31.3135],[130.9301,31.3005],[130.934,31.2674],[130.9335,31.2494],[130.9325,31.2316],[130.93,31.2237],[130.9283,31.2138],[130.9288,31.2084],[130.9323,31.2037],[130.9376,31.1994],[130.9401,31.1925],[130.937,31.1833],[130.93,31.177],[130.9265,31.1709],[130.919,31.1639],[130.91,31.1488],[130.8987,31.138],[130.9095,31.1323],[130.9195,31.1198],[130.922,31.1253],[130.9331,31.1251],[130.94,31.1278],[130.9481,31.1328],[130.9625,31.1381],[130.9653,31.1417],[130.9733,31.1456],[130.9792,31.1514],[130.9786,31.1575],[130.9722,31.1606],[130.9719,31.1647],[130.9761,31.1686],[130.9872,31.1697],[130.9856,31.1781],[130.9861,31.1811],[130.9983,31.1878],[131.0029,31.1888],[131.0051,31.1989],[131.0092,31.2028],[131.0102,31.2105],[131.0068,31.2145],[131.0068,31.2176],[131.0133,31.2253],[131.0171,31.2274],[131.0291,31.2276],[131.035,31.2252],[131.0414,31.2277],[131.0493,31.224],[131.0577,31.2271],[131.0634,31.2265],[131.0663,31.2278],[131.0773,31.2388],[131.0776,31.2417],[131.0826,31.2437],[131.0871,31.2494],[131.0958,31.254],[131.1004,31.2575],[131.105,31.2582],[131.111,31.2618],[131.1119,31.2658],[131.1165,31.2677],[131.129,31.2762],[131.1323,31.281],[131.1303,31.285],[131.1224,31.2872],[131.1203,31.2823],[131.1146,31.2801],[131.1078,31.2759],[131.0915,31.2794],[131.0885,31.2762],[131.0808,31.2759],[131.0772,31.2781],[131.0737,31.2846],[131.0739,31.2914],[131.0858,31.2963],[131.092,31.3051],[131.1,31.3102],[131.1045,31.3108],[131.1068,31.3138],[131.1031,31.3189],[131.1055,31.3228],[131.105,31.3274],[131.1087,31.33],[131.1038,31.334],[131.0995,31.3328],[131.0858,31.3368],[131.0825,31.3361],[131.0754,31.3407],[131.063,31.3412],[131.0586,31.3441],[131.0525,31.3456],[131.0476,31.3488],[131.0353,31.3529],[131.0228,31.3547],[131.0159,31.3583],[131.0178,31.363],[131.016,31.3654]]],[[[131.0312,31.3776],[131.025,31.3777],[131.0217,31.3749],[131.0202,31.3662],[131.021,31.363],[131.0329,31.3626],[131.0361,31.3642],[131.0364,31.3691],[131.0333,31.3774],[131.0312,31.3776]]]]}},{"type":"Feature","properties":{"id":46019},"geometry":{"type":"Polygon","coordinates":[[[130.7916,31.3012],[130.7924,31.2959],[130.7955,31.2942],[130.795,31.2855],[130.7927,31.2833],[130.7933,31.2764],[130.7906,31.2731],[130.7877,31.2577],[130.7906,31.2544],[130.7897,31.25],[130.7858,31.2464],[130.7777,31.2415],[130.7857,31.2341],[130.7959,31.229],[130.8012,31.2276],[130.8169,31.2274],[130.8222,31.2294],[130.8329,31.241],[130.8371,31.2437],[130.8447,31.2437],[130.851,31.2385],[130.8582,31.2244],[130.8567,31.2182],[130.8443,31.2097],[130.8329,31.2055],[130.8278,31.1971],[130.8267,31.1912],[130.8268,31.1826],[130.83,31.1748],[130.8419,31.1671],[130.8451,31.1641],[130.8466,31.1584],[130.8471,31.143],[130.8503,31.137],[130.8568,31.1333],[130.8645,31.1311],[130.8725,31.1305],[130.8783,31.1316],[130.8931,31.1375],[130.8987,31.138],[130.91,31.1488],[130.919,31.1639],[130.9265,31.1709],[130.93,31.177],[130.937,31.1833],[130.9401,31.1925],[130.9376,31.1994],[130.9323,31.2037],[130.9288,31.2084],[130.9283,31.2138],[130.93,31.2237],[130.9325,31.2316],[130.9233,31.2369],[130.9184,31.2407],[130.9122,31.2433],[130.9058,31.2481],[130.8902,31.2631],[130.8854,31.2706],[130.881,31.28],[130.8802,31.284],[130.88,31.2989],[130.8784,31.3021],[130.8732,31.3049],[130.8631,31.3069],[130.8436,31.3079],[130.8353,31.3096],[130.8298,31.3122],[130.8197,31.313],[130.8156,31.3124],[130.8048,31.3082],[130.7916,31.3012]]]}},{"type":"Feature","properties":{"id":46020},"geometry":{"type":"MultiPolygon","coordinates":[[[[130.7192,31.7061],[130.7239,31.7108],[130.7197,31.7119],[130.7192,31.7061]]],[[[130.5869,31.8801],[130.6022,31.8755],[130.6166,31.8701],[130.6321,31.8565],[130.6373,31.8506],[130.6426,31.8404],[130.6472,31.8283],[130.649,31.8212],[130.652,31.8146],[130.6556,31.8021],[130.6732,31.8021],[130.6841,31.7998],[130.6871,31.7975],[130.6929,31.79],[130.6976,31.7807],[130.7048,31.7622],[130.7046,31.7537],[130.7024,31.7483],[130.693,31.7328],[130.6944,31.7292],[130.7053,31.7258],[130.7158,31.7281],[130.7164,31.725],[130.7203,31.72],[130.7281,31.7169],[130.7292,31.7125],[130.7328,31.7078],[130.7374,31.7069],[130.7417,31.7092],[130.7481,31.7086],[130.7531,31.7061],[130.7664,31.7069],[130.7717,31.7047],[130.7792,31.7036],[130.7928,31.7031],[130.7978,31.6997],[130.8,31.6956],[130.7975,31.6878],[130.8031,31.6883],[130.8111,31.6836],[130.8133,31.6786],[130.8183,31.6736],[130.82,31.6644],[130.8231,31.6603],[130.8228,31.6519],[130.8178,31.6447],[130.8133,31.6424],[130.8104,31.638],[130.8096,31.6333],[130.8217,31.615],[130.8247,31.6085],[130.8357,31.595],[130.8476,31.6079],[130.8512,31.6141],[130.8587,31.6213],[130.8658,31.6229],[130.8756,31.6237],[130.8819,31.6255],[130.8864,31.6298],[130.8886,31.6377],[130.8858,31.6449],[130.8823,31.6499],[130.88,31.6576],[130.8819,31.665],[130.8874,31.6666],[130.9022,31.6658],[130.9085,31.6664],[130.9133,31.6702],[130.9148,31.6785],[130.9145,31.6874],[130.9114,31.6982],[130.9079,31.7047],[130.9003,31.7109],[130.8953,31.7174],[130.8947,31.7243],[130.8961,31.7544],[130.8939,31.7632],[130.8845,31.7717],[130.8735,31.778],[130.8718,31.7848],[130.8773,31.7904],[130.8927,31.8008],[130.8866,31.802],[130.8814,31.8114],[130.8796,31.8213],[130.8779,31.8402],[130.8882,31.8434],[130.8936,31.8648],[130.8991,31.8873],[130.8942,31.898],[130.8887,31.9065],[130.8831,31.9182],[130.872,31.9245],[130.8602,31.9325],[130.8566,31.9349],[130.8453,31.9376],[130.8339,31.9381],[130.8212,31.9402],[130.8182,31.9385],[130.7971,31.9306],[130.7845,31.9264],[130.7753,31.925],[130.7527,31.9163],[130.7432,31.9097],[130.7328,31.9079],[130.7252,31.9101],[130.7213,31.9126],[130.705,31.9182],[130.697,31.919],[130.6626,31.92],[130.6503,31.9189],[130.639,31.9147],[130.6301,31.9099],[130.6229,31.9044],[130.6165,31.9023],[130.6098,31.8978],[130.5964,31.8868],[130.5869,31.8801]]]]}},{"type":"Feature","properties":{"id":46021},"geometry":{"type":"Polygon","coordinates":[[[130.3756,31.2519],[130.3802,31.2715],[130.3823,31.286],[130.3867,31.2981],[130.3868,31.3022],[130.3836,31.3069],[130.3743,31.3087],[130.3519,31.309],[130.3446,31.3106],[130.339,31.3149],[130.3345,31.3199],[130.3289,31.3302],[130.3276,31.3344],[130.3118,31.3318],[130.2993,31.3282],[130.2877,31.3232],[130.2719,31.3119],[130.2652,31.3008],[130.2619,31.2852],[130.2609,31.2738],[130.261,31.2558],[130.2653,31.255],[130.2742,31.2494],[130.2775,31.2461],[130.2822,31.2547],[130.2828,31.2661],[130.2864,31.2694],[130.2886,31.2664],[130.2964,31.2656],[130.2986,31.2633],[130.3092,31.2667],[130.3161,31.2572],[130.3222,31.2558],[130.3344,31.2553],[130.3445,31.2556],[130.3528,31.2506],[130.3589,31.2506],[130.3628,31.2525],[130.3708,31.2511],[130.3756,31.2519]]]}},{"type":"Feature","properties":{"id":46022},"geometry":{"type":"Polygon","coordinates":[[[130.555,31.2978],[130.5486,31.3071],[130.5452,31.3175],[130.5416,31.3237],[130.5363,31.3286],[130.5312,31.3306],[130.5219,31.3323],[130.5085,31.3366],[130.5027,31.3407],[130.5004,31.3453],[130.507,31.3769],[130.5079,31.3919],[130.508,31.4024],[130.5065,31.4092],[130.499,31.4201],[130.4962,31.4308],[130.496,31.4455],[130.4929,31.453],[130.4877,31.4579],[130.4796,31.4621],[130.4702,31.4654],[130.4555,31.4741],[130.4408,31.4662],[130.4334,31.4636],[130.417,31.4509],[130.412,31.4462],[130.4086,31.44],[130.3984,31.4276],[130.3904,31.4241],[130.3817,31.4182],[130.3744,31.4157],[130.3681,31.4106],[130.3611,31.4014],[130.3534,31.3943],[130.3513,31.3908],[130.3488,31.3823],[130.3473,31.3687],[130.3438,31.3593],[130.335,31.348],[130.3295,31.3392],[130.3276,31.3344],[130.3289,31.3302],[130.3345,31.3199],[130.339,31.3149],[130.3446,31.3106],[130.3519,31.309],[130.3743,31.3087],[130.3836,31.3069],[130.3868,31.3022],[130.3867,31.2981],[130.3823,31.286],[130.3802,31.2715],[130.3756,31.2519],[130.3858,31.2519],[130.4031,31.2508],[130.4081,31.2514],[130.4117,31.2497],[130.4189,31.2503],[130.42,31.2481],[130.4256,31.2492],[130.4342,31.2489],[130.4379,31.2514],[130.4431,31.2503],[130.4453,31.2531],[130.4517,31.2519],[130.455,31.25],[130.4603,31.2514],[130.4756,31.2453],[130.4883,31.2358],[130.5019,31.2228],[130.5061,31.2181],[130.5126,31.2075],[130.5281,31.2184],[130.5318,31.2225],[130.5347,31.2285],[130.5424,31.2393],[130.5441,31.2445],[130.5489,31.2764],[130.5531,31.2886],[130.555,31.2978]]]}},{"type":"Feature","properties":{"id":46023},"geometry":{"type":"Polygon","coordinates":[[[130.9195,31.1198],[130.9095,31.1323],[130.8987,31.138],[130.8931,31.1375],[130.8783,31.1316],[130.8725,31.1305],[130.8645,31.1311],[130.8568,31.1333],[130.8503,31.137],[130.8471,31.143],[130.8466,31.1584],[130.8451,31.1641],[130.8419,31.1671],[130.83,31.1748],[130.8268,31.1826],[130.8267,31.1912],[130.8278,31.1971],[130.8329,31.2055],[130.8443,31.2097],[130.8567,31.2182],[130.8582,31.2244],[130.851,31.2385],[130.8447,31.2437],[130.8371,31.2437],[130.8329,31.241],[130.8222,31.2294],[130.8169,31.2274],[130.8012,31.2276],[130.7959,31.229],[130.7857,31.2341],[130.7777,31.2415],[130.7731,31.2378],[130.7694,31.2308],[130.7689,31.2261],[130.7617,31.2158],[130.7585,31.2169],[130.7543,31.212],[130.7533,31.2051],[130.7553,31.198],[130.7628,31.1936],[130.7658,31.1878],[130.7672,31.1811],[130.7664,31.1778],[130.7625,31.1736],[130.7572,31.1622],[130.7497,31.1414],[130.7444,31.1312],[130.7384,31.1262],[130.7357,31.1204],[130.7308,31.1164],[130.725,31.115],[130.7141,31.1147],[130.7007,31.1009],[130.6903,31.0955],[130.6859,31.0951],[130.6857,31.0905],[130.6824,31.0884],[130.6691,31.0859],[130.6574,31.0736],[130.6595,31.0713],[130.6699,31.0683],[130.673,31.0639],[130.6786,31.0628],[130.6754,31.0568],[130.6767,31.0477],[130.6787,31.0435],[130.677,31.0375],[130.6777,31.0343],[130.6729,31.029],[130.6717,31.0237],[130.6684,31.0224],[130.6652,31.0121],[130.6569,31.0061],[130.6566,31.0016],[130.6604,30.9957],[130.6624,30.9982],[130.6669,30.9981],[130.6684,31.0086],[130.6736,31.0097],[130.6808,31.0048],[130.6883,31.0133],[130.6875,31.0186],[130.6833,31.0231],[130.685,31.0261],[130.6908,31.025],[130.6947,31.0226],[130.6997,31.0269],[130.707,31.0309],[130.7156,31.0294],[130.7136,31.0381],[130.7164,31.0447],[130.7222,31.045],[130.7345,31.0492],[130.7364,31.0511],[130.7425,31.0522],[130.7439,31.0583],[130.7481,31.0611],[130.7545,31.0612],[130.756,31.0576],[130.7608,31.0586],[130.7653,31.065],[130.7728,31.0672],[130.7786,31.0664],[130.7833,31.0717],[130.7931,31.0751],[130.7938,31.0815],[130.7979,31.0811],[130.8003,31.0842],[130.8044,31.0811],[130.8117,31.0889],[130.8278,31.0892],[130.8278,31.0925],[130.8334,31.0934],[130.8372,31.0912],[130.8469,31.0892],[130.8564,31.0917],[130.8586,31.0939],[130.8628,31.0933],[130.8664,31.0953],[130.8733,31.095],[130.8789,31.1003],[130.8844,31.1036],[130.8997,31.1103],[130.9028,31.1136],[130.9156,31.1125],[130.9195,31.1198]]]}},{"type":"Feature","properties":{"id":46024},"geometry":{"type":"MultiPolygon","coordinates":[[[[130.4558,31.4905],[130.4483,31.4915],[130.4328,31.4923],[130.4228,31.4914],[130.4095,31.4875],[130.4039,31.4846],[130.3949,31.4823],[130.3725,31.4826],[130.3616,31.4843],[130.3515,31.489],[130.3472,31.49],[130.3139,31.4922],[130.3106,31.4833],[130.3039,31.4714],[130.2964,31.4603],[130.2922,31.4528],[130.3014,31.4447],[130.2972,31.4414],[130.2922,31.4467],[130.2872,31.4453],[130.2722,31.4289],[130.2655,31.4233],[130.2556,31.4179],[130.2475,31.4161],[130.2339,31.4097],[130.23,31.4067],[130.2303,31.4033],[130.225,31.4014],[130.2131,31.4047],[130.2067,31.4047],[130.2022,31.4081],[130.1939,31.4083],[130.1919,31.4147],[130.1867,31.4128],[130.1789,31.4225],[130.1758,31.4194],[130.1711,31.4208],[130.1694,31.4303],[130.1653,31.4369],[130.1589,31.4406],[130.157,31.4383],[130.1554,31.432],[130.1503,31.4311],[130.1447,31.4256],[130.1397,31.4183],[130.1353,31.4169],[130.1317,31.4197],[130.1278,31.42],[130.1231,31.4231],[130.1139,31.4244],[130.1067,31.4164],[130.1061,31.4114],[130.1078,31.4086],[130.1123,31.4142],[130.1181,31.4164],[130.1236,31.4164],[130.1317,31.4119],[130.1331,31.4092],[130.1383,31.4075],[130.1431,31.4022],[130.1481,31.3939],[130.1528,31.3842],[130.1592,31.3822],[130.165,31.3747],[130.1717,31.3731],[130.1731,31.3675],[130.1794,31.365],[130.1904,31.3671],[130.1904,31.3554],[130.2006,31.3567],[130.2039,31.3514],[130.2081,31.3489],[130.2094,31.3436],[130.2057,31.3413],[130.2064,31.3372],[130.2008,31.3342],[130.1961,31.3297],[130.1911,31.3328],[130.1839,31.33],[130.1775,31.33],[130.1733,31.3237],[130.1761,31.3219],[130.1814,31.3244],[130.1879,31.3213],[130.1906,31.3161],[130.202,31.3164],[130.2075,31.3222],[130.2139,31.3211],[130.2192,31.3142],[130.2178,31.3094],[130.2239,31.3106],[130.2258,31.3058],[130.2211,31.2994],[130.2158,31.3017],[130.2033,31.2964],[130.1986,31.2961],[130.1989,31.2889],[130.2003,31.2833],[130.2064,31.2822],[130.2119,31.2861],[130.2131,31.2897],[130.2164,31.29],[130.2153,31.2828],[130.2272,31.2831],[130.2294,31.2786],[130.2217,31.2756],[130.2189,31.2772],[130.2153,31.2748],[130.2253,31.2722],[130.2286,31.2683],[130.2222,31.2667],[130.2203,31.2628],[130.2156,31.262],[130.2122,31.2564],[130.2167,31.2517],[130.2217,31.2533],[130.2272,31.2511],[130.2325,31.2564],[130.2375,31.2589],[130.2406,31.2578],[130.2417,31.2533],[130.2497,31.2536],[130.2533,31.2564],[130.261,31.2558],[130.2609,31.2738],[130.2619,31.2852],[130.2652,31.3008],[130.2719,31.3119],[130.2877,31.3232],[130.2993,31.3282],[130.3118,31.3318],[130.3276,31.3344],[130.3295,31.3392],[130.335,31.348],[130.3438,31.3593],[130.3473,31.3687],[130.3488,31.3823],[130.3513,31.3908],[130.3534,31.3943],[130.3611,31.4014],[130.3681,31.4106],[130.3744,31.4157],[130.3817,31.4182],[130.3904,31.4241],[130.3984,31.4276],[130.4086,31.44],[130.412,31.4462],[130.417,31.4509],[130.4334,31.4636],[130.4408,31.4662],[130.4555,31.4741],[130.4558,31.4905]]],[[[130.1914,31.4233],[130.1925,31.4294],[130.1867,31.4261],[130.1914,31.4233]]],[[[130.1683,31.3603],[130.1634,31.3602],[130.1596,31.3548],[130.1639,31.3511],[130.1675,31.355],[130.1683,31.3603]]]]}},{"type":"Feature","properties":{"id":46025},"geometry":{"type":"MultiPolygon","coordinates":[[[[130.9597,30.3719],[130.9569,30.3694],[130.9583,30.3658],[130.9625,30.3669],[130.9597,30.3719]]],[[[130.8819,30.4837],[130.8778,30.48],[130.8767,30.475],[130.8739,30.4719],[130.8733,30.4672],[130.865,30.4633],[130.8603,30.4669],[130.855,30.4686],[130.8489,30.4678],[130.8492,30.4633],[130.8517,30.4608],[130.8519,30.4453],[130.8533,30.4394],[130.8564,30.4364],[130.8603,30.4294],[130.8597,30.4267],[130.8636,30.4225],[130.8662,30.4084],[130.8664,30.4006],[130.8644,30.3967],[130.865,30.3928],[130.8636,30.3861],[130.86,30.3814],[130.8578,30.375],[130.8578,30.3697],[130.8614,30.3594],[130.8639,30.3558],[130.8697,30.3508],[130.8692,30.3475],[130.8719,30.3444],[130.8847,30.3433],[130.8875,30.3525],[130.8911,30.3564],[130.8994,30.3606],[130.9037,30.3642],[130.9136,30.3686],[130.9172,30.3683],[130.9225,30.3711],[130.9258,30.3708],[130.9297,30.3736],[130.9364,30.3761],[130.9431,30.3772],[130.9478,30.3758],[130.9508,30.3731],[130.9664,30.3744],[130.9639,30.38],[130.9639,30.3893],[130.9658,30.3942],[130.9706,30.3975],[130.9758,30.3994],[130.9808,30.3969],[130.9822,30.3994],[130.9728,30.4075],[130.9686,30.4144],[130.9675,30.4239],[130.9803,30.435],[130.9742,30.4417],[130.9772,30.4456],[130.9688,30.4488],[130.9606,30.4536],[130.9601,30.4572],[130.9531,30.4539],[130.9458,30.4518],[130.9391,30.4514],[130.9202,30.4522],[130.9127,30.4547],[130.9085,30.4582],[130.9025,30.4671],[130.8927,30.4769],[130.8868,30.4816],[130.8819,30.4837]]]]}},{"type":"Feature","properties":{"id":46026},"geometry":{"type":"MultiPolygon","coordinates":[[[[130.3093,30.8033],[130.3024,30.8083],[130.2922,30.8042],[130.2803,30.7967],[130.2765,30.792],[130.2664,30.7932],[130.265,30.7864],[130.2615,30.7818],[130.2653,30.779],[130.2742,30.7794],[130.2814,30.7781],[130.2881,30.7785],[130.2978,30.7811],[130.3147,30.7808],[130.3206,30.7865],[130.3211,30.7955],[130.315,30.8027],[130.3093,30.8033]]],[[[130.4347,30.8139],[130.4292,30.8161],[130.4272,30.8203],[130.4206,30.8151],[130.415,30.8181],[130.4101,30.8188],[130.4064,30.8158],[130.4057,30.81],[130.3978,30.8111],[130.3956,30.8083],[130.4014,30.8067],[130.412,30.8092],[130.4275,30.8042],[130.4333,30.8042],[130.4417,30.7997],[130.4443,30.8017],[130.4454,30.8098],[130.4347,30.8139]]],[[[129.9406,30.8486],[129.9372,30.8522],[129.9317,30.8494],[129.9253,30.8503],[129.9208,30.8447],[129.915,30.8397],[129.9044,30.8378],[129.9042,30.8317],[129.9103,30.83],[129.9106,30.8247],[129.9178,30.8169],[129.922,30.8161],[129.9261,30.8128],[129.9303,30.8116],[129.9384,30.8119],[129.9434,30.8149],[129.9481,30.8155],[129.953,30.8181],[129.9648,30.8297],[129.9646,30.8353],[129.9584,30.8364],[129.9539,30.8389],[129.9522,30.8422],[129.9422,30.8458],[129.9406,30.8486]]],[[[129.4403,30.8492],[129.4313,30.8481],[129.4275,30.8442],[129.4287,30.8412],[129.4364,30.8475],[129.4403,30.8492]]],[[[129.4753,31.2078],[129.4691,31.2037],[129.4741,31.1998],[129.4768,31.2018],[129.4753,31.2078]]],[[[129.453,31.1986],[129.4452,31.1996],[129.4445,31.1881],[129.4429,31.1857],[129.4371,31.1858],[129.4408,31.18],[129.4468,31.1786],[129.4514,31.1817],[129.4469,31.1853],[129.4492,31.1918],[129.4533,31.195],[129.453,31.1986]]]]}},{"type":"Feature","properties":{"id":46027},"geometry":{"type":"MultiPolygon","coordinates":[[[[130.1403,32.1058],[130.1494,32.0974],[130.1486,32.1033],[130.1424,32.1074],[130.1403,32.1058]]],[[[130.1391,32.2132],[130.1456,32.2075],[130.1486,32.2083],[130.1463,32.2162],[130.1391,32.2132]]],[[[130.1481,32.2169],[130.1531,32.2147],[130.1553,32.2167],[130.1534,32.2208],[130.1481,32.2169]]],[[[130.1086,32.1666],[130.1088,32.1701],[130.1052,32.1736],[130.0984,32.1725],[130.1036,32.1683],[130.1086,32.1666]]],[[[130.1748,32.0969],[130.1758,32.1058],[130.1791,32.1073],[130.1777,32.121],[130.176,32.1129],[130.1732,32.1101],[130.1671,32.0974],[130.1693,32.0941],[130.1631,32.0892],[130.1577,32.0894],[130.1623,32.0863],[130.168,32.0872],[130.1748,32.0969]]],[[[130.2099,32.1572],[130.2099,32.1536],[130.2044,32.1484],[130.1938,32.1477],[130.1868,32.1427],[130.1837,32.1384],[130.1804,32.1372],[130.1794,32.1328],[130.1829,32.1367],[130.1915,32.1415],[130.198,32.1434],[130.2059,32.1477],[130.2106,32.1531],[130.2099,32.1572]]],[[[130.1822,32.2272],[130.1821,32.2279],[130.1823,32.2399],[130.1821,32.243],[130.18,32.247],[130.1762,32.248],[130.1776,32.2407],[130.1748,32.2329],[130.1717,32.2297],[130.1765,32.2281],[130.1763,32.2213],[130.1824,32.2182],[130.1868,32.2122],[130.1856,32.2103],[130.1905,32.1997],[130.2003,32.1977],[130.2002,32.1956],[130.189,32.1872],[130.1836,32.1785],[130.1873,32.177],[130.1872,32.1661],[130.1931,32.1642],[130.1951,32.1715],[130.201,32.1683],[130.2003,32.1788],[130.2032,32.1876],[130.2112,32.1933],[130.2142,32.1983],[130.2151,32.2051],[130.2149,32.2147],[130.2133,32.2196],[130.2098,32.2234],[130.1995,32.2225],[130.1935,32.2172],[130.187,32.2176],[130.1822,32.2272]]],[[[130.1583,32.2253],[130.1625,32.2132],[130.1656,32.2173],[130.1641,32.2213],[130.1661,32.2281],[130.1622,32.23],[130.1583,32.2253]]],[[[130.231,32.2482],[130.2384,32.2505],[130.2418,32.2533],[130.2428,32.2541],[130.248,32.2572],[130.259,32.258],[130.2641,32.2595],[130.2669,32.2674],[130.2668,32.2795],[130.2655,32.2837],[130.2606,32.2889],[130.2526,32.2932],[130.2448,32.2942],[130.2368,32.2896],[130.2316,32.2849],[130.2272,32.2789],[130.2247,32.2717],[130.2238,32.2595],[130.2238,32.2555],[130.231,32.2482]]]]}},{"type":"Feature","properties":{"id":46028},"geometry":{"type":"Polygon","coordinates":[[[130.9601,30.4572],[130.9583,30.4594],[130.9614,30.4639],[130.9672,30.4619],[130.97,30.4697],[130.9683,30.4711],[130.9628,30.4811],[130.9695,30.4864],[130.9786,30.4975],[130.9792,30.5036],[130.9781,30.5067],[130.9806,30.5106],[130.9792,30.5172],[130.9839,30.5242],[130.9917,30.5297],[130.9956,30.5306],[130.9956,30.5381],[130.9988,30.5462],[131.0053,30.5511],[131.0136,30.5483],[131.0197,30.5536],[131.0278,30.555],[131.0306,30.5584],[131.0275,30.5617],[131.0353,30.5667],[131.0339,30.5689],[131.0358,30.5744],[131.0322,30.5842],[131.0331,30.5872],[131.0414,30.5931],[131.0436,30.5928],[131.0423,30.5982],[131.0282,30.604],[131.0209,30.6062],[131.0056,30.6134],[130.9991,30.6207],[130.9939,30.6304],[130.9921,30.6374],[130.9879,30.6452],[130.9828,30.6502],[130.9736,30.6526],[130.9543,30.6431],[130.9467,30.6375],[130.9506,30.6311],[130.9483,30.6239],[130.95,30.6156],[130.9489,30.6047],[130.953,30.5933],[130.9514,30.5861],[130.9425,30.5663],[130.9319,30.5475],[130.9267,30.5372],[130.9175,30.5249],[130.9175,30.5237],[130.9094,30.5133],[130.9061,30.5072],[130.8972,30.4947],[130.8905,30.4925],[130.8858,30.4886],[130.8825,30.4878],[130.8819,30.4837],[130.8868,30.4816],[130.8927,30.4769],[130.9025,30.4671],[130.9085,30.4582],[130.9127,30.4547],[130.9202,30.4522],[130.9391,30.4514],[130.9458,30.4518],[130.9531,30.4539],[130.9601,30.4572]]]}},{"type":"Feature","properties":{"id":46029},"geometry":{"type":"MultiPolygon","coordinates":[[[[130.9467,30.6375],[130.9543,30.6431],[130.9736,30.6526],[130.9828,30.6502],[130.9879,30.6452],[130.9921,30.6374],[130.9939,30.6304],[130.9991,30.6207],[131.0056,30.6134],[131.0209,30.6062],[131.0282,30.604],[131.0423,30.5982],[131.0436,30.5928],[131.0486,30.5953],[131.0539,30.6019],[131.0552,30.6073],[131.0517,30.6119],[131.0555,30.619],[131.0533,30.6211],[131.0538,30.6298],[131.0597,30.6408],[131.0544,30.6478],[131.0497,30.6489],[131.0536,30.6617],[131.0533,30.6656],[131.0567,30.6708],[131.063,30.675],[131.0664,30.6869],[131.0644,30.6889],[131.0678,30.6928],[131.0742,30.6917],[131.0775,30.6981],[131.0778,30.7044],[131.0742,30.7097],[131.0758,30.7139],[131.0728,30.7192],[131.0758,30.7242],[131.0733,30.7278],[131.0744,30.7344],[131.0722,30.7381],[131.0728,30.7511],[131.0722,30.7561],[131.075,30.7594],[131.0714,30.7617],[131.0708,30.7664],[131.0742,30.7722],[131.0819,30.7785],[131.0839,30.7831],[131.0808,30.7953],[131.0708,30.797],[131.0729,30.8113],[131.0669,30.8117],[131.0642,30.8164],[131.0642,30.8247],[131.0626,30.8262],[131.0628,30.8336],[131.0604,30.8373],[131.0544,30.8381],[131.0439,30.8275],[131.0323,30.8249],[131.0311,30.814],[131.0208,30.8022],[131.0128,30.7953],[131.0103,30.7894],[131.0033,30.7856],[131.0029,30.7826],[131.0083,30.7757],[131.0087,30.7661],[131.0066,30.7642],[131.0022,30.7552],[131.0031,30.7515],[131.0005,30.7457],[130.9922,30.7406],[130.9906,30.7356],[130.9931,30.7261],[130.9878,30.7228],[130.985,30.7264],[130.9806,30.7269],[130.9761,30.7219],[130.9719,30.7072],[130.9628,30.6925],[130.9567,30.69],[130.9582,30.6868],[130.9522,30.6847],[130.9467,30.6791],[130.9389,30.6694],[130.9404,30.6657],[130.9475,30.6661],[130.9444,30.6567],[130.9408,30.6508],[130.9419,30.6456],[130.9453,30.6428],[130.9467,30.6375]]],[[[130.8638,30.7493],[130.8614,30.7532],[130.8608,30.7642],[130.8564,30.7658],[130.854,30.7617],[130.8423,30.7506],[130.8425,30.7461],[130.8385,30.7325],[130.838,30.7273],[130.8416,30.7259],[130.8489,30.7261],[130.8524,30.725],[130.8598,30.7255],[130.8654,30.7318],[130.8683,30.7417],[130.8667,30.7474],[130.8638,30.7493]]]]}},{"type":"Feature","properties":{"id":46030},"geometry":{"type":"Polygon","coordinates":[[[130.7059,32.0628],[130.7086,32.0765],[130.7187,32.0833],[130.7302,32.0986],[130.7144,32.1005],[130.7045,32.1026],[130.6952,32.1086],[130.6872,32.1148],[130.6669,32.1266],[130.6571,32.1331],[130.6539,32.1479],[130.649,32.1485],[130.6424,32.1493],[130.625,32.1533],[130.6185,32.168],[130.6147,32.1791],[130.6049,32.1839],[130.5939,32.1826],[130.5937,32.1793],[130.5928,32.1666],[130.5868,32.1565],[130.5773,32.1512],[130.567,32.1512],[130.5565,32.1493],[130.546,32.1464],[130.5419,32.136],[130.5311,32.1334],[130.5201,32.1323],[130.5105,32.1373],[130.4994,32.1323],[130.4887,32.134],[130.4786,32.1292],[130.4785,32.1223],[130.4869,32.1121],[130.5002,32.0992],[130.5042,32.093],[130.508,32.0838],[130.5098,32.0768],[130.5084,32.0687],[130.4948,32.0468],[130.4889,32.0363],[130.4987,32.0218],[130.5074,32.0121],[130.5157,32.0066],[130.5365,31.9998],[130.543,31.995],[130.5485,31.9893],[130.5527,31.9816],[130.5547,31.9752],[130.5597,31.9701],[130.5705,31.9672],[130.5925,31.9574],[130.6032,31.951],[130.6078,31.9613],[130.6107,31.9698],[130.6114,31.9769],[130.6119,31.9973],[130.614,32.0061],[130.6191,32.0136],[130.6244,32.0248],[130.6302,32.0329],[130.6461,32.0462],[130.653,32.0506],[130.674,32.0564],[130.6807,32.0591],[130.6922,32.0602],[130.7059,32.0628]]]}},{"type":"Feature","properties":{"id":46031},"geometry":{"type":"Polygon","coordinates":[[[131.0249,31.4024],[131.0286,31.4119],[131.0402,31.4266],[131.0441,31.4299],[131.052,31.4393],[131.0594,31.4462],[131.0513,31.461],[131.0472,31.4667],[131.0437,31.4691],[131.0338,31.4728],[131.0234,31.4731],[131.0141,31.4695],[130.9993,31.4581],[130.9927,31.456],[130.987,31.4571],[130.9819,31.4623],[130.9798,31.4669],[130.978,31.4769],[130.9779,31.485],[130.9794,31.5246],[130.9792,31.5397],[130.964,31.5313],[130.9519,31.5276],[130.9442,31.5274],[130.9384,31.5343],[130.9329,31.5383],[130.9308,31.533],[130.9295,31.5194],[130.9285,31.5159],[130.9236,31.5106],[130.9146,31.504],[130.9096,31.4993],[130.9088,31.4917],[130.9131,31.481],[130.9151,31.4784],[130.9264,31.4716],[130.9397,31.4603],[130.9467,31.4573],[130.9549,31.4505],[130.9645,31.4439],[130.9719,31.4354],[130.9793,31.4235],[130.9872,31.4153],[130.9951,31.4045],[131.0048,31.4023],[131.0249,31.4024]]]}},{"type":"Feature","properties":{"id":46032},"geometry":{"type":"Polygon","coordinates":[[[130.6032,31.951],[130.5925,31.9574],[130.5705,31.9672],[130.5597,31.9701],[130.5547,31.9752],[130.5527,31.9816],[130.5485,31.9893],[130.543,31.995],[130.5365,31.9998],[130.5157,32.0066],[130.5074,32.0121],[130.4987,32.0218],[130.4889,32.0363],[130.4756,32.0267],[130.4689,32.0235],[130.4649,32.0157],[130.4599,32.0085],[130.4511,32.0054],[130.4289,32.0057],[130.4154,32.0029],[130.4068,31.997],[130.3951,31.9922],[130.3691,31.9868],[130.3573,31.9821],[130.3459,31.9737],[130.3611,31.9483],[130.3664,31.9435],[130.3779,31.9369],[130.3842,31.9318],[130.4043,31.9129],[130.4096,31.9033],[130.4112,31.8917],[130.4162,31.8749],[130.4175,31.8619],[130.421,31.8519],[130.4248,31.8503],[130.4418,31.8495],[130.45,31.8462],[130.4581,31.8357],[130.4638,31.8337],[130.4704,31.8373],[130.4722,31.8515],[130.4745,31.8587],[130.4811,31.8715],[130.4836,31.8778],[130.489,31.8868],[130.495,31.8923],[130.5046,31.8966],[130.5171,31.9007],[130.5238,31.9001],[130.5285,31.8972],[130.5491,31.888],[130.5537,31.8881],[130.5631,31.8918],[130.5709,31.8911],[130.5763,31.8891],[130.5869,31.8801],[130.5964,31.8868],[130.6098,31.8978],[130.6165,31.9023],[130.6229,31.9044],[130.6301,31.9099],[130.6303,31.9242],[130.6296,31.9317],[130.6245,31.938],[130.6192,31.9428],[130.6032,31.951]]]}},{"type":"Feature","properties":{"id":46033},"geometry":{"type":"MultiPolygon","coordinates":[[[[129.7933,31.7844],[129.7897,31.785],[129.7888,31.7891],[129.7844,31.7912],[129.7858,31.7791],[129.7811,31.7764],[129.7823,31.7735],[129.789,31.7699],[129.7853,31.7607],[129.7819,31.7579],[129.7772,31.7586],[129.774,31.7556],[129.7805,31.7523],[129.779,31.747],[129.7733,31.7403],[129.7669,31.744],[129.7634,31.7373],[129.7495,31.7378],[129.7428,31.7367],[129.738,31.7316],[129.7274,31.7296],[129.7231,31.7275],[129.7204,31.7286],[129.7082,31.723],[129.7024,31.7177],[129.6967,31.7153],[129.7015,31.711],[129.702,31.7073],[129.6942,31.7041],[129.6903,31.7011],[129.6932,31.6931],[129.6897,31.6905],[129.6884,31.6866],[129.6835,31.6816],[129.6842,31.6753],[129.6764,31.6669],[129.6819,31.6626],[129.6725,31.6598],[129.6664,31.6627],[129.6578,31.6586],[129.6597,31.6553],[129.66,31.6494],[129.6661,31.6411],[129.6672,31.6342],[129.6732,31.6365],[129.6761,31.6336],[129.6811,31.6328],[129.6839,31.63],[129.6819,31.6244],[129.6897,31.6219],[129.6964,31.6225],[129.6989,31.6244],[129.7006,31.6308],[129.6969,31.6332],[129.7004,31.6361],[129.7084,31.6363],[129.7106,31.6344],[129.7101,31.6272],[129.7123,31.6225],[129.7166,31.6252],[129.7164,31.6314],[129.7197,31.6389],[129.7288,31.645],[129.7262,31.647],[129.7378,31.654],[129.7375,31.6572],[129.7264,31.6625],[129.7261,31.6705],[129.7273,31.6743],[129.7386,31.6835],[129.743,31.6861],[129.7449,31.6943],[129.744,31.6968],[129.7394,31.6994],[129.7386,31.7044],[129.7418,31.7063],[129.7479,31.7166],[129.7527,31.7182],[129.7569,31.7167],[129.757,31.711],[129.7589,31.7096],[129.7692,31.7128],[129.7715,31.7156],[129.7767,31.7285],[129.7762,31.7333],[129.7798,31.7361],[129.778,31.7436],[129.7887,31.7499],[129.789,31.7572],[129.7921,31.7608],[129.8006,31.7614],[129.8014,31.7661],[129.7968,31.7679],[129.7976,31.7725],[129.7942,31.7789],[129.7969,31.7823],[129.7933,31.7844]]],[[[129.8414,31.8162],[129.8391,31.8195],[129.8328,31.8168],[129.8214,31.8139],[129.8209,31.8068],[129.8184,31.8018],[129.8136,31.7971],[129.8157,31.7892],[129.8148,31.7852],[129.8166,31.779],[129.8214,31.7786],[129.823,31.7746],[129.8293,31.7751],[129.83,31.7809],[129.8322,31.7836],[129.8264,31.7852],[129.8244,31.7887],[129.8304,31.7919],[129.8334,31.7961],[129.8395,31.7962],[129.8445,31.7984],[129.8458,31.8012],[129.8409,31.8024],[129.836,31.8055],[129.8429,31.812],[129.8414,31.8162]]],[[[129.8433,31.8252],[129.8418,31.827],[129.8361,31.8258],[129.8417,31.8222],[129.8433,31.8252]]],[[[129.8622,31.8786],[129.8523,31.8832],[129.8414,31.8817],[129.835,31.8822],[129.8283,31.8689],[129.8233,31.8633],[129.8172,31.8617],[129.8192,31.8569],[129.8192,31.851],[129.8223,31.8469],[129.8206,31.8422],[129.8283,31.8433],[129.8308,31.8383],[129.8353,31.8372],[129.8339,31.8525],[129.8386,31.8568],[129.8381,31.8606],[129.8414,31.8672],[129.8443,31.8621],[129.8427,31.8573],[129.8531,31.8542],[129.8407,31.8506],[129.8481,31.8436],[129.8494,31.8314],[129.8578,31.8375],[129.8624,31.8357],[129.8617,31.8278],[129.8572,31.8233],[129.8586,31.8211],[129.8653,31.8192],[129.8734,31.8202],[129.8715,31.8128],[129.8742,31.8094],[129.8719,31.8053],[129.8737,31.8031],[129.8842,31.8108],[129.89,31.8111],[129.8989,31.8132],[129.9035,31.82],[129.9081,31.82],[129.9124,31.8219],[129.9185,31.8181],[129.9256,31.8197],[129.9308,31.8256],[129.9294,31.8317],[129.9314,31.8369],[129.9294,31.8386],[129.9213,31.84],[129.9194,31.845],[129.9218,31.8475],[129.9305,31.8491],[129.9283,31.8569],[129.9294,31.8592],[129.9239,31.8622],[129.9247,31.8658],[129.9131,31.8679],[129.9094,31.8703],[129.9047,31.8678],[129.9104,31.8625],[129.9081,31.86],[129.9086,31.8561],[129.9189,31.8517],[129.9161,31.8461],[129.9117,31.8433],[129.9061,31.8439],[129.8981,31.8479],[129.8956,31.8536],[129.8875,31.8546],[129.8814,31.8575],[129.8736,31.8683],[129.8622,31.8786]]],[[[130.4753,31.7256],[130.4812,31.7338],[130.4896,31.7482],[130.5041,31.7711],[130.5093,31.7801],[130.5122,31.7882],[130.5205,31.8024],[130.5231,31.8087],[130.5309,31.8192],[130.5347,31.8273],[130.5397,31.8321],[130.5587,31.8471],[130.5693,31.8561],[130.5782,31.865],[130.5828,31.8709],[130.5869,31.8801],[130.5763,31.8891],[130.5709,31.8911],[130.5631,31.8918],[130.5537,31.8881],[130.5491,31.888],[130.5285,31.8972],[130.5238,31.9001],[130.5171,31.9007],[130.5046,31.8966],[130.495,31.8923],[130.489,31.8868],[130.4836,31.8778],[130.4811,31.8715],[130.4745,31.8587],[130.4722,31.8515],[130.4704,31.8373],[130.4638,31.8337],[130.4581,31.8357],[130.45,31.8462],[130.4418,31.8495],[130.4248,31.8503],[130.421,31.8519],[130.4175,31.8619],[130.4162,31.8749],[130.4112,31.8917],[130.4096,31.9033],[130.4043,31.9129],[130.3842,31.9318],[130.3779,31.9369],[130.3664,31.9435],[130.3611,31.9483],[130.3459,31.9737],[130.333,31.9731],[130.318,31.9737],[130.3129,31.9645],[130.3064,31.9589],[130.2994,31.9567],[130.2854,31.9559],[130.2769,31.9519],[130.2695,31.9415],[130.2661,31.9385],[130.2566,31.9351],[130.2451,31.9295],[130.2354,31.9269],[130.2206,31.9198],[130.2195,31.9172],[130.2244,31.9111],[130.2239,31.9036],[130.2211,31.8953],[130.2167,31.8897],[130.2172,31.8853],[130.2111,31.8733],[130.2083,31.8697],[130.202,31.8681],[130.2025,31.8647],[130.1978,31.8617],[130.1934,31.8445],[130.187,31.8336],[130.1856,31.8286],[130.1808,31.8203],[130.1739,31.8167],[130.1733,31.8019],[130.1711,31.7975],[130.1667,31.7947],[130.1706,31.7886],[130.1722,31.78],[130.1794,31.7806],[130.1806,31.7745],[130.1851,31.7713],[130.1851,31.7667],[130.1899,31.7729],[130.1962,31.7782],[130.2041,31.7833],[130.21,31.7853],[130.2169,31.7853],[130.2263,31.7829],[130.2405,31.771],[130.2619,31.7608],[130.2724,31.7588],[130.2877,31.7592],[130.2932,31.76],[130.3025,31.763],[130.3102,31.7617],[130.3149,31.7588],[130.3367,31.7492],[130.3412,31.7499],[130.3505,31.7565],[130.3585,31.7576],[130.3629,31.7561],[130.3675,31.751],[130.3738,31.7414],[130.377,31.7388],[130.3867,31.7338],[130.397,31.7309],[130.41,31.7247],[130.4209,31.7204],[130.4248,31.7256],[130.4337,31.7318],[130.4397,31.7328],[130.4573,31.7315],[130.4657,31.7298],[130.4753,31.7256]]]]}},{"type":"Feature","properties":{"id":46034},"geometry":{"type":"MultiPolygon","coordinates":[[[[129.2267,28.0444],[129.219,28.0505],[129.2174,28.0536],[129.2122,28.0528],[129.2125,28.0464],[129.2058,28.0414],[129.2047,28.0347],[129.2089,28.0311],[129.2119,28.0222],[129.2147,28.0202],[129.2192,28.0242],[129.2239,28.0247],[129.2331,28.0236],[129.2392,28.0189],[129.2439,28.0194],[129.2536,28.0133],[129.2558,28.0097],[129.2558,28.0058],[129.2608,28.0064],[129.2614,28.0092],[129.2678,28.0136],[129.2697,28.0167],[129.2667,28.0222],[129.27,28.0258],[129.2681,28.0281],[129.2697,28.0322],[129.2647,28.0375],[129.2583,28.0311],[129.2553,28.03],[129.2517,28.0381],[129.2472,28.0397],[129.2436,28.0342],[129.2386,28.0308],[129.2345,28.0311],[129.2308,28.0339],[129.2317,28.0367],[129.2267,28.0444]]],[[[129.1714,28.0581],[129.1706,28.0636],[129.1731,28.0653],[129.1717,28.07],[129.1664,28.0683],[129.165,28.0631],[129.1619,28.0597],[129.1567,28.0583],[129.1578,28.0544],[129.155,28.0508],[129.1478,28.0492],[129.1497,28.0469],[129.1482,28.0424],[129.1492,28.0389],[129.1447,28.0331],[129.1446,28.0222],[129.1461,28.0158],[129.1497,28.0142],[129.1528,28.0169],[129.1594,28.0175],[129.1658,28.0217],[129.1636,28.0247],[129.1645,28.0301],[129.1694,28.035],[129.17,28.0386],[129.1653,28.0422],[129.1656,28.0456],[129.1708,28.0486],[129.1756,28.0475],[129.1747,28.0522],[129.1714,28.0581]]],[[[129.1639,28.1233],[129.1592,28.1214],[129.1642,28.115],[129.1686,28.1167],[129.1722,28.1133],[129.1728,28.1097],[129.1772,28.1106],[129.1764,28.1142],[129.1703,28.1206],[129.1639,28.1233]]],[[[129.2758,28.0242],[129.2717,28.0208],[129.2764,28.0183],[129.2797,28.0197],[129.2758,28.0242]]],[[[129.2105,28.2001],[129.2044,28.2],[129.1931,28.1947],[129.1906,28.1883],[129.1836,28.1869],[129.1829,28.1908],[129.1778,28.1886],[129.1753,28.1831],[129.1778,28.1789],[129.185,28.1733],[129.1875,28.1622],[129.1878,28.1572],[129.1925,28.1539],[129.1975,28.1533],[129.1983,28.1492],[129.1958,28.1461],[129.203,28.1431],[129.205,28.1453],[129.21,28.1464],[129.2161,28.1406],[129.2198,28.1395],[129.2156,28.135],[129.2157,28.1315],[129.2133,28.1286],[129.2169,28.1211],[129.2151,28.1148],[129.2169,28.1117],[129.2217,28.1097],[129.2219,28.1056],[129.2244,28.0992],[129.2214,28.0963],[129.2208,28.0892],[129.2169,28.0867],[129.212,28.0867],[129.2144,28.0819],[129.2144,28.0772],[129.2178,28.075],[129.2228,28.0783],[129.2291,28.0856],[129.2289,28.0884],[129.2394,28.0994],[129.2431,28.1006],[129.2481,28.0997],[129.2495,28.1022],[129.2461,28.1056],[129.2508,28.1111],[129.2583,28.1064],[129.2617,28.1],[129.2603,28.0925],[129.2655,28.0883],[129.2655,28.0842],[129.2619,28.0814],[129.2619,28.0781],[129.2694,28.0692],[129.2729,28.0696],[129.2839,28.0622],[129.2872,28.0633],[129.2886,28.0666],[129.2847,28.0683],[129.2836,28.0725],[129.2881,28.0756],[129.2847,28.0819],[129.2869,28.0853],[129.29,28.0847],[129.2939,28.0917],[129.2997,28.09],[129.3044,28.0861],[129.3144,28.0931],[129.3156,28.0964],[129.3217,28.0964],[129.325,28.0922],[129.3178,28.0822],[129.3172,28.0747],[129.3153,28.0711],[129.3183,28.0667],[129.3186,28.0617],[129.3278,28.0728],[129.3358,28.0744],[129.3405,28.0771],[129.343,28.0878],[129.3481,28.0903],[129.3483,28.0989],[129.3548,28.103],[129.3542,28.1086],[129.3467,28.1086],[129.3411,28.1142],[129.3358,28.11],[129.3294,28.1106],[129.3258,28.1089],[129.3214,28.1031],[129.3147,28.1089],[129.3153,28.1128],[129.3081,28.1117],[129.3067,28.1156],[129.3006,28.1192],[129.2975,28.1136],[129.2958,28.1078],[129.2917,28.1083],[129.2875,28.1133],[129.2892,28.1231],[129.2822,28.1231],[129.2797,28.1167],[129.2742,28.1136],[129.2717,28.115],[129.2742,28.1239],[129.2672,28.125],[129.2689,28.1289],[129.2762,28.1347],[129.2767,28.1406],[129.2719,28.1411],[129.265,28.1325],[129.2611,28.1342],[129.2558,28.1297],[129.2528,28.1236],[129.2461,28.1228],[129.2469,28.1283],[129.25,28.1317],[129.2483,28.1342],[129.2433,28.1333],[129.2419,28.1364],[129.2461,28.1403],[129.2522,28.1392],[129.2617,28.1439],[129.2603,28.1458],[129.2547,28.1469],[129.2497,28.1506],[129.2533,28.1536],[129.2586,28.1525],[129.2678,28.1528],[129.2697,28.1503],[129.2742,28.1508],[129.2747,28.1578],[129.2708,28.1614],[129.2714,28.1647],[129.2655,28.1689],[129.2614,28.1683],[129.2625,28.1625],[129.2569,28.1644],[129.2581,28.1742],[129.2539,28.1728],[129.2544,28.165],[129.2564,28.1622],[129.2525,28.1578],[129.2442,28.1511],[129.2394,28.1508],[129.2367,28.1539],[129.2272,28.1556],[129.2242,28.1594],[129.22,28.1606],[129.2208,28.1658],[129.2125,28.1636],[129.21,28.1672],[129.2153,28.1736],[129.2114,28.1769],[129.2069,28.1778],[129.2033,28.1806],[129.2058,28.1833],[129.2108,28.1839],[129.2147,28.1875],[129.2236,28.1908],[129.2303,28.1919],[129.2392,28.185],[129.2425,28.1886],[129.2347,28.1961],[129.2251,28.1949],[129.2219,28.1917],[129.2186,28.1911],[129.2108,28.1936],[129.2092,28.1969],[129.2105,28.2001]]],[[[129.1506,28.1317],[129.1467,28.1331],[129.1461,28.1286],[129.1511,28.1278],[129.1506,28.1317]]],[[[129.1728,28.1969],[129.17,28.1989],[129.1653,28.1931],[129.1697,28.1914],[129.1728,28.1969]]],[[[129.4318,28.1962],[129.4205,28.2063],[129.4129,28.2122],[129.4037,28.2168],[129.3976,28.2182],[129.3835,28.2191],[129.3788,28.218],[129.3715,28.213],[129.3585,28.2014],[129.3529,28.1973],[129.3464,28.1968],[129.3405,28.2025],[129.3373,28.2146],[129.3373,28.2213],[129.3391,28.241],[129.3273,28.2397],[129.3142,28.2395],[129.1744,28.2412],[129.1706,28.2413],[129.1733,28.2392],[129.1739,28.2325],[129.1772,28.2241],[129.1861,28.2219],[129.1897,28.2231],[129.1939,28.2278],[129.2014,28.2242],[129.2053,28.2186],[129.2114,28.2203],[129.2142,28.2228],[129.2146,28.2271],[129.2181,28.2285],[129.2195,28.2236],[129.2253,28.2219],[129.2294,28.2189],[129.2322,28.2208],[129.2417,28.2167],[129.2421,28.2097],[129.2456,28.2039],[129.2511,28.2033],[129.2578,28.2061],[129.2567,28.21],[129.2483,28.2142],[129.2542,28.2189],[129.2539,28.225],[129.2519,28.2283],[129.2544,28.2331],[129.2625,28.2303],[129.2669,28.2311],[129.2714,28.2283],[129.2742,28.2244],[129.2639,28.2197],[129.2614,28.2164],[129.2681,28.2144],[129.2717,28.2164],[129.2789,28.2164],[129.2805,28.2206],[129.2933,28.2208],[129.2933,28.2183],[129.2858,28.2172],[129.2861,28.2147],[129.2803,28.2086],[129.2756,28.2092],[129.2725,28.2072],[129.2725,28.1986],[129.2642,28.1933],[129.2658,28.1897],[129.2625,28.1864],[129.2636,28.1825],[129.2742,28.1811],[129.2744,28.1858],[129.2786,28.1864],[129.282,28.1906],[129.2825,28.1958],[129.2875,28.19],[129.2886,28.1864],[129.2836,28.1843],[129.2825,28.1781],[129.2878,28.1789],[129.2914,28.1814],[129.2939,28.1778],[129.2897,28.1744],[129.2919,28.1722],[129.2972,28.1711],[129.297,28.1686],[129.2928,28.1664],[129.2864,28.1689],[129.2858,28.165],[129.2881,28.1625],[129.2958,28.1611],[129.2966,28.1568],[129.2914,28.1536],[129.2953,28.1489],[129.3028,28.1497],[129.3058,28.1464],[129.3106,28.1453],[129.3167,28.1417],[129.3214,28.1356],[129.3294,28.135],[129.3325,28.1297],[129.3397,28.1308],[129.3383,28.1364],[129.3447,28.1383],[129.3481,28.1311],[129.3511,28.1317],[129.3553,28.1358],[129.3592,28.1358],[129.3597,28.1325],[129.3661,28.1286],[129.3617,28.1253],[129.3614,28.12],[129.3683,28.1161],[129.3661,28.1119],[129.3694,28.1106],[129.3727,28.113],[129.3792,28.1094],[129.3806,28.1122],[129.3779,28.1184],[129.3783,28.1252],[129.3722,28.1292],[129.3697,28.1356],[129.3703,28.1388],[129.3664,28.1447],[129.3622,28.1483],[129.3561,28.1511],[129.3569,28.1542],[129.3503,28.1581],[129.3461,28.1619],[129.3394,28.165],[129.3372,28.1686],[129.3483,28.1708],[129.3506,28.1736],[129.3608,28.17],[129.3633,28.1672],[129.3633,28.1628],[129.3708,28.1656],[129.3755,28.1633],[129.3825,28.1653],[129.3833,28.1611],[129.3872,28.1625],[129.395,28.1572],[129.3972,28.1583],[129.4008,28.1522],[129.4058,28.1594],[129.4058,28.165],[129.4041,28.1696],[129.4076,28.1708],[129.4092,28.1825],[129.4025,28.1864],[129.4033,28.1917],[129.407,28.1936],[129.4128,28.1894],[129.4214,28.1894],[129.4286,28.1922],[129.4318,28.1962]]]]}},{"type":"Feature","properties":{"id":46035},"geometry":{"type":"MultiPolygon","coordinates":[[[[131.1188,31.4254],[131.119,31.4312],[131.1139,31.4301],[131.1156,31.4261],[131.1188,31.4254]]],[[[130.9792,31.5397],[130.9794,31.5246],[130.9779,31.485],[130.978,31.4769],[130.9798,31.4669],[130.9819,31.4623],[130.987,31.4571],[130.9927,31.456],[130.9993,31.4581],[131.0141,31.4695],[131.0234,31.4731],[131.0338,31.4728],[131.0437,31.4691],[131.0472,31.4667],[131.0513,31.461],[131.0594,31.4462],[131.0658,31.4499],[131.0775,31.4586],[131.0831,31.4589],[131.0867,31.4613],[131.0961,31.4561],[131.0992,31.4621],[131.0984,31.4677],[131.1081,31.4733],[131.1185,31.4748],[131.1277,31.4698],[131.1363,31.467],[131.1381,31.461],[131.1401,31.4609],[131.1439,31.468],[131.1543,31.4655],[131.1607,31.459],[131.165,31.4578],[131.1641,31.4631],[131.1653,31.4801],[131.1783,31.5],[131.1993,31.5082],[131.2025,31.5179],[131.2021,31.5303],[131.1999,31.5408],[131.1928,31.5542],[131.202,31.5607],[131.2062,31.5705],[131.2054,31.581],[131.1998,31.5915],[131.1905,31.599],[131.1885,31.6088],[131.1902,31.6211],[131.1889,31.6216],[131.1782,31.6261],[131.1758,31.6215],[131.1692,31.6156],[131.1494,31.6101],[131.1241,31.5995],[131.1158,31.5984],[131.11,31.5989],[131.0978,31.6032],[131.0786,31.6044],[131.069,31.6061],[131.0528,31.6073],[131.04,31.6068],[131.0331,31.6044],[131.0273,31.6003],[131.0212,31.5941],[131.02,31.5891],[131.0219,31.5843],[131.0337,31.5732],[131.035,31.5649],[131.0319,31.5537],[131.0289,31.547],[131.0239,31.5397],[131.0174,31.5347],[131.0124,31.5337],[131.0059,31.5347],[131.0007,31.5374],[130.9904,31.5396],[130.9792,31.5397]]]]}},{"type":"Feature","properties":{"id":46036},"geometry":{"type":"Polygon","coordinates":[[[130.9329,31.5383],[130.9384,31.5343],[130.9442,31.5274],[130.9519,31.5276],[130.964,31.5313],[130.9792,31.5397],[130.9904,31.5396],[131.0007,31.5374],[131.0059,31.5347],[131.0124,31.5337],[131.0174,31.5347],[131.0239,31.5397],[131.0289,31.547],[131.0319,31.5537],[131.035,31.5649],[131.0337,31.5732],[131.0219,31.5843],[131.02,31.5891],[131.0212,31.5941],[131.0273,31.6003],[131.0331,31.6044],[131.04,31.6068],[131.0528,31.6073],[131.069,31.6061],[131.0786,31.6044],[131.0978,31.6032],[131.11,31.5989],[131.1158,31.5984],[131.1241,31.5995],[131.1494,31.6101],[131.1692,31.6156],[131.1758,31.6215],[131.1782,31.6261],[131.1663,31.6336],[131.1343,31.6236],[131.1177,31.6289],[131.1087,31.6357],[131.0988,31.6421],[131.0919,31.6499],[131.0816,31.6566],[131.0731,31.6505],[131.0652,31.6406],[131.0562,31.6314],[131.0457,31.6523],[131.0367,31.6588],[131.0284,31.6736],[131.0279,31.6849],[131.0288,31.6951],[131.0202,31.7026],[131.0188,31.717],[131.019,31.7316],[131.0202,31.7418],[131.0101,31.7449],[131,31.7426],[130.9801,31.75],[130.9835,31.7597],[130.9929,31.7669],[130.9894,31.7766],[130.9789,31.7789],[130.9684,31.7779],[130.9449,31.7815],[130.9346,31.7821],[130.9279,31.791],[130.9195,31.7976],[130.9073,31.798],[130.8927,31.8008],[130.8773,31.7904],[130.8718,31.7848],[130.8735,31.778],[130.8845,31.7717],[130.8939,31.7632],[130.8961,31.7544],[130.8947,31.7243],[130.8953,31.7174],[130.9003,31.7109],[130.9079,31.7047],[130.9114,31.6982],[130.9145,31.6874],[130.9148,31.6785],[130.9133,31.6702],[130.9085,31.6664],[130.9022,31.6658],[130.8874,31.6666],[130.8819,31.665],[130.88,31.6576],[130.8823,31.6499],[130.8858,31.6449],[130.8886,31.6377],[130.8864,31.6298],[130.8819,31.6255],[130.8756,31.6237],[130.8658,31.6229],[130.8587,31.6213],[130.8748,31.6119],[130.8833,31.6091],[130.8923,31.6046],[130.8975,31.5974],[130.9052,31.5892],[130.9144,31.576],[130.9266,31.552],[130.9296,31.5475],[130.9329,31.5383]]]}},{"type":"Feature","properties":{"id":46037},"geometry":{"type":"Polygon","coordinates":[[[130.7159,31.5576],[130.7044,31.5473],[130.7066,31.5408],[130.7072,31.5328],[130.7039,31.5297],[130.6981,31.5289],[130.6992,31.5258],[130.6978,31.5144],[130.6958,31.5105],[130.6983,31.5008],[130.6981,31.4953],[130.6914,31.4883],[130.6961,31.4856],[130.6956,31.4825],[130.6967,31.4719],[130.6986,31.4628],[130.7067,31.4583],[130.7153,31.4569],[130.7272,31.4533],[130.7353,31.4481],[130.7369,31.4431],[130.7471,31.4351],[130.7566,31.424],[130.7591,31.4159],[130.7622,31.4114],[130.771,31.4219],[130.7767,31.4263],[130.7883,31.4308],[130.797,31.4329],[130.8042,31.4366],[130.8088,31.4432],[130.8208,31.4541],[130.8246,31.4651],[130.8278,31.4717],[130.829,31.4779],[130.8271,31.4843],[130.8148,31.4962],[130.8125,31.5045],[130.8154,31.5198],[130.8259,31.559],[130.8278,31.5738],[130.8339,31.5916],[130.8357,31.595],[130.8247,31.6085],[130.8217,31.615],[130.8096,31.6333],[130.8104,31.638],[130.8133,31.6424],[130.807,31.639],[130.8008,31.6319],[130.7967,31.6225],[130.7961,31.6125],[130.7858,31.6019],[130.7881,31.5989],[130.7869,31.5928],[130.7871,31.5856],[130.7822,31.5817],[130.7811,31.5781],[130.7756,31.5719],[130.7689,31.5678],[130.7632,31.5616],[130.7505,31.5579],[130.7367,31.5589],[130.7331,31.5572],[130.7159,31.5576]]]}},{"type":"Feature","properties":{"id":46038},"geometry":{"type":"Polygon","coordinates":[[[129.5672,28.3397],[129.5753,28.3481],[129.5764,28.3539],[129.5836,28.36],[129.5847,28.3636],[129.5889,28.3642],[129.5939,28.3672],[129.5945,28.3742],[129.6025,28.3856],[129.6061,28.3864],[129.6105,28.3911],[129.6136,28.4008],[129.6217,28.4044],[129.6247,28.4042],[129.63,28.4075],[129.6337,28.4064],[129.6355,28.416],[129.6317,28.4144],[129.6247,28.4156],[129.6214,28.4183],[129.6186,28.4242],[129.6214,28.43],[129.63,28.4358],[129.6275,28.4383],[129.6272,28.4433],[129.6242,28.4506],[129.6208,28.4503],[129.6144,28.4461],[129.6186,28.4419],[129.6194,28.4358],[129.6178,28.4342],[129.6128,28.4369],[129.6028,28.4308],[129.6011,28.4153],[129.594,28.4132],[129.59,28.4153],[129.5945,28.4228],[129.5936,28.4272],[129.5975,28.4294],[129.5975,28.4356],[129.6061,28.435],[129.6075,28.4386],[129.6061,28.4419],[129.605,28.4506],[129.6067,28.4547],[129.6095,28.4556],[129.6144,28.4647],[129.6217,28.4672],[129.6189,28.4719],[129.6225,28.4756],[129.6144,28.4772],[129.6131,28.4758],[129.6031,28.4747],[129.5953,28.4756],[129.5886,28.4703],[129.5871,28.4678],[129.578,28.4678],[129.5716,28.4621],[129.5692,28.4575],[129.5617,28.4586],[129.5615,28.449],[129.5596,28.4345],[129.5591,28.4253],[129.5603,28.4182],[129.5629,28.4104],[129.5617,28.4029],[129.5544,28.3933],[129.55,28.3852],[129.5364,28.369],[129.5348,28.3655],[129.5349,28.358],[129.5393,28.3493],[129.5495,28.3434],[129.5672,28.3397]]]}},{"type":"Feature","properties":{"id":46039},"geometry":{"type":"Polygon","coordinates":[[[128.9493,27.7421],[128.9548,27.7374],[128.9743,27.7167],[128.9811,27.7101],[128.9857,27.7033],[128.9867,27.6974],[128.9903,27.6838],[128.9924,27.6738],[129.0009,27.683],[129.0027,27.6904],[129,27.6964],[129.006,27.7067],[129.0063,27.7091],[129.0116,27.7126],[129.0171,27.7137],[129.0206,27.717],[129.0219,27.7207],[129.0199,27.724],[129.0228,27.7346],[129.0279,27.7428],[129.0324,27.747],[129.0345,27.7547],[129.0372,27.7575],[129.0384,27.7623],[129.0366,27.7722],[129.0329,27.7754],[129.0224,27.777],[129.0162,27.782],[129.0163,27.7865],[129.0045,27.797],[129.0017,27.8006],[128.9977,27.8023],[128.9953,27.8058],[128.9906,27.8042],[128.9839,27.8064],[128.9805,27.8125],[128.973,27.8164],[128.9688,27.8172],[128.9695,27.8219],[128.9657,27.8255],[128.969,27.8311],[128.9733,27.8333],[128.9671,27.8409],[128.9679,27.8451],[128.9709,27.8463],[128.9722,27.8509],[128.9706,27.8574],[128.9641,27.8577],[128.9561,27.86],[128.9551,27.8621],[128.9645,27.8704],[128.9742,27.8725],[128.9752,27.8748],[128.9695,27.889],[128.9698,27.8927],[128.9604,27.8906],[128.9517,27.8903],[128.9407,27.8918],[128.9362,27.8915],[128.9267,27.8876],[128.9368,27.8776],[128.941,27.8677],[128.9442,27.8501],[128.9439,27.8434],[128.942,27.827],[128.9429,27.8213],[128.9643,27.7982],[128.9792,27.783],[128.981,27.7783],[128.9784,27.7709],[128.9727,27.7667],[128.9666,27.7644],[128.9598,27.7573],[128.9493,27.7421]]]}},{"type":"Feature","properties":{"id":46040},"geometry":{"type":"MultiPolygon","coordinates":[[[[128.9984,28.8064],[128.9944,28.8075],[128.9867,28.8019],[128.984,28.7984],[128.9742,28.8031],[128.9722,28.8014],[128.9783,28.7933],[128.985,28.7967],[128.9946,28.7917],[129.0025,28.7938],[129.0039,28.7981],[129.0027,28.8024],[128.9984,28.8064]]],[[[129.0042,28.8355],[129.0019,28.8375],[128.998,28.836],[128.9975,28.8302],[129.0015,28.8275],[129.0039,28.8299],[129.0042,28.8355]]],[[[129.2022,29.1592],[129.1981,29.1597],[129.1903,29.1564],[129.187,29.1522],[129.2033,29.1364],[129.2106,29.1336],[129.22,29.1261],[129.2219,29.1311],[129.2197,29.1347],[129.2208,29.14],[129.218,29.1467],[129.2231,29.15],[129.2231,29.155],[129.2189,29.1589],[129.2053,29.1561],[129.2022,29.1592]]],[[[129.3289,29.2286],[129.3261,29.2292],[129.3186,29.2244],[129.3211,29.22],[129.3267,29.2178],[129.3289,29.2189],[129.3319,29.2264],[129.3289,29.2286]]],[[[129.3467,29.2297],[129.3422,29.2281],[129.3439,29.225],[129.3492,29.2275],[129.3467,29.2297]]],[[[129.5378,29.6961],[129.529,29.6963],[129.5253,29.6914],[129.5247,29.6861],[129.5275,29.6819],[129.5311,29.6808],[129.5369,29.6744],[129.5375,29.6789],[129.5403,29.6842],[129.5378,29.6961]]],[[[129.5383,29.9136],[129.5375,29.9165],[129.5311,29.9153],[129.5284,29.912],[129.5311,29.9061],[129.5303,29.9003],[129.5327,29.8942],[129.5394,29.8937],[129.5417,29.8922],[129.5517,29.8931],[129.555,29.8981],[129.5514,29.9064],[129.547,29.9114],[129.5383,29.9136]]],[[[129.5986,29.4756],[129.5933,29.4753],[129.5885,29.4703],[129.5834,29.4625],[129.5853,29.4597],[129.593,29.4564],[129.5953,29.4533],[129.5933,29.4471],[129.5975,29.4444],[129.6092,29.4453],[129.6144,29.4447],[129.6206,29.4503],[129.6189,29.4556],[129.6136,29.4611],[129.6098,29.4721],[129.5986,29.4756]]],[[[129.7417,29.6717],[129.7375,29.6733],[129.7308,29.6711],[129.7286,29.6686],[129.7247,29.6711],[129.7142,29.67],[129.7086,29.6683],[129.6978,29.6589],[129.6928,29.6608],[129.6834,29.6536],[129.6867,29.6475],[129.6833,29.6417],[129.6875,29.6383],[129.6894,29.6328],[129.6878,29.6247],[129.6906,29.615],[129.6964,29.6097],[129.6978,29.6025],[129.7072,29.6017],[129.7136,29.6064],[129.7111,29.6114],[129.722,29.6193],[129.7244,29.6231],[129.73,29.6261],[129.7397,29.6381],[129.7411,29.6458],[129.7386,29.6503],[129.7439,29.664],[129.7442,29.67],[129.7417,29.6717]]],[[[129.8553,29.8831],[129.8494,29.8825],[129.8403,29.8767],[129.8381,29.8686],[129.8354,29.8669],[129.8336,29.8611],[129.8349,29.855],[129.8391,29.8458],[129.8442,29.8411],[129.8493,29.841],[129.8528,29.8361],[129.8525,29.8325],[129.8608,29.8214],[129.8691,29.8169],[129.8778,29.8158],[129.8861,29.8214],[129.8972,29.8219],[129.9032,29.8209],[129.915,29.8208],[129.9189,29.8233],[129.9111,29.8311],[129.9053,29.8353],[129.8972,29.8439],[129.8953,29.8442],[129.8936,29.8525],[129.8969,29.8581],[129.8931,29.8703],[129.8889,29.8694],[129.8828,29.8741],[129.8692,29.8769],[129.8657,29.8836],[129.8553,29.8831]]],[[[129.6231,29.8837],[129.6196,29.8843],[129.6175,29.88],[129.6219,29.8767],[129.6242,29.8817],[129.6231,29.8837]]],[[[129.9225,29.9931],[129.9206,29.9997],[129.9161,30.0086],[129.9131,30.0078],[129.9097,30],[129.9147,29.9928],[129.9072,29.9864],[129.9035,29.985],[129.9044,29.9814],[129.8999,29.9771],[129.9003,29.9736],[129.9055,29.9723],[129.9044,29.9653],[129.907,29.9614],[129.9133,29.9569],[129.9231,29.9553],[129.9261,29.9514],[129.9319,29.9486],[129.9436,29.9514],[129.9478,29.96],[129.9456,29.9625],[129.9461,29.9672],[129.9328,29.9756],[129.9311,29.9806],[129.9244,29.9867],[129.9225,29.9931]]]]}},{"type":"Feature","properties":{"id":46041},"geometry":{"type":"MultiPolygon","coordinates":[[[[129.3391,28.241],[129.3465,28.2494],[129.3707,28.2695],[129.3731,28.2762],[129.3743,28.2923],[129.3617,28.2932],[129.3306,28.2936],[129.317,28.2961],[129.3002,28.3042],[129.2846,28.3059],[129.2805,28.307],[129.2707,28.3128],[129.2621,28.3164],[129.2586,28.3197],[129.2542,28.3186],[129.2461,28.3133],[129.2408,28.3144],[129.2394,28.3114],[129.2347,28.3081],[129.2261,28.3106],[129.2231,28.3064],[129.2206,28.3072],[129.2136,28.3008],[129.22,28.2939],[129.2219,28.2936],[129.2333,28.2856],[129.2356,28.2819],[129.2417,28.285],[129.2433,28.2817],[129.2503,28.2769],[129.2486,28.2747],[129.2645,28.2742],[129.2661,28.2792],[129.2633,28.2836],[129.2675,28.2883],[129.2736,28.2825],[129.2758,28.2839],[129.2894,28.2831],[129.296,28.2774],[129.293,28.2753],[129.29,28.2778],[129.2847,28.2764],[129.2792,28.2781],[129.2747,28.2625],[129.2706,28.2661],[129.2647,28.2675],[129.2622,28.2614],[129.2594,28.2644],[129.2542,28.2642],[129.2519,28.2592],[129.2458,28.2561],[129.2453,28.2597],[129.2481,28.2622],[129.2435,28.2669],[129.2394,28.2669],[129.2308,28.2728],[129.2264,28.2736],[129.2192,28.2683],[129.2137,28.2667],[129.215,28.2581],[129.2114,28.2531],[129.2039,28.2547],[129.1994,28.2622],[129.1948,28.2614],[129.1917,28.2639],[129.1864,28.2625],[129.1813,28.2705],[129.1744,28.2658],[129.1681,28.2631],[129.1667,28.2569],[129.1619,28.2547],[129.1583,28.2575],[129.1531,28.2567],[129.1442,28.2581],[129.1361,28.2564],[129.135,28.2533],[129.1416,28.2518],[129.1433,28.2478],[129.1505,28.246],[129.1518,28.2374],[129.1617,28.2372],[129.1633,28.2431],[129.1692,28.2431],[129.1706,28.2413],[129.1744,28.2412],[129.3142,28.2395],[129.3273,28.2397],[129.3391,28.241]]],[[[129.1859,28.3061],[129.1789,28.2972],[129.1825,28.2936],[129.1884,28.2913],[129.1889,28.2869],[129.1933,28.2839],[129.1992,28.2861],[129.2081,28.2822],[129.2108,28.2856],[129.2167,28.285],[129.2189,28.2875],[129.2169,28.2933],[129.2119,28.2983],[129.2081,28.2989],[129.2036,28.3022],[129.2,28.3003],[129.1933,28.3036],[129.1897,28.3036],[129.1859,28.3061]]]]}},{"type":"Feature","properties":{"id":46042},"geometry":{"type":"Polygon","coordinates":[[[128.6183,27.3566],[128.6242,27.3628],[128.6347,27.3653],[128.6442,27.3733],[128.645,27.3764],[128.6544,27.3851],[128.6579,27.3926],[128.6619,27.3967],[128.6641,27.4021],[128.6672,27.4036],[128.6764,27.4139],[128.6847,27.4147],[128.69,27.4183],[128.6944,27.4186],[128.7003,27.4228],[128.7058,27.4283],[128.7142,27.4347],[128.7108,27.4394],[128.7025,27.44],[128.6953,27.4419],[128.6847,27.4378],[128.6828,27.4333],[128.6772,27.4314],[128.672,27.4278],[128.6644,27.4261],[128.662,27.4236],[128.6555,27.4242],[128.6414,27.4158],[128.6338,27.4085],[128.6267,27.4097],[128.6198,27.4051],[128.6122,27.4086],[128.6095,27.4053],[128.6017,27.4044],[128.5939,27.3975],[128.5897,27.4006],[128.5845,27.4008],[128.5779,27.3977],[128.5769,27.3894],[128.5776,27.3763],[128.581,27.3695],[128.5868,27.3699],[128.5925,27.373],[128.5977,27.3735],[128.6043,27.3719],[128.6114,27.3655],[128.6183,27.3566]]]}},{"type":"Feature","properties":{"id":46043},"geometry":{"type":"MultiPolygon","coordinates":[[[[130.5,30.4606],[130.4981,30.47],[130.4947,30.4689],[130.4931,30.4636],[130.4961,30.4581],[130.4922,30.4539],[130.4883,30.4589],[130.4789,30.4583],[130.4755,30.461],[130.4706,30.4619],[130.4686,30.4583],[130.4636,30.4567],[130.4661,30.45],[130.4647,30.4392],[130.46,30.4328],[130.4522,30.4328],[130.4464,30.4294],[130.4431,30.4228],[130.438,30.4208],[130.4383,30.4167],[130.4344,30.4086],[130.4281,30.4053],[130.4269,30.4011],[130.4194,30.3953],[130.4106,30.3975],[130.4022,30.3983],[130.3928,30.3981],[130.3872,30.3922],[130.3814,30.3942],[130.3786,30.3872],[130.3792,30.3833],[130.3767,30.3803],[130.3783,30.3767],[130.3783,30.3708],[130.382,30.3597],[130.3825,30.3539],[130.3803,30.3517],[130.3842,30.3433],[130.3871,30.3407],[130.3864,30.3358],[130.3905,30.3264],[130.39,30.3225],[130.3936,30.3175],[130.4017,30.3167],[130.4036,30.3153],[130.4103,30.2939],[130.4133,30.2883],[130.4136,30.2731],[130.4203,30.2678],[130.4264,30.2567],[130.4314,30.2553],[130.4308,30.2497],[130.435,30.2442],[130.4361,30.2406],[130.4408,30.2372],[130.4481,30.2342],[130.4572,30.2336],[130.4597,30.2347],[130.4678,30.2339],[130.4708,30.2314],[130.4811,30.2322],[130.4889,30.2272],[130.4961,30.2278],[130.5022,30.2328],[130.5044,30.2303],[130.5089,30.2314],[130.52,30.2294],[130.5231,30.2267],[130.5342,30.2314],[130.5403,30.2294],[130.5461,30.23],[130.5539,30.2342],[130.5561,30.2311],[130.5594,30.235],[130.5719,30.2356],[130.5789,30.2383],[130.5833,30.2386],[130.5908,30.2453],[130.5922,30.2481],[130.5969,30.2481],[130.6058,30.2533],[130.6042,30.2567],[130.6072,30.2614],[130.6131,30.2656],[130.6153,30.2656],[130.6206,30.2719],[130.6242,30.2736],[130.6269,30.2786],[130.6342,30.2817],[130.6392,30.2886],[130.6472,30.2958],[130.6544,30.3003],[130.6606,30.3108],[130.6594,30.3164],[130.6622,30.3169],[130.6625,30.3233],[130.6656,30.3322],[130.6633,30.335],[130.6678,30.3494],[130.6658,30.3542],[130.672,30.3722],[130.6711,30.3781],[130.6589,30.3903],[130.6522,30.3931],[130.6469,30.3975],[130.6411,30.4],[130.6267,30.4019],[130.6136,30.4075],[130.6081,30.4069],[130.5981,30.4111],[130.5989,30.4169],[130.5922,30.4183],[130.5831,30.4236],[130.5786,30.4228],[130.5753,30.4256],[130.5747,30.4292],[130.57,30.4308],[130.5711,30.4342],[130.5639,30.4353],[130.5572,30.4378],[130.5531,30.4428],[130.5456,30.4431],[130.5431,30.4472],[130.54,30.4483],[130.5333,30.4475],[130.5292,30.4494],[130.5264,30.4447],[130.5211,30.4492],[130.5189,30.4533],[130.5119,30.4558],[130.505,30.455],[130.5014,30.4528],[130.4989,30.4556],[130.5,30.4606]]],[[[130.1472,30.4906],[130.1428,30.4897],[130.1456,30.485],[130.1489,30.4825],[130.1486,30.4786],[130.1542,30.4775],[130.1578,30.4742],[130.1653,30.4708],[130.1668,30.465],[130.1703,30.4617],[130.1689,30.4586],[130.1722,30.4556],[130.1822,30.4564],[130.1842,30.4586],[130.1922,30.4633],[130.1956,30.4619],[130.1961,30.4572],[130.1908,30.4547],[130.1886,30.4506],[130.1925,30.4442],[130.1911,30.4414],[130.1981,30.4333],[130.2,30.4336],[130.2047,30.4261],[130.2092,30.4258],[130.2122,30.4219],[130.2183,30.4264],[130.2297,30.425],[130.2299,30.4284],[130.2339,30.4339],[130.2417,30.4361],[130.2458,30.4386],[130.2543,30.4384],[130.2586,30.4339],[130.2633,30.4336],[130.2661,30.44],[130.2655,30.4472],[130.262,30.4486],[130.2558,30.4536],[130.2531,30.4539],[130.2492,30.4592],[130.2436,30.4597],[130.2358,30.47],[130.2305,30.4689],[130.2252,30.473],[130.2168,30.4741],[130.2147,30.473],[130.2083,30.4783],[130.2001,30.4827],[130.1958,30.4756],[130.1914,30.4722],[130.1872,30.4753],[130.1828,30.4833],[130.1769,30.4851],[130.1681,30.4822],[130.1653,30.4839],[130.1691,30.4882],[130.1653,30.4903],[130.1586,30.4858],[130.155,30.4852],[130.1472,30.4906]]]]}},{"type":"Feature","properties":{"id":46044},"geometry":{"type":"Polygon","coordinates":[[[129.4206,28.3858],[129.4153,28.3855],[129.4124,28.3875],[129.4083,28.3833],[129.4036,28.383],[129.3986,28.3858],[129.3947,28.3842],[129.4011,28.3789],[129.4044,28.3778],[129.4061,28.3731],[129.4055,28.3644],[129.4039,28.3583],[129.3997,28.3586],[129.3959,28.3678],[129.3928,28.3714],[129.3872,28.3739],[129.3819,28.3703],[129.38,28.3658],[129.3758,28.3633],[129.3703,28.3558],[129.3653,28.3547],[129.3581,28.3575],[129.3512,28.3621],[129.3518,28.364],[129.345,28.37],[129.3403,28.3692],[129.3319,28.3614],[129.3267,28.3525],[129.3142,28.3456],[129.3117,28.3428],[129.3133,28.3361],[129.3036,28.3294],[129.29,28.3275],[129.2872,28.3294],[129.2825,28.3278],[129.2742,28.3267],[129.2708,28.3281],[129.2598,28.3223],[129.2586,28.3197],[129.2621,28.3164],[129.2707,28.3128],[129.2805,28.307],[129.2846,28.3059],[129.3002,28.3042],[129.317,28.2961],[129.3306,28.2936],[129.3617,28.2932],[129.3743,28.2923],[129.3923,28.3077],[129.399,28.3122],[129.4052,28.3145],[129.4192,28.325],[129.4263,28.3276],[129.4328,28.3315],[129.4373,28.3358],[129.4388,28.3441],[129.4338,28.3644],[129.4312,28.3703],[129.4269,28.3749],[129.4206,28.3858]]]}},{"type":"Feature","properties":{"id":46045},"geometry":{"type":"Polygon","coordinates":[[[128.4339,27.0683],[128.4269,27.0681],[128.4214,27.0664],[128.4153,27.0597],[128.4153,27.0522],[128.4108,27.0472],[128.4064,27.0467],[128.4019,27.0522],[128.3983,27.0514],[128.3956,27.0483],[128.3975,27.0425],[128.3969,27.0389],[128.4036,27.0389],[128.4094,27.0339],[128.4131,27.0278],[128.4192,27.0292],[128.42,27.0253],[128.4241,27.0222],[128.4297,27.0236],[128.4331,27.0214],[128.4419,27.0214],[128.4439,27.0189],[128.4497,27.0203],[128.4567,27.0236],[128.4583,27.0261],[128.4544,27.0331],[128.4533,27.045],[128.4553,27.0469],[128.4525,27.0528],[128.4494,27.0544],[128.4472,27.0592],[128.4403,27.0661],[128.4339,27.0683]]]}},{"type":"Feature","properties":{"id":46046},"geometry":{"type":"Polygon","coordinates":[[[130.6296,31.9317],[130.6303,31.9242],[130.6301,31.9099],[130.639,31.9147],[130.6503,31.9189],[130.6626,31.92],[130.697,31.919],[130.705,31.9182],[130.7213,31.9126],[130.7252,31.9101],[130.7328,31.9079],[130.7432,31.9097],[130.7527,31.9163],[130.7753,31.925],[130.7845,31.9264],[130.7971,31.9306],[130.8182,31.9385],[130.8212,31.9402],[130.8138,31.9413],[130.8016,31.9499],[130.7988,31.9614],[130.7931,31.9713],[130.7851,31.9785],[130.7809,32],[130.7805,32.0112],[130.7713,32.0166],[130.7632,32.0247],[130.75,32.0314],[130.7386,32.0453],[130.7254,32.0488],[130.7147,32.0484],[130.7069,32.0543],[130.7075,32.0455],[130.707,32.0195],[130.7087,32.0084],[130.7083,31.9994],[130.7041,31.9926],[130.697,31.9897],[130.6882,31.9838],[130.6759,31.977],[130.674,31.9724],[130.6726,31.9594],[130.6668,31.9523],[130.6556,31.9441],[130.6386,31.9378],[130.6296,31.9317]]]}}]}