{"type":"FeatureCollection","features":[{"type":"Feature","properties":{"id":47001},"geometry":{"type":"Polygon","coordinates":[[[127.2356,26.6022],[127.2311,26.6022],[127.2252,26.5977],[127.2172,26.5942],[127.2098,26.5833],[127.2103,26.5806],[127.2081,26.5748],[127.2128,26.5744],[127.2214,26.5769],[127.2253,26.5761],[127.2352,26.5795],[127.2403,26.5756],[127.2469,26.5822],[127.2489,26.5861],[127.2475,26.5919],[127.2408,26.5997],[127.2356,26.6022]]]}},{"type":"Feature","properties":{"id":47002},"geometry":{"type":"Polygon","coordinates":[[[127.7576,26.2987],[127.7737,26.299],[127.7776,26.3099],[127.7829,26.3186],[127.7834,26.3282],[127.7763,26.3312],[127.7698,26.3327],[127.7629,26.3371],[127.757,26.3378],[127.7419,26.3358],[127.7419,26.3308],[127.7458,26.3231],[127.7492,26.32],[127.755,26.3225],[127.7561,26.3183],[127.7531,26.3153],[127.7558,26.3106],[127.7597,26.3086],[127.7576,26.2987]]]}},{"type":"Feature","properties":{"id":47003},"geometry":{"type":"Polygon","coordinates":[[[127.7576,26.2987],[127.7569,26.2961],[127.7511,26.2905],[127.7447,26.2883],[127.7415,26.283],[127.7331,26.2831],[127.7297,26.2783],[127.7261,26.2772],[127.7261,26.2736],[127.7208,26.2733],[127.7144,26.275],[127.7166,26.2711],[127.7265,26.2658],[127.7347,26.2591],[127.7435,26.2485],[127.7607,26.2506],[127.7723,26.2686],[127.784,26.2813],[127.79,26.2863],[127.7848,26.2887],[127.7782,26.2939],[127.7737,26.299],[127.7576,26.2987]]]}},{"type":"Feature","properties":{"id":47004},"geometry":{"type":"Polygon","coordinates":[[[127.9467,26.4636],[127.9508,26.4658],[127.9508,26.4714],[127.9533,26.4731],[127.9622,26.4733],[127.9667,26.4678],[127.9754,26.4698],[127.9909,26.4748],[127.9928,26.4789],[128.0014,26.4831],[128.0036,26.4892],[127.9947,26.4992],[127.9924,26.5042],[127.994,26.5063],[127.9931,26.5092],[127.9881,26.5131],[127.9825,26.516],[127.9724,26.5179],[127.9654,26.517],[127.9406,26.5092],[127.9355,26.5064],[127.93,26.5015],[127.9251,26.499],[127.9189,26.4935],[127.932,26.4791],[127.9383,26.4697],[127.9416,26.4662],[127.9467,26.4636]]]}},{"type":"Feature","properties":{"id":47005},"geometry":{"type":"Polygon","coordinates":[[[127.7095,26.1863],[127.7122,26.1751],[127.7189,26.1735],[127.7245,26.17],[127.7299,26.164],[127.7356,26.1733],[127.7389,26.183],[127.7413,26.2006],[127.7389,26.2169],[127.7349,26.216],[127.7301,26.2174],[127.7257,26.2115],[127.7174,26.2024],[127.7095,26.1863]]]}},{"type":"Feature","properties":{"id":47006},"geometry":{"type":"Polygon","coordinates":[[[128.095,26.6247],[128.0982,26.6177],[128.1133,26.6053],[128.1182,26.6019],[128.1261,26.5986],[128.1294,26.6008],[128.1354,26.6004],[128.145,26.5975],[128.1517,26.5981],[128.1537,26.6041],[128.1558,26.605],[128.1535,26.613],[128.1502,26.6143],[128.146,26.6229],[128.1496,26.6297],[128.1589,26.6306],[128.1682,26.6265],[128.1694,26.6281],[128.1806,26.6239],[128.1953,26.6246],[128.2006,26.6257],[128.2025,26.6243],[128.2157,26.6284],[128.2261,26.6289],[128.2311,26.6314],[128.2345,26.6297],[128.2383,26.6308],[128.2397,26.634],[128.2446,26.637],[128.2435,26.6392],[128.2483,26.6431],[128.2505,26.6419],[128.2536,26.6478],[128.251,26.6511],[128.2596,26.657],[128.2642,26.6589],[128.2662,26.6651],[128.2515,26.6847],[128.2415,26.7072],[128.2362,26.7087],[128.23,26.7077],[128.2226,26.7046],[128.2132,26.7021],[128.2009,26.6942],[128.1917,26.683],[128.1811,26.6724],[128.1743,26.6678],[128.1675,26.6584],[128.1631,26.6542],[128.1568,26.6519],[128.1391,26.6507],[128.1305,26.6479],[128.1277,26.6436],[128.1251,26.6367],[128.1209,26.6324],[128.1117,26.6297],[128.1019,26.6259],[128.095,26.6247]]]}},{"type":"Feature","properties":{"id":47007},"geometry":{"type":"MultiPolygon","coordinates":[[[[127.8147,26.6508],[127.8167,26.6436],[127.8216,26.6465],[127.8147,26.6508]]],[[[127.8183,26.7331],[127.8092,26.7389],[127.7993,26.7373],[127.7907,26.7336],[127.7754,26.7345],[127.7703,26.7367],[127.76,26.7375],[127.7539,26.735],[127.7489,26.7222],[127.7503,26.7158],[127.755,26.71],[127.7622,26.7078],[127.7719,26.7078],[127.7844,26.7094],[127.7928,26.7094],[127.8075,26.705],[127.8147,26.7075],[127.8264,26.7089],[127.8308,26.7136],[127.8317,26.72],[127.8297,26.7239],[127.8217,26.7289],[127.8183,26.7331]]]]}},{"type":"Feature","properties":{"id":47008},"geometry":{"type":"MultiPolygon","coordinates":[[[[127.9467,26.9775],[127.9492,26.9731],[127.9586,26.9733],[127.9586,26.9756],[127.9467,26.9775]]],[[[128.0221,27.091],[128.0202,27.0948],[128.0033,27.0889],[127.9958,27.0897],[127.9939,27.0844],[127.9903,27.0808],[127.9881,27.0758],[127.9819,27.0706],[127.9753,27.0669],[127.9703,27.0667],[127.9681,27.0592],[127.9656,27.0558],[127.9544,27.0464],[127.9511,27.0453],[127.9464,27.0372],[127.9461,27.0342],[127.9319,27.0206],[127.9319,27.0136],[127.9375,27.0069],[127.9375,27.0003],[127.9333,26.998],[127.9255,26.9996],[127.9233,27.0039],[127.9186,26.9981],[127.9142,26.9969],[127.9142,26.9922],[127.9219,26.9894],[127.9275,26.9978],[127.9372,26.9967],[127.9414,27.0064],[127.9422,27.0147],[127.9467,27.0192],[127.9564,27.0219],[127.9592,27.0203],[127.9633,27.0214],[127.9667,27.0244],[127.9636,27.0325],[127.9703,27.0388],[127.9789,27.0411],[127.9831,27.0397],[127.9911,27.0436],[127.9961,27.0519],[127.9964,27.0556],[127.9992,27.0614],[127.9978,27.0667],[128.0003,27.0689],[128.0009,27.073],[128.0043,27.0789],[128.0132,27.0854],[128.0159,27.0888],[128.0221,27.091]]]]}},{"type":"Feature","properties":{"id":47009},"geometry":{"type":"MultiPolygon","coordinates":[[[[124.3174,24.6113],[124.3115,24.6104],[124.311,24.5932],[124.3085,24.5876],[124.3012,24.5801],[124.2968,24.5693],[124.2932,24.5688],[124.2826,24.5618],[124.2824,24.5582],[124.2868,24.5549],[124.2901,24.5501],[124.2929,24.5507],[124.2949,24.541],[124.289,24.5399],[124.2849,24.5351],[124.2851,24.5301],[124.2787,24.5193],[124.2774,24.5088],[124.2751,24.5054],[124.269,24.5113],[124.2682,24.5146],[124.2588,24.5196],[124.256,24.5199],[124.2507,24.5126],[124.2476,24.511],[124.2443,24.5037],[124.2379,24.4985],[124.2296,24.4968],[124.229,24.4893],[124.2254,24.4843],[124.2201,24.4721],[124.2201,24.4682],[124.226,24.466],[124.2257,24.459],[124.2221,24.4551],[124.2168,24.456],[124.2096,24.4554],[124.206,24.4582],[124.1926,24.4585],[124.1871,24.4565],[124.1835,24.4512],[124.179,24.4496],[124.169,24.4499],[124.1596,24.4524],[124.1529,24.4551],[124.1529,24.4576],[124.1485,24.4629],[124.146,24.4629],[124.146,24.4568],[124.1485,24.4543],[124.1479,24.4499],[124.1387,24.4429],[124.1354,24.4463],[124.1368,24.4499],[124.141,24.4496],[124.1396,24.4554],[124.144,24.4607],[124.1446,24.4643],[124.1399,24.4718],[124.1326,24.4771],[124.1271,24.4779],[124.1212,24.4821],[124.1165,24.4832],[124.1126,24.4799],[124.1146,24.476],[124.1182,24.4765],[124.1237,24.4737],[124.1251,24.4679],[124.1165,24.4632],[124.1176,24.4613],[124.1179,24.4524],[124.1196,24.4488],[124.1176,24.4457],[124.1065,24.4449],[124.1062,24.4476],[124.0999,24.4535],[124.0932,24.4543],[124.089,24.4521],[124.0815,24.4526],[124.0774,24.4549],[124.0762,24.451],[124.0785,24.4471],[124.0779,24.4421],[124.0718,24.4393],[124.0687,24.4318],[124.0701,24.4282],[124.0768,24.426],[124.0801,24.4226],[124.0843,24.4154],[124.0882,24.4235],[124.0926,24.426],[124.0993,24.4315],[124.104,24.4329],[124.1101,24.4326],[124.1126,24.4296],[124.1154,24.4338],[124.1199,24.4351],[124.1237,24.4329],[124.1237,24.4279],[124.1324,24.4224],[124.134,24.4201],[124.1335,24.4146],[124.1424,24.414],[124.1438,24.4076],[124.1393,24.3999],[124.141,24.3957],[124.1407,24.3915],[124.1376,24.386],[124.1285,24.3782],[124.1215,24.3788],[124.1176,24.3762],[124.1115,24.3685],[124.1115,24.3654],[124.1226,24.3571],[124.1299,24.356],[124.1401,24.3518],[124.1435,24.3513],[124.144,24.3471],[124.1482,24.3446],[124.1449,24.3404],[124.1487,24.3371],[124.1499,24.3312],[124.1574,24.3299],[124.1618,24.3321],[124.1671,24.3296],[124.1707,24.3307],[124.1815,24.3296],[124.1937,24.3346],[124.1979,24.341],[124.2024,24.3432],[124.2001,24.349],[124.2015,24.354],[124.2132,24.3546],[124.2171,24.354],[124.2179,24.3504],[124.2271,24.3449],[124.2382,24.3446],[124.2446,24.3499],[124.2457,24.3537],[124.2504,24.3593],[124.2501,24.3671],[124.2515,24.3693],[124.2543,24.3799],[124.2526,24.3851],[124.2524,24.3932],[124.2532,24.3976],[124.2579,24.411],[124.2576,24.4174],[124.256,24.4229],[124.2524,24.4265],[124.2507,24.4304],[124.2513,24.436],[124.2554,24.4385],[124.2588,24.4426],[124.2579,24.446],[124.2518,24.4515],[124.251,24.4621],[124.2532,24.4676],[124.2574,24.4704],[124.2621,24.4785],[124.271,24.4826],[124.2724,24.4854],[124.2818,24.4876],[124.2813,24.4929],[124.2824,24.5051],[124.2849,24.5088],[124.2876,24.5085],[124.2918,24.5129],[124.2951,24.5132],[124.2985,24.519],[124.3065,24.5257],[124.3099,24.5329],[124.3051,24.5349],[124.3035,24.5385],[124.3037,24.5443],[124.3079,24.5476],[124.3124,24.5537],[124.316,24.5568],[124.324,24.5593],[124.3238,24.5626],[124.3337,24.569],[124.3365,24.5738],[124.3374,24.5821],[124.341,24.5865],[124.3371,24.5949],[124.3396,24.5982],[124.3404,24.606],[124.3304,24.606],[124.321,24.6079],[124.3174,24.6113]]],[[[123.6837,25.9285],[123.679,25.9287],[123.6751,25.9232],[123.6782,25.9199],[123.6843,25.9188],[123.6882,25.9201],[123.689,25.9237],[123.6837,25.9285]]],[[[123.5521,25.7257],[123.5449,25.7237],[123.551,25.7201],[123.5574,25.721],[123.5521,25.7257]]],[[[123.5424,25.7332],[123.5382,25.7326],[123.5404,25.7257],[123.5446,25.726],[123.546,25.7288],[123.5424,25.7332]]],[[[123.4785,25.7515],[123.474,25.7518],[123.4638,25.7482],[123.4574,25.7404],[123.459,25.7354],[123.4649,25.7343],[123.4768,25.7407],[123.4924,25.7407],[123.4938,25.7449],[123.4874,25.7499],[123.4785,25.7515]]]]}},{"type":"Feature","properties":{"id":47010},"geometry":{"type":"MultiPolygon","coordinates":[[[[127.793,25.5675],[127.7891,25.5706],[127.7782,25.5699],[127.7792,25.5502],[127.7939,25.5511],[127.793,25.5675]]],[[[127.6667,26.1514],[127.6614,26.1503],[127.6481,26.1442],[127.6514,26.1333],[127.6529,26.1319],[127.6628,26.1317],[127.6619,26.1294],[127.6656,26.1247],[127.6618,26.1198],[127.6607,26.1153],[127.6642,26.1144],[127.6586,26.1019],[127.6589,26.0933],[127.6567,26.0839],[127.6579,26.0806],[127.6633,26.0803],[127.6682,26.0782],[127.6735,26.0782],[127.6767,26.0742],[127.6806,26.0742],[127.6861,26.0811],[127.6961,26.0867],[127.7086,26.09],[127.7142,26.0864],[127.7197,26.0892],[127.7247,26.0897],[127.7268,26.0941],[127.7227,26.0983],[127.7144,26.1123],[127.7126,26.1189],[127.7099,26.1232],[127.7082,26.1318],[127.7092,26.1411],[127.7069,26.1455],[127.6979,26.1481],[127.6908,26.157],[127.6796,26.1546],[127.6731,26.1519],[127.6667,26.1514]]],[[[127.578,25.6755],[127.5742,25.6786],[127.5669,25.6781],[127.5676,25.665],[127.5711,25.6685],[127.5784,25.669],[127.578,25.6755]]],[[[127.5587,25.6941],[127.5583,25.7006],[127.5545,25.7037],[127.5472,25.7032],[127.5477,25.6934],[127.5587,25.6941]]]]}},{"type":"Feature","properties":{"id":47011},"geometry":{"type":"MultiPolygon","coordinates":[[[[127.9283,26.9014],[127.9219,26.9025],[127.9196,26.8961],[127.9211,26.8928],[127.9258,26.8933],[127.9311,26.8914],[127.935,26.8942],[127.9275,26.8961],[127.9283,26.9014]]],[[[127.9383,26.9553],[127.9306,26.9511],[127.9192,26.9483],[127.9164,26.9456],[127.9117,26.9372],[127.9139,26.9336],[127.9194,26.9336],[127.9208,26.9275],[127.9189,26.9225],[127.9225,26.9181],[127.9275,26.9169],[127.9297,26.9131],[127.9344,26.9139],[127.9386,26.9106],[127.9444,26.9128],[127.9531,26.9133],[127.9506,26.9225],[127.955,26.9328],[127.9578,26.9353],[127.9567,26.9444],[127.9478,26.9511],[127.9383,26.9553]]]]}},{"type":"Feature","properties":{"id":47012},"geometry":{"type":"Polygon","coordinates":[[[127.7834,26.3282],[127.787,26.337],[127.785,26.3491],[127.7821,26.3544],[127.7816,26.3638],[127.7839,26.3694],[127.7852,26.3797],[127.7842,26.3992],[127.7766,26.3941],[127.7659,26.3837],[127.7624,26.3793],[127.7545,26.3643],[127.7497,26.3604],[127.7399,26.3565],[127.7428,26.3431],[127.7419,26.3358],[127.757,26.3378],[127.7629,26.3371],[127.7698,26.3327],[127.7763,26.3312],[127.7834,26.3282]]]}},{"type":"Feature","properties":{"id":47013},"geometry":{"type":"Polygon","coordinates":[[[127.9189,26.4935],[127.9061,26.4805],[127.8999,26.4786],[127.8811,26.4772],[127.8747,26.4743],[127.8632,26.4725],[127.8532,26.4683],[127.8304,26.4454],[127.827,26.443],[127.8343,26.4351],[127.8435,26.4304],[127.8447,26.4394],[127.8492,26.4419],[127.8497,26.4467],[127.8544,26.4517],[127.8578,26.4517],[127.8642,26.4558],[127.8692,26.4575],[127.8761,26.4542],[127.8799,26.4561],[127.8855,26.4567],[127.8911,26.4553],[127.8969,26.4503],[127.9105,26.4474],[127.9161,26.4469],[127.9186,26.4414],[127.9231,26.4428],[127.9286,26.4392],[127.9436,26.4439],[127.9439,26.4517],[127.9503,26.4564],[127.9475,26.4592],[127.9467,26.4636],[127.9416,26.4662],[127.9383,26.4697],[127.932,26.4791],[127.9189,26.4935]]]}},{"type":"Feature","properties":{"id":47014},"geometry":{"type":"Polygon","coordinates":[[[127.7737,26.299],[127.7782,26.2939],[127.7848,26.2887],[127.79,26.2863],[127.798,26.2861],[127.8164,26.2872],[127.8114,26.2925],[127.8136,26.2944],[127.8114,26.2989],[127.8088,26.3078],[127.8051,26.3143],[127.8005,26.3196],[127.7934,26.3205],[127.7829,26.3186],[127.7776,26.3099],[127.7737,26.299]]]}},{"type":"Feature","properties":{"id":47015},"geometry":{"type":"MultiPolygon","coordinates":[[[[126.8586,26.2912],[126.8582,26.2978],[126.8544,26.3009],[126.8471,26.3004],[126.8436,26.2969],[126.8441,26.287],[126.8551,26.2877],[126.8586,26.2912]]],[[[126.8314,26.3414],[126.8281,26.3428],[126.8222,26.3372],[126.8253,26.3356],[126.8342,26.3372],[126.8314,26.3414]]],[[[126.8425,26.3417],[126.8381,26.3439],[126.8367,26.3369],[126.8422,26.3372],[126.8425,26.3417]]],[[[126.7758,26.3917],[126.7739,26.3925],[126.7597,26.39],[126.7458,26.3833],[126.7361,26.3767],[126.7281,26.375],[126.7156,26.3747],[126.7108,26.3714],[126.7089,26.3678],[126.7125,26.3653],[126.7119,26.3619],[126.7156,26.3553],[126.7242,26.3486],[126.7403,26.3469],[126.7417,26.3453],[126.7481,26.345],[126.7572,26.3361],[126.7694,26.3269],[126.7678,26.3225],[126.7719,26.3175],[126.7756,26.3153],[126.7761,26.3089],[126.7794,26.3053],[126.7936,26.2989],[126.8003,26.2928],[126.8061,26.2922],[126.81,26.2903],[126.8133,26.2944],[126.8103,26.2981],[126.8106,26.3017],[126.8042,26.3072],[126.8061,26.31],[126.8067,26.3211],[126.8056,26.3233],[126.8072,26.3286],[126.8161,26.3356],[126.8158,26.3378],[126.82,26.3433],[126.8247,26.3464],[126.8211,26.3514],[126.8136,26.3517],[126.8142,26.3564],[126.8108,26.3644],[126.805,26.3708],[126.8008,26.3681],[126.7958,26.3708],[126.7928,26.3758],[126.7931,26.3789],[126.7881,26.3853],[126.78,26.3917],[126.7758,26.3917]]],[[[126.9008,26.3522],[126.8881,26.35],[126.8811,26.3461],[126.8878,26.3447],[126.8903,26.3489],[126.8956,26.3489],[126.9008,26.3522]]]]}},{"type":"Feature","properties":{"id":47016},"geometry":{"type":"Polygon","coordinates":[[[128.2009,26.6942],[128.2132,26.7021],[128.2226,26.7046],[128.23,26.7077],[128.2362,26.7087],[128.2415,26.7072],[128.2515,26.6847],[128.2662,26.6651],[128.2739,26.6697],[128.2805,26.6761],[128.2794,26.6806],[128.2836,26.6917],[128.2844,26.6975],[128.2892,26.6981],[128.2939,26.7006],[128.2908,26.7075],[128.2931,26.7097],[128.3009,26.71],[128.2986,26.715],[128.2942,26.7178],[128.3032,26.7222],[128.307,26.7298],[128.3117,26.733],[128.3183,26.7344],[128.3182,26.7433],[128.3211,26.7464],[128.3277,26.7502],[128.3277,26.7552],[128.324,26.7542],[128.3217,26.7569],[128.3239,26.7644],[128.3267,26.7681],[128.3225,26.7703],[128.3266,26.7775],[128.3261,26.7839],[128.3242,26.7875],[128.3186,26.7923],[128.3217,26.7978],[128.3197,26.7996],[128.3181,26.8058],[128.3189,26.8103],[128.3139,26.8211],[128.3083,26.8247],[128.3053,26.8314],[128.3075,26.835],[128.3056,26.8411],[128.3078,26.8433],[128.3036,26.8463],[128.2983,26.8467],[128.2943,26.8423],[128.2917,26.8419],[128.2896,26.8463],[128.2847,26.8478],[128.2808,26.8511],[128.2805,26.8572],[128.2772,26.8556],[128.2714,26.8594],[128.2664,26.8647],[128.2622,26.8672],[128.2658,26.8725],[128.2611,26.8756],[128.2578,26.8758],[128.2464,26.8681],[128.2439,26.8583],[128.2467,26.8542],[128.2531,26.8506],[128.253,26.8432],[128.2461,26.8317],[128.2439,26.8306],[128.2421,26.8224],[128.2372,26.8178],[128.2336,26.8117],[128.2336,26.8083],[128.23,26.8036],[128.2319,26.8],[128.2253,26.7969],[128.2247,26.7922],[128.218,26.7842],[128.2142,26.7819],[128.2103,26.7775],[128.2042,26.7742],[128.205,26.7694],[128.2033,26.7667],[128.1981,26.7681],[128.1944,26.7639],[128.1894,26.7609],[128.1875,26.7543],[128.1811,26.7486],[128.1756,26.7483],[128.1657,26.7437],[128.1591,26.7422],[128.1536,26.7458],[128.1537,26.7407],[128.1587,26.7356],[128.1606,26.7303],[128.1599,26.7221],[128.1577,26.7208],[128.1624,26.7174],[128.1739,26.7115],[128.1857,26.7072],[128.1891,26.7027],[128.2009,26.6942]]]}},{"type":"Feature","properties":{"id":47017},"geometry":{"type":"MultiPolygon","coordinates":[[[[131.1814,24.4725],[131.1803,24.4717],[131.1839,24.4636],[131.1875,24.4611],[131.1922,24.4622],[131.1961,24.4689],[131.1944,24.4708],[131.1814,24.4725]]],[[[131.2361,25.8725],[131.2261,25.8708],[131.22,25.8667],[131.2195,25.855],[131.2164,25.8461],[131.2173,25.8357],[131.2161,25.8294],[131.2128,25.8231],[131.2211,25.8167],[131.2314,25.8122],[131.2403,25.8125],[131.2572,25.8169],[131.2631,25.8219],[131.2683,25.83],[131.2672,25.8333],[131.2681,25.8392],[131.2742,25.8531],[131.2725,25.8581],[131.2686,25.8636],[131.262,25.8697],[131.2525,25.8725],[131.2361,25.8725]]],[[[131.2906,25.9597],[131.2855,25.9612],[131.2841,25.9545],[131.285,25.9472],[131.2872,25.9419],[131.2922,25.9353],[131.2992,25.9297],[131.3044,25.9281],[131.3153,25.9278],[131.3217,25.9297],[131.3293,25.9444],[131.3327,25.952],[131.3301,25.954],[131.3183,25.9567],[131.3161,25.9558],[131.3056,25.9558],[131.2992,25.9569],[131.2906,25.9597]]]]}},{"type":"Feature","properties":{"id":47018},"geometry":{"type":"Polygon","coordinates":[[[129.1261,26.0786],[129.1295,26.0821],[129.1292,26.0886],[129.1146,26.0877],[129.1151,26.0779],[129.1261,26.0786]]]}},{"type":"Feature","properties":{"id":47019},"geometry":{"type":"MultiPolygon","coordinates":[[[[125.2435,24.7318],[125.2401,24.7318],[125.2401,24.7274],[125.2382,24.7224],[125.239,24.7182],[125.2432,24.714],[125.2515,24.7129],[125.2568,24.7149],[125.2588,24.7213],[125.2521,24.7279],[125.2435,24.7318]]],[[[125.1668,24.8649],[125.1624,24.8654],[125.1574,24.8613],[125.1568,24.8576],[125.1593,24.8396],[125.1554,24.8374],[125.1557,24.8324],[125.1454,24.8354],[125.1438,24.8421],[125.141,24.8429],[125.1387,24.8374],[125.1354,24.8354],[125.1357,24.829],[125.1346,24.8254],[125.1379,24.8163],[125.1426,24.811],[125.1449,24.8063],[125.1643,24.8021],[125.169,24.8026],[125.1746,24.8065],[125.1765,24.811],[125.1821,24.8115],[125.1888,24.8074],[125.2001,24.8026],[125.2024,24.8046],[125.2096,24.8046],[125.2165,24.8068],[125.221,24.8113],[125.2218,24.8235],[125.2201,24.8279],[125.2157,24.8335],[125.216,24.8374],[125.2129,24.8399],[125.2138,24.844],[125.2071,24.8471],[125.2024,24.8507],[125.1921,24.8526],[125.1813,24.8593],[125.1668,24.8649]]],[[[125.2438,24.9387],[125.2374,24.939],[125.2304,24.9357],[125.2329,24.9287],[125.2396,24.9251],[125.2449,24.9204],[125.249,24.9207],[125.2496,24.9243],[125.2562,24.9238],[125.2518,24.9329],[125.2438,24.9387]]],[[[125.2665,24.9154],[125.2693,24.9099],[125.2701,24.9049],[125.2676,24.9026],[125.2629,24.904],[125.2621,24.901],[125.2712,24.8924],[125.2699,24.8863],[125.274,24.8762],[125.2838,24.866],[125.2851,24.8574],[125.2888,24.8576],[125.2918,24.8518],[125.296,24.8468],[125.291,24.8385],[125.2871,24.844],[125.2815,24.8421],[125.2765,24.8376],[125.2763,24.8326],[125.2796,24.8271],[125.2785,24.8201],[125.2763,24.8176],[125.2785,24.8137],[125.2735,24.8088],[125.2732,24.8065],[125.2649,24.8035],[125.2599,24.8035],[125.2557,24.7985],[125.256,24.7893],[125.2582,24.7846],[125.2646,24.7813],[125.2688,24.7818],[125.2721,24.7793],[125.2813,24.7643],[125.2818,24.7557],[125.284,24.7532],[125.2813,24.7504],[125.2776,24.7504],[125.2735,24.7546],[125.2679,24.7524],[125.2607,24.759],[125.2629,24.7637],[125.2599,24.7643],[125.2565,24.7615],[125.2521,24.7554],[125.259,24.7449],[125.2604,24.7368],[125.2624,24.7343],[125.2679,24.7332],[125.2704,24.7293],[125.2876,24.7237],[125.294,24.7188],[125.2962,24.7199],[125.2999,24.7162],[125.3063,24.7124],[125.3151,24.7121],[125.3199,24.7162],[125.3243,24.7165],[125.3271,24.7193],[125.336,24.7188],[125.3474,24.7193],[125.359,24.724],[125.361,24.7226],[125.3721,24.729],[125.3771,24.7249],[125.3826,24.7243],[125.3913,24.7288],[125.4088,24.7279],[125.4174,24.7282],[125.4257,24.726],[125.4313,24.7293],[125.4379,24.7279],[125.4415,24.7288],[125.4463,24.7246],[125.4499,24.7249],[125.451,24.7299],[125.4574,24.731],[125.4563,24.7346],[125.4435,24.7471],[125.4426,24.7526],[125.439,24.7576],[125.4335,24.7615],[125.4287,24.7599],[125.4212,24.7615],[125.4187,24.7649],[125.4118,24.764],[125.4082,24.7674],[125.4035,24.7663],[125.3982,24.769],[125.3918,24.7746],[125.3893,24.784],[125.3832,24.7879],[125.3737,24.7904],[125.3682,24.7932],[125.3649,24.7893],[125.3549,24.7888],[125.3468,24.7971],[125.3435,24.7965],[125.3365,24.7979],[125.3326,24.8024],[125.3313,24.8074],[125.3313,24.8146],[125.336,24.8204],[125.3346,24.8229],[125.3185,24.8329],[125.3101,24.8421],[125.3096,24.8465],[125.3063,24.8499],[125.3054,24.854],[125.3068,24.8585],[125.3054,24.8657],[125.3026,24.8676],[125.2988,24.8765],[125.2957,24.8771],[125.2913,24.8807],[125.2888,24.8804],[125.284,24.8865],[125.2843,24.8901],[125.2821,24.8937],[125.2774,24.8974],[125.2718,24.9035],[125.271,24.9096],[125.2665,24.9154]]],[[[125.309,24.9193],[125.3057,24.9199],[125.3063,24.9129],[125.3107,24.914],[125.309,24.9193]]]]}},{"type":"Feature","properties":{"id":47020},"geometry":{"type":"MultiPolygon","coordinates":[[[[127.8667,26.6542],[127.8628,26.6536],[127.8556,26.6494],[127.8553,26.6447],[127.8594,26.6366],[127.8578,26.6319],[127.8631,26.6303],[127.8642,26.6342],[127.8714,26.6411],[127.8744,26.6494],[127.8711,26.6528],[127.8667,26.6542]]],[[[127.9601,26.6405],[127.9533,26.6488],[127.9515,26.6619],[127.9492,26.6684],[127.9437,26.6709],[127.9365,26.6706],[127.9305,26.6715],[127.9254,26.676],[127.9233,26.6808],[127.9217,26.6888],[127.9218,26.693],[127.9328,26.6979],[127.9491,26.7039],[127.9611,26.7064],[127.9492,26.7086],[127.9481,26.7064],[127.9425,26.7064],[127.9349,26.704],[127.9267,26.7044],[127.9247,26.7025],[127.9136,26.7033],[127.9083,26.6997],[127.9036,26.6992],[127.9019,26.7014],[127.8967,26.7017],[127.8903,26.7042],[127.8828,26.7094],[127.8789,26.7092],[127.88,26.7042],[127.8769,26.6956],[127.8731,26.6906],[127.8747,26.6836],[127.8817,26.6794],[127.8853,26.6736],[127.8886,26.6724],[127.8911,26.6591],[127.885,26.6594],[127.88,26.6558],[127.8799,26.6486],[127.8778,26.6444],[127.8803,26.6428],[127.8796,26.6379],[127.885,26.6336],[127.8869,26.6294],[127.8867,26.6253],[127.89,26.6194],[127.894,26.615],[127.9051,26.6218],[127.9107,26.6266],[127.9187,26.6308],[127.9308,26.6335],[127.9426,26.6351],[127.9601,26.6405]]]]}},{"type":"Feature","properties":{"id":47021},"geometry":{"type":"MultiPolygon","coordinates":[[[[127.9406,26.5092],[127.9654,26.517],[127.9724,26.5179],[127.9825,26.516],[127.9881,26.5131],[127.9931,26.5092],[127.994,26.5063],[128,26.5103],[128.0039,26.505],[128.0069,26.5075],[128.0053,26.5108],[128.0097,26.5142],[128.0172,26.5114],[128.0261,26.5106],[128.0333,26.5139],[128.0314,26.5183],[128.0392,26.5203],[128.0533,26.5208],[128.0522,26.5242],[128.0464,26.5297],[128.0454,26.5354],[128.0417,26.5392],[128.0407,26.5423],[128.0361,26.5475],[128.0361,26.5505],[128.0401,26.553],[128.0439,26.5481],[128.0542,26.5492],[128.0611,26.5511],[128.0728,26.5486],[128.0794,26.5437],[128.0798,26.5419],[128.0914,26.5361],[128.0942,26.5411],[128.0997,26.5394],[128.1025,26.5456],[128.1081,26.5494],[128.1261,26.555],[128.134,26.5553],[128.1395,26.5542],[128.14,26.5608],[128.1375,26.565],[128.1447,26.5683],[128.1461,26.5714],[128.1418,26.5775],[128.1351,26.5893],[128.129,26.5925],[128.1261,26.5986],[128.1182,26.6019],[128.1133,26.6053],[128.0982,26.6177],[128.095,26.6247],[128.0901,26.6336],[128.0887,26.6387],[128.0879,26.6515],[128.0829,26.6467],[128.0785,26.6445],[128.0717,26.6447],[128.0617,26.6403],[128.054,26.6352],[128.047,26.6347],[128.0403,26.6367],[128.0342,26.6358],[128.0275,26.6286],[128.0231,26.6286],[128.0125,26.6328],[128.0072,26.6303],[128.0034,26.6323],[128.0039,26.6383],[127.9994,26.6431],[127.9949,26.6449],[127.9818,26.6423],[127.9601,26.6405],[127.9426,26.6351],[127.9308,26.6335],[127.9187,26.6308],[127.9107,26.6266],[127.9051,26.6218],[127.894,26.615],[127.8925,26.6122],[127.895,26.6061],[127.9008,26.6053],[127.9036,26.6031],[127.9117,26.6003],[127.9175,26.6039],[127.9203,26.6089],[127.9311,26.6069],[127.9339,26.6039],[127.9406,26.6011],[127.9444,26.6025],[127.9475,26.6008],[127.9533,26.595],[127.9575,26.595],[127.9647,26.5903],[127.9719,26.5908],[127.9825,26.5847],[127.9828,26.575],[127.9803,26.5678],[127.9742,26.5578],[127.9669,26.5514],[127.9648,26.5452],[127.9608,26.5439],[127.9586,26.5461],[127.9508,26.5447],[127.9511,26.5425],[127.9451,26.5365],[127.9413,26.5357],[127.9344,26.5381],[127.9301,26.5331],[127.9366,26.5203],[127.9406,26.5092]]],[[[128.0342,26.6417],[128.0305,26.6403],[128.0303,26.6346],[128.0347,26.6375],[128.0342,26.6417]]],[[[128.0211,26.6767],[128.0108,26.6792],[128.0067,26.6753],[128.0035,26.676],[127.9958,26.6711],[127.9939,26.6603],[127.9981,26.6544],[128.0025,26.6562],[128.0053,26.6522],[128.0098,26.6531],[128.0131,26.6564],[128.0281,26.65],[128.0354,26.6511],[128.0322,26.6592],[128.0277,26.662],[128.0227,26.6692],[128.0211,26.6767]]]]}},{"type":"Feature","properties":{"id":47022},"geometry":{"type":"MultiPolygon","coordinates":[[[[127.7095,26.1863],[127.7174,26.2024],[127.7257,26.2115],[127.7301,26.2174],[127.7286,26.2349],[127.7222,26.2336],[127.7067,26.2322],[127.7013,26.2324],[127.6934,26.2357],[127.6852,26.2428],[127.6768,26.2482],[127.6772,26.2511],[127.6682,26.2502],[127.6684,26.2447],[127.6722,26.2442],[127.6717,26.2352],[127.6756,26.2394],[127.68,26.2392],[127.6803,26.2361],[127.6772,26.2258],[127.6723,26.2225],[127.6639,26.2197],[127.6625,26.2172],[127.6667,26.2108],[127.6744,26.2081],[127.6715,26.2054],[127.6683,26.2081],[127.6652,26.2076],[127.6601,26.2137],[127.6556,26.2147],[127.6536,26.2175],[127.6486,26.2169],[127.6413,26.2084],[127.6408,26.2019],[127.6368,26.1989],[127.6414,26.1908],[127.6442,26.1886],[127.6447,26.1802],[127.6481,26.1808],[127.6511,26.1781],[127.6496,26.1744],[127.6713,26.1802],[127.6792,26.1814],[127.6882,26.1847],[127.7095,26.1863]]],[[[127.6545,26.2585],[127.655,26.2572],[127.6682,26.2612],[127.6676,26.2624],[127.6545,26.2585]]]]}},{"type":"Feature","properties":{"id":47023},"geometry":{"type":"Polygon","coordinates":[[[127.7607,26.2506],[127.7638,26.2419],[127.7663,26.2376],[127.7825,26.2235],[127.7882,26.2257],[127.7894,26.2381],[127.7886,26.2425],[127.79,26.2483],[127.7939,26.2517],[127.7947,26.2576],[127.7967,26.2592],[127.7986,26.2658],[127.8042,26.2692],[127.8072,26.2731],[127.813,26.2744],[127.8175,26.2839],[127.8164,26.2872],[127.798,26.2861],[127.79,26.2863],[127.784,26.2813],[127.7723,26.2686],[127.7607,26.2506]]]}},{"type":"Feature","properties":{"id":47024},"geometry":{"type":"MultiPolygon","coordinates":[[[[127.9611,26.7064],[127.9491,26.7039],[127.9328,26.6979],[127.9218,26.693],[127.9217,26.6888],[127.9233,26.6808],[127.9254,26.676],[127.9305,26.6715],[127.9365,26.6706],[127.9437,26.6709],[127.9492,26.6684],[127.9515,26.6619],[127.9533,26.6488],[127.9601,26.6405],[127.9818,26.6423],[127.9949,26.6449],[127.991,26.647],[127.9861,26.6475],[127.9836,26.6508],[127.9907,26.6512],[127.9893,26.6553],[127.9936,26.6642],[127.9933,26.6708],[127.9981,26.6769],[128.0086,26.6842],[128.0056,26.6883],[127.9964,26.6914],[127.9831,26.6936],[127.9781,26.6978],[127.9675,26.696],[127.9703,26.7008],[127.9611,26.7064]]],[[[128.0183,26.7144],[128.0125,26.7142],[128.0097,26.7117],[128.0081,26.7056],[128.0108,26.6997],[128.015,26.6958],[128.0208,26.6936],[128.0239,26.6958],[128.0275,26.7011],[128.0278,26.7103],[128.0183,26.7144]]]]}},{"type":"Feature","properties":{"id":47025},"geometry":{"type":"MultiPolygon","coordinates":[[[[127.7761,26.1317],[127.7717,26.1314],[127.7694,26.1281],[127.7742,26.1261],[127.7772,26.1292],[127.7761,26.1317]]],[[[127.9108,26.1714],[127.9083,26.1719],[127.9044,26.1683],[127.8983,26.1678],[127.8964,26.1653],[127.8844,26.1608],[127.8822,26.1544],[127.8844,26.1514],[127.895,26.1592],[127.9053,26.1653],[127.9108,26.1714]]],[[[127.7413,26.2006],[127.7389,26.183],[127.7356,26.1733],[127.7299,26.164],[127.7344,26.1554],[127.7384,26.1496],[127.7441,26.1448],[127.75,26.1373],[127.754,26.1341],[127.7628,26.1294],[127.7683,26.1293],[127.7756,26.1347],[127.7842,26.1336],[127.7856,26.1319],[127.7925,26.1347],[127.8028,26.1464],[127.8106,26.1489],[127.8114,26.1542],[127.82,26.1575],[127.826,26.1659],[127.8296,26.1652],[127.8311,26.1761],[127.8286,26.1786],[127.8226,26.1797],[127.8214,26.1822],[127.8241,26.1884],[127.8149,26.1904],[127.8085,26.19],[127.7989,26.1874],[127.7942,26.1849],[127.7915,26.1814],[127.7906,26.1707],[127.7782,26.1723],[127.7797,26.181],[127.7757,26.1923],[127.7711,26.1939],[127.763,26.1869],[127.7572,26.1853],[127.7544,26.1864],[127.7413,26.2006]]]]}},{"type":"Feature","properties":{"id":47026},"geometry":{"type":"Polygon","coordinates":[[[127.7435,26.2485],[127.737,26.2434],[127.7286,26.2349],[127.7301,26.2174],[127.7349,26.216],[127.7389,26.2169],[127.7499,26.2096],[127.7575,26.2063],[127.7611,26.21],[127.7708,26.2153],[127.7747,26.2147],[127.779,26.2177],[127.7825,26.2235],[127.7663,26.2376],[127.7638,26.2419],[127.7607,26.2506],[127.7435,26.2485]]]}},{"type":"Feature","properties":{"id":47027},"geometry":{"type":"Polygon","coordinates":[[[128.2009,26.6942],[128.1891,26.7027],[128.1857,26.7072],[128.1739,26.7115],[128.1624,26.7174],[128.1577,26.7208],[128.1561,26.7189],[128.1461,26.7136],[128.1436,26.7086],[128.1326,26.7048],[128.1239,26.7031],[128.1183,26.7039],[128.1144,26.7],[128.1131,26.6956],[128.1061,26.6892],[128.1058,26.6858],[128.1008,26.68],[128.1028,26.675],[128.1103,26.6719],[128.1228,26.6653],[128.1247,26.66],[128.1197,26.6592],[128.1136,26.6628],[128.1119,26.6684],[128.1061,26.6664],[128.1014,26.6703],[128.0981,26.6672],[128.1025,26.6636],[128.0972,26.6619],[128.0933,26.6583],[128.0914,26.6542],[128.0879,26.6515],[128.0887,26.6387],[128.0901,26.6336],[128.095,26.6247],[128.1019,26.6259],[128.1117,26.6297],[128.1209,26.6324],[128.1251,26.6367],[128.1277,26.6436],[128.1305,26.6479],[128.1391,26.6507],[128.1568,26.6519],[128.1631,26.6542],[128.1675,26.6584],[128.1743,26.6678],[128.1811,26.6724],[128.1917,26.683],[128.2009,26.6942]]]}},{"type":"Feature","properties":{"id":47028},"geometry":{"type":"Polygon","coordinates":[[[127.7829,26.3186],[127.7934,26.3205],[127.8005,26.3196],[127.8051,26.3143],[127.8088,26.3078],[127.8114,26.2989],[127.8148,26.301],[127.8164,26.3047],[127.8208,26.3044],[127.8242,26.3021],[127.8277,26.3023],[127.8297,26.3128],[127.8358,26.3133],[127.8386,26.3153],[127.8483,26.3156],[127.8475,26.3189],[127.8439,26.3192],[127.8386,26.3231],[127.8348,26.3223],[127.8371,26.3296],[127.8456,26.3258],[127.8412,26.3306],[127.8362,26.3386],[127.827,26.3464],[127.8264,26.3518],[127.8302,26.3639],[127.8292,26.379],[127.8265,26.3842],[127.8133,26.3951],[127.8108,26.3994],[127.8004,26.4116],[127.7858,26.4067],[127.7842,26.3992],[127.7852,26.3797],[127.7839,26.3694],[127.7816,26.3638],[127.7821,26.3544],[127.785,26.3491],[127.787,26.337],[127.7834,26.3282],[127.7829,26.3186]]]}},{"type":"Feature","properties":{"id":47029},"geometry":{"type":"Polygon","coordinates":[[[127.9189,26.4935],[127.9251,26.499],[127.93,26.5015],[127.9355,26.5064],[127.9406,26.5092],[127.9366,26.5203],[127.9301,26.5331],[127.9267,26.5281],[127.9233,26.5289],[127.9206,26.5208],[127.9167,26.5164],[127.9119,26.5167],[127.9083,26.5206],[127.9028,26.515],[127.8903,26.5108],[127.8917,26.5083],[127.8883,26.5042],[127.8833,26.5031],[127.8789,26.5072],[127.8744,26.5086],[127.87,26.5123],[127.8647,26.5072],[127.8594,26.5094],[127.8586,26.5025],[127.8558,26.5003],[127.8511,26.5053],[127.8428,26.5036],[127.8434,26.5013],[127.8397,26.495],[127.8431,26.4917],[127.8456,26.4859],[127.8452,26.4811],[127.8408,26.4783],[127.8356,26.4792],[127.8306,26.4711],[127.825,26.4675],[127.8211,26.4675],[127.8178,26.4644],[127.8131,26.4639],[127.8097,26.4597],[127.8106,26.4578],[127.8036,26.455],[127.8006,26.4489],[127.8036,26.4445],[127.8002,26.4384],[127.7972,26.4364],[127.7897,26.4375],[127.7866,26.435],[127.7819,26.4383],[127.7767,26.44],[127.7717,26.4461],[127.7637,26.4372],[127.7569,26.4339],[127.7472,26.4275],[127.7444,26.4247],[127.7385,26.4235],[127.7404,26.4185],[127.7615,26.4131],[127.7656,26.4115],[127.7742,26.4104],[127.7858,26.4067],[127.8004,26.4116],[127.8043,26.4222],[127.8079,26.4259],[127.8164,26.4313],[127.827,26.443],[127.8304,26.4454],[127.8532,26.4683],[127.8632,26.4725],[127.8747,26.4743],[127.8811,26.4772],[127.8999,26.4786],[127.9061,26.4805],[127.9189,26.4935]]]}},{"type":"Feature","properties":{"id":47030},"geometry":{"type":"MultiPolygon","coordinates":[[[[123.7935,24.0715],[123.7879,24.0721],[123.776,24.0718],[123.7693,24.0682],[123.7651,24.0696],[123.7637,24.0654],[123.7593,24.0632],[123.7532,24.0629],[123.7543,24.0588],[123.7529,24.0526],[123.7568,24.049],[123.7763,24.046],[123.7829,24.0476],[123.7846,24.0457],[123.796,24.0454],[123.7962,24.0476],[123.8035,24.0487],[123.8063,24.0543],[123.8099,24.0574],[123.8096,24.0646],[123.8032,24.0685],[123.7935,24.0715]]],[[[123.9349,24.2201],[123.9246,24.221],[123.9207,24.2182],[123.9226,24.2138],[123.9276,24.2093],[123.9321,24.2085],[123.9368,24.2138],[123.9349,24.2201]]],[[[123.7804,24.4371],[123.7707,24.4374],[123.7668,24.4357],[123.764,24.4313],[123.7715,24.4279],[123.774,24.4249],[123.7738,24.4188],[123.7782,24.4174],[123.7768,24.4112],[123.7768,24.4043],[123.7735,24.4054],[123.7746,24.409],[123.7738,24.4165],[123.7674,24.4176],[123.7615,24.4157],[123.7585,24.4079],[123.7507,24.4029],[123.7543,24.3965],[123.7529,24.3921],[123.7471,24.3915],[123.7429,24.3946],[123.7421,24.389],[123.7474,24.3818],[123.7526,24.3762],[123.7501,24.371],[123.7438,24.3688],[123.7465,24.3587],[123.7521,24.3587],[123.7532,24.3529],[123.744,24.3426],[123.7504,24.3371],[123.7465,24.3304],[123.7457,24.3185],[123.7415,24.3185],[123.7343,24.3321],[123.7301,24.3307],[123.7285,24.3329],[123.7299,24.3415],[123.721,24.3393],[123.7171,24.3349],[123.7113,24.334],[123.7043,24.3443],[123.7043,24.3499],[123.6996,24.3471],[123.7021,24.3346],[123.7068,24.326],[123.7079,24.3201],[123.7115,24.3176],[123.7099,24.3146],[123.7063,24.316],[123.7026,24.3246],[123.699,24.3271],[123.6926,24.3276],[123.686,24.3326],[123.6832,24.3321],[123.6799,24.3254],[123.6832,24.3218],[123.6824,24.3174],[123.6865,24.3107],[123.684,24.3082],[123.6799,24.3124],[123.6746,24.3115],[123.6696,24.314],[123.6654,24.3101],[123.6615,24.3101],[123.6654,24.3024],[123.6676,24.3015],[123.669,24.2968],[123.6807,24.2824],[123.6913,24.2812],[123.6974,24.2829],[123.7046,24.2787],[123.709,24.2776],[123.7188,24.2776],[123.7218,24.2885],[123.7201,24.2929],[123.7246,24.299],[123.7363,24.2943],[123.7407,24.2879],[123.7487,24.2849],[123.7529,24.2799],[123.7671,24.2776],[123.7782,24.2743],[123.781,24.2763],[123.791,24.2749],[123.8043,24.2696],[123.8124,24.271],[123.8201,24.2701],[123.8293,24.2726],[123.8351,24.2721],[123.8454,24.2676],[123.8501,24.2632],[123.8565,24.2599],[123.8632,24.2551],[123.8674,24.256],[123.8782,24.2549],[123.8815,24.2557],[123.8826,24.2607],[123.8815,24.2643],[123.8846,24.2693],[123.8832,24.2751],[123.8796,24.2763],[123.8754,24.284],[123.8857,24.2793],[123.8971,24.2774],[123.8996,24.2735],[123.9043,24.2743],[123.9032,24.2818],[123.9051,24.2835],[123.9018,24.2974],[123.9001,24.3018],[123.9021,24.3068],[123.9057,24.3101],[123.9129,24.3246],[123.9174,24.3243],[123.9229,24.3179],[123.9282,24.3154],[123.9287,24.3185],[123.9249,24.324],[123.9299,24.3265],[123.9299,24.3304],[123.9274,24.3324],[123.9285,24.3382],[123.9276,24.3438],[123.931,24.3468],[123.9365,24.3482],[123.9385,24.3585],[123.941,24.3615],[123.9401,24.366],[123.9271,24.366],[123.9224,24.3671],[123.9182,24.3715],[123.9171,24.3776],[123.9107,24.3826],[123.9035,24.3863],[123.9001,24.3838],[123.8946,24.3874],[123.8871,24.3843],[123.8824,24.3887],[123.8812,24.3918],[123.8815,24.3999],[123.8743,24.404],[123.8682,24.4035],[123.8674,24.3982],[123.8646,24.3954],[123.8607,24.3954],[123.8554,24.3982],[123.8554,24.4029],[123.851,24.4043],[123.8446,24.4024],[123.8388,24.4037],[123.8326,24.4076],[123.8299,24.4054],[123.829,24.3985],[123.8249,24.3971],[123.8218,24.3921],[123.8174,24.3915],[123.816,24.3943],[123.811,24.3976],[123.8104,24.4035],[123.8132,24.4065],[123.8121,24.4115],[123.8024,24.4143],[123.8015,24.4188],[123.7982,24.4243],[123.7899,24.429],[123.7868,24.4335],[123.7804,24.4371]]],[[[123.9524,24.2426],[123.9493,24.2432],[123.9432,24.2374],[123.9401,24.2374],[123.9362,24.2288],[123.936,24.2254],[123.9421,24.2254],[123.9471,24.231],[123.9526,24.2349],[123.9549,24.2385],[123.9524,24.2426]]],[[[124.0021,24.256],[123.9929,24.2507],[123.991,24.2474],[123.9907,24.2399],[123.9951,24.2357],[123.9985,24.2304],[124.0004,24.2249],[124.0035,24.221],[124.0071,24.2201],[124.0143,24.2207],[124.0188,24.2243],[124.0274,24.2293],[124.031,24.2365],[124.0299,24.2451],[124.026,24.2499],[124.016,24.2476],[124.0043,24.2526],[124.0021,24.256]]],[[[124.0882,24.341],[124.0846,24.3415],[124.0801,24.336],[124.0785,24.3265],[124.0762,24.3254],[124.0765,24.3193],[124.0801,24.3129],[124.0835,24.3113],[124.0885,24.3113],[124.0951,24.3146],[124.0979,24.3182],[124.1024,24.3204],[124.0993,24.3288],[124.0965,24.3335],[124.0882,24.341]]],[[[123.9765,24.3549],[123.9665,24.3529],[123.9632,24.349],[123.9693,24.3429],[123.9679,24.3385],[123.9618,24.3362],[123.9532,24.3368],[123.9538,24.3321],[123.9601,24.334],[123.9624,24.3321],[123.9704,24.3326],[123.9879,24.3299],[123.9885,24.3251],[123.9938,24.3232],[124.0032,24.3282],[124.0001,24.3351],[123.9968,24.3351],[123.9899,24.3404],[123.9921,24.3468],[123.9818,24.3535],[123.9765,24.3549]]],[[[124.0007,24.3671],[123.9957,24.3651],[123.999,24.3607],[124.0038,24.3626],[124.0007,24.3671]]],[[[123.7315,24.3654],[123.7296,24.3632],[123.7237,24.3643],[123.7246,24.3574],[123.7276,24.3565],[123.7301,24.3524],[123.7393,24.3463],[123.7443,24.3471],[123.7438,24.3549],[123.7399,24.3587],[123.7346,24.3593],[123.7312,24.3618],[123.7315,24.3654]]],[[[123.7265,24.3793],[123.7218,24.3799],[123.7132,24.3782],[123.7104,24.374],[123.711,24.3704],[123.716,24.3674],[123.7201,24.3676],[123.7213,24.3743],[123.7265,24.3762],[123.7265,24.3793]]],[[[123.8224,24.4768],[123.8146,24.4771],[123.8132,24.474],[123.8182,24.4676],[123.8243,24.4676],[123.8262,24.4729],[123.8224,24.4768]]]]}},{"type":"Feature","properties":{"id":47031},"geometry":{"type":"MultiPolygon","coordinates":[[[[124.7101,24.6787],[124.7087,24.6749],[124.6949,24.6765],[124.681,24.6732],[124.674,24.6668],[124.6704,24.6612],[124.6701,24.6557],[124.6726,24.6468],[124.6782,24.6404],[124.6857,24.6399],[124.6882,24.6374],[124.6918,24.6382],[124.706,24.6376],[124.7132,24.6399],[124.7249,24.6488],[124.7279,24.6526],[124.7285,24.6632],[124.7254,24.669],[124.7162,24.6732],[124.7115,24.6735],[124.7101,24.6787]]],[[[124.696,24.7618],[124.6882,24.7624],[124.6826,24.7593],[124.6826,24.7571],[124.6929,24.7504],[124.6968,24.7465],[124.706,24.744],[124.7046,24.7551],[124.701,24.7554],[124.696,24.7618]]]]}},{"type":"Feature","properties":{"id":47032},"geometry":{"type":"MultiPolygon","coordinates":[[[[127.36,26.2256],[127.3536,26.2264],[127.3525,26.2228],[127.3549,26.2177],[127.35,26.2117],[127.3494,26.2056],[127.345,26.1994],[127.3461,26.1931],[127.3447,26.1908],[127.3472,26.1853],[127.3414,26.1858],[127.3383,26.1833],[127.3419,26.1756],[127.3408,26.1689],[127.345,26.1703],[127.3475,26.1683],[127.3444,26.1603],[127.3453,26.1572],[127.3439,26.1514],[127.3467,26.1481],[127.3414,26.1447],[127.3403,26.1397],[127.3439,26.1389],[127.3481,26.1456],[127.3536,26.1566],[127.3589,26.1558],[127.3642,26.1572],[127.3622,26.1633],[127.3619,26.1725],[127.36,26.1747],[127.3608,26.1828],[127.3667,26.1858],[127.3717,26.1947],[127.3708,26.2014],[127.3742,26.2019],[127.3744,26.2072],[127.3722,26.2089],[127.3728,26.215],[127.3706,26.2197],[127.36,26.2256]]],[[[127.3675,26.2258],[127.3708,26.224],[127.3733,26.2292],[127.3667,26.2358],[127.3661,26.2314],[127.3675,26.2258]]],[[[127.4388,26.2017],[127.4447,26.2006],[127.4472,26.2025],[127.4494,26.2111],[127.4567,26.2189],[127.4536,26.2242],[127.4464,26.2179],[127.4452,26.2124],[127.4388,26.2017]]],[[[127.406,26.2554],[127.4003,26.2556],[127.4031,26.2497],[127.4075,26.2489],[127.406,26.2554]]],[[[127.3712,26.3079],[127.3676,26.3076],[127.3637,26.3107],[127.3643,26.3008],[127.3752,26.3015],[127.3751,26.3048],[127.3712,26.3079]]]]}},{"type":"Feature","properties":{"id":47033},"geometry":{"type":"Polygon","coordinates":[[[127.7095,26.1863],[127.6882,26.1847],[127.6792,26.1814],[127.6713,26.1802],[127.6496,26.1744],[127.6488,26.1686],[127.6525,26.1689],[127.6524,26.164],[127.657,26.1612],[127.6531,26.1542],[127.6558,26.1519],[127.6667,26.1514],[127.6731,26.1519],[127.6796,26.1546],[127.6908,26.157],[127.7089,26.1673],[127.7122,26.1751],[127.7095,26.1863]]]}},{"type":"Feature","properties":{"id":47034},"geometry":{"type":"MultiPolygon","coordinates":[[[[127.1481,26.3819],[127.1383,26.37],[127.1369,26.3647],[127.1417,26.3594],[127.1411,26.3561],[127.1472,26.3511],[127.1514,26.3545],[127.1594,26.3575],[127.1622,26.3612],[127.1603,26.3642],[127.1544,26.3617],[127.1506,26.3628],[127.1475,26.3714],[127.1515,26.3774],[127.1516,26.3812],[127.1481,26.3819]]],[[[127.1028,26.3881],[127.1003,26.3872],[127.1006,26.3814],[127.1053,26.3861],[127.1028,26.3881]]]]}},{"type":"Feature","properties":{"id":47035},"geometry":{"type":"Polygon","coordinates":[[[127.7144,26.275],[127.7064,26.2728],[127.7041,26.2678],[127.6977,26.2609],[127.6911,26.2553],[127.6839,26.2567],[127.6841,26.2467],[127.6852,26.2428],[127.6934,26.2357],[127.7013,26.2324],[127.7067,26.2322],[127.7222,26.2336],[127.7286,26.2349],[127.737,26.2434],[127.7435,26.2485],[127.7347,26.2591],[127.7265,26.2658],[127.7166,26.2711],[127.7144,26.275]]]}},{"type":"Feature","properties":{"id":47036},"geometry":{"type":"MultiPolygon","coordinates":[[[[127.9444,26.2622],[127.9383,26.2625],[127.9375,26.2519],[127.9333,26.2467],[127.94,26.2422],[127.9431,26.2461],[127.9461,26.2467],[127.9475,26.2594],[127.9444,26.2622]]],[[[127.9258,26.3205],[127.921,26.3237],[127.9172,26.3217],[127.9206,26.3172],[127.928,26.3149],[127.9258,26.3205]]],[[[127.8435,26.4304],[127.8343,26.4351],[127.827,26.443],[127.8164,26.4313],[127.8079,26.4259],[127.8043,26.4222],[127.8004,26.4116],[127.8108,26.3994],[127.8133,26.3951],[127.8265,26.3842],[127.8292,26.379],[127.8302,26.3639],[127.8264,26.3518],[127.827,26.3464],[127.8362,26.3386],[127.8412,26.3306],[127.8456,26.3258],[127.8542,26.3242],[127.8583,26.3278],[127.8547,26.3306],[127.8575,26.3333],[127.8622,26.3317],[127.8664,26.3272],[127.8725,26.33],[127.8756,26.3286],[127.8817,26.3211],[127.8839,26.32],[127.8928,26.3098],[127.9017,26.3028],[127.908,26.302],[127.9098,26.2991],[127.9158,26.2944],[127.9225,26.2956],[127.9218,26.3026],[127.9222,26.3117],[127.9194,26.3114],[127.9181,26.3186],[127.9158,26.3203],[127.9084,26.331],[127.9294,26.3306],[127.9354,26.3319],[127.9478,26.3397],[127.9543,26.3398],[127.96,26.3369],[127.9613,26.3392],[127.9692,26.3449],[127.9781,26.3546],[127.9881,26.3594],[127.9919,26.3589],[127.9947,26.3636],[127.9933,26.3742],[127.9861,26.3756],[127.9911,26.3794],[127.9863,26.3835],[127.9819,26.379],[127.9758,26.3786],[127.9694,26.3683],[127.969,26.3627],[127.9575,26.3578],[127.9515,26.3584],[127.9439,26.3571],[127.9431,26.3536],[127.9469,26.3461],[127.9452,26.3395],[127.9351,26.3329],[127.9324,26.3322],[127.9188,26.3326],[127.9031,26.3317],[127.8978,26.3333],[127.8942,26.3375],[127.8883,26.3408],[127.8819,26.3483],[127.8803,26.3522],[127.8739,26.3589],[127.8739,26.3658],[127.8761,26.3672],[127.8759,26.3741],[127.8792,26.3781],[127.8728,26.3875],[127.8675,26.3889],[127.8611,26.3939],[127.8606,26.3972],[127.8536,26.3997],[127.8453,26.4053],[127.84,26.4078],[127.8372,26.4161],[127.8308,26.4183],[127.8272,26.4222],[127.8319,26.4256],[127.83,26.4281],[127.8331,26.4306],[127.8411,26.4267],[127.8435,26.4304]]],[[[127.9964,26.3017],[127.9936,26.3036],[127.9886,26.3011],[127.9933,26.2981],[127.9964,26.3017]]],[[[127.9592,26.3275],[127.951,26.3276],[127.9506,26.3214],[127.9522,26.315],[127.9561,26.31],[127.9597,26.3078],[127.9619,26.3117],[127.9611,26.3162],[127.9667,26.3182],[127.9649,26.324],[127.9592,26.3275]]],[[[128.0014,26.4003],[127.9959,26.4],[127.9932,26.3947],[127.9889,26.3931],[127.9916,26.3883],[127.9886,26.3857],[127.9974,26.3818],[128.0044,26.3989],[128.0014,26.4003]]]]}},{"type":"Feature","properties":{"id":47037},"geometry":{"type":"Polygon","coordinates":[[[127.7122,26.1751],[127.7089,26.1673],[127.6908,26.157],[127.6979,26.1481],[127.7069,26.1455],[127.7092,26.1411],[127.7082,26.1318],[127.7099,26.1232],[127.7126,26.1189],[127.7144,26.1123],[127.7227,26.0983],[127.7268,26.0941],[127.7282,26.097],[127.7341,26.0983],[127.7377,26.1044],[127.7389,26.1089],[127.7425,26.1108],[127.7442,26.115],[127.7519,26.12],[127.757,26.1198],[127.7584,26.1232],[127.768,26.1264],[127.7683,26.1293],[127.7628,26.1294],[127.754,26.1341],[127.75,26.1373],[127.7441,26.1448],[127.7384,26.1496],[127.7344,26.1554],[127.7299,26.164],[127.7245,26.17],[127.7189,26.1735],[127.7122,26.1751]]]}},{"type":"Feature","properties":{"id":47038},"geometry":{"type":"Polygon","coordinates":[[[127.7842,26.3992],[127.7858,26.4067],[127.7742,26.4104],[127.7656,26.4115],[127.7615,26.4131],[127.7404,26.4185],[127.7385,26.4235],[127.7336,26.4253],[127.7311,26.4319],[127.7247,26.4403],[127.7144,26.4411],[127.7111,26.4394],[127.7156,26.4353],[127.7136,26.4247],[127.7133,26.4111],[127.7181,26.3983],[127.7219,26.3933],[127.7217,26.3903],[127.7269,26.3847],[127.7311,26.3783],[127.7317,26.3742],[127.7342,26.3714],[127.7399,26.3565],[127.7497,26.3604],[127.7545,26.3643],[127.7624,26.3793],[127.7659,26.3837],[127.7766,26.3941],[127.7842,26.3992]]]}},{"type":"Feature","properties":{"id":47039},"geometry":{"type":"Polygon","coordinates":[[[127.7413,26.2006],[127.7544,26.1864],[127.7572,26.1853],[127.763,26.1869],[127.7711,26.1939],[127.7706,26.2],[127.7578,26.2031],[127.7575,26.2063],[127.7499,26.2096],[127.7389,26.2169],[127.7413,26.2006]]]}},{"type":"Feature","properties":{"id":47040},"geometry":{"type":"Polygon","coordinates":[[[123.0065,24.4743],[122.999,24.4715],[122.994,24.4735],[122.9879,24.4701],[122.9765,24.4682],[122.9713,24.4685],[122.9638,24.4729],[122.9543,24.4662],[122.9546,24.4615],[122.9421,24.4576],[122.939,24.4532],[122.9332,24.4501],[122.934,24.4476],[122.9415,24.4435],[122.9479,24.4437],[122.9524,24.4407],[122.9551,24.4415],[122.9668,24.4374],[122.9743,24.4368],[122.9821,24.4379],[122.9829,24.4424],[122.9965,24.4396],[123.0038,24.4401],[123.0051,24.4382],[123.0132,24.4374],[123.0215,24.4463],[123.0343,24.4526],[123.0343,24.4571],[123.041,24.4599],[123.0407,24.4629],[123.0321,24.4651],[123.021,24.4713],[123.0174,24.471],[123.0137,24.4735],[123.0065,24.4743]]]}},{"type":"Feature","properties":{"id":47041},"geometry":{"type":"MultiPolygon","coordinates":[[[[127.2403,26.1797],[127.2377,26.1816],[127.2328,26.1756],[127.2328,26.1647],[127.2386,26.1619],[127.2424,26.1625],[127.2425,26.17],[127.2439,26.1769],[127.2403,26.1797]]],[[[127.2844,26.2072],[127.2814,26.2119],[127.2717,26.2086],[127.2699,26.203],[127.2647,26.1983],[127.2683,26.1936],[127.274,26.1969],[127.2764,26.1956],[127.2763,26.1899],[127.2833,26.1892],[127.2883,26.1939],[127.2922,26.1936],[127.2918,26.1987],[127.2869,26.2025],[127.2844,26.2072]]],[[[127.2448,26.2042],[127.2412,26.2039],[127.2335,26.21],[127.2338,26.2035],[127.2302,26.2032],[127.2305,26.1967],[127.2269,26.1964],[127.2272,26.1899],[127.2419,26.1908],[127.2415,26.1974],[127.2452,26.1976],[127.2448,26.2042]]],[[[127.2958,26.1647],[127.2978,26.1669],[127.2964,26.1731],[127.2944,26.175],[127.2886,26.1703],[127.2917,26.1589],[127.2958,26.1647]]],[[[127.2917,26.1872],[127.2853,26.1875],[127.2825,26.1821],[127.2864,26.1756],[127.294,26.1759],[127.2939,26.1856],[127.2917,26.1872]]],[[[127.3109,26.2145],[127.3086,26.2098],[127.3102,26.2052],[127.3094,26.2005],[127.3114,26.1978],[127.3178,26.2028],[127.3167,26.2056],[127.3114,26.2086],[127.3109,26.2145]]],[[[127.2514,26.2183],[127.2508,26.2222],[127.2411,26.2214],[127.2394,26.22],[127.2383,26.2117],[127.2425,26.2078],[127.2458,26.2089],[127.2492,26.2128],[127.2514,26.2183]]],[[[127.313,26.2479],[127.3112,26.2506],[127.3071,26.249],[127.3082,26.2435],[127.3066,26.2403],[127.3013,26.2382],[127.2992,26.2411],[127.2939,26.2408],[127.2935,26.2357],[127.2906,26.2336],[127.2848,26.2334],[127.2805,26.2309],[127.2839,26.2256],[127.29,26.2278],[127.2961,26.2233],[127.3011,26.2267],[127.3033,26.2197],[127.3086,26.2186],[127.3089,26.2225],[127.3144,26.2278],[127.3144,26.2317],[127.3114,26.2358],[127.3122,26.2381],[127.3192,26.24],[127.325,26.2319],[127.33,26.2408],[127.3263,26.2446],[127.3203,26.2456],[127.318,26.2476],[127.313,26.2479]]]]}}]}