{"type":"FeatureCollection","features":[{"type":"Feature","properties":{"id":5001},"geometry":{"type":"Polygon","coordinates":[[[140.3089,39.8274],[140.2965,39.8316],[140.2859,39.8337],[140.2769,39.8335],[140.2651,39.8303],[140.2543,39.8301],[140.2481,39.8311],[140.2421,39.8376],[140.2399,39.8432],[140.2323,39.8525],[140.2201,39.861],[140.2148,39.8634],[140.1963,39.8601],[140.1767,39.8603],[140.1619,39.8626],[140.1443,39.8696],[140.1295,39.8818],[140.1238,39.8855],[140.1081,39.8925],[140.098,39.8963],[140.0873,39.8992],[140.0546,39.9047],[140.0511,39.9019],[140.0473,39.887],[140.0489,39.8826],[140.0512,39.8815],[140.0502,39.838],[140.0517,39.8286],[140.0545,39.8241],[140.0556,39.817],[140.0547,39.813],[140.0514,39.8104],[140.0406,39.8075],[140.0324,39.8068],[140.0379,39.7962],[140.0379,39.7906],[140.0412,39.7863],[140.0415,39.7819],[140.039,39.7803],[140.0411,39.7738],[140.0403,39.7679],[140.0379,39.7648],[140.0436,39.7623],[140.0461,39.7647],[140.0434,39.7721],[140.0485,39.7732],[140.0473,39.7683],[140.0497,39.7622],[140.0652,39.7476],[140.0572,39.7497],[140.052,39.7559],[140.0476,39.7564],[140.0486,39.751],[140.0461,39.7492],[140.0486,39.7413],[140.0547,39.7397],[140.055,39.7317],[140.0587,39.7256],[140.0592,39.7018],[140.0611,39.6877],[140.0623,39.6714],[140.064,39.6578],[140.0628,39.6488],[140.0633,39.6334],[140.062,39.6165],[140.0604,39.6064],[140.0603,39.6003],[140.0742,39.5943],[140.0788,39.5893],[140.0872,39.587],[140.104,39.5868],[140.1142,39.5843],[140.1255,39.5757],[140.1366,39.5718],[140.1472,39.571],[140.1525,39.569],[140.1572,39.5613],[140.1602,39.5481],[140.1655,39.538],[140.1706,39.5371],[140.1826,39.5403],[140.1876,39.5377],[140.1887,39.5327],[140.1881,39.5183],[140.1892,39.5102],[140.1927,39.506],[140.2164,39.497],[140.2207,39.4933],[140.2249,39.4862],[140.2273,39.4771],[140.231,39.4709],[140.2404,39.4628],[140.2498,39.4572],[140.2572,39.454],[140.2673,39.451],[140.2731,39.4537],[140.2821,39.4611],[140.2828,39.4659],[140.2783,39.4755],[140.273,39.484],[140.2726,39.501],[140.2697,39.5079],[140.2581,39.5163],[140.2533,39.5208],[140.2513,39.5246],[140.2482,39.5361],[140.2405,39.5452],[140.2393,39.5522],[140.2399,39.564],[140.2502,39.5767],[140.2607,39.5821],[140.2657,39.5864],[140.27,39.5934],[140.2719,39.6002],[140.2837,39.617],[140.2852,39.6225],[140.2896,39.6316],[140.2996,39.6455],[140.3103,39.6486],[140.3132,39.6543],[140.3149,39.6669],[140.3186,39.671],[140.3305,39.6769],[140.3367,39.679],[140.3446,39.6841],[140.3545,39.6878],[140.3696,39.691],[140.3792,39.6921],[140.3911,39.6958],[140.399,39.6993],[140.4067,39.705],[140.4149,39.7085],[140.4222,39.7093],[140.4299,39.7082],[140.4363,39.7061],[140.447,39.7046],[140.456,39.7058],[140.4693,39.7113],[140.477,39.7125],[140.488,39.7165],[140.4956,39.7205],[140.5013,39.7232],[140.5105,39.7302],[140.5128,39.734],[140.5139,39.7404],[140.5141,39.7572],[140.5132,39.7653],[140.5112,39.769],[140.4999,39.7788],[140.4928,39.7905],[140.4863,39.7976],[140.4798,39.8045],[140.4664,39.8148],[140.4549,39.8168],[140.4349,39.8222],[140.4226,39.8241],[140.4031,39.8339],[140.3977,39.8378],[140.3885,39.8365],[140.3714,39.8324],[140.3572,39.8241],[140.3509,39.8138],[140.342,39.8061],[140.334,39.803],[140.3243,39.8013],[140.3182,39.8028],[140.3154,39.811],[140.3127,39.8153],[140.3089,39.8274]]]}},{"type":"Feature","properties":{"id":5002},"geometry":{"type":"Polygon","coordinates":[[[140.2673,39.451],[140.2752,39.4342],[140.2829,39.4269],[140.2907,39.4244],[140.2973,39.421],[140.3038,39.4159],[140.3064,39.4088],[140.3014,39.4025],[140.3043,39.3975],[140.3166,39.394],[140.3218,39.3903],[140.3249,39.3801],[140.3364,39.3775],[140.3447,39.3786],[140.3553,39.3862],[140.3609,39.3876],[140.3682,39.3867],[140.374,39.3844],[140.3788,39.3844],[140.3823,39.387],[140.385,39.3959],[140.3882,39.3982],[140.3973,39.3995],[140.4151,39.3995],[140.4259,39.4006],[140.4439,39.4012],[140.4606,39.4028],[140.4676,39.4021],[140.4714,39.3991],[140.4722,39.3935],[140.4713,39.3784],[140.472,39.3716],[140.4766,39.3689],[140.4819,39.3703],[140.496,39.381],[140.4947,39.3886],[140.4975,39.3964],[140.5023,39.3985],[140.5108,39.399],[140.516,39.4006],[140.5188,39.407],[140.5186,39.4219],[140.5197,39.428],[140.524,39.4367],[140.532,39.4437],[140.534,39.4487],[140.5349,39.4567],[140.5397,39.4639],[140.5436,39.4664],[140.5534,39.4667],[140.5571,39.4686],[140.5597,39.4728],[140.5658,39.4788],[140.5748,39.4831],[140.58,39.4824],[140.589,39.4787],[140.5977,39.4807],[140.6046,39.4859],[140.6134,39.4899],[140.6259,39.4931],[140.6349,39.4937],[140.6588,39.4935],[140.6644,39.4925],[140.6732,39.489],[140.6939,39.4779],[140.7005,39.4729],[140.7061,39.4671],[140.7157,39.4729],[140.7222,39.4819],[140.7167,39.4912],[140.7275,39.5082],[140.7317,39.5176],[140.7414,39.5229],[140.7442,39.5346],[140.7397,39.5463],[140.7307,39.5533],[140.7337,39.5629],[140.7421,39.5635],[140.7458,39.5706],[140.735,39.5757],[140.721,39.5795],[140.713,39.5799],[140.668,39.5801],[140.6578,39.5785],[140.6506,39.5737],[140.6418,39.5702],[140.6326,39.572],[140.6252,39.5794],[140.6205,39.5827],[140.6138,39.5836],[140.6019,39.5794],[140.5979,39.5746],[140.5894,39.5736],[140.5828,39.5762],[140.5638,39.5799],[140.5549,39.5781],[140.5475,39.569],[140.5414,39.5576],[140.5371,39.5557],[140.5264,39.556],[140.5206,39.5571],[140.5122,39.561],[140.5096,39.5687],[140.5007,39.5855],[140.4943,39.5886],[140.4845,39.5956],[140.4806,39.5996],[140.4741,39.6164],[140.473,39.6256],[140.4739,39.634],[140.476,39.6404],[140.485,39.6551],[140.4968,39.6653],[140.4965,39.6789],[140.4984,39.6853],[140.5057,39.6956],[140.5067,39.7007],[140.501,39.7124],[140.4956,39.7205],[140.488,39.7165],[140.477,39.7125],[140.4693,39.7113],[140.456,39.7058],[140.447,39.7046],[140.4363,39.7061],[140.4299,39.7082],[140.4222,39.7093],[140.4149,39.7085],[140.4067,39.705],[140.399,39.6993],[140.3911,39.6958],[140.3792,39.6921],[140.3696,39.691],[140.3545,39.6878],[140.3446,39.6841],[140.3367,39.679],[140.3305,39.6769],[140.3186,39.671],[140.3149,39.6669],[140.3132,39.6543],[140.3103,39.6486],[140.2996,39.6455],[140.2896,39.6316],[140.2852,39.6225],[140.2837,39.617],[140.2719,39.6002],[140.27,39.5934],[140.2657,39.5864],[140.2607,39.5821],[140.2502,39.5767],[140.2399,39.564],[140.2393,39.5522],[140.2405,39.5452],[140.2482,39.5361],[140.2513,39.5246],[140.2533,39.5208],[140.2581,39.5163],[140.2697,39.5079],[140.2726,39.501],[140.273,39.484],[140.2783,39.4755],[140.2828,39.4659],[140.2821,39.4611],[140.2731,39.4537],[140.2673,39.451]]]}},{"type":"Feature","properties":{"id":5003},"geometry":{"type":"Polygon","coordinates":[[[140.1549,40.3691],[140.1812,40.357],[140.1898,40.3554],[140.1962,40.3518],[140.1999,40.3462],[140.2018,40.3351],[140.2053,40.3048],[140.2078,40.2997],[140.212,40.2869],[140.2137,40.2735],[140.2174,40.2627],[140.2226,40.2566],[140.2318,40.2501],[140.2379,40.2479],[140.245,40.2431],[140.2537,40.2396],[140.2601,40.239],[140.275,40.2417],[140.28,40.2444],[140.2991,40.2495],[140.317,40.2564],[140.3208,40.2615],[140.3277,40.2674],[140.3313,40.2723],[140.3329,40.281],[140.3328,40.3004],[140.3338,40.3059],[140.35,40.3299],[140.3563,40.3438],[140.3638,40.3498],[140.3564,40.3613],[140.3502,40.3747],[140.3477,40.3786],[140.3431,40.3919],[140.3397,40.4119],[140.3399,40.4285],[140.3385,40.4367],[140.3261,40.4366],[140.3162,40.4343],[140.3058,40.44],[140.2952,40.4436],[140.2842,40.4431],[140.274,40.4394],[140.2514,40.4378],[140.2266,40.4288],[140.2162,40.4324],[140.1952,40.4342],[140.1854,40.4395],[140.1747,40.4355],[140.1637,40.436],[140.141,40.4354],[140.125,40.4338],[140.1146,40.4343],[140.1159,40.4274],[140.1156,40.4082],[140.1169,40.4036],[140.1206,40.4016],[140.1376,40.3996],[140.1464,40.3967],[140.1589,40.3867],[140.1592,40.381],[140.1549,40.3691]]]}},{"type":"Feature","properties":{"id":5004},"geometry":{"type":"Polygon","coordinates":[[[140.3089,39.8274],[140.3062,39.8484],[140.3053,39.8605],[140.3024,39.8703],[140.3025,39.887],[140.2998,39.8924],[140.2993,39.9107],[140.2972,39.9194],[140.2912,39.9256],[140.2801,39.928],[140.2739,39.9314],[140.2699,39.9352],[140.261,39.9475],[140.2559,39.9505],[140.253,39.9576],[140.2532,39.973],[140.2527,39.9794],[140.2442,40.0019],[140.2395,40.0031],[140.2391,40.0075],[140.2307,40.007],[140.2206,40.0078],[140.2029,40.0118],[140.1869,40.0121],[140.1672,40.0097],[140.1558,40.0065],[140.1459,40.0026],[140.1386,39.998],[140.1277,39.9927],[140.1228,39.9871],[140.1203,39.9755],[140.1171,39.959],[140.1144,39.9522],[140.111,39.9483],[140.1035,39.9425],[140.0735,39.9305],[140.0659,39.9262],[140.0845,39.9241],[140.097,39.921],[140.1082,39.9201],[140.1246,39.917],[140.1305,39.9149],[140.1354,39.9082],[140.1497,39.8975],[140.1647,39.8918],[140.1727,39.8867],[140.2013,39.8784],[140.2093,39.8748],[140.2131,39.8715],[140.2148,39.8634],[140.2201,39.861],[140.2323,39.8525],[140.2399,39.8432],[140.2421,39.8376],[140.2481,39.8311],[140.2543,39.8301],[140.2651,39.8303],[140.2769,39.8335],[140.2859,39.8337],[140.2965,39.8316],[140.3089,39.8274]]]}},{"type":"Feature","properties":{"id":5005},"geometry":{"type":"Polygon","coordinates":[[[140.1203,39.9755],[140.0717,39.9914],[140.0689,39.9759],[140.0663,39.9673],[140.0633,39.9655],[140.0642,39.9594],[140.0562,39.9503],[140.0542,39.9452],[140.0443,39.9362],[140.0441,39.9312],[140.0483,39.9289],[140.0545,39.9201],[140.0564,39.9202],[140.0659,39.9262],[140.0735,39.9305],[140.1035,39.9425],[140.111,39.9483],[140.1144,39.9522],[140.1171,39.959],[140.1203,39.9755]]]}},{"type":"Feature","properties":{"id":5006},"geometry":{"type":"Polygon","coordinates":[[[140.1146,40.4343],[140.1104,40.4345],[140.1032,40.4431],[140.0995,40.4536],[140.0909,40.4596],[140.0818,40.4642],[140.0718,40.4661],[140.0614,40.4646],[140.0527,40.4586],[140.042,40.4582],[140.0328,40.4525],[140.0258,40.4406],[140.0255,40.4294],[140.0197,40.4186],[140,40.4315],[139.9817,40.4254],[139.9711,40.4263],[139.9621,40.432],[139.9445,40.4268],[139.9363,40.4279],[139.9431,40.4231],[139.9467,40.4156],[139.9464,40.413],[139.9531,40.4116],[139.9577,40.4073],[139.9672,40.4019],[139.9692,40.3997],[139.9769,40.3986],[139.9792,40.3964],[139.9787,40.3898],[139.9817,40.3853],[139.9938,40.3813],[140.0033,40.3756],[140.0075,40.3757],[140.013,40.3724],[140.0151,40.3633],[140.0202,40.3614],[140.0249,40.3544],[140.0253,40.3389],[140.0244,40.3369],[140.0256,40.3233],[140.0232,40.3137],[140.0241,40.3081],[140.0223,40.3034],[140.0222,40.2925],[140.0208,40.2911],[140.0186,40.2783],[140.0158,40.2697],[140.0167,40.2667],[140.0146,40.2616],[140.0302,40.2588],[140.0542,40.2565],[140.0604,40.2553],[140.0718,40.247],[140.0772,40.246],[140.0827,40.2469],[140.0903,40.2525],[140.0955,40.2548],[140.104,40.2564],[140.1189,40.2562],[140.1271,40.2573],[140.136,40.2641],[140.1374,40.2687],[140.1376,40.3306],[140.1381,40.3381],[140.1406,40.3454],[140.1458,40.3511],[140.1521,40.3655],[140.1549,40.3691],[140.1592,40.381],[140.1589,40.3867],[140.1464,40.3967],[140.1376,40.3996],[140.1206,40.4016],[140.1169,40.4036],[140.1156,40.4082],[140.1159,40.4274],[140.1146,40.4343]]]}},{"type":"Feature","properties":{"id":5007},"geometry":{"type":"Polygon","coordinates":[[[140.6921,39.1042],[140.692,39.0956],[140.695,39.0843],[140.6941,39.0725],[140.695,39.0663],[140.7151,39.0349],[140.7187,39.019],[140.7215,39.0093],[140.7256,39.0004],[140.7349,38.9858],[140.7544,38.9699],[140.7624,38.9568],[140.7517,38.9522],[140.7595,38.9551],[140.7768,38.9551],[140.7778,38.9658],[140.768,38.9843],[140.7726,39.0007],[140.7827,39.0065],[140.7858,39.0112],[140.7912,39.0196],[140.798,39.0281],[140.7976,39.0391],[140.8128,39.0551],[140.803,39.0594],[140.8055,39.0708],[140.7859,39.078],[140.7755,39.0758],[140.7659,39.0786],[140.7562,39.0857],[140.7599,39.0952],[140.766,39.105],[140.7641,39.1155],[140.7704,39.1241],[140.7566,39.1329],[140.7742,39.1565],[140.7806,39.1657],[140.7912,39.1674],[140.8099,39.1789],[140.8013,39.1866],[140.7902,39.187],[140.7682,39.1952],[140.7687,39.1996],[140.7499,39.1986],[140.737,39.1951],[140.7237,39.1896],[140.7128,39.1894],[140.6965,39.1938],[140.6896,39.2043],[140.6805,39.2065],[140.6577,39.2065],[140.651,39.2055],[140.6474,39.2034],[140.6384,39.1951],[140.6363,39.1882],[140.6375,39.18],[140.6407,39.1706],[140.642,39.1628],[140.6472,39.154],[140.6537,39.1495],[140.6617,39.1467],[140.6716,39.1454],[140.6772,39.1433],[140.6866,39.1344],[140.6892,39.1298],[140.6908,39.1225],[140.6931,39.1188],[140.6941,39.1093],[140.6921,39.1042]]]}},{"type":"Feature","properties":{"id":5008},"geometry":{"type":"Polygon","coordinates":[[[140.2148,39.8634],[140.2131,39.8715],[140.2093,39.8748],[140.2013,39.8784],[140.1727,39.8867],[140.1647,39.8918],[140.1497,39.8975],[140.1354,39.9082],[140.1305,39.9149],[140.1246,39.917],[140.1082,39.9201],[140.097,39.921],[140.0845,39.9241],[140.0659,39.9262],[140.0564,39.9202],[140.0546,39.9109],[140.0546,39.9047],[140.0873,39.8992],[140.098,39.8963],[140.1081,39.8925],[140.1238,39.8855],[140.1295,39.8818],[140.1443,39.8696],[140.1619,39.8626],[140.1767,39.8603],[140.1963,39.8601],[140.2148,39.8634]]]}},{"type":"Feature","properties":{"id":5009},"geometry":{"type":"Polygon","coordinates":[[[140.3977,39.8378],[140.3914,39.8524],[140.3886,39.8568],[140.3844,39.8693],[140.3825,39.8781],[140.3762,39.8898],[140.3748,39.8966],[140.375,39.9127],[140.3734,39.9207],[140.3629,39.9376],[140.3599,39.9484],[140.3596,39.9629],[140.3606,39.9699],[140.3632,39.975],[140.3708,39.9822],[140.3745,39.9881],[140.3728,39.9986],[140.3652,40.0048],[140.3624,40.0087],[140.36,40.0199],[140.3604,40.0293],[140.3632,40.0362],[140.3719,40.0423],[140.3761,40.0475],[140.3759,40.0548],[140.3734,40.0691],[140.3704,40.0786],[140.3666,40.0819],[140.3551,40.0858],[140.3344,40.0892],[140.3231,40.0888],[140.3141,40.0856],[140.3029,40.0801],[140.2848,40.0732],[140.2689,40.0737],[140.2541,40.0714],[140.2428,40.0647],[140.2366,40.0595],[140.2382,40.0557],[140.2451,40.054],[140.2459,40.0409],[140.2445,40.03],[140.2391,40.0075],[140.2395,40.0031],[140.2442,40.0019],[140.2527,39.9794],[140.2532,39.973],[140.253,39.9576],[140.2559,39.9505],[140.261,39.9475],[140.2699,39.9352],[140.2739,39.9314],[140.2801,39.928],[140.2912,39.9256],[140.2972,39.9194],[140.2993,39.9107],[140.2998,39.8924],[140.3025,39.887],[140.3024,39.8703],[140.3053,39.8605],[140.3062,39.8484],[140.3089,39.8274],[140.3127,39.8153],[140.3154,39.811],[140.3182,39.8028],[140.3243,39.8013],[140.334,39.803],[140.342,39.8061],[140.3509,39.8138],[140.3572,39.8241],[140.3714,39.8324],[140.3885,39.8365],[140.3977,39.8378]]]}},{"type":"Feature","properties":{"id":5010},"geometry":{"type":"Polygon","coordinates":[[[140.0489,39.8826],[140.0433,39.8766],[140.035,39.8824],[140.0172,39.9044],[140.0183,39.9083],[140.0147,39.9108],[140,39.9136],[139.9933,39.9158],[139.9722,39.9205],[139.9705,39.9199],[139.9671,39.9118],[139.9627,39.9048],[139.9534,39.896],[139.9491,39.8903],[139.9657,39.8815],[139.967,39.8797],[139.9758,39.8746],[139.983,39.8688],[140.0039,39.85],[140.0136,39.8386],[140.0243,39.8236],[140.0324,39.8068],[140.0406,39.8075],[140.0514,39.8104],[140.0547,39.813],[140.0556,39.817],[140.0545,39.8241],[140.0517,39.8286],[140.0502,39.838],[140.0512,39.8815],[140.0489,39.8826]]]}},{"type":"Feature","properties":{"id":5011},"geometry":{"type":"Polygon","coordinates":[[[140.7325,40.004],[140.7411,39.9944],[140.7554,39.9804],[140.7585,39.9717],[140.764,39.9676],[140.7701,39.9668],[140.7825,39.9681],[140.7896,39.973],[140.8005,39.9757],[140.8086,39.9756],[140.8207,39.9735],[140.834,39.9673],[140.8506,39.9629],[140.8499,39.9694],[140.8516,39.9828],[140.854,39.9926],[140.8524,40.0052],[140.8591,40.013],[140.8552,40.0226],[140.8579,40.0335],[140.8586,40.0441],[140.8505,40.0636],[140.8523,40.0741],[140.8681,40.0833],[140.8788,40.092],[140.8826,40.1122],[140.875,40.1229],[140.875,40.1349],[140.8809,40.1434],[140.8862,40.1528],[140.875,40.1571],[140.8661,40.1717],[140.8815,40.1785],[140.8899,40.185],[140.8931,40.1977],[140.902,40.2054],[140.9073,40.2148],[140.9162,40.2204],[140.9266,40.2228],[140.938,40.2233],[140.9449,40.2324],[140.9472,40.2423],[140.9584,40.2456],[140.9507,40.2593],[140.9563,40.27],[140.9579,40.282],[140.9481,40.2861],[140.9513,40.2965],[140.961,40.3035],[140.9614,40.314],[140.9662,40.3253],[140.9717,40.3338],[140.9765,40.3439],[140.9905,40.345],[140.9974,40.3542],[140.9952,40.3643],[140.9968,40.3742],[140.9897,40.3818],[140.9883,40.4009],[140.9861,40.4092],[140.9833,40.4256],[140.9813,40.4259],[140.9728,40.4268],[140.962,40.4236],[140.9506,40.4245],[140.9407,40.4223],[140.9293,40.4188],[140.9195,40.4218],[140.9147,40.4141],[140.9051,40.4071],[140.9003,40.4061],[140.8873,40.4059],[140.8749,40.4034],[140.8633,40.4037],[140.852,40.4123],[140.8462,40.4144],[140.8379,40.4149],[140.8318,40.4128],[140.8253,40.4049],[140.8233,40.3962],[140.8174,40.3836],[140.8171,40.3775],[140.8139,40.3699],[140.8133,40.3626],[140.8156,40.3517],[140.8214,40.3404],[140.823,40.3296],[140.8205,40.3166],[140.8162,40.3078],[140.8068,40.2932],[140.802,40.2889],[140.7956,40.2856],[140.7888,40.2852],[140.7621,40.2855],[140.7498,40.2843],[140.7327,40.2784],[140.7307,40.2649],[140.7301,40.2545],[140.7301,40.2399],[140.729,40.2322],[140.7236,40.2229],[140.7234,40.2164],[140.7293,40.2005],[140.7289,40.1935],[140.7259,40.1899],[140.7133,40.1884],[140.7081,40.1853],[140.7074,40.1789],[140.71,40.1672],[140.7141,40.1622],[140.7196,40.1584],[140.7261,40.1571],[140.736,40.1578],[140.7391,40.1569],[140.7427,40.1521],[140.7445,40.147],[140.7437,40.1411],[140.7397,40.135],[140.733,40.1288],[140.7279,40.1211],[140.7229,40.1067],[140.7218,40.0966],[140.7189,40.0881],[140.718,40.0802],[140.7179,40.0677],[140.7165,40.0617],[140.7075,40.0507],[140.6997,40.0452],[140.7092,40.0313],[140.7209,40.0216],[140.7295,40.0112],[140.7325,40.004]]]}},{"type":"Feature","properties":{"id":5012},"geometry":{"type":"Polygon","coordinates":[[[140.4863,39.7976],[140.5001,39.8043],[140.5063,39.8064],[140.5153,39.8132],[140.5203,39.8214],[140.5176,39.8278],[140.5158,39.8382],[140.5179,39.8459],[140.5263,39.8556],[140.5328,39.861],[140.5352,39.8666],[140.5341,39.8778],[140.537,39.881],[140.5546,39.882],[140.5645,39.8858],[140.5708,39.8902],[140.5805,39.8923],[140.5893,39.8912],[140.5948,39.8889],[140.6034,39.8873],[140.6079,39.8851],[140.6177,39.8834],[140.6238,39.8864],[140.6319,39.9009],[140.6326,39.9065],[140.6325,39.9244],[140.6339,39.9286],[140.6384,39.9321],[140.6528,39.937],[140.6584,39.9406],[140.6715,39.9511],[140.678,39.9623],[140.6875,39.9698],[140.6937,39.9719],[140.7009,39.9766],[140.7072,39.9787],[140.7163,39.9855],[140.7241,39.9936],[140.7325,40.004],[140.7295,40.0112],[140.7209,40.0216],[140.7092,40.0313],[140.6997,40.0452],[140.696,40.0526],[140.6949,40.0582],[140.6907,40.0683],[140.6878,40.0707],[140.6678,40.0751],[140.6536,40.081],[140.6387,40.0843],[140.6296,40.0842],[140.6232,40.0823],[140.614,40.0831],[140.6054,40.0885],[140.6045,40.0959],[140.6051,40.1103],[140.6039,40.1177],[140.597,40.1232],[140.5811,40.1291],[140.5695,40.1311],[140.5597,40.1348],[140.5549,40.1381],[140.5399,40.1505],[140.5324,40.1541],[140.524,40.1517],[140.5124,40.1511],[140.5058,40.153],[140.5016,40.1585],[140.4911,40.1807],[140.4887,40.1842],[140.4893,40.2013],[140.4874,40.2077],[140.4825,40.2154],[140.476,40.2217],[140.4732,40.2264],[140.4642,40.2349],[140.4512,40.244],[140.438,40.2508],[140.4324,40.2518],[140.4193,40.2517],[140.413,40.2526],[140.408,40.2571],[140.4072,40.2613],[140.4095,40.2682],[140.4125,40.2724],[140.4136,40.2771],[140.4121,40.2817],[140.396,40.2942],[140.3915,40.2986],[140.3893,40.3028],[140.3826,40.309],[140.3787,40.3152],[140.3774,40.3214],[140.3776,40.3334],[140.3739,40.3414],[140.3638,40.3498],[140.3563,40.3438],[140.35,40.3299],[140.3338,40.3059],[140.3328,40.3004],[140.3329,40.281],[140.3313,40.2723],[140.3277,40.2674],[140.3208,40.2615],[140.317,40.2564],[140.2991,40.2495],[140.28,40.2444],[140.275,40.2417],[140.2648,40.22],[140.2573,40.2096],[140.2547,40.2013],[140.2544,40.1941],[140.2539,40.0867],[140.2541,40.0714],[140.2689,40.0737],[140.2848,40.0732],[140.3029,40.0801],[140.3141,40.0856],[140.3231,40.0888],[140.3344,40.0892],[140.3551,40.0858],[140.3666,40.0819],[140.3704,40.0786],[140.3734,40.0691],[140.3759,40.0548],[140.3761,40.0475],[140.3719,40.0423],[140.3632,40.0362],[140.3604,40.0293],[140.36,40.0199],[140.3624,40.0087],[140.3652,40.0048],[140.3728,39.9986],[140.3745,39.9881],[140.3708,39.9822],[140.3632,39.975],[140.3606,39.9699],[140.3596,39.9629],[140.3599,39.9484],[140.3629,39.9376],[140.3734,39.9207],[140.375,39.9127],[140.3748,39.8966],[140.3762,39.8898],[140.3825,39.8781],[140.3844,39.8693],[140.3886,39.8568],[140.3914,39.8524],[140.3977,39.8378],[140.4031,39.8339],[140.4226,39.8241],[140.4349,39.8222],[140.4549,39.8168],[140.4664,39.8148],[140.4798,39.8045],[140.4863,39.7976]]]}},{"type":"Feature","properties":{"id":5013},"geometry":{"type":"Polygon","coordinates":[[[140.9195,40.4218],[140.9079,40.4222],[140.875,40.4166],[140.8753,40.4946],[140.8833,40.5079],[140.8775,40.5067],[140.8625,40.5038],[140.8521,40.5046],[140.8419,40.5008],[140.8309,40.4935],[140.8208,40.4891],[140.8145,40.4808],[140.8134,40.4698],[140.8087,40.4473],[140.7982,40.4468],[140.7905,40.4543],[140.7728,40.4511],[140.7635,40.4442],[140.756,40.4362],[140.739,40.4371],[140.7362,40.4271],[140.7189,40.4249],[140.6977,40.4253],[140.6911,40.4166],[140.6794,40.4101],[140.6685,40.4051],[140.6758,40.4021],[140.6777,40.3967],[140.6783,40.3889],[140.685,40.3738],[140.6904,40.3657],[140.6968,40.3601],[140.7079,40.3455],[140.7183,40.3365],[140.7208,40.3294],[140.7191,40.3223],[140.715,40.3149],[140.7171,40.3083],[140.7266,40.3],[140.7317,40.2942],[140.7326,40.2898],[140.7327,40.2784],[140.7498,40.2843],[140.7621,40.2855],[140.7888,40.2852],[140.7956,40.2856],[140.802,40.2889],[140.8068,40.2932],[140.8162,40.3078],[140.8205,40.3166],[140.823,40.3296],[140.8214,40.3404],[140.8156,40.3517],[140.8133,40.3626],[140.8139,40.3699],[140.8171,40.3775],[140.8174,40.3836],[140.8233,40.3962],[140.8253,40.4049],[140.8318,40.4128],[140.8379,40.4149],[140.8462,40.4144],[140.852,40.4123],[140.8633,40.4037],[140.8749,40.4034],[140.8873,40.4059],[140.9003,40.4061],[140.9051,40.4071],[140.9147,40.4141],[140.9195,40.4218]]]}},{"type":"Feature","properties":{"id":5014},"geometry":{"type":"Polygon","coordinates":[[[140.496,39.381],[140.5064,39.374],[140.5125,39.3718],[140.524,39.3635],[140.5339,39.3613],[140.5397,39.3618],[140.5514,39.3664],[140.5553,39.3714],[140.5563,39.3859],[140.5583,39.3945],[140.5624,39.3992],[140.5732,39.4004],[140.5884,39.3982],[140.5965,39.3943],[140.6048,39.3927],[140.6155,39.389],[140.619,39.3869],[140.6293,39.3736],[140.6334,39.3715],[140.6416,39.3732],[140.6595,39.3871],[140.6617,39.3967],[140.662,39.4119],[140.6849,39.4166],[140.6887,39.4267],[140.6865,39.4383],[140.6825,39.4484],[140.6895,39.4566],[140.7061,39.4671],[140.7005,39.4729],[140.6939,39.4779],[140.6732,39.489],[140.6644,39.4925],[140.6588,39.4935],[140.6349,39.4937],[140.6259,39.4931],[140.6134,39.4899],[140.6046,39.4859],[140.5977,39.4807],[140.589,39.4787],[140.58,39.4824],[140.5748,39.4831],[140.5658,39.4788],[140.5597,39.4728],[140.5571,39.4686],[140.5534,39.4667],[140.5436,39.4664],[140.5397,39.4639],[140.5349,39.4567],[140.534,39.4487],[140.532,39.4437],[140.524,39.4367],[140.5197,39.428],[140.5186,39.4219],[140.5188,39.407],[140.516,39.4006],[140.5108,39.399],[140.5023,39.3985],[140.4975,39.3964],[140.4947,39.3886],[140.496,39.381]]]}},{"type":"Feature","properties":{"id":5015},"geometry":{"type":"Polygon","coordinates":[[[140.2391,40.0075],[140.2445,40.03],[140.2459,40.0409],[140.2451,40.054],[140.2382,40.0557],[140.2366,40.0595],[140.232,40.0597],[140.2258,40.063],[140.2185,40.0687],[140.1925,40.082],[140.1863,40.084],[140.1824,40.087],[140.1806,40.091],[140.1813,40.1083],[140.1867,40.1167],[140.1936,40.1227],[140.1942,40.1262],[140.1918,40.1293],[140.1831,40.1301],[140.1607,40.1297],[140.1396,40.1276],[140.1338,40.1288],[140.1176,40.1413],[140.1083,40.1451],[140.0995,40.146],[140.0896,40.1496],[140.0741,40.1617],[140.066,40.1617],[140.0289,40.1328],[140.0241,40.1297],[140.0179,40.1276],[140.0077,40.1217],[140.001,40.1165],[139.993,40.1206],[139.985,40.122],[139.9708,40.1219],[139.9672,40.1131],[139.965,40.1106],[139.9607,40.1007],[139.9465,40.0748],[139.9538,40.0702],[139.9696,40.0657],[139.9783,40.0681],[139.9803,40.0703],[139.9733,40.0725],[139.9714,40.0786],[139.9806,40.0808],[139.9828,40.0842],[139.9817,40.0878],[139.9881,40.0958],[139.9939,40.0942],[140,40.0942],[140.002,40.0898],[140.0175,40.0826],[140.0319,40.0773],[140.0563,40.0691],[140.0632,40.0635],[140.0674,40.0578],[140.0738,40.0402],[140.0738,40.031],[140.0728,40.027],[140.0717,39.9914],[140.1203,39.9755],[140.1228,39.9871],[140.1277,39.9927],[140.1386,39.998],[140.1459,40.0026],[140.1558,40.0065],[140.1672,40.0097],[140.1869,40.0121],[140.2029,40.0118],[140.2206,40.0078],[140.2307,40.007],[140.2391,40.0075]]]}},{"type":"Feature","properties":{"id":5016},"geometry":{"type":"MultiPolygon","coordinates":[[[[139.5576,39.2031],[139.5549,39.206],[139.5489,39.2065],[139.5497,39.2019],[139.5394,39.1934],[139.5397,39.189],[139.5426,39.1818],[139.5477,39.184],[139.5476,39.1864],[139.556,39.194],[139.5648,39.1983],[139.5576,39.2031]]],[[[139.8698,39.1191],[139.9063,39.1158],[139.9488,39.1099],[139.9865,39.1055],[139.9972,39.1029],[140.0007,39.1129],[140.0161,39.1211],[140.0547,39.1286],[140.0544,39.1376],[140.0567,39.1525],[140.0563,39.1579],[140.0499,39.1712],[140.0493,39.1787],[140.0529,39.1967],[140.0531,39.2174],[140.0506,39.2266],[140.0476,39.2309],[140.0434,39.2398],[140.0398,39.2549],[140.0349,39.262],[140.0266,39.2649],[140.0184,39.2661],[140.0094,39.269],[140.0035,39.2745],[140.0024,39.2809],[140.0026,39.2928],[140.0013,39.2974],[139.988,39.3082],[139.979,39.3114],[139.9783,39.3091],[139.9667,39.2944],[139.9547,39.2922],[139.9458,39.2889],[139.9357,39.29],[139.9281,39.2887],[139.9199,39.2815],[139.9157,39.276],[139.9124,39.2672],[139.9106,39.2578],[139.9113,39.2534],[139.9143,39.2492],[139.9111,39.2405],[139.9081,39.2372],[139.9033,39.2251],[139.8987,39.2212],[139.8928,39.2131],[139.8945,39.2073],[139.892,39.2027],[139.8986,39.2017],[139.9045,39.199],[139.9061,39.1909],[139.9043,39.1872],[139.9046,39.1782],[139.9018,39.169],[139.8966,39.158],[139.8839,39.1471],[139.8817,39.1427],[139.8831,39.1324],[139.8782,39.123],[139.8698,39.1191]]]]}},{"type":"Feature","properties":{"id":5017},"geometry":{"type":"Polygon","coordinates":[[[140.275,40.2417],[140.2601,40.239],[140.2537,40.2396],[140.245,40.2431],[140.2379,40.2479],[140.2318,40.2501],[140.2226,40.2566],[140.2174,40.2627],[140.2137,40.2735],[140.212,40.2869],[140.2078,40.2997],[140.2053,40.3048],[140.2018,40.3351],[140.1999,40.3462],[140.1962,40.3518],[140.1898,40.3554],[140.1812,40.357],[140.1549,40.3691],[140.1521,40.3655],[140.1458,40.3511],[140.1406,40.3454],[140.1381,40.3381],[140.1376,40.3306],[140.1374,40.2687],[140.136,40.2641],[140.1271,40.2573],[140.1189,40.2562],[140.104,40.2564],[140.0955,40.2548],[140.0903,40.2525],[140.0827,40.2469],[140.0772,40.246],[140.0718,40.247],[140.0604,40.2553],[140.0542,40.2565],[140.0302,40.2588],[140.0146,40.2616],[140.0127,40.2526],[140.0067,40.2342],[140.0051,40.2266],[140.0101,40.2246],[140.0122,40.2165],[140.0039,40.2176],[140.0025,40.2151],[139.9961,40.2133],[139.9972,40.2092],[139.9939,40.1997],[139.9873,40.2005],[139.9849,40.1889],[139.9939,40.1871],[139.9919,40.176],[139.9888,40.1689],[139.9856,40.158],[139.9805,40.1469],[139.9762,40.134],[139.9708,40.1219],[139.985,40.122],[139.993,40.1206],[140.001,40.1165],[140.0077,40.1217],[140.0179,40.1276],[140.0241,40.1297],[140.0289,40.1328],[140.066,40.1617],[140.0741,40.1617],[140.0896,40.1496],[140.0995,40.146],[140.1083,40.1451],[140.1176,40.1413],[140.1338,40.1288],[140.1396,40.1276],[140.1607,40.1297],[140.1831,40.1301],[140.1918,40.1293],[140.1942,40.1262],[140.1936,40.1227],[140.1867,40.1167],[140.1813,40.1083],[140.1806,40.091],[140.1824,40.087],[140.1863,40.084],[140.1925,40.082],[140.2185,40.0687],[140.2258,40.063],[140.232,40.0597],[140.2366,40.0595],[140.2428,40.0647],[140.2541,40.0714],[140.2539,40.0867],[140.2544,40.1941],[140.2547,40.2013],[140.2573,40.2096],[140.2648,40.22],[140.275,40.2417]]]}},{"type":"Feature","properties":{"id":5018},"geometry":{"type":"Polygon","coordinates":[[[140.3638,40.3498],[140.3739,40.3414],[140.3776,40.3334],[140.3774,40.3214],[140.3787,40.3152],[140.3826,40.309],[140.3893,40.3028],[140.3915,40.2986],[140.396,40.2942],[140.4121,40.2817],[140.4136,40.2771],[140.4125,40.2724],[140.4095,40.2682],[140.4072,40.2613],[140.408,40.2571],[140.413,40.2526],[140.4193,40.2517],[140.4324,40.2518],[140.438,40.2508],[140.4512,40.244],[140.4642,40.2349],[140.4732,40.2264],[140.476,40.2217],[140.4825,40.2154],[140.4874,40.2077],[140.4893,40.2013],[140.4887,40.1842],[140.4911,40.1807],[140.5016,40.1585],[140.5058,40.153],[140.5124,40.1511],[140.524,40.1517],[140.5324,40.1541],[140.5399,40.1505],[140.5549,40.1381],[140.5597,40.1348],[140.5695,40.1311],[140.5811,40.1291],[140.597,40.1232],[140.6039,40.1177],[140.6051,40.1103],[140.6045,40.0959],[140.6054,40.0885],[140.614,40.0831],[140.6232,40.0823],[140.6296,40.0842],[140.6387,40.0843],[140.6536,40.081],[140.6678,40.0751],[140.6878,40.0707],[140.6907,40.0683],[140.6949,40.0582],[140.696,40.0526],[140.6997,40.0452],[140.7075,40.0507],[140.7165,40.0617],[140.7179,40.0677],[140.718,40.0802],[140.7189,40.0881],[140.7218,40.0966],[140.7229,40.1067],[140.7279,40.1211],[140.733,40.1288],[140.7397,40.135],[140.7437,40.1411],[140.7445,40.147],[140.7427,40.1521],[140.7391,40.1569],[140.736,40.1578],[140.7261,40.1571],[140.7196,40.1584],[140.7141,40.1622],[140.71,40.1672],[140.7074,40.1789],[140.7081,40.1853],[140.7133,40.1884],[140.7259,40.1899],[140.7289,40.1935],[140.7293,40.2005],[140.7234,40.2164],[140.7236,40.2229],[140.729,40.2322],[140.7301,40.2399],[140.7301,40.2545],[140.7307,40.2649],[140.7327,40.2784],[140.7326,40.2898],[140.7317,40.2942],[140.7266,40.3],[140.7171,40.3083],[140.715,40.3149],[140.7191,40.3223],[140.7208,40.3294],[140.7183,40.3365],[140.7079,40.3455],[140.6968,40.3601],[140.6904,40.3657],[140.685,40.3738],[140.6783,40.3889],[140.6777,40.3967],[140.6758,40.4021],[140.6685,40.4051],[140.6575,40.401],[140.6472,40.4009],[140.6384,40.4073],[140.625,40.4211],[140.6134,40.4222],[140.6048,40.4288],[140.5941,40.4336],[140.5908,40.4312],[140.5856,40.4273],[140.5754,40.4236],[140.5652,40.4238],[140.5576,40.4166],[140.5638,40.4078],[140.5533,40.3992],[140.5432,40.401],[140.5331,40.4176],[140.5323,40.4283],[140.51,40.4269],[140.5,40.4338],[140.4892,40.4379],[140.4847,40.4471],[140.4746,40.4508],[140.4634,40.4536],[140.4534,40.4512],[140.4441,40.4471],[140.4368,40.4662],[140.44,40.4738],[140.4408,40.4756],[140.4306,40.4797],[140.4141,40.4735],[140.4022,40.475],[140.3947,40.4825],[140.3853,40.4775],[140.375,40.4737],[140.3642,40.4753],[140.3571,40.4681],[140.3536,40.4632],[140.3471,40.4541],[140.3453,40.4442],[140.3385,40.4367],[140.3399,40.4285],[140.3397,40.4119],[140.3431,40.3919],[140.3477,40.3786],[140.3502,40.3747],[140.3564,40.3613],[140.3638,40.3498]]]}},{"type":"Feature","properties":{"id":5019},"geometry":{"type":"Polygon","coordinates":[[[139.9465,40.0748],[139.9414,40.0681],[139.9353,40.0575],[139.9332,40.0556],[139.9222,40.0392],[139.9169,40.035],[139.907,40.0211],[139.8751,39.9909],[139.862,39.9813],[139.8507,39.9738],[139.8325,39.9647],[139.815,39.9589],[139.8063,39.9569],[139.7986,39.9566],[139.7853,39.9612],[139.783,39.9678],[139.7711,39.9701],[139.7656,39.975],[139.7557,39.9769],[139.7471,39.9773],[139.7402,39.9789],[139.7338,39.9837],[139.7284,39.981],[139.7237,39.9813],[139.7164,39.9876],[139.7088,40.0015],[139.7008,40.0081],[139.6959,40.0003],[139.6965,39.9959],[139.6941,39.9884],[139.6968,39.9844],[139.6939,39.9794],[139.701,39.9756],[139.7004,39.9684],[139.7015,39.9615],[139.71,39.9574],[139.7144,39.9608],[139.7208,39.9564],[139.7217,39.951],[139.7192,39.9458],[139.7117,39.9468],[139.7019,39.9414],[139.7053,39.9392],[139.7042,39.9332],[139.7057,39.9279],[139.7107,39.9267],[139.7084,39.9235],[139.7129,39.9198],[139.7163,39.9105],[139.7196,39.9077],[139.7247,39.9073],[139.7285,39.9095],[139.735,39.9047],[139.7341,39.8964],[139.7366,39.8931],[139.7356,39.8874],[139.7363,39.8796],[139.7412,39.8769],[139.7397,39.872],[139.742,39.8683],[139.7519,39.8624],[139.7559,39.8563],[139.7614,39.8606],[139.7711,39.8643],[139.7751,39.8596],[139.7823,39.8585],[139.7785,39.8637],[139.7836,39.8654],[139.7874,39.8624],[139.7908,39.8671],[139.8003,39.8653],[139.8075,39.8591],[139.8122,39.8575],[139.8197,39.8578],[139.822,39.8636],[139.8257,39.8673],[139.8333,39.8684],[139.8381,39.8629],[139.8497,39.8634],[139.8602,39.8661],[139.8607,39.8696],[139.8545,39.8757],[139.8497,39.8751],[139.8545,39.8835],[139.8524,39.8871],[139.8563,39.8913],[139.8647,39.8974],[139.8676,39.8964],[139.8793,39.8989],[139.8912,39.8982],[139.8949,39.9018],[139.9073,39.9023],[139.9197,39.9006],[139.9278,39.8987],[139.9342,39.8955],[139.9453,39.8916],[139.9592,39.9063],[139.9518,39.9332],[139.948,39.9412],[139.9433,39.9445],[139.9239,39.9531],[139.9216,39.9565],[139.922,39.9604],[139.929,39.9776],[139.9312,39.9878],[139.9401,40.0012],[139.9425,40.0063],[139.9372,40.0089],[139.9347,40.015],[139.9314,40.0175],[139.9283,40.0231],[139.9319,40.0261],[139.9333,40.0311],[139.9497,40.0367],[139.9522,40.0386],[139.9503,40.0433],[139.9564,40.0475],[139.9592,40.0528],[139.9589,40.0578],[139.9633,40.0625],[139.9696,40.0657],[139.9538,40.0702],[139.9465,40.0748]]]}},{"type":"Feature","properties":{"id":5020},"geometry":{"type":"Polygon","coordinates":[[[140.0217,39.9319],[140.0356,39.9364],[140.038,39.9397],[140.0465,39.9447],[140.0497,39.9481],[140.0521,39.9538],[140.0582,39.9627],[140.0664,39.9841],[140.0674,40.0069],[140.0688,40.0187],[140.0681,40.0281],[140.069,40.0308],[140.0682,40.042],[140.0573,40.0576],[140.0476,40.0634],[140.0439,40.0643],[140.032,40.0712],[140.0285,40.0715],[140.0215,40.0757],[140.0161,40.0807],[140.009,40.0842],[140.0058,40.0833],[139.9993,40.086],[139.9977,40.0924],[139.992,40.0938],[139.9855,40.0922],[139.9831,40.0753],[139.98,40.065],[139.9647,40.0592],[139.9569,40.0456],[139.953,40.0369],[139.9353,40.0294],[139.9322,40.0228],[139.9375,40.0103],[139.9433,40.0086],[139.9442,40.0006],[139.9387,39.9966],[139.9352,39.9919],[139.9234,39.959],[139.9284,39.9525],[139.941,39.9475],[139.9523,39.9408],[139.9668,39.9385],[139.9876,39.9329],[139.9956,39.9324],[140.0142,39.9277],[140.0217,39.9319]]]}},{"type":"Feature","properties":{"id":5021},"geometry":{"type":"Polygon","coordinates":[[[140.4956,39.7205],[140.501,39.7124],[140.5067,39.7007],[140.5057,39.6956],[140.4984,39.6853],[140.4965,39.6789],[140.4968,39.6653],[140.485,39.6551],[140.476,39.6404],[140.4739,39.634],[140.473,39.6256],[140.4741,39.6164],[140.4806,39.5996],[140.4845,39.5956],[140.4943,39.5886],[140.5007,39.5855],[140.5096,39.5687],[140.5122,39.561],[140.5206,39.5571],[140.5264,39.556],[140.5371,39.5557],[140.5414,39.5576],[140.5475,39.569],[140.5549,39.5781],[140.5638,39.5799],[140.5828,39.5762],[140.5894,39.5736],[140.5979,39.5746],[140.6019,39.5794],[140.6138,39.5836],[140.6205,39.5827],[140.6252,39.5794],[140.6326,39.572],[140.6418,39.5702],[140.6506,39.5737],[140.6578,39.5785],[140.668,39.5801],[140.713,39.5799],[140.721,39.5795],[140.735,39.5757],[140.7458,39.5706],[140.7421,39.5635],[140.7458,39.5637],[140.7552,39.5674],[140.762,39.575],[140.7737,39.5858],[140.7827,39.5909],[140.786,39.6012],[140.799,39.6002],[140.8068,39.6073],[140.8079,39.618],[140.8106,39.6289],[140.8175,39.6391],[140.8255,39.6468],[140.8248,39.6684],[140.819,39.6891],[140.8078,39.7078],[140.7974,39.7068],[140.7926,39.716],[140.7867,39.7243],[140.7853,39.7351],[140.7954,39.7365],[140.8052,39.7407],[140.8143,39.7566],[140.8209,39.7643],[140.8288,39.7718],[140.837,39.7777],[140.8444,39.7864],[140.8469,39.7982],[140.8382,39.8038],[140.8176,39.8141],[140.8067,39.8124],[140.7899,39.8239],[140.7891,39.8341],[140.7913,39.8439],[140.7894,39.8549],[140.7864,39.8655],[140.7958,39.8718],[140.8038,39.8784],[140.8191,39.8777],[140.8278,39.8831],[140.8374,39.8783],[140.8528,39.8644],[140.8639,39.8677],[140.8813,39.8716],[140.8824,39.8826],[140.875,39.8939],[140.8717,39.9046],[140.8632,39.9166],[140.8611,39.9266],[140.8562,39.9359],[140.8609,39.9498],[140.8514,39.9563],[140.8506,39.9629],[140.834,39.9673],[140.8207,39.9735],[140.8086,39.9756],[140.8005,39.9757],[140.7896,39.973],[140.7825,39.9681],[140.7701,39.9668],[140.764,39.9676],[140.7585,39.9717],[140.7554,39.9804],[140.7411,39.9944],[140.7325,40.004],[140.7241,39.9936],[140.7163,39.9855],[140.7072,39.9787],[140.7009,39.9766],[140.6937,39.9719],[140.6875,39.9698],[140.678,39.9623],[140.6715,39.9511],[140.6584,39.9406],[140.6528,39.937],[140.6384,39.9321],[140.6339,39.9286],[140.6325,39.9244],[140.6326,39.9065],[140.6319,39.9009],[140.6238,39.8864],[140.6177,39.8834],[140.6079,39.8851],[140.6034,39.8873],[140.5948,39.8889],[140.5893,39.8912],[140.5805,39.8923],[140.5708,39.8902],[140.5645,39.8858],[140.5546,39.882],[140.537,39.881],[140.5341,39.8778],[140.5352,39.8666],[140.5328,39.861],[140.5263,39.8556],[140.5179,39.8459],[140.5158,39.8382],[140.5176,39.8278],[140.5203,39.8214],[140.5153,39.8132],[140.5063,39.8064],[140.5001,39.8043],[140.4863,39.7976],[140.4928,39.7905],[140.4999,39.7788],[140.5112,39.769],[140.5132,39.7653],[140.5141,39.7572],[140.5139,39.7404],[140.5128,39.734],[140.5105,39.7302],[140.5013,39.7232],[140.4956,39.7205]]]}},{"type":"Feature","properties":{"id":5022},"geometry":{"type":"Polygon","coordinates":[[[140.3518,39.3005],[140.3469,39.2968],[140.3444,39.2904],[140.3444,39.2696],[140.3455,39.2611],[140.3482,39.2574],[140.3502,39.2511],[140.3481,39.2478],[140.332,39.2468],[140.3201,39.2449],[140.314,39.2426],[140.2984,39.2392],[140.2842,39.2372],[140.2711,39.2369],[140.2612,39.2343],[140.2531,39.2289],[140.2458,39.2275],[140.2336,39.2314],[140.2303,39.2305],[140.2281,39.2261],[140.227,39.2187],[140.2293,39.2115],[140.2361,39.2032],[140.2387,39.1983],[140.2432,39.1949],[140.2494,39.1928],[140.259,39.1854],[140.2671,39.1755],[140.2719,39.1679],[140.278,39.154],[140.2825,39.1456],[140.2954,39.1295],[140.3042,39.1191],[140.3154,39.1095],[140.3184,39.1049],[140.3317,39.0999],[140.3344,39.098],[140.3425,39.0881],[140.3476,39.0766],[140.3578,39.0853],[140.3713,39.0956],[140.3858,39.1006],[140.3961,39.105],[140.4003,39.1106],[140.4066,39.126],[140.4115,39.1336],[140.416,39.137],[140.4223,39.139],[140.4273,39.143],[140.4334,39.1536],[140.438,39.1579],[140.4473,39.1644],[140.4524,39.1662],[140.4551,39.1718],[140.4551,39.2019],[140.4559,39.2109],[140.4453,39.2201],[140.4165,39.2427],[140.4137,39.2472],[140.4073,39.2663],[140.4067,39.2724],[140.4102,39.2843],[140.3966,39.2927],[140.3859,39.2968],[140.3764,39.2986],[140.3518,39.3005]]]}},{"type":"Feature","properties":{"id":5023},"geometry":{"type":"Polygon","coordinates":[[[140.3249,39.3801],[140.3057,39.3817],[140.299,39.3815],[140.2745,39.377],[140.2677,39.3714],[140.2899,39.3633],[140.3031,39.3633],[140.3087,39.3613],[140.311,39.3574],[140.3177,39.3512],[140.3238,39.3434],[140.3302,39.3379],[140.3372,39.3261],[140.3439,39.3199],[140.3488,39.3122],[140.3513,39.3057],[140.3518,39.3005],[140.3764,39.2986],[140.3859,39.2968],[140.3966,39.2927],[140.4102,39.2843],[140.4067,39.2724],[140.4073,39.2663],[140.4137,39.2472],[140.4165,39.2427],[140.4453,39.2201],[140.4559,39.2109],[140.4788,39.2105],[140.4888,39.2098],[140.4956,39.2079],[140.5055,39.207],[140.5212,39.2066],[140.5254,39.2047],[140.5297,39.1957],[140.5381,39.1928],[140.5613,39.1922],[140.577,39.1887],[140.5905,39.1831],[140.6046,39.178],[140.6101,39.1738],[140.6141,39.1671],[140.6166,39.1494],[140.6168,39.1287],[140.6201,39.121],[140.6379,39.107],[140.651,39.1016],[140.6553,39.0987],[140.658,39.0935],[140.6622,39.0902],[140.6685,39.0902],[140.6743,39.0956],[140.676,39.1022],[140.68,39.1061],[140.6856,39.1065],[140.6921,39.1042],[140.6941,39.1093],[140.6931,39.1188],[140.6908,39.1225],[140.6892,39.1298],[140.6866,39.1344],[140.6772,39.1433],[140.6716,39.1454],[140.6617,39.1467],[140.6537,39.1495],[140.6472,39.154],[140.642,39.1628],[140.6407,39.1706],[140.6375,39.18],[140.6363,39.1882],[140.6384,39.1951],[140.6474,39.2034],[140.651,39.2055],[140.6577,39.2065],[140.6805,39.2065],[140.6896,39.2043],[140.6965,39.1938],[140.7128,39.1894],[140.7237,39.1896],[140.737,39.1951],[140.7499,39.1986],[140.7687,39.1996],[140.7694,39.2064],[140.7725,39.2159],[140.7816,39.2207],[140.7898,39.2278],[140.7853,39.2369],[140.7766,39.2435],[140.759,39.2541],[140.7398,39.2637],[140.7284,39.2675],[140.7202,39.2749],[140.7205,39.2855],[140.7119,39.2943],[140.7016,39.297],[140.6999,39.3182],[140.7093,39.3333],[140.7017,39.3418],[140.6921,39.3459],[140.6943,39.3559],[140.6837,39.3619],[140.6791,39.3827],[140.6593,39.3862],[140.6595,39.3871],[140.6416,39.3732],[140.6334,39.3715],[140.6293,39.3736],[140.619,39.3869],[140.6155,39.389],[140.6048,39.3927],[140.5965,39.3943],[140.5884,39.3982],[140.5732,39.4004],[140.5624,39.3992],[140.5583,39.3945],[140.5563,39.3859],[140.5553,39.3714],[140.5514,39.3664],[140.5397,39.3618],[140.5339,39.3613],[140.524,39.3635],[140.5125,39.3718],[140.5064,39.374],[140.496,39.381],[140.4819,39.3703],[140.4766,39.3689],[140.472,39.3716],[140.4713,39.3784],[140.4722,39.3935],[140.4714,39.3991],[140.4676,39.4021],[140.4606,39.4028],[140.4439,39.4012],[140.4259,39.4006],[140.4151,39.3995],[140.3973,39.3995],[140.3882,39.3982],[140.385,39.3959],[140.3823,39.387],[140.3788,39.3844],[140.374,39.3844],[140.3682,39.3867],[140.3609,39.3876],[140.3553,39.3862],[140.3447,39.3786],[140.3364,39.3775],[140.3249,39.3801]]]}},{"type":"Feature","properties":{"id":5024},"geometry":{"type":"Polygon","coordinates":[[[140.0603,39.6003],[140.0574,39.5802],[140.0565,39.567],[140.0536,39.5581],[140.0547,39.5528],[140.0526,39.5481],[140.0527,39.5436],[140.0508,39.5321],[140.049,39.5273],[140.0439,39.4928],[140.0408,39.4864],[140.0405,39.4796],[140.0379,39.4681],[140.0359,39.4638],[140.028,39.431],[140.0243,39.4181],[140.024,39.412],[140.02,39.4014],[140.0158,39.3948],[140.0167,39.3892],[140.0081,39.3702],[140.0085,39.3667],[140.0051,39.3624],[140.0054,39.3597],[139.9855,39.3213],[139.979,39.3114],[139.988,39.3082],[140.0013,39.2974],[140.0026,39.2928],[140.0024,39.2809],[140.0035,39.2745],[140.0094,39.269],[140.0184,39.2661],[140.0266,39.2649],[140.0349,39.262],[140.0398,39.2549],[140.0434,39.2398],[140.0476,39.2309],[140.0506,39.2266],[140.0531,39.2174],[140.0529,39.1967],[140.0493,39.1787],[140.0499,39.1712],[140.0563,39.1579],[140.0567,39.1525],[140.0544,39.1376],[140.0547,39.1286],[140.0658,39.1307],[140.0649,39.111],[140.0697,39.0981],[140.0761,39.0843],[140.1014,39.0809],[140.1121,39.077],[140.12,39.0692],[140.1354,39.0607],[140.1469,39.0586],[140.1525,39.0493],[140.1593,39.0501],[140.1643,39.0506],[140.1752,39.0495],[140.185,39.0553],[140.1952,39.0581],[140.205,39.0558],[140.2043,39.0333],[140.2257,39.0269],[140.2374,39.0246],[140.2488,39.0279],[140.2593,39.0294],[140.2813,39.0274],[140.2913,39.0244],[140.2981,39.0154],[140.3088,39.012],[140.318,39.0163],[140.3219,39.0277],[140.3324,39.0319],[140.3352,39.0302],[140.3363,39.0315],[140.3364,39.0464],[140.3372,39.0533],[140.3396,39.0603],[140.3476,39.0766],[140.3425,39.0881],[140.3344,39.098],[140.3317,39.0999],[140.3184,39.1049],[140.3154,39.1095],[140.3042,39.1191],[140.2954,39.1295],[140.2825,39.1456],[140.278,39.154],[140.2719,39.1679],[140.2671,39.1755],[140.259,39.1854],[140.2494,39.1928],[140.2432,39.1949],[140.2387,39.1983],[140.2361,39.2032],[140.2293,39.2115],[140.227,39.2187],[140.2281,39.2261],[140.2303,39.2305],[140.2336,39.2314],[140.2458,39.2275],[140.2531,39.2289],[140.2612,39.2343],[140.2711,39.2369],[140.2842,39.2372],[140.2984,39.2392],[140.314,39.2426],[140.3201,39.2449],[140.332,39.2468],[140.3481,39.2478],[140.3502,39.2511],[140.3482,39.2574],[140.3455,39.2611],[140.3444,39.2696],[140.3444,39.2904],[140.3469,39.2968],[140.3518,39.3005],[140.3513,39.3057],[140.3488,39.3122],[140.3439,39.3199],[140.3372,39.3261],[140.3302,39.3379],[140.3238,39.3434],[140.3177,39.3512],[140.311,39.3574],[140.3087,39.3613],[140.3031,39.3633],[140.2899,39.3633],[140.2677,39.3714],[140.2745,39.377],[140.299,39.3815],[140.3057,39.3817],[140.3249,39.3801],[140.3218,39.3903],[140.3166,39.394],[140.3043,39.3975],[140.3014,39.4025],[140.3064,39.4088],[140.3038,39.4159],[140.2973,39.421],[140.2907,39.4244],[140.2829,39.4269],[140.2752,39.4342],[140.2673,39.451],[140.2572,39.454],[140.2498,39.4572],[140.2404,39.4628],[140.231,39.4709],[140.2273,39.4771],[140.2249,39.4862],[140.2207,39.4933],[140.2164,39.497],[140.1927,39.506],[140.1892,39.5102],[140.1881,39.5183],[140.1887,39.5327],[140.1876,39.5377],[140.1826,39.5403],[140.1706,39.5371],[140.1655,39.538],[140.1602,39.5481],[140.1572,39.5613],[140.1525,39.569],[140.1472,39.571],[140.1366,39.5718],[140.1255,39.5757],[140.1142,39.5843],[140.104,39.5868],[140.0872,39.587],[140.0788,39.5893],[140.0742,39.5943],[140.0603,39.6003]]]}},{"type":"Feature","properties":{"id":5025},"geometry":{"type":"Polygon","coordinates":[[[140.6921,39.1042],[140.6856,39.1065],[140.68,39.1061],[140.676,39.1022],[140.6743,39.0956],[140.6685,39.0902],[140.6622,39.0902],[140.658,39.0935],[140.6553,39.0987],[140.651,39.1016],[140.6379,39.107],[140.6201,39.121],[140.6168,39.1287],[140.6166,39.1494],[140.6141,39.1671],[140.6101,39.1738],[140.6046,39.178],[140.5905,39.1831],[140.577,39.1887],[140.5613,39.1922],[140.5381,39.1928],[140.5297,39.1957],[140.5254,39.2047],[140.5212,39.2066],[140.5055,39.207],[140.4956,39.2079],[140.4888,39.2098],[140.4788,39.2105],[140.4559,39.2109],[140.4551,39.2019],[140.4551,39.1718],[140.4524,39.1662],[140.4473,39.1644],[140.438,39.1579],[140.4334,39.1536],[140.4273,39.143],[140.4223,39.139],[140.416,39.137],[140.4115,39.1336],[140.4066,39.126],[140.4003,39.1106],[140.3961,39.105],[140.3858,39.1006],[140.3713,39.0956],[140.3578,39.0853],[140.3476,39.0766],[140.3396,39.0603],[140.3372,39.0533],[140.3364,39.0464],[140.3363,39.0315],[140.3352,39.0302],[140.3416,39.0262],[140.3516,39.022],[140.3638,39.0227],[140.3661,39.0115],[140.3723,39.0022],[140.3815,38.9921],[140.4018,38.9886],[140.4129,38.9906],[140.4242,38.9894],[140.4354,38.9889],[140.4409,38.9795],[140.4496,38.9732],[140.4539,38.9636],[140.4564,38.9536],[140.4534,38.9436],[140.4619,38.9274],[140.4649,38.9177],[140.4753,38.9119],[140.4863,38.9129],[140.4937,38.9053],[140.5009,38.899],[140.5089,38.8921],[140.5202,38.8972],[140.5303,38.8948],[140.5421,38.8966],[140.5545,38.8789],[140.568,38.8717],[140.5777,38.8759],[140.5888,38.8773],[140.5981,38.8833],[140.6104,38.8836],[140.6181,38.8911],[140.6354,38.8844],[140.6456,38.8839],[140.6575,38.8861],[140.6661,38.8913],[140.6753,38.8957],[140.6881,38.9139],[140.6986,38.9186],[140.7084,38.9214],[140.7185,38.9242],[140.7264,38.9316],[140.7307,38.9415],[140.7407,38.9482],[140.7517,38.9522],[140.7624,38.9568],[140.7544,38.9699],[140.7349,38.9858],[140.7256,39.0004],[140.7215,39.0093],[140.7187,39.019],[140.7151,39.0349],[140.695,39.0663],[140.6941,39.0725],[140.695,39.0843],[140.692,39.0956],[140.6921,39.1042]]]}}]}