{"type":"FeatureCollection","features":[{"type":"Feature","properties":{"id":6001},"geometry":{"type":"Polygon","coordinates":[[[139.9855,38.1772],[139.997,38.1827],[140.0002,38.1906],[140.0004,38.214],[140.0032,38.223],[140.0101,38.2314],[140.0152,38.2356],[140.0297,38.2365],[140.0372,38.2389],[140.0457,38.2452],[140.0506,38.2469],[140.0634,38.2536],[140.0713,38.2567],[140.0781,38.2576],[140.0864,38.2537],[140.0928,38.2477],[140.0952,38.244],[140.0988,38.2426],[140.1053,38.2431],[140.1173,38.2465],[140.1261,38.2471],[140.1459,38.247],[140.1537,38.2475],[140.1602,38.2547],[140.1694,38.2698],[140.1749,38.2747],[140.1798,38.2811],[140.1844,38.2841],[140.1976,38.2875],[140.199,38.2928],[140.194,38.2972],[140.1904,38.3028],[140.1902,38.3089],[140.1948,38.3245],[140.2003,38.3362],[140.2009,38.3418],[140.1944,38.3462],[140.1813,38.3478],[140.1684,38.3479],[140.1516,38.3463],[140.1458,38.3445],[140.1372,38.3439],[140.1218,38.344],[140.1142,38.3426],[140.1098,38.3406],[140.1022,38.3344],[140.1,38.327],[140.0998,38.3201],[140.0973,38.3139],[140.0872,38.3082],[140.0801,38.3078],[140.0711,38.3103],[140.0645,38.31],[140.0599,38.3072],[140.0412,38.2921],[140.0368,38.2915],[140.0271,38.3038],[140.0206,38.3041],[140.0016,38.2891],[139.9831,38.2796],[139.9775,38.2698],[139.972,38.2663],[139.9585,38.2643],[139.9475,38.2617],[139.9392,38.26],[139.9264,38.256],[139.9218,38.2437],[139.921,38.2384],[139.9326,38.2307],[139.9413,38.2262],[139.9455,38.218],[139.9459,38.2082],[139.9498,38.1995],[139.9535,38.1967],[139.9655,38.1923],[139.9855,38.1772]]]}},{"type":"Feature","properties":{"id":6002},"geometry":{"type":"Polygon","coordinates":[[[140.3903,38.7487],[140.3754,38.7396],[140.36,38.7323],[140.3507,38.7257],[140.3458,38.7239],[140.3294,38.7146],[140.3184,38.7103],[140.3118,38.7006],[140.3068,38.6963],[140.3004,38.6954],[140.2744,38.6957],[140.2592,38.6972],[140.2614,38.6881],[140.2607,38.6735],[140.2534,38.6604],[140.2502,38.6463],[140.2442,38.6335],[140.2361,38.6269],[140.2349,38.6243],[140.2381,38.6197],[140.2549,38.6066],[140.2584,38.6016],[140.2579,38.5969],[140.2495,38.5897],[140.2487,38.5795],[140.2531,38.5667],[140.2649,38.5773],[140.2671,38.5811],[140.2755,38.5884],[140.2813,38.5951],[140.2919,38.6006],[140.2969,38.6022],[140.3025,38.6061],[140.3047,38.6108],[140.3096,38.6321],[140.3127,38.6367],[140.3183,38.6416],[140.3215,38.6475],[140.323,38.658],[140.3231,38.6715],[140.3271,38.6767],[140.3333,38.6784],[140.3546,38.6806],[140.3743,38.6859],[140.4002,38.6962],[140.4065,38.6974],[140.4239,38.6978],[140.4286,38.6986],[140.4424,38.7054],[140.4516,38.7122],[140.4598,38.715],[140.4532,38.7263],[140.4472,38.7337],[140.4397,38.7357],[140.4132,38.7356],[140.4074,38.736],[140.402,38.7392],[140.3903,38.7487]]]}},{"type":"Feature","properties":{"id":6003},"geometry":{"type":"Polygon","coordinates":[[[140.59,38.4381],[140.5726,38.4474],[140.5591,38.4493],[140.5379,38.4549],[140.5343,38.4578],[140.525,38.4714],[140.5155,38.4783],[140.5019,38.481],[140.4687,38.4809],[140.4569,38.479],[140.4501,38.4752],[140.4387,38.4668],[140.4206,38.4605],[140.4123,38.4607],[140.4038,38.4641],[140.3983,38.4681],[140.384,38.4714],[140.3763,38.472],[140.3685,38.4744],[140.3622,38.4743],[140.3531,38.4711],[140.3497,38.4643],[140.3499,38.4514],[140.3434,38.438],[140.341,38.4289],[140.3407,38.4075],[140.3425,38.3994],[140.3503,38.3941],[140.3647,38.393],[140.3789,38.3907],[140.3881,38.39],[140.3971,38.3881],[140.4089,38.3909],[140.4202,38.3953],[140.427,38.3967],[140.4306,38.396],[140.4506,38.3863],[140.4745,38.3665],[140.4787,38.3637],[140.4891,38.3546],[140.4983,38.3484],[140.524,38.343],[140.5258,38.3438],[140.5253,38.3467],[140.5311,38.3558],[140.5505,38.364],[140.5553,38.373],[140.5654,38.3743],[140.5743,38.3842],[140.5805,38.3923],[140.5765,38.4023],[140.5849,38.4294],[140.59,38.4381]]]}},{"type":"Feature","properties":{"id":6004},"geometry":{"type":"Polygon","coordinates":[[[139.9467,37.8183],[139.9463,37.8357],[139.9467,37.8645],[139.951,37.8721],[139.9574,37.8793],[139.9543,37.8841],[139.9507,37.8936],[139.9504,37.9108],[139.9465,37.9215],[139.9338,37.93],[139.9338,37.9381],[139.9382,37.9456],[139.9532,37.9523],[139.9638,37.9607],[139.9679,37.9667],[139.9702,37.9733],[139.9709,37.9836],[139.9746,37.9899],[139.9847,37.9977],[139.9908,38.0013],[140.0007,38.0042],[140.0088,38.005],[140.0207,38.0082],[140.0314,38.0136],[140.038,38.0189],[140.039,38.0267],[140.0362,38.0373],[140.0281,38.0447],[140.025,38.0504],[140.0262,38.0565],[140.0288,38.0602],[140.0297,38.0654],[140.0283,38.0684],[140.021,38.0767],[140.0166,38.0786],[139.9971,38.0795],[139.9763,38.0833],[139.9671,38.0839],[139.9572,38.0854],[139.9463,38.0895],[139.9366,38.0969],[139.9268,38.1],[139.9112,38.1007],[139.9029,38.0937],[139.901,38.0776],[139.9027,38.0738],[139.9081,38.069],[139.9119,38.0628],[139.9131,38.054],[139.9162,38.0415],[139.9219,38.0309],[139.923,38.0251],[139.923,38.0084],[139.9217,38.0031],[139.9133,37.9958],[139.9111,37.992],[139.9026,37.9875],[139.8934,37.9808],[139.8825,37.9777],[139.8717,37.9774],[139.8644,37.9754],[139.8623,37.97],[139.8629,37.9587],[139.8659,37.9486],[139.8661,37.9384],[139.865,37.9339],[139.8541,37.9277],[139.8477,37.9259],[139.8399,37.9222],[139.8334,37.9204],[139.8241,37.915],[139.8217,37.9107],[139.8186,37.8997],[139.7886,37.8758],[139.7837,37.8694],[139.7547,37.8466],[139.7424,37.8396],[139.7327,37.8297],[139.7413,37.8202],[139.7598,37.8201],[139.7712,37.8254],[139.7816,37.8276],[139.7913,37.824],[139.798,37.815],[139.8067,37.8087],[139.8134,37.8003],[139.822,37.8067],[139.8319,37.8107],[139.8421,37.812],[139.8611,37.8235],[139.8708,37.8189],[139.8798,37.8103],[139.8918,37.8079],[139.9029,37.8083],[139.9132,37.8113],[139.9238,37.8109],[139.9312,37.8186],[139.9406,37.8251],[139.9467,37.8183]]]}},{"type":"Feature","properties":{"id":6005},"geometry":{"type":"Polygon","coordinates":[[[140.3499,38.4514],[140.328,38.4557],[140.3222,38.4577],[140.3062,38.4606],[140.2979,38.4612],[140.2831,38.4646],[140.2715,38.4685],[140.2665,38.4663],[140.2668,38.4616],[140.2714,38.457],[140.2721,38.4505],[140.2654,38.4397],[140.2694,38.4311],[140.2779,38.4238],[140.28,38.4198],[140.2853,38.4148],[140.2888,38.4092],[140.2973,38.3888],[140.3058,38.3843],[140.313,38.3787],[140.3195,38.3721],[140.327,38.3803],[140.3292,38.3841],[140.3347,38.389],[140.3425,38.3994],[140.3407,38.4075],[140.341,38.4289],[140.3434,38.438],[140.3499,38.4514]]]}},{"type":"Feature","properties":{"id":6006},"geometry":{"type":"Polygon","coordinates":[[[140.4539,38.1452],[140.4379,38.1481],[140.429,38.149],[140.4003,38.1538],[140.3754,38.1561],[140.3533,38.1598],[140.3444,38.1607],[140.325,38.1654],[140.3173,38.1665],[140.298,38.1711],[140.2771,38.1746],[140.2663,38.1718],[140.2584,38.1714],[140.2563,38.1733],[140.2536,38.1871],[140.2489,38.2032],[140.246,38.2053],[140.2303,38.2058],[140.223,38.207],[140.2128,38.2134],[140.205,38.2167],[140.1904,38.2207],[140.1933,38.2132],[140.1993,38.2049],[140.2013,38.1974],[140.2014,38.188],[140.204,38.1815],[140.2095,38.1763],[140.2118,38.1687],[140.2118,38.155],[140.2138,38.1389],[140.2092,38.1334],[140.1947,38.1328],[140.1881,38.1295],[140.1876,38.126],[140.1924,38.1222],[140.2068,38.1205],[140.2125,38.1172],[140.2211,38.1055],[140.2283,38.1],[140.2361,38.0986],[140.2421,38.0944],[140.2427,38.0837],[140.2527,38.0772],[140.2592,38.0754],[140.2711,38.0702],[140.2749,38.0674],[140.2836,38.054],[140.2914,38.0563],[140.3016,38.0532],[140.3116,38.0548],[140.3219,38.0527],[140.3348,38.0531],[140.3456,38.0518],[140.3569,38.0549],[140.3675,38.0536],[140.3829,38.0588],[140.3861,38.0683],[140.3971,38.067],[140.4074,38.0703],[140.4177,38.0757],[140.4245,38.0856],[140.4223,38.0957],[140.4272,38.1167],[140.4357,38.1244],[140.4482,38.1288],[140.4483,38.1309],[140.4492,38.1407],[140.4539,38.1452]]]}},{"type":"Feature","properties":{"id":6007},"geometry":{"type":"Polygon","coordinates":[[[140.4534,38.9436],[140.4524,38.9453],[140.4372,38.9329],[140.4327,38.9316],[140.4252,38.9333],[140.4193,38.9466],[140.4115,38.9504],[140.3944,38.9544],[140.382,38.9556],[140.3592,38.9604],[140.3443,38.9606],[140.329,38.9576],[140.3189,38.9517],[140.3101,38.9422],[140.3015,38.9349],[140.2944,38.9266],[140.2933,38.9182],[140.2962,38.9066],[140.2966,38.8993],[140.2943,38.8858],[140.2919,38.8764],[140.2959,38.8664],[140.2968,38.8582],[140.3004,38.8417],[140.3124,38.8435],[140.3283,38.8479],[140.3407,38.8482],[140.3617,38.8448],[140.3725,38.8458],[140.3932,38.8515],[140.3976,38.8547],[140.3998,38.8585],[140.4075,38.8647],[140.4135,38.8662],[140.4251,38.8664],[140.4338,38.8682],[140.4545,38.8794],[140.4635,38.8864],[140.472,38.8906],[140.485,38.9008],[140.4937,38.9053],[140.4863,38.9129],[140.4753,38.9119],[140.4649,38.9177],[140.4619,38.9274],[140.4534,38.9436]]]}},{"type":"Feature","properties":{"id":6008},"geometry":{"type":"Polygon","coordinates":[[[139.9574,37.8793],[139.966,37.8819],[139.9886,37.8914],[139.9943,37.893],[140.0027,37.8969],[140.0085,37.8985],[140.0194,37.9038],[140.027,37.9099],[140.0341,37.9183],[140.04,37.9283],[140.0431,37.9391],[140.0495,37.9425],[140.0578,37.9403],[140.063,37.9406],[140.0651,37.9441],[140.0681,37.9535],[140.0708,37.9577],[140.0822,37.9698],[140.0859,37.9726],[140.0916,37.9744],[140.1056,37.9748],[140.1142,37.9763],[140.1258,37.9829],[140.1252,37.9865],[140.1344,38.0011],[140.1349,38.0214],[140.1239,38.0226],[140.1096,38.0264],[140.1066,38.0294],[140.1032,38.0407],[140.0975,38.0429],[140.0884,38.0408],[140.0857,38.0428],[140.0795,38.0598],[140.0735,38.0563],[140.0629,38.0483],[140.0563,38.0445],[140.0497,38.0428],[140.0362,38.0373],[140.039,38.0267],[140.038,38.0189],[140.0314,38.0136],[140.0207,38.0082],[140.0088,38.005],[140.0007,38.0042],[139.9908,38.0013],[139.9847,37.9977],[139.9746,37.9899],[139.9709,37.9836],[139.9702,37.9733],[139.9679,37.9667],[139.9638,37.9607],[139.9532,37.9523],[139.9382,37.9456],[139.9338,37.9381],[139.9338,37.93],[139.9465,37.9215],[139.9504,37.9108],[139.9507,37.8936],[139.9543,37.8841],[139.9574,37.8793]]]}},{"type":"Feature","properties":{"id":6009},"geometry":{"type":"Polygon","coordinates":[[[140.1593,39.0501],[140.1475,39.0464],[140.1428,39.0421],[140.1306,39.0274],[140.1251,39.0256],[140.1213,39.0224],[140.1195,39.0182],[140.1188,39.0054],[140.1165,38.997],[140.111,38.9896],[140.1124,38.9845],[140.1329,38.9783],[140.1445,38.9727],[140.1452,38.9684],[140.1422,38.958],[140.1415,38.9507],[140.1378,38.9418],[140.1329,38.9396],[140.1245,38.9379],[140.1218,38.9306],[140.1222,38.9196],[140.1256,38.9145],[140.1333,38.9108],[140.1372,38.9072],[140.1371,38.9043],[140.1277,38.8986],[140.121,38.891],[140.1199,38.8802],[140.122,38.8725],[140.1414,38.8702],[140.1537,38.8679],[140.1988,38.8676],[140.2106,38.8653],[140.2213,38.857],[140.2252,38.8524],[140.2297,38.8411],[140.2331,38.8386],[140.2399,38.8376],[140.2546,38.8377],[140.2632,38.8367],[140.2717,38.8326],[140.2801,38.8315],[140.2915,38.8355],[140.3004,38.8417],[140.2968,38.8582],[140.2959,38.8664],[140.2919,38.8764],[140.2943,38.8858],[140.2966,38.8993],[140.2962,38.9066],[140.2933,38.9182],[140.2944,38.9266],[140.3015,38.9349],[140.3101,38.9422],[140.3189,38.9517],[140.329,38.9576],[140.3443,38.9606],[140.3592,38.9604],[140.382,38.9556],[140.3944,38.9544],[140.4115,38.9504],[140.4193,38.9466],[140.4252,38.9333],[140.4327,38.9316],[140.4372,38.9329],[140.4524,38.9453],[140.4534,38.9436],[140.4564,38.9536],[140.4539,38.9636],[140.4496,38.9732],[140.4409,38.9795],[140.4354,38.9889],[140.4242,38.9894],[140.4129,38.9906],[140.4018,38.9886],[140.3815,38.9921],[140.3723,39.0022],[140.3661,39.0115],[140.3638,39.0227],[140.3516,39.022],[140.3416,39.0262],[140.3352,39.0302],[140.3324,39.0319],[140.3219,39.0277],[140.318,39.0163],[140.3088,39.012],[140.2981,39.0154],[140.2913,39.0244],[140.2813,39.0274],[140.2593,39.0294],[140.2488,39.0279],[140.2374,39.0246],[140.2257,39.0269],[140.2043,39.0333],[140.205,39.0558],[140.1952,39.0581],[140.185,39.0553],[140.1752,39.0495],[140.1643,39.0506],[140.1593,39.0501]]]}},{"type":"Feature","properties":{"id":6010},"geometry":{"type":"Polygon","coordinates":[[[139.8195,38.8066],[139.8256,38.7963],[139.8306,38.7846],[139.8413,38.7762],[139.8561,38.7694],[139.8609,38.7654],[139.8619,38.7624],[139.8606,38.7499],[139.8635,38.7461],[139.8721,38.7457],[139.8773,38.7513],[139.8795,38.7644],[139.8853,38.7753],[139.8857,38.7824],[139.882,38.7932],[139.8767,38.8035],[139.8728,38.8139],[139.8724,38.8215],[139.8671,38.8271],[139.8501,38.8226],[139.8461,38.8232],[139.8328,38.8336],[139.8281,38.8339],[139.8237,38.831],[139.8223,38.8273],[139.8232,38.8203],[139.8256,38.8163],[139.8252,38.8126],[139.8195,38.8066]]]}},{"type":"Feature","properties":{"id":6011},"geometry":{"type":"Polygon","coordinates":[[[140.5009,38.899],[140.4918,38.8846],[140.4901,38.8711],[140.4864,38.8601],[140.4826,38.8567],[140.431,38.8164],[140.4286,38.8118],[140.4281,38.8054],[140.4282,38.7857],[140.4275,38.7794],[140.422,38.7727],[140.3934,38.7505],[140.3903,38.7487],[140.402,38.7392],[140.4074,38.736],[140.4132,38.7356],[140.4397,38.7357],[140.4472,38.7337],[140.4532,38.7263],[140.4598,38.715],[140.4776,38.7008],[140.4793,38.6974],[140.4879,38.6898],[140.498,38.6908],[140.5066,38.6935],[140.5188,38.6908],[140.5286,38.6895],[140.5382,38.6863],[140.5415,38.6831],[140.5491,38.6642],[140.549,38.652],[140.5497,38.6464],[140.5666,38.6448],[140.5728,38.6353],[140.5831,38.6326],[140.5938,38.6312],[140.6032,38.6364],[140.6091,38.6455],[140.6124,38.656],[140.6202,38.6681],[140.625,38.682],[140.625,38.687],[140.6249,38.6973],[140.6144,38.6989],[140.6109,38.7098],[140.614,38.7208],[140.625,38.7371],[140.635,38.75],[140.6396,38.7592],[140.6484,38.7645],[140.6424,38.7737],[140.625,38.7727],[140.6158,38.779],[140.6064,38.7823],[140.602,38.7941],[140.6004,38.8051],[140.6028,38.8157],[140.597,38.8246],[140.5895,38.8336],[140.5793,38.8383],[140.5689,38.8451],[140.56,38.8522],[140.5516,38.8578],[140.543,38.8648],[140.5545,38.8789],[140.5421,38.8966],[140.5303,38.8948],[140.5202,38.8972],[140.5089,38.8921],[140.5009,38.899]]]}},{"type":"Feature","properties":{"id":6012},"geometry":{"type":"Polygon","coordinates":[[[140.4687,38.4809],[140.462,38.4958],[140.4585,38.4989],[140.4506,38.5027],[140.4424,38.5101],[140.4393,38.5178],[140.4407,38.5357],[140.4429,38.5482],[140.4416,38.5544],[140.436,38.5628],[140.431,38.5723],[140.4261,38.5754],[140.4131,38.578],[140.4065,38.5781],[140.4063,38.5724],[140.4035,38.5652],[140.3998,38.5608],[140.391,38.5584],[140.383,38.5519],[140.3804,38.5442],[140.377,38.5399],[140.3723,38.54],[140.3662,38.5426],[140.3593,38.5472],[140.3487,38.5512],[140.3354,38.5583],[140.3237,38.5631],[140.3188,38.5749],[140.3155,38.5762],[140.3058,38.5731],[140.2996,38.5737],[140.2946,38.5723],[140.2818,38.5628],[140.2713,38.5573],[140.2674,38.5572],[140.2593,38.5608],[140.2531,38.5667],[140.2457,38.5588],[140.2435,38.5548],[140.2366,38.5464],[140.2129,38.5282],[140.2388,38.5142],[140.2417,38.5108],[140.2433,38.4933],[140.2487,38.4846],[140.2557,38.4762],[140.2665,38.4663],[140.2715,38.4685],[140.2831,38.4646],[140.2979,38.4612],[140.3062,38.4606],[140.3222,38.4577],[140.328,38.4557],[140.3499,38.4514],[140.3497,38.4643],[140.3531,38.4711],[140.3622,38.4743],[140.3685,38.4744],[140.3763,38.472],[140.384,38.4714],[140.3983,38.4681],[140.4038,38.4641],[140.4123,38.4607],[140.4206,38.4605],[140.4387,38.4668],[140.4501,38.4752],[140.4569,38.479],[140.4687,38.4809]]]}},{"type":"Feature","properties":{"id":6013},"geometry":{"type":"Polygon","coordinates":[[[139.921,38.2384],[139.915,38.2353],[139.9077,38.2296],[139.9067,38.2256],[139.9068,38.2147],[139.9038,38.21],[139.8838,38.2001],[139.8817,38.1948],[139.8815,38.1641],[139.882,38.1592],[139.8855,38.1551],[139.8941,38.1482],[139.8951,38.1431],[139.8922,38.1299],[139.8931,38.1228],[139.8981,38.1161],[139.9025,38.1081],[139.9112,38.1007],[139.9268,38.1],[139.9366,38.0969],[139.9463,38.0895],[139.9572,38.0854],[139.9671,38.0839],[139.9763,38.0833],[139.9971,38.0795],[140.0166,38.0786],[140.021,38.0767],[140.0283,38.0684],[140.0297,38.0654],[140.0288,38.0602],[140.0262,38.0565],[140.025,38.0504],[140.0281,38.0447],[140.0362,38.0373],[140.0497,38.0428],[140.0563,38.0445],[140.0629,38.0483],[140.0735,38.0563],[140.0795,38.0598],[140.0799,38.0625],[140.1064,38.1039],[140.1086,38.1132],[140.1109,38.1276],[140.0962,38.1288],[140.0878,38.1329],[140.0806,38.1344],[140.0636,38.1354],[140.0586,38.1381],[140.0501,38.1531],[140.0455,38.1575],[140.0385,38.1613],[140.0245,38.1669],[140.005,38.1727],[139.9855,38.1772],[139.9655,38.1923],[139.9535,38.1967],[139.9498,38.1995],[139.9459,38.2082],[139.9455,38.218],[139.9413,38.2262],[139.9326,38.2307],[139.921,38.2384]]]}},{"type":"Feature","properties":{"id":6014},"geometry":{"type":"Polygon","coordinates":[[[140.2091,38.3248],[140.2172,38.3203],[140.2367,38.3049],[140.2402,38.304],[140.2562,38.3042],[140.2641,38.3064],[140.2905,38.308],[140.2953,38.3088],[140.301,38.3079],[140.3093,38.3191],[140.3127,38.3263],[140.3155,38.3447],[140.3017,38.3407],[140.2876,38.3378],[140.2801,38.338],[140.2757,38.3412],[140.2712,38.3497],[140.266,38.3525],[140.2618,38.3516],[140.2561,38.347],[140.2484,38.3438],[140.2332,38.3413],[140.2263,38.3371],[140.2091,38.3248]]]}},{"type":"Feature","properties":{"id":6015},"geometry":{"type":"Polygon","coordinates":[[[140.1904,38.2207],[140.183,38.2168],[140.1705,38.2041],[140.1648,38.1992],[140.1561,38.186],[140.1508,38.1796],[140.1422,38.1654],[140.1365,38.1571],[140.1316,38.1455],[140.1295,38.1426],[140.1149,38.1326],[140.1109,38.1276],[140.1086,38.1132],[140.1064,38.1039],[140.0799,38.0625],[140.0795,38.0598],[140.0857,38.0428],[140.0884,38.0408],[140.0975,38.0429],[140.1032,38.0407],[140.1066,38.0294],[140.1096,38.0264],[140.1239,38.0226],[140.1349,38.0214],[140.1458,38.0225],[140.1633,38.0258],[140.1777,38.0272],[140.1882,38.031],[140.197,38.0322],[140.2108,38.0373],[140.2128,38.0396],[140.2122,38.0476],[140.2137,38.0533],[140.2242,38.0673],[140.2366,38.0773],[140.2427,38.0837],[140.2421,38.0944],[140.2361,38.0986],[140.2283,38.1],[140.2211,38.1055],[140.2125,38.1172],[140.2068,38.1205],[140.1924,38.1222],[140.1876,38.126],[140.1881,38.1295],[140.1947,38.1328],[140.2092,38.1334],[140.2138,38.1389],[140.2118,38.155],[140.2118,38.1687],[140.2095,38.1763],[140.204,38.1815],[140.2014,38.188],[140.2013,38.1974],[140.1993,38.2049],[140.1933,38.2132],[140.1904,38.2207]]]}},{"type":"Feature","properties":{"id":6016},"geometry":{"type":"Polygon","coordinates":[[[139.9005,38.2775],[139.9034,38.271],[139.9151,38.2615],[139.9264,38.256],[139.9392,38.26],[139.9475,38.2617],[139.951,38.2752],[139.9517,38.2853],[139.9543,38.2991],[139.961,38.3095],[139.9687,38.3118],[139.9813,38.3123],[140.0015,38.3231],[140.0089,38.3314],[140.0135,38.3382],[140.0154,38.3451],[140.0155,38.3758],[140.016,38.3814],[140.0185,38.39],[140.0214,38.3949],[140.0271,38.3982],[140.0344,38.3943],[140.0444,38.3823],[140.0547,38.377],[140.0612,38.377],[140.0697,38.3813],[140.0731,38.3852],[140.075,38.391],[140.0786,38.3939],[140.092,38.3973],[140.1236,38.3973],[140.1324,38.3951],[140.1422,38.3944],[140.1622,38.3943],[140.1723,38.3932],[140.1902,38.3929],[140.1993,38.3946],[140.2056,38.397],[140.2076,38.403],[140.2005,38.4208],[140.1915,38.4349],[140.1879,38.4429],[140.1858,38.4544],[140.1852,38.4713],[140.1829,38.4777],[140.1759,38.4861],[140.1676,38.4935],[140.1622,38.5004],[140.1459,38.5139],[140.1374,38.5019],[140.1232,38.4908],[140.1154,38.4899],[140.1111,38.4911],[140.1028,38.5028],[140.0992,38.5058],[140.0881,38.5075],[140.0835,38.5053],[140.0729,38.4964],[140.0639,38.4932],[140.0595,38.4926],[140.051,38.4939],[140.0467,38.4974],[140.0448,38.5031],[140.0444,38.5132],[140.0397,38.5312],[140.014,38.5389],[140.0088,38.5377],[139.9927,38.5253],[139.9806,38.5209],[139.9705,38.5158],[139.9643,38.5114],[139.9536,38.5059],[139.9447,38.504],[139.9405,38.498],[139.9401,38.4816],[139.9306,38.4683],[139.929,38.4595],[139.9264,38.4546],[139.9271,38.4498],[139.9326,38.4448],[139.9391,38.4369],[139.9386,38.4309],[139.9338,38.4249],[139.9324,38.4201],[139.9251,38.4082],[139.9198,38.4017],[139.9168,38.3927],[139.9168,38.3815],[139.9151,38.3704],[139.9141,38.355],[139.9115,38.3499],[139.91,38.3419],[139.9034,38.3296],[139.8889,38.3178],[139.8787,38.3128],[139.8824,38.304],[139.8917,38.2981],[139.9014,38.2907],[139.9021,38.28],[139.9005,38.2775]]]}},{"type":"Feature","properties":{"id":6017},"geometry":{"type":"Polygon","coordinates":[[[140.5497,38.6464],[140.549,38.652],[140.5491,38.6642],[140.5415,38.6831],[140.5382,38.6863],[140.5286,38.6895],[140.5188,38.6908],[140.5066,38.6935],[140.498,38.6908],[140.4879,38.6898],[140.4793,38.6974],[140.4776,38.7008],[140.4598,38.715],[140.4516,38.7122],[140.4424,38.7054],[140.4286,38.6986],[140.4239,38.6978],[140.4065,38.6974],[140.4002,38.6962],[140.3743,38.6859],[140.3546,38.6806],[140.3333,38.6784],[140.3271,38.6767],[140.3231,38.6715],[140.323,38.658],[140.3215,38.6475],[140.3473,38.6428],[140.3542,38.6392],[140.3587,38.6333],[140.3667,38.6268],[140.3742,38.6232],[140.3786,38.6193],[140.3855,38.6027],[140.3864,38.5944],[140.3897,38.5887],[140.3956,38.586],[140.4065,38.5781],[140.4131,38.578],[140.4261,38.5754],[140.431,38.5723],[140.436,38.5628],[140.4416,38.5544],[140.4429,38.5482],[140.4407,38.5357],[140.4393,38.5178],[140.4424,38.5101],[140.4506,38.5027],[140.4585,38.4989],[140.462,38.4958],[140.4687,38.4809],[140.5019,38.481],[140.5155,38.4783],[140.525,38.4714],[140.5343,38.4578],[140.5379,38.4549],[140.5591,38.4493],[140.5726,38.4474],[140.59,38.4381],[140.6003,38.434],[140.6203,38.4501],[140.623,38.4523],[140.6116,38.4561],[140.6118,38.4662],[140.6016,38.4842],[140.5795,38.4912],[140.5714,38.5],[140.5691,38.5101],[140.5723,38.5201],[140.5626,38.5263],[140.5579,38.5362],[140.5676,38.5425],[140.5732,38.5519],[140.577,38.562],[140.5774,38.573],[140.5754,38.5833],[140.5696,38.5917],[140.5656,38.602],[140.5577,38.6091],[140.5458,38.6264],[140.5447,38.6377],[140.5497,38.6464]]]}},{"type":"Feature","properties":{"id":6018},"geometry":{"type":"Polygon","coordinates":[[[140.1948,38.3245],[140.2091,38.3248],[140.2263,38.3371],[140.2332,38.3413],[140.2244,38.3538],[140.2193,38.3582],[140.2154,38.365],[140.2141,38.374],[140.207,38.3792],[140.1978,38.3807],[140.1921,38.3833],[140.1904,38.3864],[140.1902,38.3929],[140.1723,38.3932],[140.1622,38.3943],[140.1422,38.3944],[140.1324,38.3951],[140.1236,38.3973],[140.092,38.3973],[140.0786,38.3939],[140.075,38.391],[140.0731,38.3852],[140.0697,38.3813],[140.0612,38.377],[140.0547,38.377],[140.0444,38.3823],[140.0344,38.3943],[140.0271,38.3982],[140.0214,38.3949],[140.0185,38.39],[140.016,38.3814],[140.0155,38.3758],[140.0154,38.3451],[140.0135,38.3382],[140.0089,38.3314],[140.0015,38.3231],[139.9813,38.3123],[139.9687,38.3118],[139.961,38.3095],[139.9543,38.2991],[139.9517,38.2853],[139.951,38.2752],[139.9475,38.2617],[139.9585,38.2643],[139.972,38.2663],[139.9775,38.2698],[139.9831,38.2796],[140.0016,38.2891],[140.0206,38.3041],[140.0271,38.3038],[140.0368,38.2915],[140.0412,38.2921],[140.0599,38.3072],[140.0645,38.31],[140.0711,38.3103],[140.0801,38.3078],[140.0872,38.3082],[140.0973,38.3139],[140.0998,38.3201],[140.1,38.327],[140.1022,38.3344],[140.1098,38.3406],[140.1142,38.3426],[140.1218,38.344],[140.1372,38.3439],[140.1458,38.3445],[140.1516,38.3463],[140.1684,38.3479],[140.1813,38.3478],[140.1944,38.3462],[140.2009,38.3418],[140.2003,38.3362],[140.1948,38.3245]]]}},{"type":"Feature","properties":{"id":6019},"geometry":{"type":"Polygon","coordinates":[[[139.7327,37.8297],[139.7424,37.8396],[139.7547,37.8466],[139.7837,37.8694],[139.7886,37.8758],[139.8186,37.8997],[139.8217,37.9107],[139.8241,37.915],[139.8334,37.9204],[139.8399,37.9222],[139.8477,37.9259],[139.8541,37.9277],[139.865,37.9339],[139.8661,37.9384],[139.8659,37.9486],[139.8629,37.9587],[139.8623,37.97],[139.8644,37.9754],[139.8717,37.9774],[139.8825,37.9777],[139.8934,37.9808],[139.9026,37.9875],[139.9111,37.992],[139.9133,37.9958],[139.9217,38.0031],[139.923,38.0084],[139.923,38.0251],[139.9219,38.0309],[139.9162,38.0415],[139.9131,38.054],[139.9119,38.0628],[139.9081,38.069],[139.9027,38.0738],[139.901,38.0776],[139.9029,38.0937],[139.9112,38.1007],[139.9025,38.1081],[139.8981,38.1161],[139.8931,38.1228],[139.8922,38.1299],[139.8951,38.1431],[139.8941,38.1482],[139.8855,38.1551],[139.882,38.1592],[139.8815,38.1641],[139.8817,38.1948],[139.8838,38.2001],[139.9038,38.21],[139.9068,38.2147],[139.9067,38.2256],[139.9077,38.2296],[139.915,38.2353],[139.921,38.2384],[139.9218,38.2437],[139.9264,38.256],[139.9151,38.2615],[139.9034,38.271],[139.9005,38.2775],[139.8938,38.267],[139.8846,38.2613],[139.879,38.2526],[139.8678,38.2373],[139.8616,38.2271],[139.8509,38.2222],[139.8405,38.2191],[139.8298,38.2147],[139.8211,38.2096],[139.8107,38.205],[139.792,38.1928],[139.7794,38.1952],[139.7674,38.196],[139.7566,38.1908],[139.7443,38.1974],[139.7338,38.1981],[139.7236,38.2016],[139.7118,38.2015],[139.7042,38.1939],[139.6993,38.1852],[139.6912,38.1793],[139.6856,38.1686],[139.6864,38.1645],[139.6881,38.1565],[139.6939,38.1483],[139.6938,38.138],[139.6923,38.1264],[139.6937,38.1162],[139.6889,38.1072],[139.6811,38.0976],[139.6766,38.0834],[139.6926,38.0678],[139.6944,38.0529],[139.6856,38.0466],[139.6791,38.0382],[139.669,38.0368],[139.6593,38.0324],[139.6571,38.0225],[139.6576,38.0113],[139.6559,38],[139.6481,37.9925],[139.6426,37.9825],[139.6438,37.9714],[139.6478,37.9619],[139.644,37.951],[139.644,37.9409],[139.6409,37.9306],[139.6335,37.9231],[139.6316,37.9146],[139.6296,37.9052],[139.6359,37.8936],[139.6389,37.8827],[139.6481,37.8752],[139.6584,37.8695],[139.6629,37.8587],[139.6779,37.851],[139.6823,37.8487],[139.6962,37.8459],[139.7065,37.8505],[139.7187,37.8513],[139.7226,37.8398],[139.7327,37.8297]]]}},{"type":"Feature","properties":{"id":6020},"geometry":{"type":"Polygon","coordinates":[[[140.2531,38.5667],[140.2593,38.5608],[140.2674,38.5572],[140.2713,38.5573],[140.2818,38.5628],[140.2946,38.5723],[140.2996,38.5737],[140.3058,38.5731],[140.3155,38.5762],[140.3188,38.5749],[140.3237,38.5631],[140.3354,38.5583],[140.3487,38.5512],[140.3593,38.5472],[140.3662,38.5426],[140.3723,38.54],[140.377,38.5399],[140.3804,38.5442],[140.383,38.5519],[140.391,38.5584],[140.3998,38.5608],[140.4035,38.5652],[140.4063,38.5724],[140.4065,38.5781],[140.3956,38.586],[140.3897,38.5887],[140.3864,38.5944],[140.3855,38.6027],[140.3786,38.6193],[140.3742,38.6232],[140.3667,38.6268],[140.3587,38.6333],[140.3542,38.6392],[140.3473,38.6428],[140.3215,38.6475],[140.3183,38.6416],[140.3127,38.6367],[140.3096,38.6321],[140.3047,38.6108],[140.3025,38.6061],[140.2969,38.6022],[140.2919,38.6006],[140.2813,38.5951],[140.2755,38.5884],[140.2671,38.5811],[140.2649,38.5773],[140.2531,38.5667]]]}},{"type":"Feature","properties":{"id":6021},"geometry":{"type":"Polygon","coordinates":[[[140.2592,38.6972],[140.2647,38.7046],[140.2721,38.7085],[140.2742,38.7125],[140.2717,38.7151],[140.2658,38.7168],[140.2582,38.7174],[140.2444,38.7147],[140.2354,38.7146],[140.2161,38.7177],[140.2042,38.7079],[140.1966,38.6973],[140.1983,38.6888],[140.2007,38.6819],[140.2014,38.6755],[140.2006,38.6598],[140.1948,38.6506],[140.184,38.6383],[140.171,38.628],[140.1664,38.6256],[140.1559,38.6244],[140.151,38.6223],[140.1415,38.6132],[140.1344,38.61],[140.1268,38.6093],[140.1162,38.6096],[140.1043,38.6109],[140.1036,38.601],[140.1043,38.5943],[140.1076,38.5864],[140.1136,38.5781],[140.1134,38.5756],[140.1049,38.5684],[140.1022,38.5636],[140.101,38.5565],[140.0975,38.5521],[140.0872,38.5459],[140.0813,38.536],[140.0704,38.526],[140.0624,38.5232],[140.0585,38.5234],[140.0397,38.5312],[140.0444,38.5132],[140.0448,38.5031],[140.0467,38.4974],[140.051,38.4939],[140.0595,38.4926],[140.0639,38.4932],[140.0729,38.4964],[140.0835,38.5053],[140.0881,38.5075],[140.0992,38.5058],[140.1028,38.5028],[140.1111,38.4911],[140.1154,38.4899],[140.1232,38.4908],[140.1374,38.5019],[140.1459,38.5139],[140.1585,38.5187],[140.1652,38.5229],[140.1766,38.5259],[140.1886,38.5274],[140.2129,38.5282],[140.2366,38.5464],[140.2435,38.5548],[140.2457,38.5588],[140.2531,38.5667],[140.2487,38.5795],[140.2495,38.5897],[140.2579,38.5969],[140.2584,38.6016],[140.2549,38.6066],[140.2381,38.6197],[140.2349,38.6243],[140.2361,38.6269],[140.2442,38.6335],[140.2502,38.6463],[140.2534,38.6604],[140.2607,38.6735],[140.2614,38.6881],[140.2592,38.6972]]]}},{"type":"Feature","properties":{"id":6022},"geometry":{"type":"Polygon","coordinates":[[[140.2665,38.4663],[140.2557,38.4762],[140.2487,38.4846],[140.2433,38.4933],[140.2417,38.5108],[140.2388,38.5142],[140.2129,38.5282],[140.1886,38.5274],[140.1766,38.5259],[140.1652,38.5229],[140.1585,38.5187],[140.1459,38.5139],[140.1622,38.5004],[140.1676,38.4935],[140.1759,38.4861],[140.1829,38.4777],[140.1852,38.4713],[140.1858,38.4544],[140.1879,38.4429],[140.1915,38.4349],[140.2005,38.4208],[140.2076,38.403],[140.2056,38.397],[140.1993,38.3946],[140.1902,38.3929],[140.1904,38.3864],[140.1921,38.3833],[140.1978,38.3807],[140.207,38.3792],[140.2141,38.374],[140.2154,38.365],[140.2193,38.3582],[140.2244,38.3538],[140.2332,38.3413],[140.2484,38.3438],[140.2561,38.347],[140.2618,38.3516],[140.266,38.3525],[140.2712,38.3497],[140.2757,38.3412],[140.2801,38.338],[140.2876,38.3378],[140.3017,38.3407],[140.3155,38.3447],[140.3158,38.3534],[140.3198,38.3683],[140.3195,38.3721],[140.313,38.3787],[140.3058,38.3843],[140.2973,38.3888],[140.2888,38.4092],[140.2853,38.4148],[140.28,38.4198],[140.2779,38.4238],[140.2694,38.4311],[140.2654,38.4397],[140.2721,38.4505],[140.2714,38.457],[140.2668,38.4616],[140.2665,38.4663]]]}},{"type":"Feature","properties":{"id":6023},"geometry":{"type":"Polygon","coordinates":[[[140.0761,39.0843],[140.0623,39.0768],[140.0482,39.0655],[140.0407,39.0538],[140.0358,39.0442],[140.0148,39.0121],[140.0062,39.0081],[139.9854,39.0025],[139.972,39.0012],[139.9649,38.9985],[139.9496,38.9916],[139.9404,38.9889],[139.9228,38.9859],[139.9145,38.9868],[139.903,38.9921],[139.8974,38.9962],[139.8849,39.0019],[139.8768,39.003],[139.874,39.0011],[139.8729,38.986],[139.8703,38.9818],[139.8658,38.9799],[139.8596,38.9806],[139.8406,38.9866],[139.8378,38.9797],[139.8317,38.9732],[139.8247,38.9747],[139.8183,38.9628],[139.8179,38.9603],[139.8259,38.9575],[139.8307,38.9586],[139.8354,38.956],[139.8233,38.9532],[139.8212,38.9487],[139.8142,38.9508],[139.8117,38.9447],[139.8166,38.9403],[139.8139,38.9328],[139.8086,38.9275],[139.8167,38.9241],[139.8116,38.9193],[139.8074,38.9213],[139.8046,38.9067],[139.7949,38.8789],[139.7913,38.8671],[139.7847,38.8523],[139.7772,38.8321],[139.7694,38.8156],[139.7612,38.7997],[139.7672,38.7994],[139.7749,38.8014],[139.7825,38.8059],[139.8,38.8099],[139.8044,38.8098],[139.8195,38.8066],[139.8252,38.8126],[139.8256,38.8163],[139.8232,38.8203],[139.8223,38.8273],[139.8237,38.831],[139.8281,38.8339],[139.8328,38.8336],[139.8461,38.8232],[139.8501,38.8226],[139.8671,38.8271],[139.869,38.8363],[139.8689,38.8466],[139.8651,38.8567],[139.8705,38.8619],[139.876,38.8601],[139.8796,38.8527],[139.8849,38.8502],[139.8916,38.8535],[139.8923,38.8608],[139.8943,38.8665],[139.9019,38.8725],[139.9086,38.8734],[139.9227,38.8733],[139.9288,38.8725],[139.9322,38.87],[139.9408,38.8571],[139.9478,38.8486],[139.9532,38.8437],[139.9597,38.8356],[139.9716,38.8179],[139.9792,38.8119],[139.9942,38.805],[140.0004,38.8006],[140.0194,38.7932],[140.0336,38.7821],[140.0414,38.7753],[140.0503,38.7793],[140.0688,38.7861],[140.0789,38.7911],[140.0826,38.794],[140.084,38.7979],[140.0846,38.812],[140.0911,38.816],[140.1141,38.8159],[140.1224,38.8154],[140.1154,38.8326],[140.1114,38.8375],[140.1022,38.8387],[140.0982,38.8419],[140.0955,38.8493],[140.0968,38.8551],[140.1084,38.8616],[140.122,38.8725],[140.1199,38.8802],[140.121,38.891],[140.1277,38.8986],[140.1371,38.9043],[140.1372,38.9072],[140.1333,38.9108],[140.1256,38.9145],[140.1222,38.9196],[140.1218,38.9306],[140.1245,38.9379],[140.1329,38.9396],[140.1378,38.9418],[140.1415,38.9507],[140.1422,38.958],[140.1452,38.9684],[140.1445,38.9727],[140.1329,38.9783],[140.1124,38.9845],[140.111,38.9896],[140.1165,38.997],[140.1188,39.0054],[140.1195,39.0182],[140.1213,39.0224],[140.1251,39.0256],[140.1306,39.0274],[140.1428,39.0421],[140.1475,39.0464],[140.1593,39.0501],[140.1525,39.0493],[140.1469,39.0586],[140.1354,39.0607],[140.12,39.0692],[140.1121,39.077],[140.1014,39.0809],[140.0761,39.0843]]]}},{"type":"Feature","properties":{"id":6024},"geometry":{"type":"Polygon","coordinates":[[[140.122,38.8725],[140.1084,38.8616],[140.0968,38.8551],[140.0955,38.8493],[140.0982,38.8419],[140.1022,38.8387],[140.1114,38.8375],[140.1154,38.8326],[140.1224,38.8154],[140.1379,38.8026],[140.1463,38.8021],[140.162,38.8068],[140.1714,38.8063],[140.1768,38.7996],[140.1845,38.7921],[140.1901,38.788],[140.205,38.7815],[140.2102,38.7747],[140.2117,38.7691],[140.2154,38.7649],[140.2352,38.7647],[140.2414,38.7651],[140.2516,38.768],[140.2638,38.7734],[140.2667,38.7761],[140.2661,38.7819],[140.2612,38.7885],[140.2641,38.7924],[140.2685,38.7948],[140.2806,38.7992],[140.2862,38.8058],[140.2941,38.8131],[140.3012,38.8173],[140.3159,38.8213],[140.3163,38.8256],[140.3004,38.8417],[140.2915,38.8355],[140.2801,38.8315],[140.2717,38.8326],[140.2632,38.8367],[140.2546,38.8377],[140.2399,38.8376],[140.2331,38.8386],[140.2297,38.8411],[140.2252,38.8524],[140.2213,38.857],[140.2106,38.8653],[140.1988,38.8676],[140.1537,38.8679],[140.1414,38.8702],[140.122,38.8725]]]}},{"type":"Feature","properties":{"id":6025},"geometry":{"type":"Polygon","coordinates":[[[140.4937,38.9053],[140.485,38.9008],[140.472,38.8906],[140.4635,38.8864],[140.4545,38.8794],[140.4338,38.8682],[140.4251,38.8664],[140.4135,38.8662],[140.4075,38.8647],[140.3998,38.8585],[140.3976,38.8547],[140.3932,38.8515],[140.3725,38.8458],[140.3617,38.8448],[140.3407,38.8482],[140.3283,38.8479],[140.3124,38.8435],[140.3004,38.8417],[140.3163,38.8256],[140.3159,38.8213],[140.3012,38.8173],[140.2941,38.8131],[140.2862,38.8058],[140.2806,38.7992],[140.2685,38.7948],[140.2641,38.7924],[140.2612,38.7885],[140.2661,38.7819],[140.2667,38.7761],[140.2638,38.7734],[140.2516,38.768],[140.2414,38.7651],[140.2352,38.7647],[140.2154,38.7649],[140.214,38.7556],[140.2095,38.7319],[140.2009,38.7251],[140.2026,38.7201],[140.2161,38.7177],[140.2354,38.7146],[140.2444,38.7147],[140.2582,38.7174],[140.2658,38.7168],[140.2717,38.7151],[140.2742,38.7125],[140.2721,38.7085],[140.2647,38.7046],[140.2592,38.6972],[140.2744,38.6957],[140.3004,38.6954],[140.3068,38.6963],[140.3118,38.7006],[140.3184,38.7103],[140.3294,38.7146],[140.3458,38.7239],[140.3507,38.7257],[140.36,38.7323],[140.3754,38.7396],[140.3903,38.7487],[140.3934,38.7505],[140.422,38.7727],[140.4275,38.7794],[140.4282,38.7857],[140.4281,38.8054],[140.4286,38.8118],[140.431,38.8164],[140.4826,38.8567],[140.4864,38.8601],[140.4901,38.8711],[140.4918,38.8846],[140.5009,38.899],[140.4937,38.9053]]]}},{"type":"Feature","properties":{"id":6026},"geometry":{"type":"Polygon","coordinates":[[[139.9855,38.1772],[140.005,38.1727],[140.0245,38.1669],[140.0385,38.1613],[140.0455,38.1575],[140.0501,38.1531],[140.0586,38.1381],[140.0636,38.1354],[140.0806,38.1344],[140.0878,38.1329],[140.0962,38.1288],[140.1109,38.1276],[140.1149,38.1326],[140.1295,38.1426],[140.1316,38.1455],[140.1365,38.1571],[140.1422,38.1654],[140.1508,38.1796],[140.1561,38.186],[140.1648,38.1992],[140.1705,38.2041],[140.183,38.2168],[140.1904,38.2207],[140.1777,38.2363],[140.1672,38.2417],[140.1537,38.2475],[140.1459,38.247],[140.1261,38.2471],[140.1173,38.2465],[140.1053,38.2431],[140.0988,38.2426],[140.0952,38.244],[140.0928,38.2477],[140.0864,38.2537],[140.0781,38.2576],[140.0713,38.2567],[140.0634,38.2536],[140.0506,38.2469],[140.0457,38.2452],[140.0372,38.2389],[140.0297,38.2365],[140.0152,38.2356],[140.0101,38.2314],[140.0032,38.223],[140.0004,38.214],[140.0002,38.1906],[139.997,38.1827],[139.9855,38.1772]]]}},{"type":"Feature","properties":{"id":6027},"geometry":{"type":"Polygon","coordinates":[[[139.8724,38.8215],[139.903,38.8078],[139.9091,38.8034],[139.9171,38.7995],[139.9326,38.7867],[139.9411,38.7829],[139.9448,38.7799],[139.9489,38.7717],[139.9506,38.7628],[139.949,38.7529],[139.9505,38.7501],[139.9552,38.7492],[139.9841,38.7493],[139.9901,38.7487],[140.0016,38.74],[140.0059,38.7313],[140.0068,38.7196],[140.0051,38.7159],[139.9956,38.7114],[139.9926,38.709],[139.9914,38.7042],[139.9931,38.6925],[139.9929,38.6748],[139.9908,38.6646],[139.9918,38.658],[139.9973,38.6478],[139.9982,38.6413],[139.9983,38.622],[140.0001,38.6084],[140.0037,38.5963],[140.0058,38.5926],[140.0285,38.5741],[140.0317,38.5696],[140.0335,38.5582],[140.0397,38.5312],[140.0585,38.5234],[140.0624,38.5232],[140.0704,38.526],[140.0813,38.536],[140.0872,38.5459],[140.0975,38.5521],[140.101,38.5565],[140.1022,38.5636],[140.1049,38.5684],[140.1134,38.5756],[140.1136,38.5781],[140.1076,38.5864],[140.1043,38.5943],[140.1036,38.601],[140.1043,38.6109],[140.0948,38.6142],[140.0849,38.6196],[140.0733,38.6317],[140.0679,38.6386],[140.0485,38.6542],[140.0416,38.6626],[140.0378,38.6687],[140.0383,38.6724],[140.0437,38.6771],[140.0475,38.6853],[140.0488,38.6959],[140.0522,38.7038],[140.0591,38.7165],[140.0545,38.7277],[140.0417,38.751],[140.0412,38.7556],[140.0414,38.7753],[140.0336,38.7821],[140.0194,38.7932],[140.0004,38.8006],[139.9942,38.805],[139.9792,38.8119],[139.9716,38.8179],[139.9597,38.8356],[139.9532,38.8437],[139.9478,38.8486],[139.9408,38.8571],[139.9322,38.87],[139.9288,38.8725],[139.9227,38.8733],[139.9086,38.8734],[139.9019,38.8725],[139.8943,38.8665],[139.8923,38.8608],[139.8916,38.8535],[139.8849,38.8502],[139.8796,38.8527],[139.876,38.8601],[139.8705,38.8619],[139.8651,38.8567],[139.8689,38.8466],[139.869,38.8363],[139.8671,38.8271],[139.8724,38.8215]]]}},{"type":"Feature","properties":{"id":6028},"geometry":{"type":"Polygon","coordinates":[[[140.2833,37.9737],[140.2793,37.984],[140.2841,37.9947],[140.2921,38.0047],[140.2867,38.0132],[140.2835,38.023],[140.279,38.0329],[140.2856,38.0438],[140.2804,38.0531],[140.2836,38.054],[140.2749,38.0674],[140.2711,38.0702],[140.2592,38.0754],[140.2527,38.0772],[140.2427,38.0837],[140.2366,38.0773],[140.2242,38.0673],[140.2137,38.0533],[140.2122,38.0476],[140.2128,38.0396],[140.2108,38.0373],[140.197,38.0322],[140.1882,38.031],[140.1777,38.0272],[140.1633,38.0258],[140.1458,38.0225],[140.1349,38.0214],[140.1344,38.0011],[140.1252,37.9865],[140.1258,37.9829],[140.1289,37.9752],[140.1288,37.9679],[140.133,37.9644],[140.1432,37.9722],[140.1511,37.9696],[140.165,37.9608],[140.1746,37.9451],[140.1783,37.9422],[140.1934,37.9356],[140.1959,37.9309],[140.1961,37.92],[140.1976,37.9082],[140.2014,37.9021],[140.2088,37.8975],[140.2161,37.897],[140.2246,37.9003],[140.2286,37.9038],[140.2338,37.9127],[140.2373,37.9156],[140.2467,37.9178],[140.2745,37.9175],[140.2747,37.9161],[140.2822,37.9316],[140.2811,37.942],[140.2769,37.9539],[140.2753,37.9647],[140.2833,37.9737]]]}},{"type":"Feature","properties":{"id":6029},"geometry":{"type":"Polygon","coordinates":[[[140.3425,38.3994],[140.3347,38.389],[140.3292,38.3841],[140.327,38.3803],[140.3195,38.3721],[140.3198,38.3683],[140.3158,38.3534],[140.3155,38.3447],[140.3281,38.3272],[140.3362,38.3207],[140.3429,38.3179],[140.3708,38.3113],[140.3776,38.3092],[140.3857,38.3101],[140.4036,38.3099],[140.4141,38.3093],[140.4289,38.315],[140.4357,38.319],[140.4498,38.3295],[140.4601,38.3332],[140.4783,38.3349],[140.4957,38.335],[140.5094,38.3368],[140.5179,38.3397],[140.524,38.343],[140.4983,38.3484],[140.4891,38.3546],[140.4787,38.3637],[140.4745,38.3665],[140.4506,38.3863],[140.4306,38.396],[140.427,38.3967],[140.4202,38.3953],[140.4089,38.3909],[140.3971,38.3881],[140.3881,38.39],[140.3789,38.3907],[140.3647,38.393],[140.3503,38.3941],[140.3425,38.3994]]]}},{"type":"Feature","properties":{"id":6030},"geometry":{"type":"Polygon","coordinates":[[[140.2161,38.7177],[140.2026,38.7201],[140.2009,38.7251],[140.2095,38.7319],[140.214,38.7556],[140.2154,38.7649],[140.2117,38.7691],[140.2102,38.7747],[140.205,38.7815],[140.1901,38.788],[140.1845,38.7921],[140.1768,38.7996],[140.1714,38.8063],[140.162,38.8068],[140.1463,38.8021],[140.1379,38.8026],[140.1224,38.8154],[140.1141,38.8159],[140.0911,38.816],[140.0846,38.812],[140.084,38.7979],[140.0826,38.794],[140.0789,38.7911],[140.0688,38.7861],[140.0503,38.7793],[140.0414,38.7753],[140.0412,38.7556],[140.0417,38.751],[140.0545,38.7277],[140.0591,38.7165],[140.0522,38.7038],[140.0488,38.6959],[140.0475,38.6853],[140.0437,38.6771],[140.0383,38.6724],[140.0378,38.6687],[140.0416,38.6626],[140.0485,38.6542],[140.0679,38.6386],[140.0733,38.6317],[140.0849,38.6196],[140.0948,38.6142],[140.1043,38.6109],[140.1162,38.6096],[140.1268,38.6093],[140.1344,38.61],[140.1415,38.6132],[140.151,38.6223],[140.1559,38.6244],[140.1664,38.6256],[140.171,38.628],[140.184,38.6383],[140.1948,38.6506],[140.2006,38.6598],[140.2014,38.6755],[140.2007,38.6819],[140.1983,38.6888],[140.1966,38.6973],[140.2042,38.7079],[140.2161,38.7177]]]}},{"type":"Feature","properties":{"id":6031},"geometry":{"type":"Polygon","coordinates":[[[139.5496,38.5464],[139.5661,38.54],[139.5945,38.526],[139.605,38.5198],[139.625,38.5223],[139.6354,38.5168],[139.6416,38.5083],[139.6534,38.5051],[139.6656,38.5055],[139.6874,38.5028],[139.704,38.5],[139.7166,38.4955],[139.729,38.4838],[139.721,38.4773],[139.7165,38.4677],[139.7185,38.4576],[139.7232,38.4484],[139.7215,38.4385],[139.7216,38.4269],[139.7186,38.4173],[139.7089,38.4042],[139.7079,38.3937],[139.7134,38.3836],[139.7224,38.3893],[139.731,38.3826],[139.7335,38.3721],[139.741,38.3652],[139.7495,38.359],[139.7636,38.3582],[139.7725,38.3517],[139.7829,38.3503],[139.7925,38.3472],[139.8029,38.3494],[139.8131,38.3526],[139.8238,38.3488],[139.8324,38.3414],[139.843,38.3399],[139.8605,38.3291],[139.8684,38.3227],[139.8787,38.3128],[139.8889,38.3178],[139.9034,38.3296],[139.91,38.3419],[139.9115,38.3499],[139.9141,38.355],[139.9151,38.3704],[139.9168,38.3815],[139.9168,38.3927],[139.9198,38.4017],[139.9251,38.4082],[139.9324,38.4201],[139.9338,38.4249],[139.9386,38.4309],[139.9391,38.4369],[139.9326,38.4448],[139.9271,38.4498],[139.9264,38.4546],[139.929,38.4595],[139.9306,38.4683],[139.9401,38.4816],[139.9405,38.498],[139.9447,38.504],[139.9536,38.5059],[139.9643,38.5114],[139.9705,38.5158],[139.9806,38.5209],[139.9927,38.5253],[140.0088,38.5377],[140.014,38.5389],[140.0397,38.5312],[140.0335,38.5582],[140.0317,38.5696],[140.0285,38.5741],[140.0058,38.5926],[140.0037,38.5963],[140.0001,38.6084],[139.9983,38.622],[139.9982,38.6413],[139.9973,38.6478],[139.9918,38.658],[139.9908,38.6646],[139.9929,38.6748],[139.9931,38.6925],[139.9914,38.7042],[139.9926,38.709],[139.9956,38.7114],[140.0051,38.7159],[140.0068,38.7196],[140.0059,38.7313],[140.0016,38.74],[139.9901,38.7487],[139.9841,38.7493],[139.9552,38.7492],[139.9505,38.7501],[139.949,38.7529],[139.9506,38.7628],[139.9489,38.7717],[139.9448,38.7799],[139.9411,38.7829],[139.9326,38.7867],[139.9171,38.7995],[139.9091,38.8034],[139.903,38.8078],[139.8724,38.8215],[139.8728,38.8139],[139.8767,38.8035],[139.882,38.7932],[139.8857,38.7824],[139.8853,38.7753],[139.8795,38.7644],[139.8773,38.7513],[139.8721,38.7457],[139.8635,38.7461],[139.8606,38.7499],[139.8619,38.7624],[139.8609,38.7654],[139.8561,38.7694],[139.8413,38.7762],[139.8306,38.7846],[139.8256,38.7963],[139.8195,38.8066],[139.8044,38.8098],[139.8,38.8099],[139.7825,38.8059],[139.7749,38.8014],[139.7672,38.7994],[139.7612,38.7997],[139.7533,38.7859],[139.7462,38.775],[139.7402,38.7725],[139.7339,38.7683],[139.7302,38.7638],[139.7261,38.7626],[139.722,38.7584],[139.7088,38.7519],[139.7083,38.7445],[139.7031,38.7417],[139.6965,38.7348],[139.6986,38.7322],[139.6964,38.7283],[139.6931,38.7277],[139.6903,38.7236],[139.6802,38.7177],[139.671,38.7188],[139.6672,38.7169],[139.667,38.7137],[139.6622,38.7128],[139.6631,38.709],[139.6606,38.7046],[139.6527,38.7027],[139.6502,38.6956],[139.6332,38.6846],[139.6268,38.6874],[139.6206,38.6783],[139.6152,38.6749],[139.6145,38.6709],[139.6102,38.6679],[139.6097,38.6644],[139.6061,38.6619],[139.6005,38.6528],[139.5948,38.6463],[139.595,38.6395],[139.5914,38.6374],[139.5881,38.6317],[139.5882,38.6276],[139.5853,38.6225],[139.5766,38.6113],[139.5697,38.5995],[139.5639,38.5953],[139.564,38.5904],[139.5595,38.5867],[139.5597,38.5821],[139.5573,38.5751],[139.5456,38.5632],[139.5481,38.5615],[139.5444,38.5556],[139.55,38.5512],[139.5496,38.5464]]]}},{"type":"Feature","properties":{"id":6032},"geometry":{"type":"Polygon","coordinates":[[[140.474,38.2491],[140.4757,38.2599],[140.4798,38.2697],[140.4926,38.2727],[140.5004,38.2804],[140.4959,38.2908],[140.5061,38.3028],[140.5272,38.3136],[140.5333,38.3227],[140.5271,38.3367],[140.5258,38.3438],[140.524,38.343],[140.5179,38.3397],[140.5094,38.3368],[140.4957,38.335],[140.4783,38.3349],[140.4601,38.3332],[140.4498,38.3295],[140.4357,38.319],[140.4289,38.315],[140.4141,38.3093],[140.4036,38.3099],[140.3857,38.3101],[140.3776,38.3092],[140.3708,38.3113],[140.3429,38.3179],[140.3362,38.3207],[140.3281,38.3272],[140.3155,38.3447],[140.3127,38.3263],[140.3093,38.3191],[140.301,38.3079],[140.293,38.295],[140.2874,38.2849],[140.2698,38.2709],[140.2606,38.2688],[140.2338,38.269],[140.2222,38.2669],[140.2146,38.2607],[140.2135,38.2572],[140.2148,38.251],[140.2205,38.2408],[140.221,38.2314],[140.2168,38.2276],[140.202,38.2229],[140.1904,38.2207],[140.205,38.2167],[140.2128,38.2134],[140.223,38.207],[140.2303,38.2058],[140.246,38.2053],[140.2489,38.2032],[140.2536,38.1871],[140.2563,38.1733],[140.2584,38.1714],[140.2663,38.1718],[140.2771,38.1746],[140.298,38.1711],[140.3173,38.1665],[140.325,38.1654],[140.3444,38.1607],[140.3533,38.1598],[140.3754,38.1561],[140.4003,38.1538],[140.429,38.149],[140.4379,38.1481],[140.4539,38.1452],[140.4581,38.1492],[140.4686,38.1533],[140.4725,38.1632],[140.4772,38.1721],[140.4835,38.18],[140.4819,38.1908],[140.4743,38.2104],[140.4775,38.2205],[140.4715,38.229],[140.474,38.2491]]]}},{"type":"Feature","properties":{"id":6033},"geometry":{"type":"Polygon","coordinates":[[[140.1537,38.2475],[140.1672,38.2417],[140.1777,38.2363],[140.1904,38.2207],[140.202,38.2229],[140.2168,38.2276],[140.221,38.2314],[140.2205,38.2408],[140.2148,38.251],[140.2135,38.2572],[140.2146,38.2607],[140.2222,38.2669],[140.2338,38.269],[140.2606,38.2688],[140.2698,38.2709],[140.2874,38.2849],[140.293,38.295],[140.301,38.3079],[140.2953,38.3088],[140.2905,38.308],[140.2641,38.3064],[140.2562,38.3042],[140.2402,38.304],[140.2367,38.3049],[140.2172,38.3203],[140.2091,38.3248],[140.1948,38.3245],[140.1902,38.3089],[140.1904,38.3028],[140.194,38.2972],[140.199,38.2928],[140.1976,38.2875],[140.1844,38.2841],[140.1798,38.2811],[140.1749,38.2747],[140.1694,38.2698],[140.1602,38.2547],[140.1537,38.2475]]]}},{"type":"Feature","properties":{"id":6034},"geometry":{"type":"Polygon","coordinates":[[[140.2747,37.9161],[140.2745,37.9175],[140.2467,37.9178],[140.2373,37.9156],[140.2338,37.9127],[140.2286,37.9038],[140.2246,37.9003],[140.2161,37.897],[140.2088,37.8975],[140.2014,37.9021],[140.1976,37.9082],[140.1961,37.92],[140.1959,37.9309],[140.1934,37.9356],[140.1783,37.9422],[140.1746,37.9451],[140.165,37.9608],[140.1511,37.9696],[140.1432,37.9722],[140.133,37.9644],[140.1288,37.9679],[140.1289,37.9752],[140.1258,37.9829],[140.1142,37.9763],[140.1056,37.9748],[140.0916,37.9744],[140.0859,37.9726],[140.0822,37.9698],[140.0708,37.9577],[140.0681,37.9535],[140.0651,37.9441],[140.063,37.9406],[140.0578,37.9403],[140.0495,37.9425],[140.0431,37.9391],[140.04,37.9283],[140.0341,37.9183],[140.027,37.9099],[140.0194,37.9038],[140.0085,37.8985],[140.0027,37.8969],[139.9943,37.893],[139.9886,37.8914],[139.966,37.8819],[139.9574,37.8793],[139.951,37.8721],[139.9467,37.8645],[139.9463,37.8357],[139.9467,37.8183],[139.9483,37.8165],[139.9577,37.8129],[139.9652,37.803],[139.9632,37.7931],[139.972,37.7856],[139.9751,37.7751],[139.9815,37.766],[139.9898,37.7576],[140.0029,37.7577],[140.0059,37.7585],[140.0138,37.7607],[140.0238,37.7607],[140.0342,37.7648],[140.0439,37.7672],[140.0522,37.7759],[140.0585,37.7678],[140.0685,37.7645],[140.0735,37.7547],[140.0841,37.7533],[140.0937,37.75],[140.1048,37.7357],[140.1267,37.7309],[140.1375,37.7357],[140.1465,37.742],[140.1539,37.7502],[140.1643,37.7535],[140.1689,37.7533],[140.1871,37.7523],[140.2,37.7501],[140.2136,37.746],[140.2201,37.744],[140.2308,37.7434],[140.2442,37.7508],[140.2578,37.7614],[140.2716,37.7774],[140.2808,37.7824],[140.2853,37.7919],[140.2937,37.7985],[140.2979,37.8079],[140.2792,37.8177],[140.2702,37.8243],[140.269,37.8521],[140.2729,37.8622],[140.2707,37.8835],[140.2707,37.8944],[140.2679,37.905],[140.2747,37.9161]]]}},{"type":"Feature","properties":{"id":6035},"geometry":{"type":"Polygon","coordinates":[[[139.8698,39.1191],[139.8685,39.1129],[139.8729,39.1099],[139.8731,39.1063],[139.8779,39.1031],[139.8768,39.0995],[139.879,39.0962],[139.8762,39.0896],[139.8738,39.0891],[139.8703,39.0812],[139.872,39.0775],[139.8679,39.0741],[139.8732,39.071],[139.8707,39.0627],[139.8631,39.0432],[139.8584,39.0299],[139.8555,39.0245],[139.8524,39.013],[139.8483,39.0062],[139.8406,38.9866],[139.8596,38.9806],[139.8658,38.9799],[139.8703,38.9818],[139.8729,38.986],[139.874,39.0011],[139.8768,39.003],[139.8849,39.0019],[139.8974,38.9962],[139.903,38.9921],[139.9145,38.9868],[139.9228,38.9859],[139.9404,38.9889],[139.9496,38.9916],[139.9649,38.9985],[139.972,39.0012],[139.9854,39.0025],[140.0062,39.0081],[140.0148,39.0121],[140.0358,39.0442],[140.0407,39.0538],[140.0482,39.0655],[140.0623,39.0768],[140.0761,39.0843],[140.0697,39.0981],[140.0649,39.111],[140.0658,39.1307],[140.0547,39.1286],[140.0161,39.1211],[140.0007,39.1129],[139.9972,39.1029],[139.9865,39.1055],[139.9488,39.1099],[139.9063,39.1158],[139.8698,39.1191]]]}}]}