{"type":"FeatureCollection","features":[{"type":"Feature","properties":{"id":7001},"geometry":{"type":"Polygon","coordinates":[[[139.8486,37.5283],[139.8663,37.5273],[139.8722,37.5291],[139.8783,37.5374],[139.8737,37.547],[139.8718,37.5541],[139.8668,37.5634],[139.8645,37.5739],[139.865,37.5947],[139.8578,37.5972],[139.8417,37.6008],[139.8374,37.6024],[139.8252,37.6038],[139.8107,37.6037],[139.8061,37.6049],[139.8041,37.6079],[139.8039,37.6153],[139.8069,37.6206],[139.8149,37.6243],[139.817,37.6273],[139.8142,37.6313],[139.8094,37.631],[139.7993,37.6279],[139.7889,37.6197],[139.7836,37.6104],[139.7829,37.5969],[139.7812,37.5933],[139.7742,37.5877],[139.7542,37.5797],[139.747,37.5787],[139.7398,37.5796],[139.727,37.5848],[139.7231,37.5655],[139.7315,37.5617],[139.7387,37.5604],[139.7479,37.5546],[139.7518,37.5503],[139.7537,37.5441],[139.7569,37.539],[139.7607,37.536],[139.7681,37.5327],[139.7724,37.5262],[139.7725,37.5037],[139.7774,37.5072],[139.7879,37.5168],[139.7895,37.5197],[139.7959,37.525],[139.8021,37.5269],[139.8248,37.5294],[139.8486,37.5283]]]}},{"type":"Feature","properties":{"id":7002},"geometry":{"type":"Polygon","coordinates":[[[139.7725,37.5037],[139.7725,37.4816],[139.7737,37.4739],[139.7785,37.4679],[139.7789,37.4634],[139.7754,37.4576],[139.7679,37.4517],[139.7581,37.4482],[139.7541,37.4453],[139.7539,37.4371],[139.763,37.4258],[139.7648,37.4185],[139.7647,37.4081],[139.7543,37.3884],[139.7498,37.3781],[139.7401,37.3671],[139.7301,37.3596],[139.7231,37.3582],[139.7064,37.3526],[139.7172,37.3425],[139.7258,37.3314],[139.7303,37.3273],[139.7405,37.3115],[139.7439,37.3042],[139.7473,37.2914],[139.7486,37.283],[139.768,37.2814],[139.7791,37.2826],[139.7854,37.2851],[139.7953,37.296],[139.7973,37.2995],[139.8069,37.3074],[139.8127,37.3102],[139.8246,37.314],[139.8315,37.3194],[139.8357,37.33],[139.8421,37.3379],[139.8501,37.3387],[139.8546,37.3425],[139.8552,37.3506],[139.865,37.3589],[139.8764,37.3596],[139.8837,37.3586],[139.8959,37.3681],[139.9007,37.3744],[139.9089,37.3823],[139.9167,37.3887],[139.9183,37.3923],[139.9131,37.4046],[139.9113,37.4135],[139.9104,37.4318],[139.9053,37.4507],[139.8991,37.4534],[139.8764,37.4534],[139.871,37.4551],[139.8673,37.4583],[139.8576,37.4737],[139.8493,37.4916],[139.8487,37.4982],[139.8486,37.5283],[139.8248,37.5294],[139.8021,37.5269],[139.7959,37.525],[139.7895,37.5197],[139.7879,37.5168],[139.7774,37.5072],[139.7725,37.5037]]]}},{"type":"Feature","properties":{"id":7003},"geometry":{"type":"Polygon","coordinates":[[[139.8486,37.5283],[139.8487,37.4982],[139.8493,37.4916],[139.8576,37.4737],[139.8673,37.4583],[139.871,37.4551],[139.8764,37.4534],[139.8991,37.4534],[139.9053,37.4507],[139.9104,37.4318],[139.9113,37.4135],[139.9131,37.4046],[139.9183,37.3923],[139.9167,37.3887],[139.9089,37.3823],[139.9007,37.3744],[139.8959,37.3681],[139.8837,37.3586],[139.8818,37.3461],[139.8857,37.3419],[139.8902,37.343],[139.8943,37.3462],[139.9024,37.3464],[139.914,37.3415],[139.9158,37.3398],[139.9201,37.3294],[139.9235,37.3247],[139.9292,37.3228],[139.9437,37.3234],[139.9494,37.3254],[139.9568,37.3304],[139.9617,37.3309],[139.9724,37.3252],[139.9777,37.3235],[140.0016,37.3233],[140.0092,37.3228],[140.019,37.3307],[140.0211,37.3341],[140.029,37.3344],[140.0435,37.3268],[140.0458,37.337],[140.0469,37.3502],[140.0489,37.3557],[140.0494,37.3666],[140.0527,37.3854],[140.0558,37.3946],[140.0582,37.3988],[140.0627,37.4143],[140.0687,37.4289],[140.058,37.4416],[140.0533,37.4457],[140.0487,37.4569],[140.0485,37.4637],[140.0448,37.4746],[140.0422,37.4757],[140.0352,37.4731],[140.03,37.4741],[140.028,37.4828],[140.0231,37.49],[140.0193,37.4988],[140.0197,37.5028],[140.0242,37.509],[140.0199,37.5124],[140.014,37.52],[140.0141,37.5223],[140.0035,37.5303],[139.9987,37.5365],[139.992,37.5415],[139.9678,37.5504],[139.9366,37.5667],[139.9291,37.5696],[139.923,37.5721],[139.91,37.5755],[139.9019,37.5792],[139.9025,37.558],[139.905,37.5513],[139.9028,37.547],[139.8907,37.5437],[139.8783,37.5374],[139.8722,37.5291],[139.8663,37.5273],[139.8486,37.5283]]]}},{"type":"Feature","properties":{"id":7004},"geometry":{"type":"Polygon","coordinates":[[[140.4121,37.1131],[140.4054,37.1061],[140.4014,37.0967],[140.4008,37.0923],[140.4042,37.0874],[140.4028,37.0823],[140.3931,37.0759],[140.3978,37.0649],[140.3982,37.0521],[140.4007,37.0481],[140.4065,37.0459],[140.4174,37.0451],[140.4222,37.043],[140.4258,37.0349],[140.4273,37.0254],[140.4287,37.0229],[140.4341,37.0234],[140.4463,37.0335],[140.4513,37.0388],[140.441,37.052],[140.4405,37.0585],[140.4454,37.0682],[140.4615,37.0744],[140.4673,37.0779],[140.4659,37.0869],[140.4631,37.094],[140.463,37.1007],[140.4588,37.1067],[140.4483,37.1102],[140.4407,37.1139],[140.4321,37.1148],[140.419,37.1146],[140.4121,37.1131]]]}},{"type":"Feature","properties":{"id":7005},"geometry":{"type":"Polygon","coordinates":[[[140.0141,37.5223],[140.0236,37.5293],[140.0356,37.5313],[140.0413,37.5332],[140.0445,37.5367],[140.0412,37.5464],[140.0457,37.5547],[140.0535,37.5638],[140.0545,37.5687],[140.0518,37.5781],[140.0524,37.5833],[140.0625,37.5907],[140.0698,37.5928],[140.0695,37.5995],[140.0661,37.6045],[140.0555,37.6054],[140.0285,37.6052],[140.0096,37.6036],[139.999,37.6016],[139.9724,37.597],[139.9552,37.5902],[139.9512,37.5875],[139.9291,37.5696],[139.9366,37.5667],[139.9678,37.5504],[139.992,37.5415],[139.9987,37.5365],[140.0035,37.5303],[140.0141,37.5223]]]}},{"type":"Feature","properties":{"id":7006},"geometry":{"type":"Polygon","coordinates":[[[140.6596,37.7052],[140.6616,37.7095],[140.6664,37.7142],[140.6776,37.7327],[140.6868,37.7402],[140.6972,37.7435],[140.7163,37.7469],[140.7212,37.7488],[140.7296,37.7501],[140.73,37.755],[140.7284,37.7626],[140.7223,37.7659],[140.7073,37.7658],[140.6969,37.7677],[140.6866,37.7759],[140.6835,37.7823],[140.6843,37.7871],[140.6888,37.7912],[140.6984,37.8028],[140.6968,37.8033],[140.6896,37.8116],[140.6881,37.8221],[140.6827,37.8333],[140.6897,37.8404],[140.6943,37.8504],[140.6908,37.8619],[140.6861,37.8709],[140.6919,37.8793],[140.6855,37.8875],[140.6756,37.89],[140.6635,37.8978],[140.6506,37.8959],[140.6298,37.8962],[140.6219,37.9092],[140.62,37.9088],[140.6083,37.9061],[140.6091,37.8991],[140.6089,37.8788],[140.607,37.8703],[140.6013,37.8601],[140.5953,37.8583],[140.5615,37.8584],[140.5484,37.8399],[140.5381,37.8356],[140.5295,37.8341],[140.5154,37.8277],[140.5008,37.8243],[140.4929,37.8215],[140.491,37.8137],[140.4921,37.8099],[140.4953,37.8072],[140.507,37.8004],[140.5101,37.7962],[140.5148,37.7839],[140.5181,37.7793],[140.5268,37.7727],[140.5302,37.7685],[140.5317,37.7612],[140.5302,37.747],[140.5266,37.7364],[140.5246,37.7332],[140.5209,37.7184],[140.5302,37.7129],[140.5393,37.7097],[140.5529,37.7097],[140.5598,37.7122],[140.5663,37.7113],[140.5688,37.7076],[140.5733,37.6962],[140.5798,37.6877],[140.5839,37.687],[140.589,37.6912],[140.5936,37.7044],[140.5973,37.707],[140.6084,37.707],[140.6202,37.705],[140.6596,37.7052]]]}},{"type":"Feature","properties":{"id":7007},"geometry":{"type":"Polygon","coordinates":[[[140.4929,37.8215],[140.4805,37.834],[140.4757,37.838],[140.4688,37.8486],[140.4657,37.8553],[140.4644,37.8686],[140.469,37.8774],[140.4769,37.8841],[140.4793,37.8898],[140.4807,37.903],[140.4822,37.9032],[140.4784,37.9066],[140.4729,37.9153],[140.4724,37.9254],[140.4685,37.9424],[140.4569,37.9477],[140.4478,37.9539],[140.4366,37.9508],[140.4149,37.9602],[140.4111,37.9699],[140.4004,37.9707],[140.3901,37.9632],[140.3893,37.9525],[140.36,37.955],[140.3537,37.9471],[140.3441,37.95],[140.3323,37.9549],[140.3217,37.9552],[140.3122,37.9606],[140.3036,37.9665],[140.2927,37.9694],[140.2833,37.9737],[140.2753,37.9647],[140.2769,37.9539],[140.2811,37.942],[140.2822,37.9316],[140.2747,37.9161],[140.2679,37.905],[140.2707,37.8944],[140.2707,37.8835],[140.2729,37.8622],[140.269,37.8521],[140.2702,37.8243],[140.2792,37.8177],[140.2979,37.8079],[140.2937,37.7985],[140.2853,37.7919],[140.2808,37.7824],[140.2716,37.7774],[140.2578,37.7614],[140.2442,37.7508],[140.2308,37.7434],[140.2329,37.739],[140.2337,37.7221],[140.2356,37.7138],[140.2409,37.7045],[140.2392,37.6981],[140.2382,37.6859],[140.2394,37.6807],[140.2462,37.6701],[140.2495,37.6675],[140.2578,37.6658],[140.2705,37.6644],[140.2774,37.6606],[140.2818,37.6529],[140.2869,37.6463],[140.2891,37.6388],[140.3201,37.6392],[140.3314,37.6438],[140.3388,37.6451],[140.3607,37.6438],[140.3664,37.642],[140.3712,37.6427],[140.3769,37.6466],[140.3867,37.6502],[140.3932,37.6493],[140.4026,37.6424],[140.4118,37.6396],[140.4317,37.6399],[140.4447,37.642],[140.454,37.6428],[140.4598,37.6448],[140.4697,37.6455],[140.4746,37.6447],[140.4843,37.6398],[140.488,37.6368],[140.4917,37.6271],[140.4925,37.6222],[140.4968,37.6149],[140.5004,37.6124],[140.5101,37.6094],[140.514,37.6104],[140.5221,37.6247],[140.5278,37.6325],[140.5303,37.6454],[140.5191,37.6487],[140.5157,37.6512],[140.5104,37.6633],[140.512,37.6683],[140.518,37.6761],[140.5287,37.6831],[140.5331,37.6847],[140.5457,37.6933],[140.5429,37.6985],[140.5374,37.7018],[140.5241,37.7043],[140.519,37.7072],[140.5179,37.7099],[140.5209,37.7184],[140.5246,37.7332],[140.5266,37.7364],[140.5302,37.747],[140.5317,37.7612],[140.5302,37.7685],[140.5268,37.7727],[140.5181,37.7793],[140.5148,37.7839],[140.5101,37.7962],[140.507,37.8004],[140.4953,37.8072],[140.4921,37.8099],[140.491,37.8137],[140.4929,37.8215]]]}},{"type":"Feature","properties":{"id":7008},"geometry":{"type":"Polygon","coordinates":[[[140.5436,37.1544],[140.54,37.1448],[140.5347,37.1371],[140.5236,37.1186],[140.5139,37.1108],[140.501,37.1073],[140.4992,37.1023],[140.507,37.0943],[140.5085,37.0897],[140.5085,37.0811],[140.5157,37.0729],[140.5259,37.0637],[140.5355,37.0597],[140.5465,37.0588],[140.5531,37.0567],[140.5571,37.0521],[140.5584,37.0471],[140.5635,37.0368],[140.5698,37.018],[140.5744,37.0012],[140.5756,36.9993],[140.5859,36.9912],[140.5891,36.993],[140.6038,37.005],[140.6118,37.009],[140.6248,37.0167],[140.6284,37.0246],[140.6294,37.0338],[140.6329,37.041],[140.6475,37.0526],[140.6569,37.063],[140.6608,37.0692],[140.6639,37.0786],[140.6645,37.0907],[140.6656,37.0959],[140.6634,37.1026],[140.6519,37.1142],[140.6481,37.1254],[140.6476,37.1348],[140.6446,37.1408],[140.6403,37.1435],[140.6291,37.1474],[140.6224,37.1512],[140.6037,37.1521],[140.5966,37.1549],[140.5851,37.1637],[140.578,37.1651],[140.5643,37.1593],[140.5436,37.1544]]]}},{"type":"Feature","properties":{"id":7009},"geometry":{"type":"Polygon","coordinates":[[[141.0372,37.4637],[141.0272,37.4672],[141.0035,37.4765],[140.9916,37.4769],[140.9836,37.4761],[140.972,37.4697],[140.9647,37.463],[140.951,37.4474],[140.9459,37.4448],[140.9388,37.4443],[140.9177,37.4443],[140.9074,37.4438],[140.9014,37.4426],[140.8936,37.4395],[140.8899,37.4365],[140.8858,37.4283],[140.8956,37.4265],[140.9069,37.4253],[140.9207,37.4247],[140.9492,37.4204],[140.9679,37.4194],[140.977,37.4204],[141.0078,37.4286],[141.0118,37.4316],[141.0168,37.4377],[141.0217,37.4378],[141.0344,37.4321],[141.0359,37.4411],[141.0383,37.4478],[141.0387,37.453],[141.0359,37.4602],[141.0372,37.4637]]]}},{"type":"Feature","properties":{"id":7010},"geometry":{"type":"Polygon","coordinates":[[[140.4643,37.0191],[140.4431,37.0079],[140.4273,37.0019],[140.4224,37.0016],[140.4109,37.0051],[140.407,37.0032],[140.4066,36.9953],[140.4088,36.9898],[140.4176,36.9812],[140.4198,36.976],[140.4193,36.9721],[140.4142,36.9665],[140.4061,36.9617],[140.4006,36.9606],[140.3965,36.963],[140.3922,36.9694],[140.3849,36.9716],[140.3798,36.9697],[140.3723,36.9568],[140.3622,36.9485],[140.3519,36.9431],[140.3436,36.9404],[140.3358,36.9391],[140.3246,36.9404],[140.3161,36.9429],[140.3066,36.947],[140.2991,36.9442],[140.2942,36.9363],[140.3098,36.9316],[140.3196,36.9265],[140.3284,36.92],[140.3612,36.8947],[140.37,36.8917],[140.3904,36.8887],[140.3984,36.8858],[140.4032,36.8801],[140.4157,36.8695],[140.4245,36.8719],[140.428,36.875],[140.4225,36.8875],[140.4206,36.8939],[140.42,36.902],[140.421,36.9054],[140.4269,36.9074],[140.4364,36.9074],[140.444,36.904],[140.4484,36.8982],[140.4845,36.8697],[140.5024,36.8609],[140.5238,36.8444],[140.5305,36.8404],[140.5389,36.8503],[140.5486,36.8549],[140.5602,36.8569],[140.5707,36.861],[140.5756,36.8628],[140.5858,36.8647],[140.5913,36.8679],[140.5956,36.8703],[140.5935,36.881],[140.5859,36.8894],[140.5842,36.8995],[140.5774,36.9074],[140.572,36.9234],[140.578,36.9367],[140.5615,36.9412],[140.5439,36.9435],[140.532,36.944],[140.5246,36.946],[140.5189,36.9464],[140.5063,36.9493],[140.4848,36.9567],[140.4612,36.9684],[140.4602,36.9711],[140.4661,36.9755],[140.4743,36.9861],[140.4822,36.9927],[140.4821,36.999],[140.4704,37.011],[140.4643,37.0191]]]}},{"type":"Feature","properties":{"id":7011},"geometry":{"type":"Polygon","coordinates":[[[139.3797,37.109],[139.3725,37.1086],[139.3595,37.111],[139.3539,37.114],[139.3472,37.1216],[139.3408,37.1306],[139.3396,37.1359],[139.3396,37.1449],[139.3423,37.1528],[139.3422,37.1578],[139.3378,37.1603],[139.3251,37.1616],[139.3116,37.159],[139.2928,37.1588],[139.287,37.1596],[139.2795,37.1632],[139.2676,37.1806],[139.2514,37.1935],[139.2461,37.1938],[139.2351,37.1911],[139.247,37.1766],[139.25,37.1645],[139.2562,37.1564],[139.25,37.1446],[139.2476,37.1344],[139.2465,37.1241],[139.2402,37.1157],[139.2384,37.1043],[139.2422,37.0932],[139.25,37.0791],[139.2578,37.0586],[139.2596,37.0479],[139.258,37.0373],[139.252,37.0263],[139.2486,37.0164],[139.25,37.006],[139.2564,36.993],[139.2568,36.9822],[139.2552,36.9723],[139.2544,36.9616],[139.2496,36.9526],[139.2421,36.9447],[139.2424,36.9297],[139.2605,36.9307],[139.2687,36.938],[139.2779,36.9312],[139.2972,36.9321],[139.3052,36.9255],[139.3281,36.9227],[139.3399,36.9235],[139.3492,36.919],[139.3647,36.9135],[139.3766,36.9152],[139.3855,36.9088],[139.4043,36.9188],[139.413,36.924],[139.4235,36.921],[139.4334,36.9265],[139.438,36.9358],[139.445,36.9444],[139.4555,36.9473],[139.4623,36.9559],[139.4655,36.9616],[139.4517,36.9709],[139.4483,36.9741],[139.4434,36.982],[139.4422,36.9996],[139.4407,37.0043],[139.4304,37.0207],[139.4257,37.0247],[139.4221,37.0303],[139.4176,37.0502],[139.4142,37.056],[139.4041,37.0642],[139.3929,37.0704],[139.3888,37.0748],[139.3858,37.086],[139.385,37.0944],[139.3828,37.1021],[139.3797,37.109]]]}},{"type":"Feature","properties":{"id":7012},"geometry":{"type":"Polygon","coordinates":[[[140.6224,37.1512],[140.6157,37.1621],[140.6139,37.1669],[140.6133,37.1876],[140.6158,37.1945],[140.6264,37.2025],[140.6131,37.2119],[140.6085,37.2173],[140.6053,37.2268],[140.6057,37.2334],[140.6105,37.2408],[140.6102,37.2462],[140.6025,37.2494],[140.591,37.2484],[140.5867,37.2492],[140.5764,37.2572],[140.5674,37.2665],[140.5582,37.2655],[140.5402,37.2653],[140.5281,37.2659],[140.521,37.2574],[140.5116,37.2409],[140.5138,37.2355],[140.5152,37.2259],[140.5135,37.2189],[140.5089,37.2128],[140.5029,37.2021],[140.503,37.1906],[140.5044,37.1863],[140.5089,37.1824],[140.5232,37.176],[140.5303,37.1705],[140.5436,37.1544],[140.5643,37.1593],[140.578,37.1651],[140.5851,37.1637],[140.5966,37.1549],[140.6037,37.1521],[140.6224,37.1512]]]}},{"type":"Feature","properties":{"id":7013},"geometry":{"type":"Polygon","coordinates":[[[141.014,37.2407],[141.0058,37.2417],[141.0025,37.2432],[140.9903,37.2461],[140.97,37.2461],[140.9622,37.2455],[140.9484,37.2434],[140.9323,37.2433],[140.9138,37.2458],[140.9021,37.2456],[140.8889,37.2425],[140.8816,37.2387],[140.8781,37.2367],[140.8744,37.2311],[140.8746,37.227],[140.8772,37.2248],[140.8878,37.2235],[140.8935,37.2216],[140.8988,37.2154],[140.906,37.2117],[140.9145,37.2055],[140.9248,37.2002],[140.9358,37.1955],[140.9411,37.1941],[140.9697,37.1828],[140.9806,37.1823],[140.9982,37.1861],[141.0019,37.1895],[141.0034,37.2009],[141.0078,37.2158],[141.0122,37.2219],[141.0136,37.2284],[141.0201,37.2334],[141.021,37.2405],[141.014,37.2407]]]}},{"type":"Feature","properties":{"id":7014},"geometry":{"type":"Polygon","coordinates":[[[140.5303,37.6454],[140.5365,37.6432],[140.5466,37.6432],[140.5534,37.6446],[140.5611,37.6572],[140.5616,37.6659],[140.5595,37.6752],[140.5559,37.6807],[140.5514,37.6848],[140.5457,37.6933],[140.5331,37.6847],[140.5287,37.6831],[140.518,37.6761],[140.512,37.6683],[140.5104,37.6633],[140.5157,37.6512],[140.5191,37.6487],[140.5303,37.6454]]]}},{"type":"Feature","properties":{"id":7015},"geometry":{"type":"Polygon","coordinates":[[[140.6596,37.7052],[140.6518,37.6903],[140.6529,37.685],[140.6655,37.6793],[140.67,37.6718],[140.6734,37.6622],[140.6752,37.6544],[140.676,37.6307],[140.6815,37.6215],[140.6953,37.6111],[140.7056,37.6073],[140.7195,37.5998],[140.7319,37.5983],[140.7554,37.597],[140.7907,37.597],[140.8024,37.5988],[140.8066,37.6018],[140.8126,37.6084],[140.8155,37.6142],[140.8259,37.6222],[140.8292,37.6256],[140.8297,37.6404],[140.8267,37.6483],[140.826,37.654],[140.8226,37.6642],[140.8173,37.6757],[140.8168,37.6822],[140.8199,37.6924],[140.8179,37.6983],[140.8074,37.7042],[140.806,37.7079],[140.8108,37.7131],[140.8264,37.7183],[140.8331,37.7198],[140.8394,37.723],[140.8406,37.7256],[140.8402,37.7344],[140.8383,37.7395],[140.8274,37.745],[140.8221,37.7487],[140.8145,37.7517],[140.7982,37.7567],[140.7915,37.7573],[140.7709,37.7566],[140.7532,37.7522],[140.7404,37.7515],[140.7296,37.7501],[140.7212,37.7488],[140.7163,37.7469],[140.6972,37.7435],[140.6868,37.7402],[140.6776,37.7327],[140.6664,37.7142],[140.6616,37.7095],[140.6596,37.7052]]]}},{"type":"Feature","properties":{"id":7016},"geometry":{"type":"Polygon","coordinates":[[[140.0687,37.4289],[140.0882,37.4133],[140.1005,37.4099],[140.1128,37.4123],[140.1232,37.413],[140.1288,37.4165],[140.1423,37.4282],[140.1489,37.44],[140.1522,37.4499],[140.1536,37.4583],[140.182,37.4492],[140.1929,37.4479],[140.2004,37.452],[140.2009,37.4581],[140.1984,37.4651],[140.1974,37.4734],[140.194,37.4852],[140.1915,37.4905],[140.1901,37.4978],[140.1872,37.5037],[140.1824,37.5083],[140.1813,37.5117],[140.1813,37.5213],[140.1914,37.5448],[140.1955,37.5484],[140.2049,37.551],[140.2134,37.5508],[140.2235,37.549],[140.229,37.5521],[140.2359,37.5624],[140.2388,37.5696],[140.2399,37.5787],[140.2428,37.5841],[140.2532,37.5919],[140.2611,37.5958],[140.2694,37.6022],[140.2772,37.6061],[140.283,37.6127],[140.2879,37.6145],[140.2895,37.6184],[140.2891,37.6388],[140.2869,37.6463],[140.2818,37.6529],[140.2774,37.6606],[140.2705,37.6644],[140.2578,37.6658],[140.2495,37.6675],[140.2462,37.6701],[140.2394,37.6807],[140.2382,37.6859],[140.2392,37.6981],[140.2409,37.7045],[140.2356,37.7138],[140.2337,37.7221],[140.2329,37.739],[140.2308,37.7434],[140.2201,37.744],[140.2136,37.746],[140.2035,37.746],[140.1904,37.7484],[140.171,37.7492],[140.1733,37.743],[140.1732,37.7338],[140.1699,37.7194],[140.1649,37.7082],[140.1602,37.7007],[140.1518,37.6937],[140.1478,37.6853],[140.1477,37.6713],[140.1442,37.6648],[140.1374,37.659],[140.1276,37.654],[140.114,37.6486],[140.1037,37.6452],[140.1,37.6425],[140.0937,37.6312],[140.092,37.6256],[140.0661,37.6045],[140.0695,37.5995],[140.0698,37.5928],[140.0625,37.5907],[140.0524,37.5833],[140.0518,37.5781],[140.0545,37.5687],[140.0535,37.5638],[140.0457,37.5547],[140.0412,37.5464],[140.0445,37.5367],[140.0413,37.5332],[140.0356,37.5313],[140.0236,37.5293],[140.0141,37.5223],[140.014,37.52],[140.0199,37.5124],[140.0242,37.509],[140.0197,37.5028],[140.0193,37.4988],[140.0231,37.49],[140.028,37.4828],[140.03,37.4741],[140.0352,37.4731],[140.0422,37.4757],[140.0448,37.4746],[140.0485,37.4637],[140.0487,37.4569],[140.0533,37.4457],[140.058,37.4416],[140.0687,37.4289]]]}},{"type":"Feature","properties":{"id":7017},"geometry":{"type":"Polygon","coordinates":[[[140.4673,37.0779],[140.4838,37.0742],[140.4921,37.0746],[140.5003,37.0771],[140.5085,37.0811],[140.5085,37.0897],[140.507,37.0943],[140.4992,37.1023],[140.501,37.1073],[140.5139,37.1108],[140.5236,37.1186],[140.5347,37.1371],[140.54,37.1448],[140.5436,37.1544],[140.5303,37.1705],[140.5232,37.176],[140.5089,37.1824],[140.5044,37.1863],[140.503,37.1906],[140.5029,37.2021],[140.4843,37.2018],[140.466,37.1962],[140.4555,37.1923],[140.4478,37.191],[140.4374,37.1867],[140.4265,37.1843],[140.4097,37.1835],[140.4022,37.184],[140.4029,37.1724],[140.4047,37.165],[140.4016,37.1585],[140.3913,37.1502],[140.3823,37.1419],[140.3783,37.133],[140.3784,37.1181],[140.3928,37.1179],[140.3999,37.1166],[140.4121,37.1131],[140.419,37.1146],[140.4321,37.1148],[140.4407,37.1139],[140.4483,37.1102],[140.4588,37.1067],[140.463,37.1007],[140.4631,37.094],[140.4659,37.0869],[140.4673,37.0779]]]}},{"type":"Feature","properties":{"id":7018},"geometry":{"type":"Polygon","coordinates":[[[140.6224,37.1512],[140.6291,37.1474],[140.6403,37.1435],[140.6446,37.1408],[140.6476,37.1348],[140.6481,37.1254],[140.6519,37.1142],[140.6634,37.1026],[140.6656,37.0959],[140.6645,37.0907],[140.6639,37.0786],[140.6608,37.0692],[140.6569,37.063],[140.6475,37.0526],[140.6329,37.041],[140.6294,37.0338],[140.6284,37.0246],[140.6248,37.0167],[140.6118,37.009],[140.6038,37.005],[140.5891,36.993],[140.5859,36.9912],[140.584,36.9858],[140.5825,36.9727],[140.5842,36.963],[140.5899,36.9464],[140.5904,36.9409],[140.596,36.9332],[140.5967,36.9232],[140.6062,36.9166],[140.6185,36.9003],[140.635,36.8967],[140.6463,36.896],[140.6573,36.8977],[140.667,36.8935],[140.6882,36.8874],[140.6988,36.8849],[140.707,36.8789],[140.7144,36.8721],[140.733,36.8711],[140.7438,36.8723],[140.7632,36.8648],[140.7763,36.8635],[140.7928,36.8578],[140.7892,36.865],[140.7908,36.8772],[140.7947,36.8853],[140.8008,36.8947],[140.8109,36.9042],[140.805,36.905],[140.8019,36.9117],[140.8039,36.9131],[140.8083,36.9072],[140.8127,36.9058],[140.8163,36.9084],[140.8264,36.9128],[140.8312,36.9095],[140.8335,36.9116],[140.8378,36.9097],[140.842,36.9105],[140.8525,36.9197],[140.8619,36.9217],[140.8669,36.925],[140.8736,36.9244],[140.8733,36.9319],[140.8772,36.9317],[140.8881,36.9394],[140.8925,36.9381],[140.9011,36.9411],[140.9047,36.9447],[140.9092,36.9456],[140.915,36.9419],[140.9111,36.9392],[140.9203,36.9344],[140.9256,36.9358],[140.9258,36.9408],[140.9289,36.9456],[140.9322,36.9472],[140.9372,36.9528],[140.9425,36.9553],[140.9483,36.955],[140.952,36.9622],[140.9583,36.9656],[140.96,36.97],[140.9658,36.97],[140.9689,36.9733],[140.9664,36.9783],[140.9689,36.9858],[140.9742,36.9922],[140.9831,36.9953],[140.9792,37.0011],[140.9794,37.0103],[140.9757,37.012],[140.9724,37.0232],[140.9733,37.0309],[140.9723,37.0389],[140.9739,37.0452],[140.9734,37.0506],[140.9786,37.0737],[140.9849,37.0942],[140.9903,37.1061],[140.9957,37.1065],[140.9997,37.1112],[141.0003,37.118],[140.9975,37.1205],[140.9986,37.1312],[140.9981,37.1362],[140.9997,37.141],[141.0037,37.1457],[141.0005,37.1497],[141.0035,37.151],[141.0012,37.1557],[141.0027,37.1602],[141.0025,37.1668],[141.0003,37.1695],[141.0016,37.1738],[141.0019,37.1895],[140.9982,37.1861],[140.9806,37.1823],[140.9697,37.1828],[140.9411,37.1941],[140.9358,37.1955],[140.9248,37.2002],[140.9145,37.2055],[140.906,37.2117],[140.8988,37.2154],[140.8935,37.2216],[140.8878,37.2235],[140.8772,37.2248],[140.8746,37.227],[140.8744,37.2311],[140.8781,37.2367],[140.8816,37.2387],[140.8782,37.2443],[140.8745,37.2601],[140.8732,37.2726],[140.8602,37.2641],[140.8487,37.259],[140.8395,37.2573],[140.829,37.253],[140.8174,37.2532],[140.8102,37.256],[140.8033,37.2616],[140.7999,37.2674],[140.7995,37.2769],[140.7981,37.2805],[140.7854,37.2877],[140.7809,37.2892],[140.7664,37.2975],[140.7576,37.2996],[140.7418,37.3018],[140.7352,37.3068],[140.7278,37.3137],[140.7157,37.3186],[140.709,37.3188],[140.7027,37.3154],[140.689,37.2975],[140.6894,37.2842],[140.6889,37.2588],[140.6816,37.2395],[140.6812,37.2326],[140.6774,37.2265],[140.6612,37.2204],[140.6398,37.209],[140.6295,37.205],[140.6264,37.2025],[140.6158,37.1945],[140.6133,37.1876],[140.6139,37.1669],[140.6157,37.1621],[140.6224,37.1512]]]}},{"type":"Feature","properties":{"id":7019},"geometry":{"type":"Polygon","coordinates":[[[140.3415,37.1393],[140.3371,37.1404],[140.3284,37.1448],[140.325,37.1496],[140.3244,37.1597],[140.3225,37.1641],[140.3106,37.1741],[140.3024,37.1848],[140.2954,37.1909],[140.2794,37.1884],[140.271,37.1877],[140.2635,37.1856],[140.255,37.1847],[140.24,37.1774],[140.2406,37.1722],[140.2611,37.1644],[140.2703,37.1591],[140.2724,37.1549],[140.2729,37.1467],[140.2749,37.1424],[140.2863,37.1345],[140.2945,37.1229],[140.3047,37.1172],[140.3112,37.1147],[140.3188,37.1142],[140.3301,37.1156],[140.3411,37.1179],[140.3415,37.1393]]]}},{"type":"Feature","properties":{"id":7020},"geometry":{"type":"Polygon","coordinates":[[[140.2907,37.252],[140.2957,37.2396],[140.2973,37.233],[140.3025,37.2253],[140.3094,37.2126],[140.319,37.2149],[140.3375,37.2169],[140.3572,37.2204],[140.3704,37.2204],[140.3941,37.2169],[140.3904,37.2338],[140.3868,37.2426],[140.379,37.2427],[140.3744,37.2474],[140.3759,37.2585],[140.3752,37.2612],[140.3695,37.265],[140.3593,37.2677],[140.3425,37.2702],[140.3396,37.2694],[140.3283,37.2511],[140.321,37.2476],[140.3144,37.2467],[140.3066,37.2476],[140.2907,37.252]]]}},{"type":"Feature","properties":{"id":7021},"geometry":{"type":"Polygon","coordinates":[[[139.6096,37.4907],[139.6005,37.5028],[139.5985,37.5066],[139.5882,37.51],[139.5789,37.5043],[139.5638,37.5009],[139.5436,37.5083],[139.5224,37.5103],[139.5114,37.5077],[139.5,37.5096],[139.4891,37.5073],[139.4811,37.5],[139.4694,37.5054],[139.4614,37.5129],[139.4509,37.5133],[139.4377,37.5113],[139.4171,37.5049],[139.4157,37.4929],[139.4103,37.4835],[139.4087,37.4734],[139.4093,37.4626],[139.4056,37.4601],[139.4074,37.4532],[139.4033,37.4429],[139.4002,37.4326],[139.3992,37.4242],[139.3958,37.4143],[139.3923,37.4087],[139.3845,37.402],[139.3779,37.3922],[139.3766,37.3809],[139.3775,37.3736],[139.3829,37.364],[139.385,37.3569],[139.392,37.3533],[139.4056,37.3568],[139.4095,37.3548],[139.4138,37.3417],[139.4176,37.3367],[139.4212,37.3342],[139.4422,37.3265],[139.4462,37.3271],[139.4698,37.3373],[139.4755,37.3438],[139.4854,37.3514],[139.4997,37.358],[139.516,37.371],[139.5201,37.3748],[139.534,37.385],[139.5435,37.3901],[139.5497,37.3904],[139.5706,37.3856],[139.5894,37.3803],[139.608,37.3774],[139.6019,37.389],[139.5953,37.4043],[139.5944,37.4082],[139.5946,37.4192],[139.5968,37.4218],[139.6111,37.428],[139.6165,37.4336],[139.6196,37.4403],[139.6198,37.4501],[139.6079,37.4584],[139.6025,37.4652],[139.6026,37.4718],[139.6096,37.4907]]]}},{"type":"Feature","properties":{"id":7022},"geometry":{"type":"Polygon","coordinates":[[[140.6878,37.5526],[140.6836,37.5427],[140.6778,37.5359],[140.6932,37.528],[140.6997,37.5228],[140.7033,37.5158],[140.7029,37.5115],[140.6988,37.5079],[140.698,37.5039],[140.7002,37.5013],[140.7082,37.4962],[140.7165,37.4945],[140.7314,37.4939],[140.7422,37.491],[140.7491,37.4899],[140.7648,37.4848],[140.7772,37.4759],[140.798,37.4749],[140.8141,37.4688],[140.8201,37.4672],[140.8294,37.4613],[140.8382,37.4773],[140.839,37.4932],[140.8445,37.4982],[140.8539,37.5022],[140.8566,37.5048],[140.856,37.5105],[140.851,37.5176],[140.8499,37.5234],[140.8496,37.5377],[140.8434,37.54],[140.8097,37.5396],[140.7898,37.5366],[140.7736,37.54],[140.7622,37.5443],[140.7566,37.5437],[140.751,37.5396],[140.7418,37.5363],[140.7184,37.5396],[140.6982,37.5474],[140.6878,37.5526]]]}},{"type":"Feature","properties":{"id":7023},"geometry":{"type":"Polygon","coordinates":[[[140.5209,37.7184],[140.5179,37.7099],[140.519,37.7072],[140.5241,37.7043],[140.5374,37.7018],[140.5429,37.6985],[140.5457,37.6933],[140.5514,37.6848],[140.5559,37.6807],[140.5595,37.6752],[140.5616,37.6659],[140.5611,37.6572],[140.5534,37.6446],[140.5611,37.6385],[140.5724,37.6322],[140.5774,37.6258],[140.5911,37.6154],[140.6011,37.6106],[140.6089,37.6095],[140.6238,37.6046],[140.6313,37.5995],[140.6349,37.5954],[140.6373,37.581],[140.6409,37.5764],[140.6457,37.5759],[140.6546,37.5776],[140.6628,37.5803],[140.6696,37.5839],[140.6756,37.5843],[140.679,37.5776],[140.6794,37.5657],[140.6824,37.557],[140.6878,37.5526],[140.6932,37.5583],[140.6994,37.5706],[140.7018,37.5725],[140.7104,37.5739],[140.7189,37.5782],[140.7199,37.5827],[140.7195,37.5998],[140.7056,37.6073],[140.6953,37.6111],[140.6815,37.6215],[140.676,37.6307],[140.6752,37.6544],[140.6734,37.6622],[140.67,37.6718],[140.6655,37.6793],[140.6529,37.685],[140.6518,37.6903],[140.6596,37.7052],[140.6202,37.705],[140.6084,37.707],[140.5973,37.707],[140.5936,37.7044],[140.589,37.6912],[140.5839,37.687],[140.5798,37.6877],[140.5733,37.6962],[140.5688,37.7076],[140.5663,37.7113],[140.5598,37.7122],[140.5529,37.7097],[140.5393,37.7097],[140.5302,37.7129],[140.5209,37.7184]]]}},{"type":"Feature","properties":{"id":7024},"geometry":{"type":"Polygon","coordinates":[[[140.8732,37.2726],[140.8846,37.2858],[140.8921,37.2936],[140.8997,37.2981],[140.9028,37.303],[140.9044,37.3094],[140.9049,37.3195],[140.9065,37.3256],[140.9157,37.3358],[140.912,37.3442],[140.9071,37.3503],[140.9053,37.3546],[140.9058,37.3761],[140.901,37.3783],[140.8933,37.3794],[140.8647,37.3896],[140.8548,37.3954],[140.8536,37.3864],[140.8491,37.3782],[140.8457,37.3772],[140.8326,37.3788],[140.8209,37.382],[140.7972,37.382],[140.7819,37.3834],[140.7724,37.3866],[140.7646,37.3903],[140.7485,37.3963],[140.7331,37.4027],[140.7275,37.402],[140.7218,37.3949],[140.7197,37.3902],[140.7122,37.3795],[140.7082,37.3707],[140.7074,37.3592],[140.7055,37.3558],[140.7056,37.3506],[140.7124,37.34],[140.7169,37.3346],[140.7239,37.3238],[140.7278,37.3137],[140.7352,37.3068],[140.7418,37.3018],[140.7576,37.2996],[140.7664,37.2975],[140.7809,37.2892],[140.7854,37.2877],[140.7981,37.2805],[140.7995,37.2769],[140.7999,37.2674],[140.8033,37.2616],[140.8102,37.256],[140.8174,37.2532],[140.829,37.253],[140.8395,37.2573],[140.8487,37.259],[140.8602,37.2641],[140.8732,37.2726]]]}},{"type":"Feature","properties":{"id":7025},"geometry":{"type":"Polygon","coordinates":[[[139.865,37.5947],[139.8846,37.587],[139.8962,37.5808],[139.9019,37.5792],[139.91,37.5755],[139.923,37.5721],[139.9291,37.5696],[139.9512,37.5875],[139.9552,37.5902],[139.9724,37.597],[139.999,37.6016],[139.9991,37.6172],[139.998,37.6235],[139.9877,37.6315],[139.9784,37.6362],[139.9648,37.6415],[139.9571,37.6429],[139.9401,37.6435],[139.9351,37.6473],[139.93,37.659],[139.931,37.6636],[139.9347,37.6692],[139.9443,37.6771],[139.9555,37.6835],[139.9656,37.6918],[139.9701,37.6976],[139.9829,37.7081],[139.9871,37.7107],[139.9968,37.7142],[139.9985,37.7188],[139.9985,37.7378],[140.0004,37.7483],[140.0059,37.7585],[140.0029,37.7577],[139.9898,37.7576],[139.9815,37.766],[139.9751,37.7751],[139.972,37.7856],[139.9632,37.7931],[139.9652,37.803],[139.9577,37.8129],[139.9483,37.8165],[139.9467,37.8183],[139.9406,37.8251],[139.9312,37.8186],[139.9238,37.8109],[139.9132,37.8113],[139.9029,37.8083],[139.8918,37.8079],[139.8798,37.8103],[139.8708,37.8189],[139.8611,37.8235],[139.8421,37.812],[139.8319,37.8107],[139.822,37.8067],[139.8134,37.8003],[139.8067,37.8087],[139.798,37.815],[139.7913,37.824],[139.7816,37.8276],[139.7712,37.8254],[139.7598,37.8201],[139.7413,37.8202],[139.7352,37.8134],[139.7406,37.8029],[139.744,37.794],[139.7441,37.7879],[139.7387,37.7771],[139.7381,37.7542],[139.7316,37.7311],[139.7262,37.719],[139.7221,37.7064],[139.7196,37.7019],[139.7164,37.6874],[139.7159,37.6721],[139.7126,37.6577],[139.7104,37.6538],[139.7062,37.6362],[139.7032,37.6285],[139.696,37.6249],[139.6835,37.6245],[139.6809,37.6222],[139.6778,37.612],[139.6813,37.6056],[139.6847,37.6029],[139.6952,37.6017],[139.709,37.599],[139.7183,37.5965],[139.7223,37.5936],[139.727,37.5848],[139.7398,37.5796],[139.747,37.5787],[139.7542,37.5797],[139.7742,37.5877],[139.7812,37.5933],[139.7829,37.5969],[139.7836,37.6104],[139.7889,37.6197],[139.7993,37.6279],[139.8094,37.631],[139.8142,37.6313],[139.817,37.6273],[139.8149,37.6243],[139.8069,37.6206],[139.8039,37.6153],[139.8041,37.6079],[139.8061,37.6049],[139.8107,37.6037],[139.8252,37.6038],[139.8374,37.6024],[139.8417,37.6008],[139.8578,37.5972],[139.865,37.5947]]]}},{"type":"Feature","properties":{"id":7026},"geometry":{"type":"Polygon","coordinates":[[[140.0661,37.6045],[140.092,37.6256],[140.0937,37.6312],[140.1,37.6425],[140.1037,37.6452],[140.114,37.6486],[140.1276,37.654],[140.1374,37.659],[140.1442,37.6648],[140.1477,37.6713],[140.1478,37.6853],[140.1518,37.6937],[140.1602,37.7007],[140.1649,37.7082],[140.1699,37.7194],[140.1732,37.7338],[140.1733,37.743],[140.171,37.7492],[140.1689,37.7533],[140.1643,37.7535],[140.1539,37.7502],[140.1465,37.742],[140.1375,37.7357],[140.1267,37.7309],[140.1048,37.7357],[140.0937,37.75],[140.0841,37.7533],[140.0735,37.7547],[140.0685,37.7645],[140.0585,37.7678],[140.0522,37.7759],[140.0439,37.7672],[140.0342,37.7648],[140.0238,37.7607],[140.0138,37.7607],[140.0059,37.7585],[140.0004,37.7483],[139.9985,37.7378],[139.9985,37.7188],[139.9968,37.7142],[139.9871,37.7107],[139.9829,37.7081],[139.9701,37.6976],[139.9656,37.6918],[139.9555,37.6835],[139.9443,37.6771],[139.9347,37.6692],[139.931,37.6636],[139.93,37.659],[139.9351,37.6473],[139.9401,37.6435],[139.9571,37.6429],[139.9648,37.6415],[139.9784,37.6362],[139.9877,37.6315],[139.998,37.6235],[139.9991,37.6172],[139.999,37.6016],[140.0096,37.6036],[140.0285,37.6052],[140.0555,37.6054],[140.0661,37.6045]]]}},{"type":"Feature","properties":{"id":7027},"geometry":{"type":"Polygon","coordinates":[[[140.5615,37.8584],[140.5477,37.8612],[140.5282,37.8703],[140.508,37.874],[140.5045,37.8765],[140.4964,37.8853],[140.4912,37.8897],[140.486,37.8973],[140.4807,37.903],[140.4793,37.8898],[140.4769,37.8841],[140.469,37.8774],[140.4644,37.8686],[140.4657,37.8553],[140.4688,37.8486],[140.4757,37.838],[140.4805,37.834],[140.4929,37.8215],[140.5008,37.8243],[140.5154,37.8277],[140.5295,37.8341],[140.5381,37.8356],[140.5484,37.8399],[140.5615,37.8584]]]}},{"type":"Feature","properties":{"id":7028},"geometry":{"type":"Polygon","coordinates":[[[140.0435,37.3268],[140.051,37.3244],[140.0569,37.3206],[140.064,37.3178],[140.0809,37.3145],[140.0873,37.3151],[140.1004,37.3183],[140.1289,37.3259],[140.1322,37.3274],[140.1447,37.3302],[140.1612,37.3307],[140.1653,37.3315],[140.169,37.3346],[140.1796,37.3527],[140.1882,37.3584],[140.1953,37.359],[140.2074,37.3535],[140.2203,37.3483],[140.235,37.3369],[140.2405,37.3339],[140.2518,37.3316],[140.259,37.3313],[140.2896,37.3317],[140.3085,37.3332],[140.3183,37.3352],[140.3339,37.3367],[140.357,37.3379],[140.3658,37.3366],[140.3821,37.3316],[140.39,37.3279],[140.3972,37.318],[140.402,37.3154],[140.4297,37.311],[140.4471,37.3064],[140.4543,37.3036],[140.4666,37.2973],[140.4829,37.2912],[140.4888,37.2874],[140.4998,37.2834],[140.5089,37.2771],[140.5128,37.2757],[140.5213,37.2696],[140.5281,37.2659],[140.5402,37.2653],[140.5582,37.2655],[140.5674,37.2665],[140.5674,37.2999],[140.5665,37.3061],[140.5644,37.3096],[140.5535,37.3185],[140.5481,37.3283],[140.5437,37.3337],[140.5433,37.3371],[140.55,37.3503],[140.5549,37.3549],[140.5585,37.3621],[140.5513,37.3734],[140.5479,37.377],[140.5409,37.3813],[140.5245,37.3873],[140.5171,37.392],[140.5018,37.3836],[140.4962,37.3745],[140.491,37.3713],[140.4862,37.3747],[140.4852,37.3841],[140.479,37.3874],[140.4633,37.384],[140.4556,37.3845],[140.4489,37.3892],[140.4486,37.3933],[140.4517,37.3994],[140.4505,37.4061],[140.4419,37.4192],[140.4462,37.4244],[140.4547,37.4265],[140.4601,37.4307],[140.4637,37.4396],[140.4644,37.4461],[140.4681,37.4523],[140.4799,37.4619],[140.4828,37.4661],[140.4864,37.4745],[140.4792,37.4779],[140.4604,37.4796],[140.4445,37.4782],[140.4347,37.4761],[140.4272,37.4782],[140.405,37.4789],[140.3929,37.4779],[140.3866,37.476],[140.3621,37.4728],[140.3387,37.4725],[140.3328,37.4732],[140.3281,37.4791],[140.323,37.4902],[140.3229,37.5037],[140.3239,37.5076],[140.3101,37.5293],[140.2925,37.5475],[140.2887,37.5553],[140.287,37.5668],[140.2896,37.5923],[140.2894,37.6077],[140.2879,37.6145],[140.283,37.6127],[140.2772,37.6061],[140.2694,37.6022],[140.2611,37.5958],[140.2532,37.5919],[140.2428,37.5841],[140.2399,37.5787],[140.2388,37.5696],[140.2359,37.5624],[140.229,37.5521],[140.2235,37.549],[140.2134,37.5508],[140.2049,37.551],[140.1955,37.5484],[140.1914,37.5448],[140.1813,37.5213],[140.1813,37.5117],[140.1824,37.5083],[140.1872,37.5037],[140.1901,37.4978],[140.1915,37.4905],[140.194,37.4852],[140.1974,37.4734],[140.1984,37.4651],[140.2009,37.4581],[140.2004,37.452],[140.1929,37.4479],[140.182,37.4492],[140.1536,37.4583],[140.1522,37.4499],[140.1489,37.44],[140.1423,37.4282],[140.1288,37.4165],[140.1232,37.413],[140.1128,37.4123],[140.1005,37.4099],[140.0882,37.4133],[140.0687,37.4289],[140.0627,37.4143],[140.0582,37.3988],[140.0558,37.3946],[140.0527,37.3854],[140.0494,37.3666],[140.0489,37.3557],[140.0469,37.3502],[140.0458,37.337],[140.0435,37.3268]]]}},{"type":"Feature","properties":{"id":7029},"geometry":{"type":"Polygon","coordinates":[[[140.6083,37.9061],[140.6016,37.9046],[140.5907,37.9063],[140.5731,37.9174],[140.5636,37.9077],[140.5523,37.9067],[140.5413,37.9021],[140.5315,37.9038],[140.5207,37.9046],[140.5099,37.9017],[140.5,37.8971],[140.4875,37.8985],[140.4822,37.9032],[140.4807,37.903],[140.486,37.8973],[140.4912,37.8897],[140.4964,37.8853],[140.5045,37.8765],[140.508,37.874],[140.5282,37.8703],[140.5477,37.8612],[140.5615,37.8584],[140.5953,37.8583],[140.6013,37.8601],[140.607,37.8703],[140.6089,37.8788],[140.6091,37.8991],[140.6083,37.9061]]]}},{"type":"Feature","properties":{"id":7030},"geometry":{"type":"Polygon","coordinates":[[[140.5171,37.392],[140.5158,37.4064],[140.517,37.4121],[140.5225,37.4233],[140.5231,37.4293],[140.5271,37.4422],[140.5429,37.4486],[140.5463,37.4527],[140.5541,37.4594],[140.5608,37.4675],[140.5644,37.4739],[140.566,37.48],[140.5655,37.5023],[140.5576,37.5046],[140.539,37.5057],[140.5336,37.5044],[140.5218,37.4992],[140.507,37.491],[140.4864,37.4745],[140.4828,37.4661],[140.4799,37.4619],[140.4681,37.4523],[140.4644,37.4461],[140.4637,37.4396],[140.4601,37.4307],[140.4547,37.4265],[140.4462,37.4244],[140.4419,37.4192],[140.4505,37.4061],[140.4517,37.3994],[140.4486,37.3933],[140.4489,37.3892],[140.4556,37.3845],[140.4633,37.384],[140.479,37.3874],[140.4852,37.3841],[140.4862,37.3747],[140.491,37.3713],[140.4962,37.3745],[140.5018,37.3836],[140.5171,37.392]]]}},{"type":"Feature","properties":{"id":7031},"geometry":{"type":"Polygon","coordinates":[[[139.4655,36.9616],[139.4691,36.968],[139.4795,36.9693],[139.4904,36.9697],[139.5,36.9653],[139.5096,36.9683],[139.518,36.9746],[139.5273,36.9784],[139.5379,36.9778],[139.546,36.9846],[139.555,36.9893],[139.5748,36.9982],[139.5845,37.0081],[139.5943,37.0105],[139.6053,37.0122],[139.6164,37.0118],[139.625,37.0187],[139.6281,37.0295],[139.6477,37.0331],[139.6578,37.037],[139.6682,37.0374],[139.6743,37.046],[139.6815,37.0544],[139.6925,37.058],[139.7033,37.0564],[139.712,37.062],[139.7217,37.0664],[139.7319,37.0668],[139.7421,37.0694],[139.7571,37.0706],[139.7674,37.0756],[139.7757,37.0833],[139.7854,37.0867],[139.7957,37.0866],[139.8065,37.0834],[139.8214,37.0889],[139.8233,37.0897],[139.8235,37.1004],[139.8197,37.1108],[139.8241,37.1198],[139.8327,37.1265],[139.8424,37.1304],[139.8517,37.1357],[139.8619,37.1364],[139.8702,37.1441],[139.865,37.1511],[139.8573,37.1568],[139.8468,37.1604],[139.8428,37.1641],[139.8398,37.1726],[139.8406,37.1773],[139.8482,37.1834],[139.8501,37.1885],[139.8481,37.2031],[139.845,37.2097],[139.8381,37.2178],[139.83,37.2259],[139.8131,37.2263],[139.8102,37.2274],[139.8032,37.2372],[139.7955,37.2388],[139.7797,37.2362],[139.7636,37.236],[139.7554,37.2368],[139.7434,37.2433],[139.7362,37.2459],[139.7289,37.2468],[139.7093,37.2517],[139.6985,37.244],[139.6944,37.2429],[139.6789,37.2436],[139.6678,37.2399],[139.6589,37.2333],[139.6524,37.2307],[139.6389,37.2272],[139.6321,37.2244],[139.6105,37.2074],[139.6053,37.2085],[139.5998,37.2152],[139.596,37.2215],[139.5955,37.2259],[139.5954,37.2613],[139.5951,37.2658],[139.5894,37.2747],[139.5826,37.2906],[139.5783,37.3029],[139.5664,37.3005],[139.555,37.299],[139.5443,37.2997],[139.5395,37.3054],[139.5361,37.307],[139.5288,37.3073],[139.5241,37.3052],[139.5168,37.2945],[139.5098,37.289],[139.483,37.2853],[139.4801,37.2805],[139.4827,37.2683],[139.491,37.2562],[139.4921,37.2516],[139.4906,37.2479],[139.4862,37.2439],[139.4913,37.2258],[139.4928,37.2176],[139.4913,37.2124],[139.4828,37.2023],[139.4768,37.1911],[139.4749,37.1833],[139.4654,37.1638],[139.4557,37.1528],[139.4426,37.1425],[139.4231,37.1323],[139.4089,37.1255],[139.3959,37.1179],[139.3875,37.1116],[139.3797,37.109],[139.3828,37.1021],[139.385,37.0944],[139.3858,37.086],[139.3888,37.0748],[139.3929,37.0704],[139.4041,37.0642],[139.4142,37.056],[139.4176,37.0502],[139.4221,37.0303],[139.4257,37.0247],[139.4304,37.0207],[139.4407,37.0043],[139.4422,36.9996],[139.4434,36.982],[139.4483,36.9741],[139.4517,36.9709],[139.4655,36.9616]]]}},{"type":"Feature","properties":{"id":7032},"geometry":{"type":"Polygon","coordinates":[[[140.8155,37.6142],[140.8226,37.6055],[140.834,37.5871],[140.8388,37.5826],[140.8457,37.5719],[140.8484,37.5644],[140.852,37.5591],[140.865,37.5546],[140.8713,37.5505],[140.875,37.5424],[140.8797,37.53],[140.8833,37.5256],[140.8881,37.5251],[140.8934,37.5267],[140.9095,37.5297],[140.9171,37.5304],[140.9437,37.527],[140.9588,37.5205],[140.9718,37.5156],[140.9918,37.5127],[141.0008,37.5119],[141.0241,37.5151],[141.0349,37.5161],[141.0311,37.5307],[141.0316,37.5367],[141.0298,37.5404],[141.03,37.5517],[141.0267,37.5625],[141.0258,37.5694],[141.0272,37.5727],[141.0256,37.584],[141.0277,37.6026],[141.0231,37.615],[141.0235,37.6309],[141.0247,37.6422],[141.0239,37.6472],[141.0171,37.6611],[141.0258,37.6647],[141.0225,37.6678],[141.0157,37.6684],[141.0122,37.6808],[141.0114,37.6917],[141.0114,37.7056],[141.0122,37.7118],[141.0114,37.7203],[141.0089,37.7209],[140.9983,37.7232],[140.9866,37.7272],[140.9737,37.7307],[140.9574,37.7373],[140.949,37.7396],[140.9303,37.7411],[140.8998,37.7392],[140.8919,37.7403],[140.8776,37.7448],[140.8716,37.7443],[140.8539,37.74],[140.8383,37.7395],[140.8402,37.7344],[140.8406,37.7256],[140.8394,37.723],[140.8331,37.7198],[140.8264,37.7183],[140.8108,37.7131],[140.806,37.7079],[140.8074,37.7042],[140.8179,37.6983],[140.8199,37.6924],[140.8168,37.6822],[140.8173,37.6757],[140.8226,37.6642],[140.826,37.654],[140.8267,37.6483],[140.8297,37.6404],[140.8292,37.6256],[140.8259,37.6222],[140.8155,37.6142]]]}},{"type":"Feature","properties":{"id":7033},"geometry":{"type":"Polygon","coordinates":[[[139.608,37.3774],[139.621,37.367],[139.6242,37.3659],[139.6515,37.3633],[139.657,37.3724],[139.6618,37.3771],[139.6657,37.3835],[139.6658,37.3889],[139.66,37.4021],[139.6597,37.4086],[139.6633,37.421],[139.6652,37.4238],[139.6792,37.457],[139.6861,37.4676],[139.6914,37.4684],[139.7075,37.4662],[139.713,37.469],[139.714,37.4745],[139.71,37.4809],[139.7034,37.4859],[139.6944,37.4886],[139.6804,37.4914],[139.6609,37.4938],[139.6461,37.4936],[139.6311,37.4906],[139.6177,37.49],[139.6096,37.4907],[139.6026,37.4718],[139.6025,37.4652],[139.6079,37.4584],[139.6198,37.4501],[139.6196,37.4403],[139.6165,37.4336],[139.6111,37.428],[139.5968,37.4218],[139.5946,37.4192],[139.5944,37.4082],[139.5953,37.4043],[139.6019,37.389],[139.608,37.3774]]]}},{"type":"Feature","properties":{"id":7034},"geometry":{"type":"Polygon","coordinates":[[[140.4864,37.4745],[140.507,37.491],[140.5218,37.4992],[140.5151,37.5135],[140.5114,37.5166],[140.501,37.5203],[140.4951,37.5241],[140.4799,37.5297],[140.4737,37.5305],[140.4586,37.5354],[140.4407,37.5446],[140.4359,37.5455],[140.4241,37.5441],[140.4119,37.5387],[140.4113,37.5331],[140.4077,37.5177],[140.3854,37.5175],[140.3778,37.516],[140.3687,37.5121],[140.3618,37.5112],[140.3428,37.5109],[140.3239,37.5076],[140.3229,37.5037],[140.323,37.4902],[140.3281,37.4791],[140.3328,37.4732],[140.3387,37.4725],[140.3621,37.4728],[140.3866,37.476],[140.3929,37.4779],[140.405,37.4789],[140.4272,37.4782],[140.4347,37.4761],[140.4445,37.4782],[140.4604,37.4796],[140.4792,37.4779],[140.4864,37.4745]]]}},{"type":"Feature","properties":{"id":7035},"geometry":{"type":"Polygon","coordinates":[[[140.4029,37.1724],[140.3825,37.1678],[140.3726,37.1648],[140.3634,37.16],[140.3498,37.1495],[140.3415,37.1393],[140.3411,37.1179],[140.3784,37.1181],[140.3783,37.133],[140.3823,37.1419],[140.3913,37.1502],[140.4016,37.1585],[140.4047,37.165],[140.4029,37.1724]]]}},{"type":"Feature","properties":{"id":7036},"geometry":{"type":"Polygon","coordinates":[[[141.0372,37.4637],[141.0373,37.4716],[141.0396,37.4785],[141.0439,37.4814],[141.0389,37.4872],[141.0395,37.4963],[141.0349,37.5161],[141.0241,37.5151],[141.0008,37.5119],[140.9918,37.5127],[140.9718,37.5156],[140.9588,37.5205],[140.9437,37.527],[140.9171,37.5304],[140.9095,37.5297],[140.8934,37.5267],[140.8881,37.5251],[140.8833,37.5256],[140.8797,37.53],[140.875,37.5424],[140.8713,37.5505],[140.865,37.5546],[140.852,37.5591],[140.8484,37.5644],[140.8457,37.5719],[140.8388,37.5826],[140.834,37.5871],[140.8226,37.6055],[140.8155,37.6142],[140.8126,37.6084],[140.8066,37.6018],[140.8024,37.5988],[140.7907,37.597],[140.7554,37.597],[140.7319,37.5983],[140.7195,37.5998],[140.7199,37.5827],[140.7189,37.5782],[140.7104,37.5739],[140.7018,37.5725],[140.6994,37.5706],[140.6932,37.5583],[140.6878,37.5526],[140.6982,37.5474],[140.7184,37.5396],[140.7418,37.5363],[140.751,37.5396],[140.7566,37.5437],[140.7622,37.5443],[140.7736,37.54],[140.7898,37.5366],[140.8097,37.5396],[140.8434,37.54],[140.8496,37.5377],[140.8499,37.5234],[140.851,37.5176],[140.856,37.5105],[140.8566,37.5048],[140.8539,37.5022],[140.8445,37.4982],[140.839,37.4932],[140.8382,37.4773],[140.8294,37.4613],[140.8364,37.4596],[140.8461,37.4521],[140.848,37.4376],[140.8515,37.4279],[140.8564,37.4224],[140.873,37.4252],[140.8858,37.4283],[140.8899,37.4365],[140.8936,37.4395],[140.9014,37.4426],[140.9074,37.4438],[140.9177,37.4443],[140.9388,37.4443],[140.9459,37.4448],[140.951,37.4474],[140.9647,37.463],[140.972,37.4697],[140.9836,37.4761],[140.9916,37.4769],[141.0035,37.4765],[141.0272,37.4672],[141.0372,37.4637]]]}},{"type":"Feature","properties":{"id":7037},"geometry":{"type":"Polygon","coordinates":[[[141.014,37.2407],[141.0134,37.2516],[141.0149,37.2565],[141.0149,37.2641],[141.0201,37.2821],[141.0249,37.2968],[141.0263,37.3032],[141.025,37.3096],[141.0259,37.3132],[141.0318,37.3129],[141.0334,37.3153],[141.0278,37.321],[141.019,37.3163],[141.0054,37.3108],[140.993,37.3081],[140.975,37.317],[140.9533,37.3249],[140.9403,37.3284],[140.9241,37.3349],[140.9157,37.3358],[140.9065,37.3256],[140.9049,37.3195],[140.9044,37.3094],[140.9028,37.303],[140.8997,37.2981],[140.8921,37.2936],[140.8846,37.2858],[140.8732,37.2726],[140.8745,37.2601],[140.8782,37.2443],[140.8816,37.2387],[140.8889,37.2425],[140.9021,37.2456],[140.9138,37.2458],[140.9323,37.2433],[140.9484,37.2434],[140.9622,37.2455],[140.97,37.2461],[140.9903,37.2461],[141.0025,37.2432],[141.0058,37.2417],[141.014,37.2407]]]}},{"type":"Feature","properties":{"id":7038},"geometry":{"type":"Polygon","coordinates":[[[140.2891,37.6388],[140.2895,37.6184],[140.2959,37.6179],[140.3122,37.6129],[140.3213,37.6091],[140.3306,37.6075],[140.339,37.6026],[140.346,37.5909],[140.3407,37.5842],[140.3388,37.5789],[140.3389,37.5689],[140.3429,37.5631],[140.3514,37.5577],[140.358,37.5553],[140.3722,37.5523],[140.3905,37.5519],[140.4003,37.5469],[140.4119,37.5387],[140.4241,37.5441],[140.4359,37.5455],[140.4407,37.5446],[140.4586,37.5354],[140.4737,37.5305],[140.4799,37.5297],[140.4951,37.5241],[140.501,37.5203],[140.5114,37.5166],[140.5151,37.5135],[140.5218,37.4992],[140.5336,37.5044],[140.539,37.5057],[140.5576,37.5046],[140.5655,37.5023],[140.5718,37.5068],[140.592,37.5173],[140.6038,37.5191],[140.6135,37.5193],[140.6248,37.5209],[140.634,37.5236],[140.64,37.5271],[140.6496,37.5364],[140.6572,37.5385],[140.6778,37.5359],[140.6836,37.5427],[140.6878,37.5526],[140.6824,37.557],[140.6794,37.5657],[140.679,37.5776],[140.6756,37.5843],[140.6696,37.5839],[140.6628,37.5803],[140.6546,37.5776],[140.6457,37.5759],[140.6409,37.5764],[140.6373,37.581],[140.6349,37.5954],[140.6313,37.5995],[140.6238,37.6046],[140.6089,37.6095],[140.6011,37.6106],[140.5911,37.6154],[140.5774,37.6258],[140.5724,37.6322],[140.5611,37.6385],[140.5534,37.6446],[140.5466,37.6432],[140.5365,37.6432],[140.5303,37.6454],[140.5278,37.6325],[140.5221,37.6247],[140.514,37.6104],[140.5101,37.6094],[140.5004,37.6124],[140.4968,37.6149],[140.4925,37.6222],[140.4917,37.6271],[140.488,37.6368],[140.4843,37.6398],[140.4746,37.6447],[140.4697,37.6455],[140.4598,37.6448],[140.454,37.6428],[140.4447,37.642],[140.4317,37.6399],[140.4118,37.6396],[140.4026,37.6424],[140.3932,37.6493],[140.3867,37.6502],[140.3769,37.6466],[140.3712,37.6427],[140.3664,37.642],[140.3607,37.6438],[140.3388,37.6451],[140.3314,37.6438],[140.3201,37.6392],[140.2891,37.6388]]]}},{"type":"Feature","properties":{"id":7039},"geometry":{"type":"MultiPolygon","coordinates":[[[[139.7231,37.5655],[139.727,37.5848],[139.7223,37.5936],[139.7183,37.5965],[139.709,37.599],[139.6952,37.6017],[139.6847,37.6029],[139.6813,37.6056],[139.6778,37.612],[139.6809,37.6222],[139.6835,37.6245],[139.696,37.6249],[139.7032,37.6285],[139.7062,37.6362],[139.7104,37.6538],[139.7126,37.6577],[139.7159,37.6721],[139.7164,37.6874],[139.7196,37.7019],[139.7221,37.7064],[139.7262,37.719],[139.7316,37.7311],[139.7381,37.7542],[139.7387,37.7771],[139.7441,37.7879],[139.744,37.794],[139.7406,37.8029],[139.7352,37.8134],[139.7316,37.8092],[139.7211,37.8012],[139.6939,37.7789],[139.6852,37.7732],[139.6769,37.765],[139.6709,37.7552],[139.6612,37.7513],[139.6612,37.74],[139.6544,37.731],[139.6458,37.7228],[139.637,37.7165],[139.6298,37.7082],[139.6251,37.6987],[139.6316,37.6889],[139.6137,37.6817],[139.6087,37.6727],[139.5747,37.6529],[139.5543,37.6469],[139.5573,37.6369],[139.55,37.6274],[139.558,37.5995],[139.5671,37.5948],[139.5682,37.5845],[139.5738,37.576],[139.5739,37.564],[139.5693,37.5431],[139.5755,37.5345],[139.5828,37.5267],[139.5914,37.5201],[139.5882,37.51],[139.5985,37.5066],[139.6257,37.5052],[139.639,37.5032],[139.6472,37.5034],[139.665,37.507],[139.6758,37.5166],[139.6799,37.5175],[139.6893,37.5147],[139.6939,37.5195],[139.6951,37.5313],[139.697,37.5349],[139.6982,37.5428],[139.7031,37.5536],[139.7055,37.5614],[139.7105,37.5664],[139.7231,37.5655]]],[[[141.0089,37.7209],[141.0114,37.7203],[141.0125,37.7336],[141.0117,37.74],[141.0082,37.7493],[141.0055,37.75],[141.0024,37.7571],[141,37.7581],[140.9986,37.7631],[140.9936,37.7653],[141.0003,37.7531],[141.0022,37.7439],[141.0041,37.7407],[141.0046,37.7315],[141.0089,37.7209]]],[[[140.171,37.7492],[140.1904,37.7484],[140.2035,37.746],[140.2136,37.746],[140.2,37.7501],[140.1871,37.7523],[140.1689,37.7533],[140.171,37.7492]]]]}},{"type":"Feature","properties":{"id":7040},"geometry":{"type":"Polygon","coordinates":[[[139.965,37.15],[139.9661,37.1495],[139.9798,37.1438],[139.9894,37.1408],[140.0243,37.1392],[140.0339,37.1361],[140.0451,37.1343],[140.0539,37.1276],[140.063,37.1224],[140.0734,37.1235],[140.0846,37.1208],[140.1059,37.118],[140.1253,37.1053],[140.1353,37.1002],[140.1457,37.0986],[140.154,37.0912],[140.1558,37.0872],[140.1731,37.0873],[140.1778,37.0902],[140.1774,37.0983],[140.1896,37.117],[140.1971,37.1344],[140.1994,37.1381],[140.2034,37.1499],[140.2063,37.1556],[140.205,37.1637],[140.1971,37.1676],[140.1828,37.1778],[140.1792,37.1815],[140.1678,37.1905],[140.1592,37.1998],[140.1519,37.2007],[140.1433,37.1968],[140.1387,37.1975],[140.134,37.2058],[140.1275,37.2141],[140.1223,37.2185],[140.1173,37.2247],[140.1027,37.2363],[140.0982,37.2414],[140.0928,37.2343],[140.0851,37.2214],[140.0799,37.2163],[140.0751,37.208],[140.0719,37.2052],[140.0582,37.2],[140.046,37.197],[140.0384,37.1964],[140.0286,37.1944],[140.0152,37.1933],[140.0036,37.1943],[139.984,37.1982],[139.9815,37.1897],[139.9782,37.1824],[139.972,37.1747],[139.9669,37.1699],[139.9646,37.1634],[139.965,37.15]]]}},{"type":"Feature","properties":{"id":7041},"geometry":{"type":"Polygon","coordinates":[[[140.8858,37.4283],[140.873,37.4252],[140.8564,37.4224],[140.8556,37.4158],[140.8548,37.3954],[140.8647,37.3896],[140.8933,37.3794],[140.901,37.3783],[140.9058,37.3761],[140.9154,37.3773],[140.9344,37.3778],[140.9464,37.3796],[140.9572,37.3841],[140.9667,37.3863],[140.9732,37.3862],[140.9885,37.3798],[141.0085,37.3784],[141.022,37.3781],[141.0362,37.3759],[141.0341,37.3867],[141.0359,37.3956],[141.0337,37.4039],[141.034,37.4182],[141.0372,37.4206],[141.0366,37.4306],[141.0344,37.4321],[141.0217,37.4378],[141.0168,37.4377],[141.0118,37.4316],[141.0078,37.4286],[140.977,37.4204],[140.9679,37.4194],[140.9492,37.4204],[140.9207,37.4247],[140.9069,37.4253],[140.8956,37.4265],[140.8858,37.4283]]]}},{"type":"Feature","properties":{"id":7042},"geometry":{"type":"Polygon","coordinates":[[[140.6264,37.2025],[140.6295,37.205],[140.6398,37.209],[140.6612,37.2204],[140.6774,37.2265],[140.6812,37.2326],[140.6816,37.2395],[140.6889,37.2588],[140.6894,37.2842],[140.6765,37.282],[140.6678,37.278],[140.6603,37.2763],[140.65,37.2764],[140.6452,37.2815],[140.6448,37.3058],[140.643,37.3137],[140.6362,37.3297],[140.6294,37.3405],[140.6234,37.3457],[140.6174,37.346],[140.6073,37.3441],[140.5996,37.3442],[140.5952,37.3469],[140.5873,37.3557],[140.5815,37.3588],[140.5585,37.3621],[140.5549,37.3549],[140.55,37.3503],[140.5433,37.3371],[140.5437,37.3337],[140.5481,37.3283],[140.5535,37.3185],[140.5644,37.3096],[140.5665,37.3061],[140.5674,37.2999],[140.5674,37.2665],[140.5764,37.2572],[140.5867,37.2492],[140.591,37.2484],[140.6025,37.2494],[140.6102,37.2462],[140.6105,37.2408],[140.6057,37.2334],[140.6053,37.2268],[140.6085,37.2173],[140.6131,37.2119],[140.6264,37.2025]]]}},{"type":"Feature","properties":{"id":7043},"geometry":{"type":"Polygon","coordinates":[[[140.2879,37.6145],[140.2894,37.6077],[140.2896,37.5923],[140.287,37.5668],[140.2887,37.5553],[140.2925,37.5475],[140.3101,37.5293],[140.3239,37.5076],[140.3428,37.5109],[140.3618,37.5112],[140.3687,37.5121],[140.3778,37.516],[140.3854,37.5175],[140.4077,37.5177],[140.4113,37.5331],[140.4119,37.5387],[140.4003,37.5469],[140.3905,37.5519],[140.3722,37.5523],[140.358,37.5553],[140.3514,37.5577],[140.3429,37.5631],[140.3389,37.5689],[140.3388,37.5789],[140.3407,37.5842],[140.346,37.5909],[140.339,37.6026],[140.3306,37.6075],[140.3213,37.6091],[140.3122,37.6129],[140.2959,37.6179],[140.2895,37.6184],[140.2879,37.6145]]]}},{"type":"Feature","properties":{"id":7044},"geometry":{"type":"Polygon","coordinates":[[[140.4513,37.0388],[140.4643,37.0191],[140.4704,37.011],[140.4821,36.999],[140.4822,36.9927],[140.4743,36.9861],[140.4661,36.9755],[140.4602,36.9711],[140.4612,36.9684],[140.4848,36.9567],[140.5063,36.9493],[140.5189,36.9464],[140.5246,36.946],[140.532,36.944],[140.5439,36.9435],[140.5615,36.9412],[140.578,36.9367],[140.5793,36.9395],[140.5894,36.9421],[140.5904,36.9409],[140.5899,36.9464],[140.5842,36.963],[140.5825,36.9727],[140.584,36.9858],[140.5859,36.9912],[140.5756,36.9993],[140.5744,37.0012],[140.5698,37.018],[140.5635,37.0368],[140.5584,37.0471],[140.5571,37.0521],[140.5531,37.0567],[140.5465,37.0588],[140.5355,37.0597],[140.5259,37.0637],[140.5157,37.0729],[140.5085,37.0811],[140.5003,37.0771],[140.4921,37.0746],[140.4838,37.0742],[140.4673,37.0779],[140.4615,37.0744],[140.4454,37.0682],[140.4405,37.0585],[140.441,37.052],[140.4513,37.0388]]]}},{"type":"Feature","properties":{"id":7045},"geometry":{"type":"Polygon","coordinates":[[[139.7486,37.283],[139.743,37.28],[139.7267,37.2738],[139.719,37.268],[139.7126,37.2595],[139.7093,37.2517],[139.7289,37.2468],[139.7362,37.2459],[139.7434,37.2433],[139.7554,37.2368],[139.7636,37.236],[139.7797,37.2362],[139.7955,37.2388],[139.8032,37.2372],[139.8102,37.2274],[139.8131,37.2263],[139.83,37.2259],[139.8381,37.2178],[139.845,37.2097],[139.8481,37.2031],[139.8501,37.1885],[139.8482,37.1834],[139.8406,37.1773],[139.8398,37.1726],[139.8428,37.1641],[139.8468,37.1604],[139.8573,37.1568],[139.865,37.1511],[139.8702,37.1441],[139.8819,37.1439],[139.9018,37.1505],[139.9119,37.1454],[139.9224,37.1464],[139.9432,37.1501],[139.9537,37.1512],[139.965,37.15],[139.9646,37.1634],[139.9669,37.1699],[139.972,37.1747],[139.9782,37.1824],[139.9815,37.1897],[139.984,37.1982],[139.9815,37.2007],[139.9698,37.2072],[139.9632,37.2124],[139.9535,37.2225],[139.953,37.2262],[139.9565,37.2333],[139.9648,37.2378],[139.9684,37.2417],[139.9686,37.254],[139.966,37.2591],[139.9646,37.2661],[139.966,37.2694],[139.9726,37.2711],[139.9776,37.2738],[139.9838,37.2791],[139.9955,37.2993],[140.0002,37.3054],[140.0066,37.3156],[140.0092,37.3228],[140.0016,37.3233],[139.9777,37.3235],[139.9724,37.3252],[139.9617,37.3309],[139.9568,37.3304],[139.9494,37.3254],[139.9437,37.3234],[139.9292,37.3228],[139.9235,37.3247],[139.9201,37.3294],[139.9158,37.3398],[139.914,37.3415],[139.9024,37.3464],[139.8943,37.3462],[139.8902,37.343],[139.8857,37.3419],[139.8818,37.3461],[139.8837,37.3586],[139.8764,37.3596],[139.865,37.3589],[139.8552,37.3506],[139.8546,37.3425],[139.8501,37.3387],[139.8421,37.3379],[139.8357,37.33],[139.8315,37.3194],[139.8246,37.314],[139.8127,37.3102],[139.8069,37.3074],[139.7973,37.2995],[139.7953,37.296],[139.7854,37.2851],[139.7791,37.2826],[139.768,37.2814],[139.7486,37.283]]]}},{"type":"Feature","properties":{"id":7046},"geometry":{"type":"Polygon","coordinates":[[[140.9314,37.8918],[140.9055,37.8943],[140.8962,37.8992],[140.8846,37.8947],[140.8745,37.8935],[140.8618,37.889],[140.8596,37.8881],[140.8637,37.8789],[140.8595,37.8695],[140.8644,37.8602],[140.8592,37.8509],[140.8587,37.8479],[140.8697,37.8499],[140.8769,37.8494],[140.8885,37.8469],[140.9061,37.8417],[140.9138,37.8382],[140.9319,37.841],[140.9487,37.8414],[140.9505,37.8406],[140.9469,37.8525],[140.9408,37.8617],[140.9378,37.8736],[140.9333,37.8767],[140.9314,37.8918]]]}},{"type":"Feature","properties":{"id":7047},"geometry":{"type":"Polygon","coordinates":[[[140.4121,37.1131],[140.3999,37.1166],[140.3928,37.1179],[140.3784,37.1181],[140.3411,37.1179],[140.3301,37.1156],[140.3188,37.1142],[140.3112,37.1147],[140.3047,37.1172],[140.2945,37.1229],[140.2863,37.1345],[140.2749,37.1424],[140.2729,37.1467],[140.2724,37.1549],[140.2703,37.1591],[140.2611,37.1644],[140.2406,37.1722],[140.24,37.1774],[140.255,37.1847],[140.2635,37.1856],[140.271,37.1877],[140.2794,37.1884],[140.2954,37.1909],[140.2992,37.1961],[140.3,37.2035],[140.2952,37.2138],[140.2813,37.2159],[140.2677,37.2166],[140.2406,37.2207],[140.2296,37.2213],[140.2178,37.2238],[140.1951,37.2329],[140.1741,37.2382],[140.1554,37.2416],[140.1261,37.2532],[140.1141,37.2537],[140.1091,37.2528],[140.0982,37.2414],[140.1027,37.2363],[140.1173,37.2247],[140.1223,37.2185],[140.1275,37.2141],[140.134,37.2058],[140.1387,37.1975],[140.1433,37.1968],[140.1519,37.2007],[140.1592,37.1998],[140.1678,37.1905],[140.1792,37.1815],[140.1828,37.1778],[140.1971,37.1676],[140.205,37.1637],[140.2063,37.1556],[140.2034,37.1499],[140.1994,37.1381],[140.1971,37.1344],[140.1896,37.117],[140.1774,37.0983],[140.1778,37.0902],[140.1731,37.0873],[140.1558,37.0872],[140.1582,37.0814],[140.1681,37.0759],[140.1769,37.068],[140.1878,37.0662],[140.1975,37.0589],[140.1992,37.0485],[140.2023,37.0379],[140.2021,37.0279],[140.2092,37.0208],[140.2198,37.0172],[140.2294,37.0206],[140.2396,37.0207],[140.2522,37.0229],[140.2484,37.0051],[140.2663,36.999],[140.2711,36.9994],[140.2793,37.0082],[140.2899,37.0114],[140.3058,37.0114],[140.3133,37.0148],[140.318,37.0231],[140.3226,37.0291],[140.3247,37.0339],[140.3297,37.039],[140.3344,37.0416],[140.345,37.0453],[140.3536,37.0521],[140.3613,37.0563],[140.3638,37.0673],[140.3731,37.0726],[140.3818,37.0758],[140.3931,37.0759],[140.4028,37.0823],[140.4042,37.0874],[140.4008,37.0923],[140.4014,37.0967],[140.4054,37.1061],[140.4121,37.1131]]]}},{"type":"Feature","properties":{"id":7048},"geometry":{"type":"Polygon","coordinates":[[[139.7064,37.3526],[139.6919,37.3489],[139.6789,37.3478],[139.6672,37.3515],[139.6515,37.3633],[139.6242,37.3659],[139.621,37.367],[139.608,37.3774],[139.5894,37.3803],[139.5706,37.3856],[139.5497,37.3904],[139.5435,37.3901],[139.534,37.385],[139.5201,37.3748],[139.5321,37.3696],[139.5419,37.3646],[139.5484,37.3595],[139.5503,37.3559],[139.5586,37.3462],[139.5599,37.3382],[139.5561,37.332],[139.5565,37.3257],[139.5714,37.3135],[139.5783,37.3029],[139.5826,37.2906],[139.5894,37.2747],[139.5951,37.2658],[139.5954,37.2613],[139.5955,37.2259],[139.596,37.2215],[139.5998,37.2152],[139.6053,37.2085],[139.6105,37.2074],[139.6321,37.2244],[139.6389,37.2272],[139.6524,37.2307],[139.6589,37.2333],[139.6678,37.2399],[139.6789,37.2436],[139.6944,37.2429],[139.6985,37.244],[139.7093,37.2517],[139.7126,37.2595],[139.719,37.268],[139.7267,37.2738],[139.743,37.28],[139.7486,37.283],[139.7473,37.2914],[139.7439,37.3042],[139.7405,37.3115],[139.7303,37.3273],[139.7258,37.3314],[139.7172,37.3425],[139.7064,37.3526]]]}},{"type":"Feature","properties":{"id":7049},"geometry":{"type":"MultiPolygon","coordinates":[[[[140.6984,37.8028],[140.6888,37.7912],[140.6843,37.7871],[140.6835,37.7823],[140.6866,37.7759],[140.6969,37.7677],[140.7073,37.7658],[140.7223,37.7659],[140.7284,37.7626],[140.73,37.755],[140.7296,37.7501],[140.7404,37.7515],[140.7532,37.7522],[140.7709,37.7566],[140.7915,37.7573],[140.7982,37.7567],[140.8145,37.7517],[140.8221,37.7487],[140.8274,37.745],[140.8383,37.7395],[140.8539,37.74],[140.8716,37.7443],[140.8776,37.7448],[140.8919,37.7403],[140.8998,37.7392],[140.9303,37.7411],[140.949,37.7396],[140.9574,37.7373],[140.9737,37.7307],[140.9866,37.7272],[140.9983,37.7232],[141.0089,37.7209],[141.0046,37.7315],[141.0041,37.7407],[141.0022,37.7439],[141.0003,37.7531],[140.9936,37.7653],[140.9892,37.7714],[140.9878,37.7758],[140.9867,37.7881],[140.9856,37.8097],[140.9858,37.8214],[140.9772,37.8286],[140.9747,37.8242],[140.9758,37.8219],[140.9845,37.8219],[140.9845,37.8011],[140.9817,37.7978],[140.9806,37.7892],[140.9814,37.7811],[140.9792,37.7792],[140.9667,37.7867],[140.9639,37.7903],[140.9692,37.7953],[140.9695,37.8053],[140.9717,37.8111],[140.9686,37.8172],[140.9608,37.8181],[140.9561,37.8164],[140.9542,37.8231],[140.9622,37.8225],[140.9689,37.8203],[140.975,37.8264],[140.9656,37.8286],[140.9597,37.8311],[140.9569,37.8383],[140.9592,37.8417],[140.9505,37.8406],[140.9487,37.8414],[140.9319,37.841],[140.9138,37.8382],[140.9061,37.8417],[140.8885,37.8469],[140.8769,37.8494],[140.8697,37.8499],[140.8587,37.8479],[140.8575,37.8389],[140.8578,37.8216],[140.8613,37.8113],[140.861,37.8008],[140.8543,37.792],[140.8313,37.7928],[140.8214,37.7952],[140.811,37.7944],[140.7995,37.7967],[140.7888,37.8002],[140.7739,37.7946],[140.7902,37.7864],[140.7979,37.7789],[140.7901,37.7723],[140.7794,37.7785],[140.7636,37.7821],[140.75,37.7846],[140.7397,37.7827],[140.7288,37.7831],[140.7214,37.7914],[140.7134,37.7982],[140.6984,37.8028]]],[[[140.9806,37.8008],[140.9833,37.8108],[140.9806,37.8119],[140.9806,37.8008]]]]}},{"type":"Feature","properties":{"id":7050},"geometry":{"type":"Polygon","coordinates":[[[140.5281,37.2659],[140.5213,37.2696],[140.5128,37.2757],[140.5089,37.2771],[140.4998,37.2834],[140.4888,37.2874],[140.4829,37.2912],[140.4666,37.2973],[140.4543,37.3036],[140.4471,37.3064],[140.4297,37.311],[140.402,37.3154],[140.3972,37.318],[140.39,37.3279],[140.3821,37.3316],[140.3658,37.3366],[140.357,37.3379],[140.3339,37.3367],[140.3183,37.3352],[140.3085,37.3332],[140.2896,37.3317],[140.259,37.3313],[140.2518,37.3316],[140.2405,37.3339],[140.235,37.3369],[140.2203,37.3483],[140.2074,37.3535],[140.1953,37.359],[140.1882,37.3584],[140.1796,37.3527],[140.169,37.3346],[140.1653,37.3315],[140.1612,37.3307],[140.1447,37.3302],[140.1322,37.3274],[140.1289,37.3259],[140.1004,37.3183],[140.112,37.3056],[140.1215,37.2959],[140.1291,37.2926],[140.1499,37.2865],[140.1657,37.2799],[140.1713,37.279],[140.1811,37.275],[140.1941,37.2715],[140.2026,37.2676],[140.2169,37.264],[140.2202,37.2624],[140.2391,37.2572],[140.26,37.2547],[140.2724,37.2542],[140.2907,37.252],[140.3066,37.2476],[140.3144,37.2467],[140.321,37.2476],[140.3283,37.2511],[140.3396,37.2694],[140.3425,37.2702],[140.3593,37.2677],[140.3695,37.265],[140.3752,37.2612],[140.3759,37.2585],[140.3744,37.2474],[140.379,37.2427],[140.3868,37.2426],[140.41,37.2427],[140.4158,37.2419],[140.4306,37.2307],[140.4429,37.2279],[140.4486,37.2275],[140.4696,37.2279],[140.4866,37.2333],[140.4923,37.2372],[140.4987,37.2399],[140.5116,37.2409],[140.521,37.2574],[140.5281,37.2659]]]}},{"type":"Feature","properties":{"id":7051},"geometry":{"type":"Polygon","coordinates":[[[139.3797,37.109],[139.3875,37.1116],[139.3959,37.1179],[139.4089,37.1255],[139.4231,37.1323],[139.4426,37.1425],[139.4557,37.1528],[139.4654,37.1638],[139.4749,37.1833],[139.4768,37.1911],[139.4828,37.2023],[139.4913,37.2124],[139.4928,37.2176],[139.4913,37.2258],[139.4862,37.2439],[139.4906,37.2479],[139.4921,37.2516],[139.491,37.2562],[139.4827,37.2683],[139.4801,37.2805],[139.483,37.2853],[139.5098,37.289],[139.5168,37.2945],[139.5241,37.3052],[139.5288,37.3073],[139.5361,37.307],[139.5395,37.3054],[139.5443,37.2997],[139.555,37.299],[139.5664,37.3005],[139.5783,37.3029],[139.5714,37.3135],[139.5565,37.3257],[139.5561,37.332],[139.5599,37.3382],[139.5586,37.3462],[139.5503,37.3559],[139.5484,37.3595],[139.5419,37.3646],[139.5321,37.3696],[139.5201,37.3748],[139.516,37.371],[139.4997,37.358],[139.4854,37.3514],[139.4755,37.3438],[139.4698,37.3373],[139.4462,37.3271],[139.4422,37.3265],[139.4212,37.3342],[139.4176,37.3367],[139.4138,37.3417],[139.4095,37.3548],[139.4056,37.3568],[139.392,37.3533],[139.385,37.3569],[139.3829,37.364],[139.3775,37.3736],[139.3766,37.3809],[139.3779,37.3922],[139.3845,37.402],[139.3923,37.4087],[139.3958,37.4143],[139.3992,37.4242],[139.4002,37.4326],[139.4033,37.4429],[139.4074,37.4532],[139.4056,37.4601],[139.4008,37.4568],[139.3902,37.4599],[139.3788,37.4605],[139.3665,37.4667],[139.3567,37.4644],[139.3493,37.4576],[139.3385,37.4549],[139.3253,37.4579],[139.3157,37.4535],[139.3058,37.4548],[139.2866,37.447],[139.2748,37.4475],[139.2648,37.4451],[139.2545,37.4496],[139.2399,37.4419],[139.2292,37.4451],[139.2198,37.4403],[139.2144,37.4307],[139.2099,37.4205],[139.2028,37.4111],[139.2004,37.408],[139.2084,37.4011],[139.2148,37.3897],[139.2252,37.3904],[139.2346,37.3852],[139.2383,37.3755],[139.2394,37.3636],[139.2367,37.3538],[139.2366,37.3426],[139.2274,37.3368],[139.224,37.3225],[139.2248,37.3115],[139.2205,37.301],[139.2175,37.29],[139.2116,37.2816],[139.1956,37.2686],[139.1875,37.2613],[139.1803,37.2536],[139.1727,37.2438],[139.168,37.2333],[139.1744,37.2248],[139.1831,37.2163],[139.1901,37.2072],[139.1979,37.2007],[139.2213,37.1971],[139.2324,37.1942],[139.2351,37.1911],[139.2461,37.1938],[139.2514,37.1935],[139.2676,37.1806],[139.2795,37.1632],[139.287,37.1596],[139.2928,37.1588],[139.3116,37.159],[139.3251,37.1616],[139.3378,37.1603],[139.3422,37.1578],[139.3423,37.1528],[139.3396,37.1449],[139.3396,37.1359],[139.3408,37.1306],[139.3472,37.1216],[139.3539,37.114],[139.3595,37.111],[139.3725,37.1086],[139.3797,37.109]]]}},{"type":"Feature","properties":{"id":7052},"geometry":{"type":"Polygon","coordinates":[[[140.5116,37.2409],[140.4987,37.2399],[140.4923,37.2372],[140.4866,37.2333],[140.4696,37.2279],[140.4486,37.2275],[140.4429,37.2279],[140.4306,37.2307],[140.4158,37.2419],[140.41,37.2427],[140.3868,37.2426],[140.3904,37.2338],[140.3941,37.2169],[140.4017,37.1976],[140.4022,37.184],[140.4097,37.1835],[140.4265,37.1843],[140.4374,37.1867],[140.4478,37.191],[140.4555,37.1923],[140.466,37.1962],[140.4843,37.2018],[140.5029,37.2021],[140.5089,37.2128],[140.5135,37.2189],[140.5152,37.2259],[140.5138,37.2355],[140.5116,37.2409]]]}},{"type":"Feature","properties":{"id":7053},"geometry":{"type":"Polygon","coordinates":[[[140.7278,37.3137],[140.7239,37.3238],[140.7169,37.3346],[140.7124,37.34],[140.7056,37.3506],[140.7055,37.3558],[140.7074,37.3592],[140.7082,37.3707],[140.7122,37.3795],[140.7197,37.3902],[140.7218,37.3949],[140.7275,37.402],[140.7331,37.4027],[140.7485,37.3963],[140.7646,37.3903],[140.7724,37.3866],[140.7819,37.3834],[140.7972,37.382],[140.8209,37.382],[140.8326,37.3788],[140.8457,37.3772],[140.8491,37.3782],[140.8536,37.3864],[140.8548,37.3954],[140.8556,37.4158],[140.8564,37.4224],[140.8515,37.4279],[140.848,37.4376],[140.8461,37.4521],[140.8364,37.4596],[140.8294,37.4613],[140.8201,37.4672],[140.8141,37.4688],[140.798,37.4749],[140.7772,37.4759],[140.7648,37.4848],[140.7491,37.4899],[140.7422,37.491],[140.7314,37.4939],[140.7165,37.4945],[140.7082,37.4962],[140.7002,37.5013],[140.698,37.5039],[140.6988,37.5079],[140.7029,37.5115],[140.7033,37.5158],[140.6997,37.5228],[140.6932,37.528],[140.6778,37.5359],[140.6572,37.5385],[140.6496,37.5364],[140.64,37.5271],[140.634,37.5236],[140.6248,37.5209],[140.6135,37.5193],[140.6038,37.5191],[140.592,37.5173],[140.5718,37.5068],[140.5655,37.5023],[140.566,37.48],[140.5644,37.4739],[140.5608,37.4675],[140.5541,37.4594],[140.5463,37.4527],[140.5429,37.4486],[140.5271,37.4422],[140.5231,37.4293],[140.5225,37.4233],[140.517,37.4121],[140.5158,37.4064],[140.5171,37.392],[140.5245,37.3873],[140.5409,37.3813],[140.5479,37.377],[140.5513,37.3734],[140.5585,37.3621],[140.5815,37.3588],[140.5873,37.3557],[140.5952,37.3469],[140.5996,37.3442],[140.6073,37.3441],[140.6174,37.346],[140.6234,37.3457],[140.6294,37.3405],[140.6362,37.3297],[140.643,37.3137],[140.6448,37.3058],[140.6452,37.2815],[140.65,37.2764],[140.6603,37.2763],[140.6678,37.278],[140.6765,37.282],[140.6894,37.2842],[140.689,37.2975],[140.7027,37.3154],[140.709,37.3188],[140.7157,37.3186],[140.7278,37.3137]]]}},{"type":"Feature","properties":{"id":7054},"geometry":{"type":"Polygon","coordinates":[[[140.3931,37.0759],[140.3818,37.0758],[140.3731,37.0726],[140.3638,37.0673],[140.3613,37.0563],[140.3536,37.0521],[140.345,37.0453],[140.3344,37.0416],[140.3297,37.039],[140.3247,37.0339],[140.3226,37.0291],[140.318,37.0231],[140.3133,37.0148],[140.3058,37.0114],[140.2899,37.0114],[140.2793,37.0082],[140.2711,36.9994],[140.2663,36.999],[140.2484,37.0051],[140.2442,36.9951],[140.2501,36.9865],[140.25,36.9553],[140.2445,36.9465],[140.2511,36.9386],[140.2607,36.9337],[140.2887,36.9324],[140.29,36.9317],[140.2942,36.9363],[140.2991,36.9442],[140.3066,36.947],[140.3161,36.9429],[140.3246,36.9404],[140.3358,36.9391],[140.3436,36.9404],[140.3519,36.9431],[140.3622,36.9485],[140.3723,36.9568],[140.3798,36.9697],[140.3849,36.9716],[140.3922,36.9694],[140.3965,36.963],[140.4006,36.9606],[140.4061,36.9617],[140.4142,36.9665],[140.4193,36.9721],[140.4198,36.976],[140.4176,36.9812],[140.4088,36.9898],[140.4066,36.9953],[140.407,37.0032],[140.4109,37.0051],[140.4224,37.0016],[140.4273,37.0019],[140.4431,37.0079],[140.4643,37.0191],[140.4513,37.0388],[140.4463,37.0335],[140.4341,37.0234],[140.4287,37.0229],[140.4273,37.0254],[140.4258,37.0349],[140.4222,37.043],[140.4174,37.0451],[140.4065,37.0459],[140.4007,37.0481],[140.3982,37.0521],[140.3978,37.0649],[140.3931,37.0759]]]}},{"type":"Feature","properties":{"id":7055},"geometry":{"type":"Polygon","coordinates":[[[140.0092,37.3228],[140.0066,37.3156],[140.0002,37.3054],[139.9955,37.2993],[139.9838,37.2791],[139.9776,37.2738],[139.9726,37.2711],[139.966,37.2694],[139.9646,37.2661],[139.966,37.2591],[139.9686,37.254],[139.9684,37.2417],[139.9648,37.2378],[139.9565,37.2333],[139.953,37.2262],[139.9535,37.2225],[139.9632,37.2124],[139.9698,37.2072],[139.9815,37.2007],[139.984,37.1982],[140.0036,37.1943],[140.0152,37.1933],[140.0286,37.1944],[140.0384,37.1964],[140.046,37.197],[140.0582,37.2],[140.0719,37.2052],[140.0751,37.208],[140.0799,37.2163],[140.0851,37.2214],[140.0928,37.2343],[140.0982,37.2414],[140.1091,37.2528],[140.1141,37.2537],[140.1261,37.2532],[140.1554,37.2416],[140.1741,37.2382],[140.1951,37.2329],[140.2178,37.2238],[140.2296,37.2213],[140.2406,37.2207],[140.2677,37.2166],[140.2813,37.2159],[140.2952,37.2138],[140.3094,37.2126],[140.3025,37.2253],[140.2973,37.233],[140.2957,37.2396],[140.2907,37.252],[140.2724,37.2542],[140.26,37.2547],[140.2391,37.2572],[140.2202,37.2624],[140.2169,37.264],[140.2026,37.2676],[140.1941,37.2715],[140.1811,37.275],[140.1713,37.279],[140.1657,37.2799],[140.1499,37.2865],[140.1291,37.2926],[140.1215,37.2959],[140.112,37.3056],[140.1004,37.3183],[140.0873,37.3151],[140.0809,37.3145],[140.064,37.3178],[140.0569,37.3206],[140.051,37.3244],[140.0435,37.3268],[140.029,37.3344],[140.0211,37.3341],[140.019,37.3307],[140.0092,37.3228]]]}},{"type":"Feature","properties":{"id":7056},"geometry":{"type":"Polygon","coordinates":[[[140.9157,37.3358],[140.9241,37.3349],[140.9403,37.3284],[140.9533,37.3249],[140.975,37.317],[140.993,37.3081],[141.0054,37.3108],[141.019,37.3163],[141.0278,37.321],[141.0264,37.3241],[141.0276,37.3337],[141.0265,37.3364],[141.0323,37.3439],[141.032,37.3496],[141.0334,37.3551],[141.0367,37.3611],[141.0356,37.3722],[141.0362,37.3759],[141.022,37.3781],[141.0085,37.3784],[140.9885,37.3798],[140.9732,37.3862],[140.9667,37.3863],[140.9572,37.3841],[140.9464,37.3796],[140.9344,37.3778],[140.9154,37.3773],[140.9058,37.3761],[140.9053,37.3546],[140.9071,37.3503],[140.912,37.3442],[140.9157,37.3358]]]}},{"type":"Feature","properties":{"id":7057},"geometry":{"type":"Polygon","coordinates":[[[140.4022,37.184],[140.4017,37.1976],[140.3941,37.2169],[140.3704,37.2204],[140.3572,37.2204],[140.3375,37.2169],[140.319,37.2149],[140.3094,37.2126],[140.2952,37.2138],[140.3,37.2035],[140.2992,37.1961],[140.2954,37.1909],[140.3024,37.1848],[140.3106,37.1741],[140.3225,37.1641],[140.3244,37.1597],[140.325,37.1496],[140.3284,37.1448],[140.3371,37.1404],[140.3415,37.1393],[140.3498,37.1495],[140.3634,37.16],[140.3726,37.1648],[140.3825,37.1678],[140.4029,37.1724],[140.4022,37.184]]]}},{"type":"Feature","properties":{"id":7058},"geometry":{"type":"Polygon","coordinates":[[[140.2942,36.9363],[140.29,36.9317],[140.2985,36.9274],[140.307,36.9217],[140.3195,36.9102],[140.3254,36.9014],[140.327,36.8907],[140.3367,36.8858],[140.3471,36.8826],[140.3686,36.8806],[140.3736,36.8708],[140.375,36.8522],[140.3795,36.8423],[140.3855,36.8333],[140.396,36.8294],[140.4062,36.8283],[140.4167,36.8289],[140.4244,36.8217],[140.4328,36.8158],[140.4432,36.8161],[140.4498,36.8073],[140.4566,36.7998],[140.4643,36.7935],[140.4774,36.7926],[140.4847,36.8009],[140.4925,36.8071],[140.4994,36.8155],[140.51,36.8196],[140.5227,36.8333],[140.5305,36.8404],[140.5238,36.8444],[140.5024,36.8609],[140.4845,36.8697],[140.4484,36.8982],[140.444,36.904],[140.4364,36.9074],[140.4269,36.9074],[140.421,36.9054],[140.42,36.902],[140.4206,36.8939],[140.4225,36.8875],[140.428,36.875],[140.4245,36.8719],[140.4157,36.8695],[140.4032,36.8801],[140.3984,36.8858],[140.3904,36.8887],[140.37,36.8917],[140.3612,36.8947],[140.3284,36.92],[140.3196,36.9265],[140.3098,36.9316],[140.2942,36.9363]]]}},{"type":"Feature","properties":{"id":7059},"geometry":{"type":"Polygon","coordinates":[[[139.7231,37.5655],[139.7105,37.5664],[139.7055,37.5614],[139.7031,37.5536],[139.6982,37.5428],[139.697,37.5349],[139.6951,37.5313],[139.6939,37.5195],[139.6893,37.5147],[139.6799,37.5175],[139.6758,37.5166],[139.665,37.507],[139.6472,37.5034],[139.639,37.5032],[139.6257,37.5052],[139.5985,37.5066],[139.6005,37.5028],[139.6096,37.4907],[139.6177,37.49],[139.6311,37.4906],[139.6461,37.4936],[139.6609,37.4938],[139.6804,37.4914],[139.6944,37.4886],[139.7034,37.4859],[139.71,37.4809],[139.714,37.4745],[139.713,37.469],[139.7075,37.4662],[139.6914,37.4684],[139.6861,37.4676],[139.6792,37.457],[139.6652,37.4238],[139.6633,37.421],[139.6597,37.4086],[139.66,37.4021],[139.6658,37.3889],[139.6657,37.3835],[139.6618,37.3771],[139.657,37.3724],[139.6515,37.3633],[139.6672,37.3515],[139.6789,37.3478],[139.6919,37.3489],[139.7064,37.3526],[139.7231,37.3582],[139.7301,37.3596],[139.7401,37.3671],[139.7498,37.3781],[139.7543,37.3884],[139.7647,37.4081],[139.7648,37.4185],[139.763,37.4258],[139.7539,37.4371],[139.7541,37.4453],[139.7581,37.4482],[139.7679,37.4517],[139.7754,37.4576],[139.7789,37.4634],[139.7785,37.4679],[139.7737,37.4739],[139.7725,37.4816],[139.7725,37.5037],[139.7724,37.5262],[139.7681,37.5327],[139.7607,37.536],[139.7569,37.539],[139.7537,37.5441],[139.7518,37.5503],[139.7479,37.5546],[139.7387,37.5604],[139.7315,37.5617],[139.7231,37.5655]]]}},{"type":"Feature","properties":{"id":7060},"geometry":{"type":"Polygon","coordinates":[[[139.8783,37.5374],[139.8907,37.5437],[139.9028,37.547],[139.905,37.5513],[139.9025,37.558],[139.9019,37.5792],[139.8962,37.5808],[139.8846,37.587],[139.865,37.5947],[139.8645,37.5739],[139.8668,37.5634],[139.8718,37.5541],[139.8737,37.547],[139.8783,37.5374]]]}}]}