{"type":"FeatureCollection","features":[{"type":"Feature","properties":{"id":8001},"geometry":{"type":"Polygon","coordinates":[[[140.2834,35.9853],[140.2771,35.9957],[140.273,36.012],[140.2707,36.017],[140.2714,36.0316],[140.2558,36.0307],[140.2508,36.0315],[140.2397,36.0359],[140.2249,36.0532],[140.2099,36.0444],[140.2052,36.0374],[140.1989,36.0333],[140.1881,36.0319],[140.1766,36.0331],[140.1718,36.032],[140.1634,36.0264],[140.1527,36.0221],[140.157,36.0143],[140.163,36.0066],[140.1795,35.9928],[140.1925,35.9727],[140.1983,35.9677],[140.2029,35.9655],[140.2114,35.9655],[140.2182,35.9738],[140.2228,35.9768],[140.2352,35.9778],[140.2395,35.9792],[140.2491,35.9794],[140.2604,35.9773],[140.2756,35.9806],[140.2834,35.9853]]]}},{"type":"Feature","properties":{"id":8002},"geometry":{"type":"Polygon","coordinates":[[[139.917,35.9695],[139.9158,35.9825],[139.9174,35.9944],[139.9222,36.0068],[139.9239,36.0162],[139.9397,36.022],[139.9478,36.0285],[139.9499,36.0334],[139.9497,36.0422],[139.948,36.0482],[139.9398,36.065],[139.94,36.0728],[139.9424,36.0768],[139.9437,36.0829],[139.942,36.0867],[139.933,36.0938],[139.9146,36.102],[139.9053,36.1096],[139.897,36.1199],[139.8904,36.1246],[139.8833,36.1349],[139.873,36.1434],[139.8674,36.15],[139.8582,36.1474],[139.851,36.1477],[139.8458,36.1536],[139.8418,36.1553],[139.8389,36.1517],[139.8392,36.1464],[139.8357,36.1426],[139.8384,36.1356],[139.8451,36.1298],[139.8466,36.1239],[139.8454,36.1161],[139.8426,36.1099],[139.838,36.1034],[139.8376,36.0949],[139.8407,36.0838],[139.8458,36.0736],[139.8467,36.0694],[139.8454,36.063],[139.8419,36.06],[139.8312,36.0563],[139.8215,36.0552],[139.8399,36.0385],[139.8501,36.0309],[139.8595,36.0266],[139.8733,36.0129],[139.8827,36],[139.892,35.9826],[139.9009,35.9752],[139.9121,35.9706],[139.917,35.9695]]]}},{"type":"Feature","properties":{"id":8003},"geometry":{"type":"Polygon","coordinates":[[[140.0474,36.3742],[140.0341,36.3747],[140.0197,36.3732],[140.0025,36.3656],[139.9748,36.3708],[139.9689,36.3627],[139.968,36.3524],[139.9596,36.3469],[139.9481,36.3446],[139.9384,36.3403],[139.9272,36.3385],[139.9205,36.3349],[139.9174,36.3332],[139.9113,36.2974],[139.8978,36.3046],[139.9062,36.2953],[139.9124,36.2784],[139.912,36.2726],[139.902,36.2602],[139.9007,36.2565],[139.9017,36.2511],[139.909,36.2407],[139.9102,36.2271],[139.9263,36.2351],[139.9322,36.2365],[139.9396,36.2366],[139.9436,36.2354],[139.9518,36.2291],[139.963,36.2272],[139.9956,36.2277],[140.0014,36.2267],[140.0036,36.2244],[140.0072,36.2087],[140.0109,36.2046],[140.0254,36.2015],[140.0397,36.1973],[140.0451,36.206],[140.0526,36.2127],[140.0557,36.2195],[140.057,36.2366],[140.0613,36.2439],[140.0659,36.2573],[140.0665,36.2682],[140.0646,36.2741],[140.0569,36.2808],[140.0537,36.2851],[140.0505,36.2956],[140.0507,36.3018],[140.0555,36.3127],[140.057,36.3219],[140.0553,36.3285],[140.0506,36.3356],[140.0494,36.3431],[140.0461,36.3527],[140.0457,36.3673],[140.0474,36.3742]]]}},{"type":"Feature","properties":{"id":8004},"geometry":{"type":"Polygon","coordinates":[[[140.2607,36.9337],[140.2517,36.9183],[140.2522,36.9051],[140.2551,36.8949],[140.2569,36.8842],[140.2578,36.8633],[140.2561,36.8527],[140.2597,36.8431],[140.265,36.8342],[140.2688,36.8231],[140.2701,36.8123],[140.2681,36.8021],[140.2683,36.7918],[140.2621,36.7825],[140.2607,36.7781],[140.2581,36.77],[140.2587,36.7593],[140.2625,36.7499],[140.2706,36.742],[140.2799,36.7359],[140.2882,36.7282],[140.2905,36.7183],[140.2867,36.7082],[140.3106,36.7085],[140.3215,36.7107],[140.3306,36.7151],[140.3352,36.7134],[140.3393,36.7048],[140.3424,36.7012],[140.3564,36.6988],[140.3669,36.6948],[140.3717,36.6914],[140.3856,36.6839],[140.3916,36.6817],[140.4095,36.6801],[140.4209,36.6803],[140.4287,36.6844],[140.4321,36.6927],[140.4321,36.7081],[140.4287,36.7119],[140.4239,36.7141],[140.421,36.718],[140.4205,36.7274],[140.4276,36.7344],[140.4408,36.7328],[140.4435,36.7346],[140.4448,36.7402],[140.4595,36.7452],[140.4614,36.7489],[140.463,36.7661],[140.4651,36.7754],[140.4634,36.7839],[140.4643,36.7935],[140.4566,36.7998],[140.4498,36.8073],[140.4432,36.8161],[140.4328,36.8158],[140.4244,36.8217],[140.4167,36.8289],[140.4062,36.8283],[140.396,36.8294],[140.3855,36.8333],[140.3795,36.8423],[140.375,36.8522],[140.3736,36.8708],[140.3686,36.8806],[140.3471,36.8826],[140.3367,36.8858],[140.327,36.8907],[140.3254,36.9014],[140.3195,36.9102],[140.307,36.9217],[140.2985,36.9274],[140.29,36.9317],[140.2887,36.9324],[140.2607,36.9337]]]}},{"type":"Feature","properties":{"id":8005},"geometry":{"type":"Polygon","coordinates":[[[139.7916,36.0987],[139.7901,36.1021],[139.7811,36.1149],[139.7721,36.1221],[139.7644,36.126],[139.7559,36.1273],[139.7359,36.1284],[139.7149,36.1285],[139.7176,36.122],[139.7255,36.1146],[139.7306,36.1009],[139.734,36.0948],[139.7404,36.0833],[139.7602,36.0793],[139.78,36.0938],[139.7892,36.1002],[139.7916,36.0987]]]}},{"type":"Feature","properties":{"id":8006},"geometry":{"type":"Polygon","coordinates":[[[140.7163,36.6925],[140.6938,36.6928],[140.6831,36.6938],[140.663,36.694],[140.6394,36.6976],[140.6262,36.7018],[140.619,36.7027],[140.5994,36.7011],[140.5893,36.702],[140.5752,36.7059],[140.5595,36.709],[140.5478,36.7061],[140.5441,36.7032],[140.5433,36.6998],[140.5452,36.6891],[140.5474,36.6823],[140.5474,36.6664],[140.5429,36.6583],[140.5351,36.6536],[140.5242,36.6528],[140.519,36.6489],[140.5205,36.6442],[140.5269,36.6365],[140.5385,36.6266],[140.548,36.6233],[140.5644,36.6247],[140.5792,36.6231],[140.5898,36.6177],[140.5906,36.6143],[140.5898,36.6047],[140.5851,36.5938],[140.5835,36.5877],[140.5832,36.5781],[140.5853,36.5706],[140.59,36.5642],[140.5971,36.5474],[140.6015,36.5406],[140.602,36.5342],[140.5991,36.5253],[140.592,36.5198],[140.5865,36.5187],[140.5716,36.5124],[140.5627,36.5099],[140.5631,36.4942],[140.5695,36.496],[140.5795,36.496],[140.5863,36.4945],[140.5953,36.4907],[140.6041,36.4883],[140.6127,36.4872],[140.6172,36.4861],[140.6208,36.4883],[140.6178,36.4917],[140.6281,36.5011],[140.6333,36.5094],[140.6317,36.5142],[140.6339,36.5161],[140.6339,36.5231],[140.6369,36.5294],[140.6386,36.5383],[140.6463,36.5437],[140.6444,36.5489],[140.6475,36.5608],[140.653,36.5733],[140.6631,36.5819],[140.6621,36.5843],[140.6644,36.5922],[140.6718,36.5985],[140.675,36.6067],[140.6814,36.6164],[140.6878,36.6203],[140.6895,36.6249],[140.6917,36.6397],[140.6964,36.6486],[140.7036,36.6556],[140.7083,36.6542],[140.7169,36.6636],[140.7144,36.6653],[140.7133,36.6708],[140.7142,36.6836],[140.7163,36.6925]]]}},{"type":"Feature","properties":{"id":8007},"geometry":{"type":"Polygon","coordinates":[[[140.6078,36.4294],[140.5954,36.4323],[140.586,36.4363],[140.5674,36.439],[140.5602,36.4417],[140.5538,36.4469],[140.552,36.4502],[140.5443,36.4591],[140.5366,36.4616],[140.5316,36.4619],[140.5271,36.4601],[140.5214,36.4495],[140.5197,36.4432],[140.5124,36.4326],[140.5085,36.4242],[140.5053,36.4198],[140.495,36.4156],[140.4857,36.4049],[140.4876,36.3919],[140.4919,36.3813],[140.5002,36.3767],[140.514,36.375],[140.5318,36.3698],[140.5406,36.3652],[140.5486,36.3588],[140.5611,36.353],[140.5658,36.3496],[140.5787,36.3434],[140.5866,36.3373],[140.596,36.3353],[140.5992,36.34],[140.6019,36.3406],[140.6078,36.3483],[140.6108,36.3547],[140.6206,36.3606],[140.6242,36.3742],[140.6272,36.3814],[140.6186,36.3844],[140.6161,36.3869],[140.6131,36.3939],[140.6095,36.4092],[140.6078,36.4294]]]}},{"type":"Feature","properties":{"id":8008},"geometry":{"type":"Polygon","coordinates":[[[140.2867,36.7082],[140.2857,36.7054],[140.2745,36.7037],[140.2646,36.6983],[140.2498,36.699],[140.2376,36.6968],[140.2234,36.6812],[140.2243,36.675],[140.2248,36.6712],[140.2348,36.6666],[140.2362,36.656],[140.2438,36.6411],[140.2394,36.6312],[140.2408,36.6285],[140.2475,36.6155],[140.2522,36.6013],[140.2498,36.5914],[140.248,36.5743],[140.2522,36.5495],[140.2549,36.5404],[140.2609,36.5302],[140.2656,36.5261],[140.2708,36.5249],[140.2849,36.524],[140.2903,36.525],[140.3019,36.5315],[140.3143,36.5366],[140.3194,36.5374],[140.3243,36.5401],[140.3306,36.5484],[140.336,36.5491],[140.346,36.5469],[140.3498,36.5449],[140.3541,36.5391],[140.3678,36.5314],[140.3763,36.5197],[140.3788,36.5146],[140.388,36.5052],[140.3898,36.5019],[140.3983,36.494],[140.4045,36.498],[140.4134,36.5013],[140.4214,36.5124],[140.4244,36.5149],[140.4342,36.5179],[140.4581,36.5187],[140.4512,36.5266],[140.4449,36.5368],[140.4409,36.5463],[140.4335,36.5593],[140.4322,36.5633],[140.4374,36.5715],[140.4381,36.5751],[140.4346,36.583],[140.4329,36.5898],[140.4312,36.6024],[140.4306,36.6159],[140.4287,36.6198],[140.424,36.6242],[140.422,36.6317],[140.4221,36.6385],[140.4252,36.646],[140.4317,36.6513],[140.4518,36.6601],[140.4523,36.6634],[140.4463,36.6745],[140.4459,36.6771],[140.4492,36.6827],[140.4492,36.6948],[140.4454,36.6995],[140.4378,36.7055],[140.4321,36.7081],[140.4321,36.6927],[140.4287,36.6844],[140.4209,36.6803],[140.4095,36.6801],[140.3916,36.6817],[140.3856,36.6839],[140.3717,36.6914],[140.3669,36.6948],[140.3564,36.6988],[140.3424,36.7012],[140.3393,36.7048],[140.3352,36.7134],[140.3306,36.7151],[140.3215,36.7107],[140.3106,36.7085],[140.2867,36.7082]]]}},{"type":"Feature","properties":{"id":8009},"geometry":{"type":"Polygon","coordinates":[[[140.5305,36.8404],[140.5227,36.8333],[140.51,36.8196],[140.4994,36.8155],[140.4925,36.8071],[140.4847,36.8009],[140.4774,36.7926],[140.4643,36.7935],[140.4634,36.7839],[140.4651,36.7754],[140.463,36.7661],[140.4614,36.7489],[140.4595,36.7452],[140.4448,36.7402],[140.4435,36.7346],[140.4408,36.7328],[140.4276,36.7344],[140.4205,36.7274],[140.421,36.718],[140.4239,36.7141],[140.4287,36.7119],[140.4321,36.7081],[140.4378,36.7055],[140.4454,36.6995],[140.4492,36.6948],[140.4492,36.6827],[140.4459,36.6771],[140.4463,36.6745],[140.4523,36.6634],[140.4518,36.6601],[140.4317,36.6513],[140.4252,36.646],[140.4221,36.6385],[140.422,36.6317],[140.424,36.6242],[140.4287,36.6198],[140.4306,36.6159],[140.4312,36.6024],[140.4329,36.5898],[140.4346,36.583],[140.4381,36.5751],[140.4374,36.5715],[140.4322,36.5633],[140.4335,36.5593],[140.4409,36.5463],[140.4449,36.5368],[140.4512,36.5266],[140.4581,36.5187],[140.4649,36.5077],[140.4719,36.5042],[140.4787,36.5039],[140.4841,36.5022],[140.5042,36.5018],[140.5151,36.5051],[140.5214,36.5084],[140.5287,36.5093],[140.5552,36.5094],[140.5627,36.5099],[140.5716,36.5124],[140.5865,36.5187],[140.592,36.5198],[140.5991,36.5253],[140.602,36.5342],[140.6015,36.5406],[140.5971,36.5474],[140.59,36.5642],[140.5853,36.5706],[140.5832,36.5781],[140.5835,36.5877],[140.5851,36.5938],[140.5898,36.6047],[140.5906,36.6143],[140.5898,36.6177],[140.5792,36.6231],[140.5644,36.6247],[140.548,36.6233],[140.5385,36.6266],[140.5269,36.6365],[140.5205,36.6442],[140.519,36.6489],[140.5242,36.6528],[140.5351,36.6536],[140.5429,36.6583],[140.5474,36.6664],[140.5474,36.6823],[140.5452,36.6891],[140.5433,36.6998],[140.5441,36.7032],[140.5478,36.7061],[140.5595,36.709],[140.5593,36.7368],[140.5612,36.7505],[140.5603,36.754],[140.5467,36.7652],[140.5435,36.7691],[140.543,36.7738],[140.543,36.8019],[140.5434,36.8041],[140.5494,36.8146],[140.5568,36.8214],[140.559,36.8269],[140.5591,36.8358],[140.5608,36.8415],[140.5654,36.8459],[140.57,36.8539],[140.5707,36.861],[140.5602,36.8569],[140.5486,36.8549],[140.5389,36.8503],[140.5305,36.8404]]]}},{"type":"Feature","properties":{"id":8010},"geometry":{"type":"Polygon","coordinates":[[[140.5182,36.1272],[140.516,36.1352],[140.5196,36.1396],[140.5242,36.1383],[140.5309,36.1284],[140.5385,36.1194],[140.5423,36.1118],[140.543,36.0984],[140.5459,36.0887],[140.5545,36.075],[140.5646,36.0646],[140.5787,36.0646],[140.5913,36.07],[140.5988,36.076],[140.611,36.0835],[140.6014,36.1022],[140.6003,36.1067],[140.5933,36.1206],[140.5894,36.1306],[140.5858,36.1425],[140.5825,36.1494],[140.5817,36.1542],[140.578,36.1633],[140.5719,36.1836],[140.57,36.1939],[140.5672,36.2033],[140.5664,36.2106],[140.5617,36.2339],[140.5586,36.266],[140.5458,36.2638],[140.5403,36.2641],[140.5344,36.2664],[140.5225,36.2763],[140.5175,36.2739],[140.5102,36.273],[140.4932,36.269],[140.4976,36.2559],[140.4965,36.2503],[140.4907,36.2467],[140.4789,36.2433],[140.4638,36.2356],[140.4567,36.23],[140.4512,36.2292],[140.4436,36.2344],[140.4404,36.2351],[140.4324,36.2294],[140.4208,36.2236],[140.4205,36.2114],[140.4213,36.2084],[140.4287,36.2028],[140.4446,36.1966],[140.4531,36.19],[140.4535,36.1858],[140.447,36.1801],[140.445,36.1741],[140.4381,36.1622],[140.453,36.1581],[140.4581,36.154],[140.4564,36.1307],[140.4583,36.1277],[140.4666,36.123],[140.4735,36.1217],[140.4882,36.1266],[140.4951,36.1272],[140.5182,36.1272]]]}},{"type":"Feature","properties":{"id":8011},"geometry":{"type":"Polygon","coordinates":[[[140.4932,36.269],[140.4851,36.2681],[140.4654,36.2679],[140.4603,36.2691],[140.4583,36.2738],[140.4587,36.2829],[140.4623,36.2867],[140.4716,36.2898],[140.4854,36.2923],[140.492,36.2903],[140.5062,36.2901],[140.511,36.2906],[140.5175,36.2934],[140.5292,36.3031],[140.5343,36.3089],[140.5358,36.3134],[140.5258,36.3102],[140.5117,36.3067],[140.5044,36.3078],[140.4911,36.3162],[140.4805,36.3202],[140.4515,36.3203],[140.4438,36.3198],[140.4298,36.3162],[140.4248,36.3198],[140.4175,36.3392],[140.4149,36.3423],[140.4056,36.3427],[140.3939,36.3377],[140.3874,36.3302],[140.3878,36.3225],[140.3933,36.3134],[140.3905,36.3105],[140.3758,36.3145],[140.3704,36.3175],[140.3641,36.3104],[140.358,36.3002],[140.3542,36.2861],[140.3482,36.2782],[140.3418,36.2726],[140.3518,36.27],[140.3605,36.2697],[140.3676,36.2683],[140.3771,36.2644],[140.3832,36.2596],[140.3865,36.2538],[140.387,36.248],[140.3902,36.2418],[140.3977,36.2378],[140.4057,36.2315],[140.4208,36.2236],[140.4324,36.2294],[140.4404,36.2351],[140.4436,36.2344],[140.4512,36.2292],[140.4567,36.23],[140.4638,36.2356],[140.4789,36.2433],[140.4907,36.2467],[140.4965,36.2503],[140.4976,36.2559],[140.4932,36.269]]]}},{"type":"Feature","properties":{"id":8012},"geometry":{"type":"Polygon","coordinates":[[[140.499,35.9035],[140.4989,35.9151],[140.496,35.922],[140.4971,35.9318],[140.5006,35.9331],[140.5072,35.9385],[140.5142,35.9479],[140.5069,35.9539],[140.4976,35.9582],[140.4923,35.9525],[140.4883,35.9519],[140.4816,35.954],[140.475,35.9544],[140.4669,35.9571],[140.4535,35.9643],[140.4509,35.9733],[140.4483,35.9754],[140.4342,35.9786],[140.4203,35.9832],[140.4147,35.9804],[140.4171,35.9745],[140.4131,35.9716],[140.4002,35.9803],[140.3954,35.9806],[140.3653,35.9804],[140.3586,35.9798],[140.3492,35.9749],[140.3468,35.9804],[140.3488,35.987],[140.3429,35.9917],[140.3336,35.9946],[140.3166,35.9807],[140.3079,35.9758],[140.3007,35.9757],[140.2891,35.9807],[140.2834,35.9853],[140.2756,35.9806],[140.2604,35.9773],[140.2669,35.9693],[140.2734,35.958],[140.276,35.9505],[140.2757,35.9464],[140.2672,35.9367],[140.2613,35.9324],[140.2583,35.924],[140.254,35.9162],[140.2497,35.9045],[140.2444,35.8948],[140.256,35.8946],[140.2631,35.893],[140.2743,35.8919],[140.2779,35.8848],[140.2835,35.8825],[140.2948,35.8818],[140.3017,35.8783],[140.3111,35.8785],[140.317,35.8831],[140.3182,35.8913],[140.3205,35.8943],[140.3248,35.8948],[140.3294,35.889],[140.3379,35.8887],[140.3512,35.8997],[140.3595,35.9042],[140.3763,35.9111],[140.38,35.9106],[140.382,35.9055],[140.3803,35.8994],[140.3931,35.904],[140.4047,35.9062],[140.4259,35.9034],[140.4383,35.9085],[140.454,35.9144],[140.4662,35.9165],[140.4761,35.9143],[140.4852,35.9078],[140.499,35.9035]]]}},{"type":"Feature","properties":{"id":8013},"geometry":{"type":"Polygon","coordinates":[[[140.1867,36.3228],[140.1654,36.3193],[140.1512,36.3144],[140.1487,36.3109],[140.15,36.2929],[140.1509,36.2875],[140.1495,36.2819],[140.1388,36.2683],[140.1369,36.2582],[140.1364,36.2487],[140.135,36.2436],[140.1317,36.2397],[140.1128,36.2243],[140.1203,36.2162],[140.129,36.204],[140.1379,36.1824],[140.1389,36.1698],[140.1669,36.1702],[140.1751,36.1716],[140.1838,36.1744],[140.2123,36.1864],[140.2141,36.188],[140.2172,36.1958],[140.2142,36.2057],[140.2173,36.2086],[140.2282,36.2076],[140.2369,36.2027],[140.2388,36.1982],[140.2471,36.1851],[140.2558,36.1778],[140.2685,36.1745],[140.2731,36.169],[140.2725,36.161],[140.2591,36.1493],[140.2533,36.1421],[140.2535,36.1362],[140.2589,36.1352],[140.2735,36.1347],[140.2822,36.1313],[140.2895,36.1303],[140.3079,36.1254],[140.3149,36.1218],[140.3228,36.1213],[140.3339,36.1266],[140.3345,36.1402],[140.3337,36.1425],[140.3275,36.1477],[140.321,36.1502],[140.3067,36.1507],[140.3052,36.1583],[140.3084,36.1616],[140.3151,36.1624],[140.3214,36.1702],[140.323,36.1783],[140.3262,36.1799],[140.3414,36.1788],[140.3442,36.1812],[140.3428,36.1859],[140.3377,36.1911],[140.3188,36.2007],[140.3147,36.2022],[140.3042,36.2079],[140.2888,36.2139],[140.2765,36.2238],[140.2729,36.2303],[140.2729,36.2337],[140.2762,36.2414],[140.2819,36.2488],[140.2941,36.2589],[140.3011,36.2605],[140.3101,36.2651],[140.3132,36.2687],[140.3117,36.2761],[140.2885,36.271],[140.2772,36.2709],[140.2712,36.2721],[140.2584,36.2781],[140.242,36.2841],[140.2353,36.2892],[140.2267,36.299],[140.2153,36.3172],[140.2036,36.3207],[140.1867,36.3228]]]}},{"type":"Feature","properties":{"id":8014},"geometry":{"type":"Polygon","coordinates":[[[140.5142,35.9479],[140.5196,35.9471],[140.5391,35.9394],[140.5434,35.934],[140.5541,35.9239],[140.5589,35.9211],[140.5777,35.9135],[140.5815,35.9133],[140.5873,35.9204],[140.591,35.9229],[140.5955,35.9235],[140.6122,35.9233],[140.6182,35.9242],[140.6212,35.9279],[140.6212,35.9331],[140.6076,35.9494],[140.603,35.9523],[140.5844,35.9604],[140.5837,35.9667],[140.5865,35.9741],[140.5861,35.9782],[140.5831,35.9812],[140.5681,35.9906],[140.564,35.992],[140.5523,35.9986],[140.5476,35.9945],[140.5404,35.9915],[140.5242,35.994],[140.5167,35.9921],[140.5131,35.9801],[140.5048,35.9727],[140.5041,35.9678],[140.4976,35.9582],[140.5069,35.9539],[140.5142,35.9479]]]}},{"type":"Feature","properties":{"id":8015},"geometry":{"type":"Polygon","coordinates":[[[139.9359,35.9655],[139.9559,35.9726],[139.9671,35.9741],[139.9852,35.9749],[139.9929,35.977],[139.9946,35.993],[139.9975,36.0035],[140.0018,36.0112],[140.0256,36.0314],[140.0284,36.0329],[140.0194,36.0476],[140.0091,36.0723],[140.0048,36.0782],[140.0008,36.0893],[140.0064,36.0999],[140.0074,36.1035],[140.0046,36.1121],[140.004,36.1192],[140.004,36.1406],[139.999,36.138],[139.9914,36.132],[139.9843,36.132],[139.976,36.1381],[139.9624,36.142],[139.9559,36.1416],[139.9429,36.1374],[139.9229,36.1372],[139.8996,36.1384],[139.8962,36.1368],[139.8904,36.1246],[139.897,36.1199],[139.9053,36.1096],[139.9146,36.102],[139.933,36.0938],[139.942,36.0867],[139.9437,36.0829],[139.9424,36.0768],[139.94,36.0728],[139.9398,36.065],[139.948,36.0482],[139.9497,36.0422],[139.9499,36.0334],[139.9478,36.0285],[139.9397,36.022],[139.9239,36.0162],[139.9222,36.0068],[139.9174,35.9944],[139.9158,35.9825],[139.917,35.9695],[139.9359,35.9655]]]}},{"type":"Feature","properties":{"id":8016},"geometry":{"type":"Polygon","coordinates":[[[140.8707,35.7189],[140.8658,35.7333],[140.8738,35.7369],[140.8681,35.7382],[140.8629,35.7431],[140.8577,35.744],[140.852,35.7396],[140.8472,35.7411],[140.8468,35.7469],[140.8422,35.747],[140.8362,35.7503],[140.8269,35.7572],[140.8231,35.7629],[140.8061,35.7811],[140.798,35.7919],[140.7883,35.8033],[140.7761,35.82],[140.7672,35.8308],[140.7581,35.8431],[140.7558,35.8472],[140.7444,35.86],[140.7376,35.8715],[140.7414,35.874],[140.7391,35.88],[140.7195,35.9053],[140.7173,35.9102],[140.7128,35.9145],[140.7121,35.9174],[140.7068,35.9247],[140.7107,35.9265],[140.7127,35.955],[140.7119,35.955],[140.7099,35.927],[140.7047,35.9246],[140.7006,35.9261],[140.6835,35.916],[140.6784,35.9136],[140.6763,35.9098],[140.6781,35.9015],[140.69,35.8831],[140.6878,35.8817],[140.6771,35.8968],[140.6749,35.8975],[140.674,35.9066],[140.6721,35.9158],[140.6632,35.9216],[140.6626,35.9237],[140.6565,35.9237],[140.6413,35.9282],[140.6321,35.9289],[140.6301,35.9223],[140.6269,35.917],[140.6172,35.9087],[140.6159,35.9047],[140.6169,35.895],[140.6244,35.8845],[140.6313,35.8712],[140.6425,35.8604],[140.6521,35.8538],[140.6616,35.8503],[140.6665,35.8502],[140.6779,35.8482],[140.6876,35.8456],[140.6982,35.8404],[140.7095,35.8333],[140.7197,35.8208],[140.7237,35.8107],[140.728,35.7996],[140.7353,35.7903],[140.744,35.7825],[140.7662,35.7694],[140.7864,35.758],[140.798,35.7507],[140.8707,35.7189]]]}},{"type":"Feature","properties":{"id":8017},"geometry":{"type":"Polygon","coordinates":[[[140.3704,36.3175],[140.3579,36.3239],[140.3432,36.3365],[140.3398,36.3434],[140.339,36.354],[140.3449,36.3657],[140.3443,36.3692],[140.3292,36.3769],[140.3224,36.3851],[140.3214,36.3889],[140.3235,36.3932],[140.3363,36.3968],[140.3457,36.4004],[140.3546,36.4018],[140.3588,36.4036],[140.3592,36.409],[140.3476,36.4277],[140.3412,36.4363],[140.3332,36.4393],[140.3251,36.4406],[140.3006,36.4487],[140.2962,36.4487],[140.2753,36.4414],[140.2676,36.4376],[140.2608,36.4361],[140.2387,36.4357],[140.2272,36.4367],[140.2151,36.4341],[140.2065,36.4346],[140.2053,36.4296],[140.2056,36.4166],[140.1958,36.4033],[140.1904,36.3973],[140.1929,36.3879],[140.1927,36.3843],[140.1895,36.3789],[140.1851,36.3746],[140.1818,36.3671],[140.1817,36.3601],[140.18,36.3568],[140.1737,36.3532],[140.172,36.3478],[140.1734,36.3401],[140.1765,36.3331],[140.1867,36.3228],[140.2036,36.3207],[140.2153,36.3172],[140.2267,36.299],[140.2353,36.2892],[140.242,36.2841],[140.2584,36.2781],[140.2712,36.2721],[140.2772,36.2709],[140.2885,36.271],[140.3117,36.2761],[140.3151,36.2788],[140.3223,36.2793],[140.3378,36.2729],[140.3418,36.2726],[140.3482,36.2782],[140.3542,36.2861],[140.358,36.3002],[140.3641,36.3104],[140.3704,36.3175]]]}},{"type":"Feature","properties":{"id":8018},"geometry":{"type":"Polygon","coordinates":[[[140.611,36.0835],[140.5988,36.076],[140.5913,36.07],[140.5787,36.0646],[140.5646,36.0646],[140.5695,36.0475],[140.5773,36.0359],[140.5776,36.0266],[140.5793,36.0235],[140.588,36.0203],[140.5905,36.0106],[140.6004,36.001],[140.6036,35.989],[140.6041,35.9755],[140.6061,35.9706],[140.611,35.9662],[140.6152,35.9598],[140.6174,35.9518],[140.6329,35.9371],[140.6321,35.9289],[140.6413,35.9282],[140.6565,35.9237],[140.6626,35.9237],[140.665,35.9236],[140.6756,35.9185],[140.687,35.9234],[140.6934,35.9281],[140.6921,35.9307],[140.6942,35.9345],[140.7011,35.9378],[140.6952,35.9466],[140.6856,35.9631],[140.6826,35.9694],[140.676,35.969],[140.6714,35.9706],[140.6497,36.0089],[140.6472,36.0153],[140.6433,36.0206],[140.6364,36.0344],[140.6328,36.04],[140.6219,36.0625],[140.6189,36.0672],[140.611,36.0835]]]}},{"type":"Feature","properties":{"id":8019},"geometry":{"type":"Polygon","coordinates":[[[140.1751,36.1716],[140.1832,36.1674],[140.2043,36.1615],[140.2078,36.1587],[140.2096,36.1492],[140.2062,36.1349],[140.2093,36.1281],[140.2146,36.1255],[140.2252,36.125],[140.2412,36.1212],[140.2495,36.1201],[140.2601,36.1165],[140.2651,36.1156],[140.2806,36.1085],[140.2825,36.1041],[140.2819,36.0982],[140.279,36.0932],[140.2684,36.0885],[140.2669,36.086],[140.2701,36.0731],[140.2713,36.0639],[140.2777,36.0621],[140.2908,36.056],[140.2975,36.0596],[140.3055,36.0615],[140.323,36.0616],[140.3399,36.0603],[140.348,36.0582],[140.3663,36.0582],[140.3724,36.0604],[140.383,36.0693],[140.3895,36.0761],[140.3932,36.0826],[140.3926,36.0863],[140.3866,36.0879],[140.3794,36.093],[140.3775,36.1038],[140.3718,36.1087],[140.3625,36.1138],[140.3423,36.1216],[140.3339,36.1266],[140.3228,36.1213],[140.3149,36.1218],[140.3079,36.1254],[140.2895,36.1303],[140.2822,36.1313],[140.2735,36.1347],[140.2589,36.1352],[140.2535,36.1362],[140.2533,36.1421],[140.2591,36.1493],[140.2725,36.161],[140.2731,36.169],[140.2685,36.1745],[140.2558,36.1778],[140.2471,36.1851],[140.2388,36.1982],[140.2369,36.2027],[140.2282,36.2076],[140.2173,36.2086],[140.2142,36.2057],[140.2172,36.1958],[140.2141,36.188],[140.2123,36.1864],[140.1838,36.1744],[140.1751,36.1716]]]}},{"type":"Feature","properties":{"id":8020},"geometry":{"type":"Polygon","coordinates":[[[140.3803,35.8994],[140.382,35.9055],[140.38,35.9106],[140.3763,35.9111],[140.3595,35.9042],[140.3512,35.8997],[140.3379,35.8887],[140.3294,35.889],[140.3248,35.8948],[140.3205,35.8943],[140.3182,35.8913],[140.317,35.8831],[140.3111,35.8785],[140.3017,35.8783],[140.2948,35.8818],[140.2835,35.8825],[140.2779,35.8848],[140.2743,35.8919],[140.2631,35.893],[140.256,35.8946],[140.2444,35.8948],[140.2373,35.894],[140.2234,35.8892],[140.2117,35.8756],[140.202,35.8657],[140.2138,35.8591],[140.2172,35.8594],[140.2283,35.855],[140.238,35.8526],[140.25,35.8541],[140.2687,35.8658],[140.2801,35.8704],[140.2906,35.8691],[140.2958,35.8667],[140.3021,35.8638],[140.3208,35.8611],[140.3326,35.8658],[140.3509,35.8794],[140.356,35.8883],[140.3643,35.895],[140.3777,35.8987],[140.3803,35.8994]]]}},{"type":"Feature","properties":{"id":8021},"geometry":{"type":"Polygon","coordinates":[[[140.5913,36.8679],[140.5976,36.8642],[140.6182,36.8472],[140.6255,36.8389],[140.648,36.8205],[140.6521,36.8148],[140.6639,36.8051],[140.6712,36.8017],[140.6714,36.7981],[140.6465,36.7798],[140.6465,36.7758],[140.6622,36.7673],[140.6868,36.7471],[140.6915,36.7465],[140.7036,36.7497],[140.7146,36.7499],[140.7282,36.7464],[140.7317,36.7445],[140.7375,36.7578],[140.7419,36.7697],[140.7481,36.7833],[140.7611,36.8036],[140.7622,36.8078],[140.7683,36.8186],[140.7728,36.8228],[140.7858,36.8297],[140.7928,36.8297],[140.7946,36.827],[140.7992,36.8274],[140.8051,36.8302],[140.8027,36.8327],[140.8025,36.8397],[140.7983,36.8408],[140.7964,36.8464],[140.7983,36.8536],[140.7961,36.8565],[140.7947,36.8571],[140.7928,36.8578],[140.7763,36.8635],[140.7632,36.8648],[140.7438,36.8723],[140.733,36.8711],[140.7144,36.8721],[140.707,36.8789],[140.6988,36.8849],[140.6882,36.8874],[140.667,36.8935],[140.6573,36.8977],[140.6463,36.896],[140.635,36.8967],[140.6185,36.9003],[140.6062,36.9166],[140.5967,36.9232],[140.596,36.9332],[140.5904,36.9409],[140.5894,36.9421],[140.5793,36.9395],[140.578,36.9367],[140.572,36.9234],[140.5774,36.9074],[140.5842,36.8995],[140.5859,36.8894],[140.5935,36.881],[140.5956,36.8703],[140.5913,36.8679]]]}},{"type":"Feature","properties":{"id":8022},"geometry":{"type":"Polygon","coordinates":[[[139.8674,36.15],[139.8583,36.1604],[139.8571,36.1635],[139.8584,36.1712],[139.8615,36.1736],[139.8684,36.175],[139.8702,36.1781],[139.8688,36.188],[139.8624,36.2041],[139.859,36.211],[139.8567,36.215],[139.8516,36.218],[139.8465,36.2174],[139.8377,36.2101],[139.8335,36.2047],[139.8253,36.2031],[139.8212,36.2056],[139.8206,36.2167],[139.8191,36.2299],[139.816,36.2351],[139.7954,36.227],[139.7634,36.2161],[139.7526,36.2085],[139.7421,36.2034],[139.7296,36.2029],[139.7172,36.2066],[139.7053,36.2007],[139.6974,36.189],[139.6946,36.177],[139.6965,36.1641],[139.6988,36.1568],[139.7007,36.1512],[139.7062,36.1419],[139.7129,36.1334],[139.7149,36.1285],[139.7359,36.1284],[139.7559,36.1273],[139.7644,36.126],[139.769,36.1307],[139.7725,36.1366],[139.7763,36.1458],[139.7826,36.1493],[139.7943,36.1519],[139.8006,36.1516],[139.8141,36.1409],[139.8176,36.1397],[139.8295,36.1422],[139.8357,36.1426],[139.8392,36.1464],[139.8389,36.1517],[139.8418,36.1553],[139.8458,36.1536],[139.851,36.1477],[139.8582,36.1474],[139.8674,36.15]]]}},{"type":"Feature","properties":{"id":8023},"geometry":{"type":"Polygon","coordinates":[[[140.2834,35.9853],[140.2891,35.9807],[140.3007,35.9757],[140.3079,35.9758],[140.3166,35.9807],[140.3336,35.9946],[140.3383,35.9991],[140.3432,36.0015],[140.3493,36.0012],[140.3584,35.995],[140.3664,35.9955],[140.3721,35.9981],[140.3735,36.0007],[140.3694,36.0089],[140.3563,36.0204],[140.3487,36.024],[140.3393,36.0251],[140.3089,36.0251],[140.2938,36.0264],[140.2786,36.0289],[140.2714,36.0316],[140.2707,36.017],[140.273,36.012],[140.2771,35.9957],[140.2834,35.9853]]]}},{"type":"Feature","properties":{"id":8024},"geometry":{"type":"Polygon","coordinates":[[[140.4857,36.4049],[140.4756,36.4024],[140.47,36.405],[140.4628,36.4124],[140.4568,36.4318],[140.4557,36.438],[140.4501,36.4492],[140.4473,36.4518],[140.4419,36.4524],[140.432,36.4505],[140.4246,36.4512],[140.4199,36.4547],[140.4102,36.4598],[140.394,36.461],[140.3912,36.4573],[140.395,36.4448],[140.3935,36.4427],[140.3779,36.4362],[140.367,36.4345],[140.3481,36.4354],[140.3412,36.4363],[140.3476,36.4277],[140.3592,36.409],[140.3588,36.4036],[140.3546,36.4018],[140.3457,36.4004],[140.3363,36.3968],[140.3235,36.3932],[140.3214,36.3889],[140.3224,36.3851],[140.3292,36.3769],[140.3443,36.3692],[140.3449,36.3657],[140.339,36.354],[140.3398,36.3434],[140.3432,36.3365],[140.3579,36.3239],[140.3704,36.3175],[140.3758,36.3145],[140.3905,36.3105],[140.3933,36.3134],[140.3878,36.3225],[140.3874,36.3302],[140.3939,36.3377],[140.4056,36.3427],[140.4149,36.3423],[140.4175,36.3392],[140.4248,36.3198],[140.4298,36.3162],[140.4438,36.3198],[140.4515,36.3203],[140.4805,36.3202],[140.4911,36.3162],[140.5044,36.3078],[140.5117,36.3067],[140.5258,36.3102],[140.5358,36.3134],[140.5402,36.3135],[140.5582,36.3166],[140.5694,36.32],[140.576,36.3253],[140.5866,36.3373],[140.5787,36.3434],[140.5658,36.3496],[140.5611,36.353],[140.5486,36.3588],[140.5406,36.3652],[140.5318,36.3698],[140.514,36.375],[140.5002,36.3767],[140.4919,36.3813],[140.4876,36.3919],[140.4857,36.4049]]]}},{"type":"Feature","properties":{"id":8025},"geometry":{"type":"Polygon","coordinates":[[[140.0049,35.9072],[140.0053,35.9172],[140.0099,35.9235],[140.0169,35.9357],[140.0207,35.9381],[140.02,35.9432],[140.0173,35.9466],[140.0081,35.9517],[140.001,35.9648],[139.9963,35.9696],[139.9929,35.977],[139.9852,35.9749],[139.9671,35.9741],[139.9559,35.9726],[139.9359,35.9655],[139.9373,35.9652],[139.9387,35.9541],[139.9389,35.9424],[139.9474,35.9358],[139.9589,35.93],[139.9634,35.9264],[139.9675,35.9231],[139.9775,35.9186],[140.0004,35.9068],[140.0049,35.9072]]]}},{"type":"Feature","properties":{"id":8026},"geometry":{"type":"Polygon","coordinates":[[[140.5627,36.5099],[140.5552,36.5094],[140.5287,36.5093],[140.5214,36.5084],[140.5151,36.5051],[140.5042,36.5018],[140.4841,36.5022],[140.4787,36.5039],[140.4719,36.5042],[140.4649,36.5077],[140.4581,36.5187],[140.4342,36.5179],[140.4244,36.5149],[140.4214,36.5124],[140.4134,36.5013],[140.4045,36.498],[140.3983,36.494],[140.4073,36.4824],[140.4171,36.4743],[140.418,36.4718],[140.4102,36.4598],[140.4199,36.4547],[140.4246,36.4512],[140.432,36.4505],[140.4419,36.4524],[140.4473,36.4518],[140.4501,36.4492],[140.4557,36.438],[140.4568,36.4318],[140.4628,36.4124],[140.47,36.405],[140.4756,36.4024],[140.4857,36.4049],[140.495,36.4156],[140.5053,36.4198],[140.5085,36.4242],[140.5124,36.4326],[140.5197,36.4432],[140.5214,36.4495],[140.5271,36.4601],[140.5316,36.4619],[140.5366,36.4616],[140.5443,36.4591],[140.5439,36.4798],[140.5459,36.485],[140.5566,36.4916],[140.5631,36.4942],[140.5627,36.5099]]]}},{"type":"Feature","properties":{"id":8027},"geometry":{"type":"Polygon","coordinates":[[[140.4381,36.1622],[140.4363,36.1571],[140.4302,36.1469],[140.4215,36.1419],[140.4113,36.1418],[140.3927,36.1552],[140.3846,36.1557],[140.3766,36.1529],[140.3716,36.149],[140.3653,36.1465],[140.3811,36.1339],[140.3864,36.1282],[140.3925,36.1181],[140.3937,36.1146],[140.4023,36.1008],[140.4152,36.0947],[140.4187,36.0895],[140.4197,36.0832],[140.4221,36.0783],[140.4229,36.0715],[140.426,36.0645],[140.4375,36.0475],[140.4539,36.025],[140.4763,35.988],[140.4814,35.9833],[140.4909,35.9794],[140.498,35.9781],[140.5048,35.9727],[140.5131,35.9801],[140.5167,35.9921],[140.5242,35.994],[140.5404,35.9915],[140.5476,35.9945],[140.5523,35.9986],[140.5428,36.0063],[140.5434,36.0102],[140.5487,36.0116],[140.5563,36.0176],[140.5597,36.0231],[140.5603,36.0268],[140.5571,36.0301],[140.552,36.0302],[140.5483,36.0325],[140.5486,36.0381],[140.5565,36.041],[140.5566,36.0437],[140.546,36.0471],[140.5428,36.0504],[140.5389,36.0605],[140.5338,36.0705],[140.5342,36.0799],[140.5359,36.0859],[140.5283,36.0969],[140.5272,36.1045],[140.5243,36.1134],[140.5195,36.1226],[140.5182,36.1272],[140.4951,36.1272],[140.4882,36.1266],[140.4735,36.1217],[140.4666,36.123],[140.4583,36.1277],[140.4564,36.1307],[140.4581,36.154],[140.453,36.1581],[140.4381,36.1622]]]}},{"type":"Feature","properties":{"id":8028},"geometry":{"type":"Polygon","coordinates":[[[140.596,36.3353],[140.5866,36.3373],[140.576,36.3253],[140.5694,36.32],[140.5582,36.3166],[140.5402,36.3135],[140.5417,36.3073],[140.5419,36.2881],[140.5409,36.2837],[140.5375,36.281],[140.5225,36.2763],[140.5344,36.2664],[140.5403,36.2641],[140.5458,36.2638],[140.5586,36.266],[140.5583,36.2847],[140.5589,36.29],[140.5622,36.2981],[140.57,36.3056],[140.5678,36.3072],[140.5778,36.3108],[140.5853,36.3103],[140.5939,36.3217],[140.5933,36.3253],[140.596,36.3353]]]}},{"type":"Feature","properties":{"id":8029},"geometry":{"type":"Polygon","coordinates":[[[140.4208,36.2236],[140.4057,36.2315],[140.3977,36.2378],[140.3902,36.2418],[140.387,36.248],[140.3865,36.2538],[140.3832,36.2596],[140.3771,36.2644],[140.3676,36.2683],[140.3605,36.2697],[140.3518,36.27],[140.3418,36.2726],[140.3378,36.2729],[140.3223,36.2793],[140.3151,36.2788],[140.3117,36.2761],[140.3132,36.2687],[140.3101,36.2651],[140.3011,36.2605],[140.2941,36.2589],[140.2819,36.2488],[140.2762,36.2414],[140.2729,36.2337],[140.2729,36.2303],[140.2765,36.2238],[140.2888,36.2139],[140.3042,36.2079],[140.3147,36.2022],[140.3188,36.2007],[140.3377,36.1911],[140.3428,36.1859],[140.3442,36.1812],[140.3414,36.1788],[140.3262,36.1799],[140.323,36.1783],[140.3214,36.1702],[140.3151,36.1624],[140.3281,36.1626],[140.3338,36.1595],[140.3388,36.1534],[140.3447,36.151],[140.3541,36.1498],[140.3653,36.1465],[140.3716,36.149],[140.3766,36.1529],[140.3846,36.1557],[140.3927,36.1552],[140.4113,36.1418],[140.4215,36.1419],[140.4302,36.1469],[140.4363,36.1571],[140.4381,36.1622],[140.445,36.1741],[140.447,36.1801],[140.4535,36.1858],[140.4531,36.19],[140.4446,36.1966],[140.4287,36.2028],[140.4213,36.2084],[140.4205,36.2114],[140.4208,36.2236]]]}},{"type":"Feature","properties":{"id":8030},"geometry":{"type":"Polygon","coordinates":[[[140.2613,35.9324],[140.2513,35.9338],[140.24,35.9377],[140.2342,35.9387],[140.2194,35.9458],[140.2147,35.9493],[140.2079,35.9523],[140.2011,35.9526],[140.1952,35.9496],[140.1897,35.9445],[140.1828,35.9341],[140.1786,35.9324],[140.1733,35.9341],[140.167,35.9459],[140.1608,35.9471],[140.1531,35.9407],[140.1482,35.9398],[140.1438,35.9412],[140.1324,35.9491],[140.1248,35.9535],[140.1213,35.9341],[140.1337,35.9169],[140.1413,35.9078],[140.1474,35.8986],[140.1493,35.8918],[140.1475,35.8848],[140.1419,35.8819],[140.1324,35.8812],[140.1306,35.8789],[140.1311,35.8721],[140.1483,35.87],[140.1538,35.8702],[140.1643,35.874],[140.1817,35.8777],[140.1886,35.8783],[140.1957,35.8681],[140.202,35.8657],[140.2117,35.8756],[140.2234,35.8892],[140.2373,35.894],[140.2444,35.8948],[140.2497,35.9045],[140.254,35.9162],[140.2583,35.924],[140.2613,35.9324]]]}},{"type":"Feature","properties":{"id":8031},"geometry":{"type":"Polygon","coordinates":[[[139.8215,36.0552],[139.8312,36.0563],[139.8419,36.06],[139.8454,36.063],[139.8467,36.0694],[139.8458,36.0736],[139.8407,36.0838],[139.8376,36.0949],[139.838,36.1034],[139.8426,36.1099],[139.8454,36.1161],[139.8466,36.1239],[139.8451,36.1298],[139.8384,36.1356],[139.8357,36.1426],[139.8295,36.1422],[139.8176,36.1397],[139.8141,36.1409],[139.8006,36.1516],[139.7943,36.1519],[139.7826,36.1493],[139.7763,36.1458],[139.7725,36.1366],[139.769,36.1307],[139.7644,36.126],[139.7721,36.1221],[139.7811,36.1149],[139.7901,36.1021],[139.7916,36.0987],[139.8012,36.0928],[139.8071,36.0833],[139.811,36.0689],[139.8181,36.0583],[139.8215,36.0552]]]}},{"type":"Feature","properties":{"id":8032},"geometry":{"type":"Polygon","coordinates":[[[140.057,36.2366],[140.0643,36.2333],[140.076,36.2246],[140.0799,36.2242],[140.1128,36.2243],[140.1317,36.2397],[140.135,36.2436],[140.1364,36.2487],[140.1369,36.2582],[140.1388,36.2683],[140.1495,36.2819],[140.1509,36.2875],[140.15,36.2929],[140.1487,36.3109],[140.1512,36.3144],[140.1654,36.3193],[140.1867,36.3228],[140.1765,36.3331],[140.1734,36.3401],[140.172,36.3478],[140.1737,36.3532],[140.18,36.3568],[140.1817,36.3601],[140.1818,36.3671],[140.1851,36.3746],[140.1895,36.3789],[140.1927,36.3843],[140.1929,36.3879],[140.1904,36.3973],[140.1884,36.3951],[140.1724,36.3958],[140.1617,36.3949],[140.1538,36.4017],[140.1475,36.4109],[140.1397,36.4113],[140.125,36.41],[140.1152,36.4053],[140.1144,36.3951],[140.104,36.3909],[140.0962,36.3979],[140.0857,36.3998],[140.0733,36.4005],[140.0697,36.4007],[140.0708,36.3897],[140.0671,36.3792],[140.066,36.3787],[140.054,36.374],[140.0474,36.3742],[140.0457,36.3673],[140.0461,36.3527],[140.0494,36.3431],[140.0506,36.3356],[140.0553,36.3285],[140.057,36.3219],[140.0555,36.3127],[140.0507,36.3018],[140.0505,36.2956],[140.0537,36.2851],[140.0569,36.2808],[140.0646,36.2741],[140.0665,36.2682],[140.0659,36.2573],[140.0613,36.2439],[140.057,36.2366]]]}},{"type":"Feature","properties":{"id":8033},"geometry":{"type":"Polygon","coordinates":[[[139.9102,36.2271],[139.9204,36.2183],[139.9219,36.2136],[139.9217,36.2015],[139.923,36.1975],[139.9327,36.1936],[139.9371,36.1902],[139.9382,36.1777],[139.9405,36.1707],[139.9441,36.1673],[139.9463,36.1623],[139.9417,36.1589],[139.9269,36.1582],[139.9228,36.1532],[139.9218,36.1472],[139.9229,36.1372],[139.9429,36.1374],[139.9559,36.1416],[139.9624,36.142],[139.976,36.1381],[139.9843,36.132],[139.9914,36.132],[139.999,36.138],[140.004,36.1406],[140.0043,36.1452],[140.0075,36.158],[140.015,36.1692],[140.0248,36.1863],[140.0338,36.1942],[140.0397,36.1973],[140.0254,36.2015],[140.0109,36.2046],[140.0072,36.2087],[140.0036,36.2244],[140.0014,36.2267],[139.9956,36.2277],[139.963,36.2272],[139.9518,36.2291],[139.9436,36.2354],[139.9396,36.2366],[139.9322,36.2365],[139.9263,36.2351],[139.9102,36.2271]]]}},{"type":"Feature","properties":{"id":8034},"geometry":{"type":"Polygon","coordinates":[[[140.2522,36.5495],[140.2513,36.5373],[140.2533,36.5273],[140.2505,36.5114],[140.2447,36.4999],[140.234,36.4934],[140.2308,36.4837],[140.2224,36.4773],[140.2163,36.4692],[140.2066,36.4513],[140.2079,36.4402],[140.2065,36.4346],[140.2151,36.4341],[140.2272,36.4367],[140.2387,36.4357],[140.2608,36.4361],[140.2676,36.4376],[140.2753,36.4414],[140.2962,36.4487],[140.3006,36.4487],[140.3251,36.4406],[140.3332,36.4393],[140.3412,36.4363],[140.3481,36.4354],[140.367,36.4345],[140.3779,36.4362],[140.3935,36.4427],[140.395,36.4448],[140.3912,36.4573],[140.394,36.461],[140.4102,36.4598],[140.418,36.4718],[140.4171,36.4743],[140.4073,36.4824],[140.3983,36.494],[140.3898,36.5019],[140.388,36.5052],[140.3788,36.5146],[140.3763,36.5197],[140.3678,36.5314],[140.3541,36.5391],[140.3498,36.5449],[140.346,36.5469],[140.336,36.5491],[140.3306,36.5484],[140.3243,36.5401],[140.3194,36.5374],[140.3143,36.5366],[140.3019,36.5315],[140.2903,36.525],[140.2849,36.524],[140.2708,36.5249],[140.2656,36.5261],[140.2609,36.5302],[140.2549,36.5404],[140.2522,36.5495]]]}},{"type":"Feature","properties":{"id":8035},"geometry":{"type":"Polygon","coordinates":[[[140.5707,36.861],[140.57,36.8539],[140.5654,36.8459],[140.5608,36.8415],[140.5591,36.8358],[140.559,36.8269],[140.5568,36.8214],[140.5494,36.8146],[140.5434,36.8041],[140.543,36.8019],[140.543,36.7738],[140.5435,36.7691],[140.5467,36.7652],[140.5603,36.754],[140.5612,36.7505],[140.5593,36.7368],[140.5595,36.709],[140.5752,36.7059],[140.5893,36.702],[140.5994,36.7011],[140.619,36.7027],[140.6262,36.7018],[140.6394,36.6976],[140.663,36.694],[140.6831,36.6938],[140.6938,36.6928],[140.7163,36.6925],[140.725,36.7158],[140.7281,36.7192],[140.7281,36.7292],[140.73,36.7403],[140.7317,36.7445],[140.7282,36.7464],[140.7146,36.7499],[140.7036,36.7497],[140.6915,36.7465],[140.6868,36.7471],[140.6622,36.7673],[140.6465,36.7758],[140.6465,36.7798],[140.6714,36.7981],[140.6712,36.8017],[140.6639,36.8051],[140.6521,36.8148],[140.648,36.8205],[140.6255,36.8389],[140.6182,36.8472],[140.5976,36.8642],[140.5913,36.8679],[140.5858,36.8647],[140.5756,36.8628],[140.5707,36.861]]]}},{"type":"Feature","properties":{"id":8036},"geometry":{"type":"Polygon","coordinates":[[[140.5631,36.4942],[140.5566,36.4916],[140.5459,36.485],[140.5439,36.4798],[140.5443,36.4591],[140.552,36.4502],[140.5538,36.4469],[140.5602,36.4417],[140.5674,36.439],[140.586,36.4363],[140.5954,36.4323],[140.6078,36.4294],[140.6081,36.4478],[140.61,36.4639],[140.6105,36.4733],[140.6133,36.481],[140.6067,36.4831],[140.6127,36.4872],[140.6041,36.4883],[140.5953,36.4907],[140.5863,36.4945],[140.5795,36.496],[140.5695,36.496],[140.5631,36.4942]]]}},{"type":"Feature","properties":{"id":8037},"geometry":{"type":"Polygon","coordinates":[[[140.1528,35.8432],[140.1548,35.8416],[140.1653,35.842],[140.177,35.8458],[140.1873,35.8484],[140.2065,35.8584],[140.2138,35.8591],[140.202,35.8657],[140.1957,35.8681],[140.1886,35.8783],[140.1817,35.8777],[140.1643,35.874],[140.1538,35.8702],[140.1483,35.87],[140.1311,35.8721],[140.1277,35.8683],[140.1387,35.8558],[140.1528,35.8432]]]}},{"type":"Feature","properties":{"id":8038},"geometry":{"type":"Polygon","coordinates":[[[140.1277,35.8683],[140.1311,35.8721],[140.1306,35.8789],[140.1324,35.8812],[140.1419,35.8819],[140.1475,35.8848],[140.1493,35.8918],[140.1474,35.8986],[140.1413,35.9078],[140.1337,35.9169],[140.1213,35.9341],[140.1098,35.9353],[140.1006,35.9374],[140.0899,35.9374],[140.0653,35.932],[140.0552,35.9291],[140.0464,35.9252],[140.0342,35.9258],[140.0207,35.9381],[140.0169,35.9357],[140.0099,35.9235],[140.0053,35.9172],[140.0049,35.9072],[140.0175,35.9082],[140.0224,35.9057],[140.0304,35.9016],[140.0488,35.8904],[140.0603,35.8877],[140.0704,35.883],[140.0808,35.8818],[140.0938,35.8821],[140.1051,35.8796],[140.1148,35.8742],[140.1251,35.8713],[140.1277,35.8683]]]}},{"type":"Feature","properties":{"id":8039},"geometry":{"type":"Polygon","coordinates":[[[140.2249,36.0532],[140.2266,36.0636],[140.2229,36.0713],[140.215,36.0761],[140.2156,36.0833],[140.2206,36.0843],[140.233,36.0843],[140.2378,36.0831],[140.2414,36.0743],[140.246,36.066],[140.2511,36.0647],[140.266,36.0648],[140.2713,36.0639],[140.2701,36.0731],[140.2669,36.086],[140.2684,36.0885],[140.279,36.0932],[140.2819,36.0982],[140.2825,36.1041],[140.2806,36.1085],[140.2651,36.1156],[140.2601,36.1165],[140.2495,36.1201],[140.2412,36.1212],[140.2252,36.125],[140.2146,36.1255],[140.2093,36.1281],[140.2062,36.1349],[140.2096,36.1492],[140.2078,36.1587],[140.2043,36.1615],[140.1832,36.1674],[140.1751,36.1716],[140.1669,36.1702],[140.1389,36.1698],[140.1374,36.1562],[140.1404,36.1482],[140.1437,36.1432],[140.1435,36.1402],[140.1381,36.1312],[140.1334,36.1295],[140.1244,36.1305],[140.123,36.1282],[140.1329,36.1139],[140.1358,36.112],[140.1514,36.1112],[140.1553,36.1098],[140.161,36.1054],[140.1629,36.1018],[140.1598,36.0849],[140.1633,36.0743],[140.1635,36.0624],[140.1618,36.0541],[140.159,36.0504],[140.1436,36.0423],[140.1425,36.0379],[140.1527,36.0221],[140.1634,36.0264],[140.1718,36.032],[140.1766,36.0331],[140.1881,36.0319],[140.1989,36.0333],[140.2052,36.0374],[140.2099,36.0444],[140.2249,36.0532]]]}},{"type":"Feature","properties":{"id":8040},"geometry":{"type":"Polygon","coordinates":[[[140.0397,36.1973],[140.0338,36.1942],[140.0248,36.1863],[140.015,36.1692],[140.0075,36.158],[140.0043,36.1452],[140.004,36.1406],[140.004,36.1192],[140.0046,36.1121],[140.0074,36.1035],[140.0064,36.0999],[140.0008,36.0893],[140.0048,36.0782],[140.0091,36.0723],[140.0194,36.0476],[140.0284,36.0329],[140.0375,36.0317],[140.0449,36.0284],[140.0505,36.0211],[140.0481,36.0123],[140.0495,36.0077],[140.0615,36.0034],[140.0683,36.0019],[140.071,35.9998],[140.0755,35.9915],[140.083,35.9849],[140.0919,35.9698],[140.093,35.9619],[140.099,35.9527],[140.1054,35.9476],[140.1089,35.9465],[140.1158,35.9414],[140.1213,35.9341],[140.1248,35.9535],[140.1222,35.9597],[140.1214,35.9732],[140.1252,35.9783],[140.1356,35.9824],[140.1411,35.9883],[140.1445,35.9993],[140.1444,36.005],[140.142,36.0112],[140.1425,36.0151],[140.1527,36.0221],[140.1425,36.0379],[140.1436,36.0423],[140.159,36.0504],[140.1618,36.0541],[140.1635,36.0624],[140.1633,36.0743],[140.1598,36.0849],[140.1629,36.1018],[140.161,36.1054],[140.1553,36.1098],[140.1514,36.1112],[140.1358,36.112],[140.1329,36.1139],[140.123,36.1282],[140.1244,36.1305],[140.1334,36.1295],[140.1381,36.1312],[140.1435,36.1402],[140.1437,36.1432],[140.1404,36.1482],[140.1374,36.1562],[140.1389,36.1698],[140.1379,36.1824],[140.129,36.204],[140.1203,36.2162],[140.1128,36.2243],[140.0799,36.2242],[140.076,36.2246],[140.0643,36.2333],[140.057,36.2366],[140.0557,36.2195],[140.0526,36.2127],[140.0451,36.206],[140.0397,36.1973]]]}},{"type":"Feature","properties":{"id":8041},"geometry":{"type":"Polygon","coordinates":[[[139.9929,35.977],[139.9963,35.9696],[140.001,35.9648],[140.0081,35.9517],[140.0173,35.9466],[140.02,35.9432],[140.0207,35.9381],[140.0342,35.9258],[140.0464,35.9252],[140.0552,35.9291],[140.0653,35.932],[140.0899,35.9374],[140.1006,35.9374],[140.1098,35.9353],[140.1213,35.9341],[140.1158,35.9414],[140.1089,35.9465],[140.1054,35.9476],[140.099,35.9527],[140.093,35.9619],[140.0919,35.9698],[140.083,35.9849],[140.0755,35.9915],[140.071,35.9998],[140.0683,36.0019],[140.0615,36.0034],[140.0495,36.0077],[140.0481,36.0123],[140.0505,36.0211],[140.0449,36.0284],[140.0375,36.0317],[140.0284,36.0329],[140.0256,36.0314],[140.0018,36.0112],[139.9975,36.0035],[139.9946,35.993],[139.9929,35.977]]]}},{"type":"Feature","properties":{"id":8042},"geometry":{"type":"Polygon","coordinates":[[[140.1527,36.0221],[140.1425,36.0151],[140.142,36.0112],[140.1444,36.005],[140.1445,35.9993],[140.1411,35.9883],[140.1356,35.9824],[140.1252,35.9783],[140.1214,35.9732],[140.1222,35.9597],[140.1248,35.9535],[140.1324,35.9491],[140.1438,35.9412],[140.1482,35.9398],[140.1531,35.9407],[140.1608,35.9471],[140.167,35.9459],[140.1733,35.9341],[140.1786,35.9324],[140.1828,35.9341],[140.1897,35.9445],[140.1952,35.9496],[140.2011,35.9526],[140.2079,35.9523],[140.2147,35.9493],[140.2194,35.9458],[140.2342,35.9387],[140.24,35.9377],[140.2513,35.9338],[140.2613,35.9324],[140.2672,35.9367],[140.2757,35.9464],[140.276,35.9505],[140.2734,35.958],[140.2669,35.9693],[140.2604,35.9773],[140.2491,35.9794],[140.2395,35.9792],[140.2352,35.9778],[140.2228,35.9768],[140.2182,35.9738],[140.2114,35.9655],[140.2029,35.9655],[140.1983,35.9677],[140.1925,35.9727],[140.1795,35.9928],[140.163,36.0066],[140.157,36.0143],[140.1527,36.0221]]]}},{"type":"Feature","properties":{"id":8043},"geometry":{"type":"Polygon","coordinates":[[[139.8904,36.1246],[139.8962,36.1368],[139.8996,36.1384],[139.9229,36.1372],[139.9218,36.1472],[139.9228,36.1532],[139.9269,36.1582],[139.9417,36.1589],[139.9463,36.1623],[139.9441,36.1673],[139.9405,36.1707],[139.9382,36.1777],[139.9371,36.1902],[139.9327,36.1936],[139.923,36.1975],[139.9217,36.2015],[139.9219,36.2136],[139.9204,36.2183],[139.9102,36.2271],[139.8959,36.2198],[139.8896,36.212],[139.8832,36.2108],[139.859,36.211],[139.8624,36.2041],[139.8688,36.188],[139.8702,36.1781],[139.8684,36.175],[139.8615,36.1736],[139.8584,36.1712],[139.8571,36.1635],[139.8583,36.1604],[139.8674,36.15],[139.873,36.1434],[139.8833,36.1349],[139.8904,36.1246]]]}},{"type":"Feature","properties":{"id":8044},"geometry":{"type":"Polygon","coordinates":[[[139.8978,36.3046],[139.8926,36.3076],[139.88,36.3107],[139.8537,36.3085],[139.8462,36.3007],[139.8399,36.2924],[139.8413,36.2699],[139.8348,36.2612],[139.8321,36.25],[139.8257,36.2389],[139.816,36.2351],[139.8191,36.2299],[139.8206,36.2167],[139.8212,36.2056],[139.8253,36.2031],[139.8335,36.2047],[139.8377,36.2101],[139.8465,36.2174],[139.8516,36.218],[139.8567,36.215],[139.859,36.211],[139.8832,36.2108],[139.8896,36.212],[139.8959,36.2198],[139.9102,36.2271],[139.909,36.2407],[139.9017,36.2511],[139.9007,36.2565],[139.902,36.2602],[139.912,36.2726],[139.9124,36.2784],[139.9062,36.2953],[139.8978,36.3046]]]}}]}