{"type":"FeatureCollection","features":[{"type":"Feature","properties":{"id":9001},"geometry":{"type":"Polygon","coordinates":[[[139.3764,36.3615],[139.3852,36.3551],[139.3976,36.344],[139.4118,36.3375],[139.4242,36.3333],[139.4269,36.3214],[139.4221,36.3098],[139.4318,36.2995],[139.449,36.2879],[139.4529,36.2853],[139.4637,36.2842],[139.4698,36.2758],[139.4786,36.2698],[139.4972,36.2746],[139.5078,36.2777],[139.5191,36.2781],[139.531,36.2811],[139.5267,36.2849],[139.5257,36.2918],[139.5272,36.2949],[139.534,36.3003],[139.5424,36.3034],[139.5493,36.3092],[139.5518,36.3133],[139.5534,36.3268],[139.5502,36.3316],[139.5432,36.3324],[139.5272,36.3297],[139.5204,36.3304],[139.5115,36.3395],[139.5139,36.355],[139.514,36.3773],[139.5127,36.3813],[139.4956,36.3913],[139.4879,36.3992],[139.4864,36.4023],[139.4857,36.411],[139.475,36.423],[139.4589,36.4346],[139.452,36.4384],[139.4469,36.4385],[139.4374,36.4343],[139.4306,36.4353],[139.4264,36.4384],[139.4177,36.4415],[139.4156,36.4442],[139.4174,36.4519],[139.4152,36.4513],[139.4099,36.4425],[139.4025,36.4326],[139.3884,36.4165],[139.3798,36.4048],[139.375,36.3954],[139.3686,36.387],[139.3706,36.3656],[139.3764,36.3615]]]}},{"type":"Feature","properties":{"id":9002},"geometry":{"type":"Polygon","coordinates":[[[139.6625,36.2176],[139.6725,36.2121],[139.693,36.205],[139.6972,36.208],[139.6993,36.2143],[139.699,36.2235],[139.6958,36.2301],[139.6959,36.2352],[139.6981,36.2437],[139.7004,36.2464],[139.7071,36.2479],[139.7159,36.2517],[139.7319,36.2609],[139.7327,36.263],[139.7302,36.2716],[139.7328,36.2808],[139.7161,36.2801],[139.7103,36.2823],[139.7018,36.2873],[139.684,36.2822],[139.6757,36.282],[139.6641,36.2839],[139.6598,36.2859],[139.6581,36.297],[139.6533,36.3041],[139.646,36.3045],[139.6409,36.3032],[139.6275,36.3027],[139.6239,36.2928],[139.6204,36.2913],[139.6153,36.2927],[139.6129,36.291],[139.6105,36.2847],[139.6167,36.2805],[139.6207,36.2759],[139.6217,36.2714],[139.6329,36.2684],[139.6413,36.2617],[139.6369,36.25],[139.6441,36.2399],[139.6534,36.2354],[139.6611,36.2283],[139.6625,36.2176]]]}},{"type":"Feature","properties":{"id":9003},"geometry":{"type":"Polygon","coordinates":[[[140.0931,36.6041],[140.088,36.609],[140.0849,36.6174],[140.0807,36.6198],[140.0737,36.6151],[140.0704,36.6093],[140.0538,36.6095],[140.0487,36.6079],[140.0486,36.6024],[140.0524,36.5963],[140.0527,36.5887],[140.0489,36.5853],[140.0254,36.5887],[140.0219,36.5861],[140.0166,36.5857],[140.0116,36.5899],[140.0075,36.6006],[140.0004,36.6044],[139.9874,36.6084],[139.9905,36.6019],[139.9985,36.5897],[139.9999,36.5838],[140.0044,36.5731],[140.0082,36.5674],[140.0089,36.5632],[140.0022,36.5544],[140.0019,36.5501],[140.0102,36.5429],[140.0128,36.5371],[140.0132,36.5158],[140.0124,36.5125],[140.0069,36.5066],[140.0048,36.5019],[140.007,36.4934],[140.012,36.4882],[140.0177,36.487],[140.0418,36.4873],[140.0455,36.4901],[140.0507,36.5026],[140.0542,36.5063],[140.0553,36.5118],[140.0628,36.526],[140.0641,36.5336],[140.0661,36.5382],[140.0711,36.5388],[140.0773,36.5294],[140.0806,36.5308],[140.0831,36.538],[140.0888,36.5468],[140.0908,36.5536],[140.0909,36.5766],[140.093,36.5893],[140.0931,36.6041]]]}},{"type":"Feature","properties":{"id":9004},"geometry":{"type":"Polygon","coordinates":[[[140.0542,36.5063],[140.0547,36.4938],[140.0564,36.4914],[140.0613,36.4921],[140.0666,36.4985],[140.0706,36.499],[140.0772,36.4953],[140.0822,36.5004],[140.0879,36.5103],[140.0907,36.5125],[140.107,36.517],[140.1145,36.5201],[140.1345,36.524],[140.1467,36.5246],[140.1596,36.5326],[140.1604,36.5354],[140.1561,36.539],[140.1485,36.5417],[140.1415,36.5474],[140.1396,36.5526],[140.1398,36.5633],[140.1435,36.5756],[140.1472,36.5842],[140.148,36.5887],[140.1469,36.5944],[140.1371,36.6036],[140.1369,36.6084],[140.1445,36.6115],[140.1429,36.618],[140.1395,36.6215],[140.1131,36.6219],[140.1062,36.619],[140.1029,36.6128],[140.0931,36.6041],[140.093,36.5893],[140.0909,36.5766],[140.0908,36.5536],[140.0888,36.5468],[140.0831,36.538],[140.0806,36.5308],[140.0773,36.5294],[140.0711,36.5388],[140.0661,36.5382],[140.0641,36.5336],[140.0628,36.526],[140.0553,36.5118],[140.0542,36.5063]]]}},{"type":"Feature","properties":{"id":9005},"geometry":{"type":"Polygon","coordinates":[[[139.7018,36.2873],[139.7047,36.2959],[139.7048,36.3086],[139.6973,36.3202],[139.6928,36.3234],[139.683,36.3273],[139.6734,36.3284],[139.6717,36.3316],[139.673,36.3391],[139.6805,36.3568],[139.6686,36.3569],[139.6638,36.3604],[139.6539,36.3807],[139.648,36.3833],[139.6321,36.3832],[139.6199,36.3746],[139.6173,36.3704],[139.616,36.3633],[139.6173,36.3495],[139.6212,36.3391],[139.6222,36.3337],[139.6269,36.3245],[139.6297,36.3223],[139.6368,36.32],[139.6373,36.3149],[139.6275,36.3027],[139.6409,36.3032],[139.646,36.3045],[139.6533,36.3041],[139.6581,36.297],[139.6598,36.2859],[139.6641,36.2839],[139.6757,36.282],[139.684,36.2822],[139.7018,36.2873]]]}},{"type":"Feature","properties":{"id":9006},"geometry":{"type":"Polygon","coordinates":[[[139.9706,36.4738],[139.9439,36.479],[139.931,36.4828],[139.9233,36.486],[139.9142,36.4857],[139.9096,36.4808],[139.9071,36.4685],[139.8976,36.4665],[139.8798,36.4617],[139.8728,36.4535],[139.8722,36.45],[139.8769,36.4337],[139.8694,36.4172],[139.8726,36.4134],[139.8859,36.4136],[139.8907,36.4129],[139.9199,36.3965],[139.9236,36.3964],[139.9387,36.3983],[139.9422,36.4114],[139.9427,36.4208],[139.9442,36.4306],[139.9464,36.4354],[139.9581,36.4492],[139.9666,36.4571],[139.9684,36.4678],[139.9706,36.4738]]]}},{"type":"Feature","properties":{"id":9007},"geometry":{"type":"Polygon","coordinates":[[[139.4835,36.5785],[139.4903,36.5782],[139.496,36.576],[139.5066,36.5675],[139.5094,36.5666],[139.5169,36.5607],[139.5251,36.5465],[139.5329,36.5346],[139.5365,36.525],[139.5409,36.518],[139.5504,36.5081],[139.5705,36.4919],[139.587,36.4903],[139.5911,36.488],[139.6001,36.4802],[139.6013,36.4779],[139.611,36.4686],[139.6194,36.4614],[139.6259,36.4602],[139.6276,36.4632],[139.6275,36.4697],[139.6292,36.4754],[139.6321,36.4795],[139.6375,36.4816],[139.6475,36.4826],[139.6535,36.4863],[139.6729,36.4918],[139.6823,36.4916],[139.707,36.4812],[139.7104,36.4804],[139.7198,36.4823],[139.7378,36.4847],[139.7438,36.4839],[139.7624,36.4686],[139.7663,36.4647],[139.7743,36.4739],[139.7761,36.4833],[139.7804,36.488],[139.7857,36.4898],[139.7953,36.4881],[139.7978,36.4898],[139.8004,36.5006],[139.8025,36.5022],[139.8124,36.5027],[139.8178,36.505],[139.8226,36.5106],[139.8318,36.5194],[139.8365,36.5272],[139.8347,36.5305],[139.8281,36.5368],[139.8257,36.5411],[139.8258,36.5449],[139.8298,36.5523],[139.8307,36.5565],[139.8272,36.5609],[139.8161,36.5592],[139.8077,36.5653],[139.8028,36.5733],[139.802,36.5772],[139.8049,36.5884],[139.8018,36.591],[139.782,36.5987],[139.7768,36.5973],[139.7754,36.5889],[139.7682,36.5882],[139.7611,36.5963],[139.7568,36.6036],[139.7554,36.6082],[139.7499,36.6145],[139.7445,36.6163],[139.7248,36.6174],[139.7206,36.6196],[139.7205,36.6268],[139.7231,36.6334],[139.7233,36.6393],[139.7186,36.6499],[139.7114,36.658],[139.7058,36.6603],[139.7013,36.6603],[139.6892,36.6582],[139.6713,36.6608],[139.6577,36.6645],[139.6502,36.6627],[139.6474,36.6569],[139.6507,36.6532],[139.6576,36.6506],[139.6584,36.6454],[139.6533,36.6383],[139.6464,36.6359],[139.6404,36.6361],[139.6248,36.642],[139.6112,36.6494],[139.6021,36.6552],[139.5901,36.6642],[139.5851,36.6711],[139.5804,36.6823],[139.5796,36.6886],[139.5749,36.703],[139.5725,36.7079],[139.5674,36.7122],[139.5623,36.714],[139.5428,36.7108],[139.5335,36.7099],[139.53,36.7079],[139.5291,36.704],[139.5319,36.6907],[139.5311,36.6863],[139.5203,36.6794],[139.4997,36.6621],[139.4994,36.6501],[139.502,36.6459],[139.5077,36.641],[139.5131,36.6316],[139.5119,36.6301],[139.4978,36.6259],[139.4862,36.6202],[139.4798,36.6153],[139.465,36.6054],[139.4613,36.6016],[139.468,36.6031],[139.4756,36.5965],[139.4781,36.5864],[139.4835,36.5785]]]}},{"type":"Feature","properties":{"id":9008},"geometry":{"type":"Polygon","coordinates":[[[140.1397,36.4113],[140.1467,36.4158],[140.1575,36.4299],[140.1659,36.4399],[140.1673,36.4514],[140.1658,36.4597],[140.1593,36.4701],[140.156,36.4835],[140.1511,36.4933],[140.1482,36.4961],[140.1481,36.5027],[140.154,36.5098],[140.1517,36.5194],[140.1467,36.5246],[140.1345,36.524],[140.1145,36.5201],[140.107,36.517],[140.0907,36.5125],[140.0879,36.5103],[140.0822,36.5004],[140.0772,36.4953],[140.078,36.4894],[140.078,36.4686],[140.0769,36.4611],[140.0763,36.447],[140.0749,36.4422],[140.0744,36.4222],[140.0727,36.4136],[140.0733,36.4005],[140.0857,36.3998],[140.0962,36.3979],[140.104,36.3909],[140.1144,36.3951],[140.1152,36.4053],[140.125,36.41],[140.1397,36.4113]]]}},{"type":"Feature","properties":{"id":9009},"geometry":{"type":"Polygon","coordinates":[[[139.7663,36.4647],[139.7664,36.4534],[139.7656,36.4473],[139.7814,36.4367],[139.7848,36.4246],[139.797,36.4131],[139.8018,36.4058],[139.8074,36.3915],[139.8104,36.3897],[139.8139,36.3989],[139.8262,36.3985],[139.8338,36.4043],[139.8348,36.4078],[139.8352,36.425],[139.8391,36.4361],[139.8401,36.4438],[139.8383,36.4555],[139.8487,36.462],[139.8485,36.4821],[139.8452,36.4856],[139.8409,36.4932],[139.8392,36.5002],[139.8366,36.5031],[139.8226,36.5106],[139.8178,36.505],[139.8124,36.5027],[139.8025,36.5022],[139.8004,36.5006],[139.7978,36.4898],[139.7953,36.4881],[139.7857,36.4898],[139.7804,36.488],[139.7761,36.4833],[139.7743,36.4739],[139.7663,36.4647]]]}},{"type":"Feature","properties":{"id":9010},"geometry":{"type":"Polygon","coordinates":[[[140.0733,36.4005],[140.0727,36.4136],[140.0744,36.4222],[140.0749,36.4422],[140.0763,36.447],[140.0769,36.4611],[140.078,36.4686],[140.078,36.4894],[140.0772,36.4953],[140.0706,36.499],[140.0666,36.4985],[140.0613,36.4921],[140.0564,36.4914],[140.0547,36.4938],[140.0542,36.5063],[140.0507,36.5026],[140.0455,36.4901],[140.0418,36.4873],[140.0177,36.487],[140.012,36.4882],[140.007,36.4934],[140.0048,36.5019],[139.9883,36.5023],[139.9787,36.5014],[139.9727,36.4993],[139.9703,36.4924],[139.9706,36.4738],[139.9684,36.4678],[139.9666,36.4571],[139.9581,36.4492],[139.9464,36.4354],[139.9442,36.4306],[139.9427,36.4208],[139.9422,36.4114],[139.9387,36.3983],[139.954,36.3909],[139.9662,36.3869],[139.9703,36.387],[139.9756,36.3914],[139.9859,36.4034],[139.9933,36.4094],[140.0023,36.4148],[140.0092,36.4175],[140.0124,36.4166],[140.016,36.412],[140.0273,36.4027],[140.0343,36.4011],[140.0446,36.401],[140.0505,36.3996],[140.0565,36.3937],[140.0624,36.3829],[140.066,36.3787],[140.0671,36.3792],[140.0708,36.3897],[140.0697,36.4007],[140.0733,36.4005]]]}},{"type":"Feature","properties":{"id":9011},"geometry":{"type":"Polygon","coordinates":[[[140.2408,36.6285],[140.2335,36.6246],[140.2283,36.6167],[140.221,36.6126],[140.213,36.6121],[140.2081,36.6093],[140.2037,36.6024],[140.2015,36.5962],[140.2005,36.5878],[140.1971,36.5876],[140.1933,36.5909],[140.1867,36.5918],[140.1781,36.6008],[140.1745,36.61],[140.1688,36.6122],[140.1522,36.6122],[140.1445,36.6115],[140.1369,36.6084],[140.1371,36.6036],[140.1469,36.5944],[140.148,36.5887],[140.1472,36.5842],[140.1435,36.5756],[140.1398,36.5633],[140.1396,36.5526],[140.1415,36.5474],[140.1485,36.5417],[140.1561,36.539],[140.1604,36.5354],[140.1596,36.5326],[140.1467,36.5246],[140.1517,36.5194],[140.154,36.5098],[140.1481,36.5027],[140.1482,36.4961],[140.1511,36.4933],[140.156,36.4835],[140.1593,36.4701],[140.1658,36.4597],[140.1673,36.4514],[140.1659,36.4399],[140.1575,36.4299],[140.1467,36.4158],[140.1397,36.4113],[140.1475,36.4109],[140.1538,36.4017],[140.1617,36.3949],[140.1724,36.3958],[140.1884,36.3951],[140.1904,36.3973],[140.1958,36.4033],[140.2056,36.4166],[140.2053,36.4296],[140.2065,36.4346],[140.2079,36.4402],[140.2066,36.4513],[140.2163,36.4692],[140.2224,36.4773],[140.2308,36.4837],[140.234,36.4934],[140.2447,36.4999],[140.2505,36.5114],[140.2533,36.5273],[140.2513,36.5373],[140.2522,36.5495],[140.248,36.5743],[140.2498,36.5914],[140.2522,36.6013],[140.2475,36.6155],[140.2408,36.6285]]]}},{"type":"Feature","properties":{"id":9012},"geometry":{"type":"Polygon","coordinates":[[[140.2607,36.7781],[140.2539,36.7854],[140.2382,36.7951],[140.2316,36.8093],[140.2286,36.8214],[140.2281,36.8357],[140.2242,36.8397],[140.2182,36.8432],[140.2125,36.8435],[140.2084,36.8411],[140.2003,36.8288],[140.197,36.8257],[140.1917,36.818],[140.1871,36.8175],[140.1809,36.8251],[140.1766,36.8287],[140.1732,36.8269],[140.168,36.8121],[140.1649,36.8083],[140.1514,36.7972],[140.1423,36.7906],[140.1356,36.7871],[140.122,36.7828],[140.1177,36.7832],[140.1121,36.7876],[140.0995,36.794],[140.0948,36.7949],[140.0818,36.7944],[140.0752,36.7887],[140.0679,36.7872],[140.0502,36.7874],[140.0455,36.7841],[140.0467,36.7766],[140.0538,36.7744],[140.0732,36.7658],[140.0835,36.7507],[140.0878,36.7432],[140.0928,36.7373],[140.1074,36.7328],[140.118,36.7321],[140.1391,36.7381],[140.1422,36.7364],[140.1633,36.7189],[140.166,36.7155],[140.1687,36.6976],[140.1712,36.6899],[140.1755,36.6825],[140.1822,36.68],[140.2031,36.6801],[140.2112,36.6788],[140.2172,36.6742],[140.2243,36.675],[140.2234,36.6812],[140.2376,36.6968],[140.2498,36.699],[140.2646,36.6983],[140.2745,36.7037],[140.2857,36.7054],[140.2867,36.7082],[140.2905,36.7183],[140.2882,36.7282],[140.2799,36.7359],[140.2706,36.742],[140.2625,36.7499],[140.2587,36.7593],[140.2581,36.77],[140.2607,36.7781]]]}},{"type":"Feature","properties":{"id":9013},"geometry":{"type":"Polygon","coordinates":[[[139.9661,37.1495],[139.9577,37.1396],[139.9494,37.1354],[139.9375,37.1322],[139.9329,37.1272],[139.9302,37.1206],[139.9306,37.1178],[139.9373,37.1068],[139.9436,37.1012],[139.9482,37.0948],[139.9481,37.0811],[139.9455,37.0704],[139.9486,37.0542],[139.9512,37.0486],[139.9583,37.0431],[139.9636,37.0418],[139.9754,37.0412],[139.9825,37.0383],[139.9886,37.0337],[140.0056,37.0248],[140.0137,37.0091],[140.0187,37.003],[140.0243,36.9981],[140.0301,36.9914],[140.0468,36.9778],[140.0538,36.9741],[140.0626,36.9716],[140.0738,36.9649],[140.0804,36.9641],[140.0823,36.9694],[140.0788,36.9743],[140.0784,36.9823],[140.0846,36.9847],[140.0932,36.9779],[140.1043,36.9723],[140.1106,36.9715],[140.1146,36.9742],[140.118,36.9804],[140.1251,36.9846],[140.1306,36.985],[140.1378,36.9808],[140.1394,36.9734],[140.1397,36.966],[140.1375,36.9623],[140.1232,36.9563],[140.12,36.9526],[140.1193,36.9479],[140.1146,36.9379],[140.1107,36.9342],[140.1114,36.9236],[140.1158,36.9168],[140.1219,36.9142],[140.1283,36.9151],[140.1332,36.9222],[140.135,36.9282],[140.139,36.933],[140.1516,36.9356],[140.1589,36.9381],[140.1663,36.9427],[140.1768,36.9449],[140.2032,36.9448],[140.2206,36.9376],[140.2327,36.9377],[140.2373,36.9397],[140.2445,36.9465],[140.25,36.9553],[140.2501,36.9865],[140.2442,36.9951],[140.2484,37.0051],[140.2522,37.0229],[140.2396,37.0207],[140.2294,37.0206],[140.2198,37.0172],[140.2092,37.0208],[140.2021,37.0279],[140.2023,37.0379],[140.1992,37.0485],[140.1975,37.0589],[140.1878,37.0662],[140.1769,37.068],[140.1681,37.0759],[140.1582,37.0814],[140.1558,37.0872],[140.154,37.0912],[140.1457,37.0986],[140.1353,37.1002],[140.1253,37.1053],[140.1059,37.118],[140.0846,37.1208],[140.0734,37.1235],[140.063,37.1224],[140.0539,37.1276],[140.0451,37.1343],[140.0339,37.1361],[140.0243,37.1392],[139.9894,37.1408],[139.9798,37.1438],[139.9661,37.1495]]]}},{"type":"Feature","properties":{"id":9014},"geometry":{"type":"Polygon","coordinates":[[[140.2243,36.675],[140.2172,36.6742],[140.2112,36.6788],[140.2031,36.6801],[140.1822,36.68],[140.1755,36.6825],[140.1712,36.6899],[140.1687,36.6976],[140.166,36.7155],[140.1633,36.7189],[140.1422,36.7364],[140.1391,36.7381],[140.118,36.7321],[140.1074,36.7328],[140.0928,36.7373],[140.0878,36.7432],[140.0835,36.7507],[140.0798,36.7467],[140.0742,36.7436],[140.0714,36.7398],[140.0683,36.728],[140.065,36.7234],[140.0542,36.7047],[140.0497,36.7007],[140.0417,36.696],[140.0301,36.6864],[140.0297,36.6837],[140.0323,36.6779],[140.0392,36.6746],[140.0464,36.6702],[140.0588,36.6653],[140.0617,36.6624],[140.0649,36.6533],[140.0633,36.6331],[140.0657,36.621],[140.0704,36.6093],[140.0737,36.6151],[140.0807,36.6198],[140.0849,36.6174],[140.088,36.609],[140.0931,36.6041],[140.1029,36.6128],[140.1062,36.619],[140.1131,36.6219],[140.1395,36.6215],[140.1429,36.618],[140.1445,36.6115],[140.1522,36.6122],[140.1688,36.6122],[140.1745,36.61],[140.1781,36.6008],[140.1867,36.5918],[140.1933,36.5909],[140.1971,36.5876],[140.2005,36.5878],[140.2015,36.5962],[140.2037,36.6024],[140.2081,36.6093],[140.213,36.6121],[140.221,36.6126],[140.2283,36.6167],[140.2335,36.6246],[140.2408,36.6285],[140.2394,36.6312],[140.2438,36.6411],[140.2362,36.656],[140.2348,36.6666],[140.2248,36.6712],[140.2243,36.675]]]}},{"type":"Feature","properties":{"id":9015},"geometry":{"type":"Polygon","coordinates":[[[139.8214,37.0889],[139.8226,37.086],[139.821,37.0762],[139.8159,37.0603],[139.8032,37.048],[139.7953,37.0379],[139.7852,37.0353],[139.7658,37.0326],[139.7633,37.0305],[139.7589,37.0228],[139.7574,37.0165],[139.7571,37.0063],[139.7534,36.9953],[139.7507,36.9909],[139.7426,36.981],[139.7426,36.9768],[139.7458,36.9661],[139.7457,36.9617],[139.7416,36.9536],[139.7363,36.9491],[139.7358,36.9438],[139.7441,36.9392],[139.7499,36.9344],[139.7555,36.9315],[139.7614,36.9249],[139.7705,36.9187],[139.7741,36.9142],[139.7753,36.9039],[139.7885,36.9036],[139.7962,36.9054],[139.8111,36.9134],[139.8222,36.922],[139.8371,36.9223],[139.8425,36.9152],[139.8518,36.9076],[139.8592,36.9036],[139.8857,36.8932],[139.8935,36.8884],[139.9038,36.8835],[139.9163,36.8733],[139.9301,36.8745],[139.9385,36.8781],[139.9431,36.8776],[139.9513,36.8672],[139.9593,36.8605],[139.9649,36.8484],[139.9718,36.8426],[139.9772,36.8409],[139.9872,36.8423],[139.9931,36.847],[140.0005,36.8472],[140.007,36.8442],[140.0152,36.844],[140.0142,36.8495],[140.0026,36.8554],[140.0022,36.8589],[140.0044,36.8665],[140.0083,36.875],[140.0097,36.8854],[140.0079,36.8957],[140.0086,36.9009],[140.0131,36.9039],[140.0263,36.9051],[140.0302,36.9067],[140.0349,36.9137],[140.0365,36.9252],[140.0397,36.9277],[140.0451,36.9264],[140.0504,36.9225],[140.0547,36.9227],[140.0607,36.9294],[140.0718,36.9206],[140.0755,36.9196],[140.0904,36.9221],[140.096,36.9265],[140.1014,36.9383],[140.1055,36.9388],[140.1107,36.9342],[140.1146,36.9379],[140.1193,36.9479],[140.12,36.9526],[140.1232,36.9563],[140.1375,36.9623],[140.1397,36.966],[140.1394,36.9734],[140.1378,36.9808],[140.1306,36.985],[140.1251,36.9846],[140.118,36.9804],[140.1146,36.9742],[140.1106,36.9715],[140.1043,36.9723],[140.0932,36.9779],[140.0846,36.9847],[140.0784,36.9823],[140.0788,36.9743],[140.0823,36.9694],[140.0804,36.9641],[140.0738,36.9649],[140.0626,36.9716],[140.0538,36.9741],[140.0468,36.9778],[140.0301,36.9914],[140.0243,36.9981],[140.0187,37.003],[140.0137,37.0091],[140.0056,37.0248],[139.9886,37.0337],[139.9825,37.0383],[139.9754,37.0412],[139.9636,37.0418],[139.9583,37.0431],[139.9512,37.0486],[139.9486,37.0542],[139.9455,37.0704],[139.9481,37.0811],[139.9482,37.0948],[139.9436,37.1012],[139.9373,37.1068],[139.9306,37.1178],[139.9302,37.1206],[139.9329,37.1272],[139.9375,37.1322],[139.9494,37.1354],[139.9577,37.1396],[139.9661,37.1495],[139.965,37.15],[139.9537,37.1512],[139.9432,37.1501],[139.9224,37.1464],[139.9119,37.1454],[139.9018,37.1505],[139.8819,37.1439],[139.8702,37.1441],[139.8619,37.1364],[139.8517,37.1357],[139.8424,37.1304],[139.8327,37.1265],[139.8241,37.1198],[139.8197,37.1108],[139.8235,37.1004],[139.8233,37.0897],[139.8214,37.0889]]]}},{"type":"Feature","properties":{"id":9016},"geometry":{"type":"Polygon","coordinates":[[[139.3855,36.9088],[139.3829,36.8948],[139.375,36.8869],[139.3644,36.8717],[139.3559,36.846],[139.3666,36.8443],[139.375,36.837],[139.3863,36.8333],[139.408,36.8281],[139.4038,36.8183],[139.3948,36.8118],[139.3902,36.802],[139.3806,36.7988],[139.3801,36.7883],[139.3652,36.7752],[139.3562,36.77],[139.355,36.7594],[139.3581,36.7498],[139.3673,36.7446],[139.3702,36.7333],[139.3704,36.7228],[139.3627,36.7103],[139.3563,36.7016],[139.3475,36.6946],[139.3404,36.6867],[139.342,36.6766],[139.3385,36.6666],[139.3309,36.6513],[139.3332,36.6407],[139.3318,36.6304],[139.3491,36.6225],[139.3542,36.6134],[139.3643,36.6108],[139.375,36.6088],[139.3861,36.6089],[139.3958,36.6028],[139.406,36.6004],[139.4151,36.6047],[139.4249,36.6004],[139.4368,36.5986],[139.4462,36.6028],[139.4578,36.6009],[139.4613,36.6016],[139.465,36.6054],[139.4798,36.6153],[139.4862,36.6202],[139.4978,36.6259],[139.5119,36.6301],[139.5131,36.6316],[139.5077,36.641],[139.502,36.6459],[139.4994,36.6501],[139.4997,36.6621],[139.5203,36.6794],[139.5311,36.6863],[139.5319,36.6907],[139.5291,36.704],[139.53,36.7079],[139.5335,36.7099],[139.5428,36.7108],[139.5623,36.714],[139.5674,36.7122],[139.5725,36.7079],[139.5749,36.703],[139.5796,36.6886],[139.5804,36.6823],[139.5851,36.6711],[139.5901,36.6642],[139.6021,36.6552],[139.6112,36.6494],[139.6248,36.642],[139.6404,36.6361],[139.6464,36.6359],[139.6533,36.6383],[139.6584,36.6454],[139.6576,36.6506],[139.6507,36.6532],[139.6474,36.6569],[139.6502,36.6627],[139.6577,36.6645],[139.6713,36.6608],[139.6892,36.6582],[139.7013,36.6603],[139.7058,36.6603],[139.7114,36.658],[139.7186,36.6499],[139.7233,36.6393],[139.7231,36.6334],[139.7205,36.6268],[139.7206,36.6196],[139.7248,36.6174],[139.7445,36.6163],[139.7499,36.6145],[139.7617,36.6238],[139.7728,36.625],[139.7766,36.6268],[139.7795,36.631],[139.788,36.6379],[139.7971,36.6494],[139.7952,36.6635],[139.7934,36.6712],[139.7931,36.6777],[139.7888,36.6926],[139.7895,36.6946],[139.7961,36.7001],[139.8003,36.702],[139.8144,36.7036],[139.8241,36.706],[139.8389,36.7067],[139.8417,36.7101],[139.8423,36.7147],[139.8469,36.7244],[139.8548,36.7315],[139.845,36.7333],[139.834,36.7365],[139.8282,36.7373],[139.8207,36.7402],[139.8143,36.7412],[139.8027,36.745],[139.78,36.7547],[139.7693,36.7612],[139.7613,36.7645],[139.7488,36.7667],[139.7425,36.7691],[139.7417,36.7761],[139.7335,36.7896],[139.7298,36.8016],[139.7328,36.8166],[139.7329,36.8283],[139.7337,36.832],[139.7383,36.8377],[139.7491,36.8439],[139.7591,36.8461],[139.7652,36.8507],[139.7744,36.8622],[139.7759,36.8684],[139.7758,36.8954],[139.7753,36.9039],[139.7741,36.9142],[139.7705,36.9187],[139.7614,36.9249],[139.7555,36.9315],[139.7499,36.9344],[139.7441,36.9392],[139.7358,36.9438],[139.7363,36.9491],[139.7416,36.9536],[139.7457,36.9617],[139.7458,36.9661],[139.7426,36.9768],[139.7426,36.981],[139.7507,36.9909],[139.7534,36.9953],[139.7571,37.0063],[139.7574,37.0165],[139.7589,37.0228],[139.7633,37.0305],[139.7658,37.0326],[139.7852,37.0353],[139.7953,37.0379],[139.8032,37.048],[139.8159,37.0603],[139.821,37.0762],[139.8226,37.086],[139.8214,37.0889],[139.8065,37.0834],[139.7957,37.0866],[139.7854,37.0867],[139.7757,37.0833],[139.7674,37.0756],[139.7571,37.0706],[139.7421,37.0694],[139.7319,37.0668],[139.7217,37.0664],[139.712,37.062],[139.7033,37.0564],[139.6925,37.058],[139.6815,37.0544],[139.6743,37.046],[139.6682,37.0374],[139.6578,37.037],[139.6477,37.0331],[139.6281,37.0295],[139.625,37.0187],[139.6164,37.0118],[139.6053,37.0122],[139.5943,37.0105],[139.5845,37.0081],[139.5748,36.9982],[139.555,36.9893],[139.546,36.9846],[139.5379,36.9778],[139.5273,36.9784],[139.518,36.9746],[139.5096,36.9683],[139.5,36.9653],[139.4904,36.9697],[139.4795,36.9693],[139.4691,36.968],[139.4655,36.9616],[139.4623,36.9559],[139.4555,36.9473],[139.445,36.9444],[139.438,36.9358],[139.4334,36.9265],[139.4235,36.921],[139.413,36.924],[139.4043,36.9188],[139.3855,36.9088]]]}},{"type":"Feature","properties":{"id":9017},"geometry":{"type":"Polygon","coordinates":[[[140.0474,36.3742],[140.054,36.374],[140.066,36.3787],[140.0624,36.3829],[140.0565,36.3937],[140.0505,36.3996],[140.0446,36.401],[140.0343,36.4011],[140.0273,36.4027],[140.016,36.412],[140.0124,36.4166],[140.0092,36.4175],[140.0023,36.4148],[139.9933,36.4094],[139.9859,36.4034],[139.9756,36.3914],[139.9703,36.387],[139.9662,36.3869],[139.954,36.3909],[139.9387,36.3983],[139.9293,36.3819],[139.9258,36.3785],[139.9209,36.3688],[139.9202,36.3645],[139.9165,36.3571],[139.919,36.3486],[139.9205,36.3349],[139.9272,36.3385],[139.9384,36.3403],[139.9481,36.3446],[139.9596,36.3469],[139.968,36.3524],[139.9689,36.3627],[139.9748,36.3708],[140.0025,36.3656],[140.0197,36.3732],[140.0341,36.3747],[140.0474,36.3742]]]}},{"type":"Feature","properties":{"id":9018},"geometry":{"type":"Polygon","coordinates":[[[139.6475,36.4826],[139.6502,36.4775],[139.6597,36.4651],[139.6648,36.4615],[139.688,36.4594],[139.6978,36.4572],[139.7076,36.4593],[139.7165,36.4593],[139.7299,36.4553],[139.7351,36.4513],[139.7402,36.4391],[139.744,36.4369],[139.753,36.4391],[139.76,36.4428],[139.7656,36.4473],[139.7664,36.4534],[139.7663,36.4647],[139.7624,36.4686],[139.7438,36.4839],[139.7378,36.4847],[139.7198,36.4823],[139.7104,36.4804],[139.707,36.4812],[139.6823,36.4916],[139.6729,36.4918],[139.6535,36.4863],[139.6475,36.4826]]]}},{"type":"Feature","properties":{"id":9019},"geometry":{"type":"Polygon","coordinates":[[[139.7954,36.227],[139.7924,36.2429],[139.7867,36.2447],[139.7848,36.2383],[139.7826,36.236],[139.7751,36.2363],[139.7654,36.2399],[139.7566,36.2393],[139.7498,36.2403],[139.7466,36.2504],[139.7381,36.2506],[139.7246,36.2433],[139.7169,36.2369],[139.714,36.2297],[139.71,36.2268],[139.699,36.2235],[139.6993,36.2143],[139.6972,36.208],[139.693,36.205],[139.7053,36.2007],[139.7172,36.2066],[139.7296,36.2029],[139.7421,36.2034],[139.7526,36.2085],[139.7634,36.2161],[139.7954,36.227]]]}},{"type":"Feature","properties":{"id":9020},"geometry":{"type":"Polygon","coordinates":[[[139.7328,36.2808],[139.7325,36.2887],[139.7288,36.2948],[139.7288,36.3004],[139.7349,36.3044],[139.7367,36.3162],[139.746,36.3206],[139.7506,36.3244],[139.754,36.3384],[139.7562,36.342],[139.7667,36.3498],[139.7525,36.3529],[139.7368,36.3635],[139.7312,36.3644],[139.7155,36.3617],[139.7055,36.3557],[139.6992,36.3567],[139.6891,36.3619],[139.6805,36.3568],[139.673,36.3391],[139.6717,36.3316],[139.6734,36.3284],[139.683,36.3273],[139.6928,36.3234],[139.6973,36.3202],[139.7048,36.3086],[139.7047,36.2959],[139.7018,36.2873],[139.7103,36.2823],[139.7161,36.2801],[139.7328,36.2808]]]}},{"type":"Feature","properties":{"id":9021},"geometry":{"type":"Polygon","coordinates":[[[140.2445,36.9465],[140.2373,36.9397],[140.2327,36.9377],[140.2206,36.9376],[140.2032,36.9448],[140.1768,36.9449],[140.1663,36.9427],[140.1589,36.9381],[140.1516,36.9356],[140.139,36.933],[140.135,36.9282],[140.1332,36.9222],[140.1283,36.9151],[140.1219,36.9142],[140.1158,36.9168],[140.1114,36.9236],[140.1107,36.9342],[140.1055,36.9388],[140.1014,36.9383],[140.096,36.9265],[140.0904,36.9221],[140.0755,36.9196],[140.0718,36.9206],[140.0607,36.9294],[140.0547,36.9227],[140.0504,36.9225],[140.0451,36.9264],[140.0397,36.9277],[140.0365,36.9252],[140.0349,36.9137],[140.0302,36.9067],[140.0263,36.9051],[140.0131,36.9039],[140.0086,36.9009],[140.0079,36.8957],[140.0097,36.8854],[140.0083,36.875],[140.0044,36.8665],[140.0022,36.8589],[140.0026,36.8554],[140.0142,36.8495],[140.0152,36.844],[140.007,36.8442],[140.0005,36.8472],[139.9931,36.847],[139.9872,36.8423],[139.9772,36.8409],[139.9718,36.8426],[139.9649,36.8484],[139.9593,36.8605],[139.9513,36.8672],[139.9431,36.8776],[139.9385,36.8781],[139.9301,36.8745],[139.9163,36.8733],[139.9212,36.8654],[139.9245,36.8624],[139.9305,36.8539],[139.9456,36.8415],[139.9491,36.8367],[139.9588,36.8269],[139.9756,36.8204],[139.9806,36.8162],[139.9884,36.806],[139.9939,36.8026],[139.9976,36.7983],[140.008,36.7897],[140.0184,36.7772],[140.0282,36.7694],[140.0358,36.7677],[140.0467,36.7766],[140.0455,36.7841],[140.0502,36.7874],[140.0679,36.7872],[140.0752,36.7887],[140.0818,36.7944],[140.0948,36.7949],[140.0995,36.794],[140.1121,36.7876],[140.1177,36.7832],[140.122,36.7828],[140.1356,36.7871],[140.1423,36.7906],[140.1514,36.7972],[140.1649,36.8083],[140.168,36.8121],[140.1732,36.8269],[140.1766,36.8287],[140.1809,36.8251],[140.1871,36.8175],[140.1917,36.818],[140.197,36.8257],[140.2003,36.8288],[140.2084,36.8411],[140.2125,36.8435],[140.2182,36.8432],[140.2242,36.8397],[140.2281,36.8357],[140.2286,36.8214],[140.2316,36.8093],[140.2382,36.7951],[140.2539,36.7854],[140.2607,36.7781],[140.2621,36.7825],[140.2683,36.7918],[140.2681,36.8021],[140.2701,36.8123],[140.2688,36.8231],[140.265,36.8342],[140.2597,36.8431],[140.2561,36.8527],[140.2578,36.8633],[140.2569,36.8842],[140.2551,36.8949],[140.2522,36.9051],[140.2517,36.9183],[140.2607,36.9337],[140.2511,36.9386],[140.2445,36.9465]]]}},{"type":"Feature","properties":{"id":9022},"geometry":{"type":"Polygon","coordinates":[[[139.9205,36.3349],[139.919,36.3486],[139.9165,36.3571],[139.9026,36.3618],[139.8964,36.3601],[139.8957,36.3498],[139.8871,36.3485],[139.866,36.3546],[139.8555,36.3489],[139.8489,36.3495],[139.8483,36.3555],[139.8433,36.3615],[139.8359,36.3643],[139.8317,36.3671],[139.8211,36.3719],[139.8104,36.384],[139.8081,36.3827],[139.8039,36.3742],[139.7942,36.3731],[139.7867,36.3692],[139.7728,36.3577],[139.7667,36.3498],[139.7562,36.342],[139.754,36.3384],[139.7506,36.3244],[139.746,36.3206],[139.7367,36.3162],[139.7349,36.3044],[139.7288,36.3004],[139.7288,36.2948],[139.7325,36.2887],[139.7328,36.2808],[139.7302,36.2716],[139.7327,36.263],[139.7319,36.2609],[139.7159,36.2517],[139.7071,36.2479],[139.7004,36.2464],[139.6981,36.2437],[139.6959,36.2352],[139.6958,36.2301],[139.699,36.2235],[139.71,36.2268],[139.714,36.2297],[139.7169,36.2369],[139.7246,36.2433],[139.7381,36.2506],[139.7466,36.2504],[139.7498,36.2403],[139.7566,36.2393],[139.7654,36.2399],[139.7751,36.2363],[139.7826,36.236],[139.7848,36.2383],[139.7867,36.2447],[139.7924,36.2429],[139.7954,36.227],[139.816,36.2351],[139.8257,36.2389],[139.8321,36.25],[139.8348,36.2612],[139.8413,36.2699],[139.8399,36.2924],[139.8462,36.3007],[139.8537,36.3085],[139.88,36.3107],[139.8926,36.3076],[139.8978,36.3046],[139.9113,36.2974],[139.9174,36.3332],[139.9205,36.3349]]]}},{"type":"Feature","properties":{"id":9023},"geometry":{"type":"Polygon","coordinates":[[[140.0467,36.7766],[140.0358,36.7677],[140.0282,36.7694],[140.0184,36.7772],[140.008,36.7897],[139.9976,36.7983],[139.9939,36.8026],[139.9838,36.7954],[139.9801,36.788],[139.982,36.7771],[139.9816,36.7703],[139.9744,36.7629],[139.9717,36.7583],[139.9703,36.7472],[139.9685,36.7421],[139.9642,36.7357],[139.9598,36.7313],[139.9537,36.7292],[139.9492,36.7292],[139.9323,36.7319],[139.929,36.7269],[139.9251,36.7246],[139.9088,36.7249],[139.9123,36.7207],[139.9192,36.715],[139.9338,36.7075],[139.9408,36.7018],[139.9504,36.6919],[139.9528,36.6875],[139.9532,36.6826],[139.9574,36.6652],[139.9575,36.6593],[139.9748,36.6637],[139.9868,36.6654],[139.9909,36.6708],[139.9946,36.6713],[140.0074,36.6643],[140.0193,36.6642],[140.0331,36.6699],[140.0392,36.6746],[140.0323,36.6779],[140.0297,36.6837],[140.0301,36.6864],[140.0417,36.696],[140.0497,36.7007],[140.0542,36.7047],[140.065,36.7234],[140.0683,36.728],[140.0714,36.7398],[140.0742,36.7436],[140.0798,36.7467],[140.0835,36.7507],[140.0732,36.7658],[140.0538,36.7744],[140.0467,36.7766]]]}},{"type":"Feature","properties":{"id":9024},"geometry":{"type":"Polygon","coordinates":[[[139.6217,36.2714],[139.6207,36.2759],[139.6167,36.2805],[139.6105,36.2847],[139.6129,36.291],[139.6153,36.2927],[139.6204,36.2913],[139.6239,36.2928],[139.6275,36.3027],[139.6373,36.3149],[139.6368,36.32],[139.6297,36.3223],[139.6269,36.3245],[139.6222,36.3337],[139.6212,36.3391],[139.6173,36.3495],[139.616,36.3633],[139.6173,36.3704],[139.6199,36.3746],[139.6321,36.3832],[139.6373,36.3895],[139.6433,36.4015],[139.6432,36.4185],[139.6392,36.4327],[139.6187,36.4497],[139.5992,36.4603],[139.5898,36.4679],[139.5826,36.476],[139.5705,36.4919],[139.5504,36.5081],[139.5409,36.518],[139.5365,36.525],[139.5329,36.5346],[139.5251,36.5465],[139.5169,36.5607],[139.5094,36.5666],[139.5066,36.5675],[139.496,36.576],[139.4903,36.5782],[139.4835,36.5785],[139.4857,36.5753],[139.4772,36.5686],[139.468,36.5575],[139.4605,36.5501],[139.4438,36.5483],[139.4401,36.5386],[139.4432,36.5287],[139.4334,36.5101],[139.4235,36.4996],[139.4292,36.4813],[139.4406,36.4683],[139.435,36.4598],[139.425,36.4539],[139.4174,36.4519],[139.4156,36.4442],[139.4177,36.4415],[139.4264,36.4384],[139.4306,36.4353],[139.4374,36.4343],[139.4469,36.4385],[139.452,36.4384],[139.4589,36.4346],[139.475,36.423],[139.4857,36.411],[139.4864,36.4023],[139.4879,36.3992],[139.4956,36.3913],[139.5127,36.3813],[139.514,36.3773],[139.5139,36.355],[139.5115,36.3395],[139.5204,36.3304],[139.5272,36.3297],[139.5432,36.3324],[139.5502,36.3316],[139.5534,36.3268],[139.5518,36.3133],[139.5493,36.3092],[139.5424,36.3034],[139.534,36.3003],[139.5272,36.2949],[139.5257,36.2918],[139.5267,36.2849],[139.531,36.2811],[139.5398,36.2788],[139.5572,36.2715],[139.5656,36.2639],[139.5939,36.2654],[139.6085,36.2655],[139.6217,36.2714]]]}},{"type":"Feature","properties":{"id":9025},"geometry":{"type":"Polygon","coordinates":[[[139.8798,36.4617],[139.8783,36.4689],[139.8739,36.4759],[139.8637,36.4752],[139.8485,36.4821],[139.8487,36.462],[139.8383,36.4555],[139.8401,36.4438],[139.8391,36.4361],[139.8352,36.425],[139.8348,36.4078],[139.8338,36.4043],[139.8262,36.3985],[139.8139,36.3989],[139.8104,36.3897],[139.8104,36.384],[139.8211,36.3719],[139.8317,36.3671],[139.8359,36.3643],[139.8433,36.3615],[139.8483,36.3555],[139.8489,36.3495],[139.8555,36.3489],[139.866,36.3546],[139.8871,36.3485],[139.8957,36.3498],[139.8964,36.3601],[139.9026,36.3618],[139.9165,36.3571],[139.9202,36.3645],[139.9209,36.3688],[139.9258,36.3785],[139.9293,36.3819],[139.9387,36.3983],[139.9236,36.3964],[139.9199,36.3965],[139.8907,36.4129],[139.8859,36.4136],[139.8726,36.4134],[139.8694,36.4172],[139.8769,36.4337],[139.8722,36.45],[139.8728,36.4535],[139.8798,36.4617]]]}},{"type":"Feature","properties":{"id":9026},"geometry":{"type":"Polygon","coordinates":[[[139.8548,36.7315],[139.8652,36.7295],[139.8733,36.7289],[139.8914,36.7255],[139.9088,36.7249],[139.9251,36.7246],[139.929,36.7269],[139.9323,36.7319],[139.9271,36.7334],[139.9211,36.7373],[139.9153,36.7458],[139.9051,36.7545],[139.8963,36.7671],[139.8898,36.7707],[139.8772,36.7756],[139.8678,36.7831],[139.8679,36.788],[139.8741,36.7959],[139.8739,36.7998],[139.869,36.8108],[139.8608,36.8181],[139.8541,36.8253],[139.8454,36.837],[139.8263,36.8541],[139.8194,36.8617],[139.8157,36.8683],[139.8055,36.8809],[139.8021,36.887],[139.7926,36.8951],[139.7847,36.8981],[139.7753,36.9039],[139.7758,36.8954],[139.7759,36.8684],[139.7744,36.8622],[139.7652,36.8507],[139.7591,36.8461],[139.7491,36.8439],[139.7383,36.8377],[139.7337,36.832],[139.7329,36.8283],[139.7328,36.8166],[139.7298,36.8016],[139.7335,36.7896],[139.7417,36.7761],[139.7425,36.7691],[139.7488,36.7667],[139.7613,36.7645],[139.7693,36.7612],[139.78,36.7547],[139.8027,36.745],[139.8143,36.7412],[139.8207,36.7402],[139.8282,36.7373],[139.834,36.7365],[139.845,36.7333],[139.8548,36.7315]]]}},{"type":"Feature","properties":{"id":9027},"geometry":{"type":"Polygon","coordinates":[[[140.0704,36.6093],[140.0657,36.621],[140.0633,36.6331],[140.0649,36.6533],[140.0617,36.6624],[140.0588,36.6653],[140.0464,36.6702],[140.0392,36.6746],[140.0331,36.6699],[140.0193,36.6642],[140.0074,36.6643],[139.9946,36.6713],[139.9909,36.6708],[139.9868,36.6654],[139.9748,36.6637],[139.9575,36.6593],[139.9618,36.6447],[139.9624,36.6392],[139.965,36.6335],[139.9744,36.6186],[139.9874,36.6084],[140.0004,36.6044],[140.0075,36.6006],[140.0116,36.5899],[140.0166,36.5857],[140.0219,36.5861],[140.0254,36.5887],[140.0489,36.5853],[140.0527,36.5887],[140.0524,36.5963],[140.0486,36.6024],[140.0487,36.6079],[140.0538,36.6095],[140.0704,36.6093]]]}},{"type":"Feature","properties":{"id":9028},"geometry":{"type":"Polygon","coordinates":[[[139.6805,36.3568],[139.6891,36.3619],[139.6992,36.3567],[139.7055,36.3557],[139.7155,36.3617],[139.7312,36.3644],[139.7368,36.3635],[139.7525,36.3529],[139.7667,36.3498],[139.7728,36.3577],[139.7867,36.3692],[139.7942,36.3731],[139.8039,36.3742],[139.8081,36.3827],[139.8104,36.384],[139.8104,36.3897],[139.8074,36.3915],[139.8018,36.4058],[139.797,36.4131],[139.7848,36.4246],[139.7782,36.4217],[139.7606,36.4175],[139.7606,36.4142],[139.7638,36.405],[139.7611,36.4018],[139.7548,36.4025],[139.7497,36.4066],[139.7451,36.4135],[139.7327,36.4172],[139.7106,36.4189],[139.7076,36.4209],[139.7048,36.4285],[139.7005,36.4329],[139.6826,36.4476],[139.6701,36.4566],[139.6648,36.4615],[139.6597,36.4651],[139.6502,36.4775],[139.6475,36.4826],[139.6375,36.4816],[139.6321,36.4795],[139.6292,36.4754],[139.6275,36.4697],[139.6276,36.4632],[139.6259,36.4602],[139.6194,36.4614],[139.611,36.4686],[139.6013,36.4779],[139.6001,36.4802],[139.5911,36.488],[139.587,36.4903],[139.5705,36.4919],[139.5826,36.476],[139.5898,36.4679],[139.5992,36.4603],[139.6187,36.4497],[139.6392,36.4327],[139.6432,36.4185],[139.6433,36.4015],[139.6373,36.3895],[139.6321,36.3832],[139.648,36.3833],[139.6539,36.3807],[139.6638,36.3604],[139.6686,36.3569],[139.6805,36.3568]]]}},{"type":"Feature","properties":{"id":9029},"geometry":{"type":"Polygon","coordinates":[[[139.7656,36.4473],[139.76,36.4428],[139.753,36.4391],[139.744,36.4369],[139.7402,36.4391],[139.7351,36.4513],[139.7299,36.4553],[139.7165,36.4593],[139.7076,36.4593],[139.6978,36.4572],[139.688,36.4594],[139.6648,36.4615],[139.6701,36.4566],[139.6826,36.4476],[139.7005,36.4329],[139.7048,36.4285],[139.7076,36.4209],[139.7106,36.4189],[139.7327,36.4172],[139.7451,36.4135],[139.7497,36.4066],[139.7548,36.4025],[139.7611,36.4018],[139.7638,36.405],[139.7606,36.4142],[139.7606,36.4175],[139.7782,36.4217],[139.7848,36.4246],[139.7814,36.4367],[139.7656,36.4473]]]}},{"type":"Feature","properties":{"id":9030},"geometry":{"type":"Polygon","coordinates":[[[139.9874,36.6084],[139.9744,36.6186],[139.965,36.6335],[139.9624,36.6392],[139.9618,36.6447],[139.9575,36.6593],[139.9574,36.6652],[139.9532,36.6826],[139.9528,36.6875],[139.9504,36.6919],[139.9408,36.7018],[139.9338,36.7075],[139.9192,36.715],[139.9123,36.7207],[139.9088,36.7249],[139.8914,36.7255],[139.8733,36.7289],[139.8652,36.7295],[139.8548,36.7315],[139.8469,36.7244],[139.8423,36.7147],[139.8417,36.7101],[139.8389,36.7067],[139.8241,36.706],[139.8144,36.7036],[139.8003,36.702],[139.7961,36.7001],[139.7895,36.6946],[139.7888,36.6926],[139.7931,36.6777],[139.7934,36.6712],[139.7952,36.6635],[139.7971,36.6494],[139.788,36.6379],[139.7795,36.631],[139.7766,36.6268],[139.7728,36.625],[139.7617,36.6238],[139.7499,36.6145],[139.7554,36.6082],[139.7568,36.6036],[139.7611,36.5963],[139.7682,36.5882],[139.7754,36.5889],[139.7768,36.5973],[139.782,36.5987],[139.8018,36.591],[139.8049,36.5884],[139.802,36.5772],[139.8028,36.5733],[139.8077,36.5653],[139.8161,36.5592],[139.8272,36.5609],[139.8307,36.5565],[139.8298,36.5523],[139.8258,36.5449],[139.8257,36.5411],[139.8281,36.5368],[139.8347,36.5305],[139.8365,36.5272],[139.8318,36.5194],[139.8226,36.5106],[139.8366,36.5031],[139.8392,36.5002],[139.8409,36.4932],[139.8452,36.4856],[139.8485,36.4821],[139.8637,36.4752],[139.8739,36.4759],[139.8783,36.4689],[139.8798,36.4617],[139.8976,36.4665],[139.9071,36.4685],[139.9096,36.4808],[139.9142,36.4857],[139.9233,36.486],[139.931,36.4828],[139.9439,36.479],[139.9706,36.4738],[139.9703,36.4924],[139.9727,36.4993],[139.9787,36.5014],[139.9883,36.5023],[140.0048,36.5019],[140.0069,36.5066],[140.0124,36.5125],[140.0132,36.5158],[140.0128,36.5371],[140.0102,36.5429],[140.0019,36.5501],[140.0022,36.5544],[140.0089,36.5632],[140.0082,36.5674],[140.0044,36.5731],[139.9999,36.5838],[139.9985,36.5897],[139.9905,36.6019],[139.9874,36.6084]]]}},{"type":"Feature","properties":{"id":9031},"geometry":{"type":"Polygon","coordinates":[[[139.7753,36.9039],[139.7847,36.8981],[139.7926,36.8951],[139.8021,36.887],[139.8055,36.8809],[139.8157,36.8683],[139.8194,36.8617],[139.8263,36.8541],[139.8454,36.837],[139.8541,36.8253],[139.8608,36.8181],[139.869,36.8108],[139.8739,36.7998],[139.8741,36.7959],[139.8679,36.788],[139.8678,36.7831],[139.8772,36.7756],[139.8898,36.7707],[139.8963,36.7671],[139.9051,36.7545],[139.9153,36.7458],[139.9211,36.7373],[139.9271,36.7334],[139.9323,36.7319],[139.9492,36.7292],[139.9537,36.7292],[139.9598,36.7313],[139.9642,36.7357],[139.9685,36.7421],[139.9703,36.7472],[139.9717,36.7583],[139.9744,36.7629],[139.9816,36.7703],[139.982,36.7771],[139.9801,36.788],[139.9838,36.7954],[139.9939,36.8026],[139.9884,36.806],[139.9806,36.8162],[139.9756,36.8204],[139.9588,36.8269],[139.9491,36.8367],[139.9456,36.8415],[139.9305,36.8539],[139.9245,36.8624],[139.9212,36.8654],[139.9163,36.8733],[139.9038,36.8835],[139.8935,36.8884],[139.8857,36.8932],[139.8592,36.9036],[139.8518,36.9076],[139.8425,36.9152],[139.8371,36.9223],[139.8222,36.922],[139.8111,36.9134],[139.7962,36.9054],[139.7885,36.9036],[139.7753,36.9039]]]}}]}